associatedTaxa,collectedBy,country,firstPoliticalUnit,habitat,identifiedBy,latestScientificName,locality,maximumEventDate,minimumEventDate,municipality,originalMethod,otherCatalogNumbers,recordNumber,secondPoliticalUnit,secondaryCollectors,typeStatus,verbatimCollectors,verbatimCoordinates,verbatimDateIdentified,verbatimElevation,verbatimEventDate,verbatimIdentification,verbatimLocality
N/A,E. A. Mearns,Congo Free State,N/A,N/A,J. Raynal,Cyperus maculatus Böck.,"""Rhino Camp,"" Bahr el Jebel",1910-02-03,1910-01-19,N/A,Typed,468360,2852,Lado Enclave,N/A,no type status,"Dr. EDGAR A. MEARNS, Collector",N/A,19.10.1971,N/A,"Jan. 19 to Feb. 3, 1910",Cyperus callistus Ridley,"""Rhino Camp,"" Bahr el Jebel, Lado Enclave, Congo Free State"
N/A,F. G. Overlaet,Belgian Congo,N/A,N/A,BÖRGE. PETTERSSON,Habenaria,[precise locality unknown],1924-00-00,1923-00-00,N/A,Typed,752356,s.n.,N/A,N/A,no type status,F. G. OVERLAET,N/A,19...... 84,N/A,1923-4,Habenaria,N/A
Dombeya mastersii and Olea hochstetteri,R. A. Maas Geesteranus,Kenya,Nyanza,"glade surrounded by rather open, tall forest, containing a.o. Dombeya mastersii and Olea hochstetteri; 2260 m s.m.",N/A,Pycreus segmentatus C.B.Cl.,"Nyanza Province, Londiani Distr., Tinderet Forest Reserve, Camp I, lat. 0° 5' S., long. 35° 27' E.",N/A,1949-06-14,N/A,Mix of Handwritten and Typed,1147852,4924,Londiani,N/A,no type status,R. A. Maas Geesteranus,"lat. 0° 5' S., long. 35° 27' E.",N/A,2260 m s.m.,14-VI 1949,Pycreus segmentatus C.B.Cl.,"Nyanza Province, Londiani Distr., Tinderet Forest Reserve, Camp I, lat. 0° 5' S., long. 35° 27' E."
N/A,J. M. Reitsma,Gabon,N/A,"Epiphytic orchid, growing in big clumps together. Flowers greenish-yellow. Leaves hard, succulent",Olga Kosovsky,Bulbophyllum scaberulum (Rolfe) Bolus var. scaberulum,"Primary rain forest, ca 6 km NW of Oveng, chantier Rougier Océan",N/A,1986-03-03,N/A,Typed,2310219,2013,N/A,B. Reitsma,no type status,J. M. et B. Reitsma,0 41 N x 11 07 E,2011,N/A,3-3-86,Bulbophyllum scaberulum (Rolfe) Bolus var. scaberulum,"Primary rain forest, ca 6 km NW of Oveng, chantier Rougier Océan. 0 41 N x 11 07 E"
N/A,Carvalho,GUINEÆ ÆQUATORIALIS,BIOCO,"Bosque secundario y terrenos incultos. Herbácea, 20-30 cm",C. Cebolla & Mª A. Rivas Ponce (UAM),Mariscus alternifolius Vahl,"Malabo, finca las Carboneras, 8 meters. Bosque secundario y terrenos incultos. Herbácea, 20-30 centimeters",N/A,1986-07-26,Malabo,Typed,Nº 2201108,2102,N/A,N/A,no type status,"Carvalho 2102, 26-VII-1986",32NMK7415,1995,8 m,26-VII-1986,Mariscus alternifolius Vahl,"«Malabo, finca las Carboneras, 32NMK7415, 8 m. Bosque secundario y terrenos incultos. Herbácea, 20-30 cm»"
N/A,Fernández Casas,GUINEA EQUATORIAL,BIOCO,márgenes de la pista,C. Cebolla & Mª A. Rivas Ponce,Agrostis manii (Hooker fil.) Stapf,"cumbre del pico Basilé, 32NMJ7396, 2870 meters, márgenes de la pista",N/A,1989-02-05,N/A,Typed,N° 2200806,11206,N/A,N/A,no type status,Fernández Casas,32NMJ7396,1993,2870 m,5-II-1989,Agrostis manii (Hooker fil.) Stapf,"cumbre del pico Basilé, 32NMJ7396, 2870 m, márgenes de la pista"
N/A,F. G. Overlaet,Belgian Congo,N/A,N/A,G. G. Nelsh,Scirpus mucronatus L.,[precise locality unknown],1924-00-00,1923-00-00,N/A,Typed,752378,s.n.,N/A,N/A,no type status,F. G. OVERLAET,N/A,1946,N/A,1923-4,Scirpus,N/A
N/A,C. J. P. Seegeler,ETHIOPIA,SHEWA,In full sun on lava rock.,G. J. H. Amshoff,Vernonia abyssinica Sch.Bip.,"c. 3 kilometers from Metahara, on road to Nazareth. In full sun on lava rock.",N/A,1972-10-23,N/A,Typed,2302805,2806,N/A,N/A,no type status,C.J.P. Seegeler,"c. 8°56' N, 39°55' E",1982,925m,23 October 1972,Vernonia abyssinica Sch.Bip.,"c. 3 km from Metahara, on road to Nazareth. In full sun on lava rock."
N/A,N/A,N/A,Sud-Kivu,Herbe,N/A,Cardus leptacanthus FRES,Musisi,N/A,2003-08-05,N/A,Typed,2257689,48,Kabare,N/A,no type status,N/A,N/A,N/A,N/A,05.08.2003,Cardus leptacanthus FRES,Musisi
N/A,J. M. Fay,Central African Republic,N/A,N/A,J. M. Fay,Burkea africana Hook.,Park Manovo-Gounda-St. Floris. vicinity of Camp Koumbala. prec: 1200 mm,N/A,1987-05-25,N/A,Typed,"No 1999188 | NCI# Wood Q67B/0065, Bark Q67B/0066, Root Q67B/0067, Leaves Q67B/0068",8017,N/A,N/A,no type status,J.M. Fay,08°29'N 21°12'E,N/A,elev: 600 m,25 May 1987,Burkea africana Hook.,Park Manovo-Gounda-St. Floris. vicinity of Camp Koumbala. prec: 1200 mm
N/A,P. C. M. Jansen,ETHIOPIA,HARERGE,"Herb, c. 1 m high. Stem whitish green. Leaves dark green above, whitish green beneath. Spines yellow. Involucre dark green. Disc flowers only, lilac red",C. C. H. Jongkind,Cirsium vulgare (Savi) Ten.,"around Damata Village, near Alemaya. Between Chat and Sorghum fields",N/A,1976-04-14,N/A,Typed,N° 2302849,5996,N/A,N/A,no type status,P.C.M. Jansen,"c. 9°24' N, 42°01' E",1987,2000m,14 April 1976,Cirsium vulgare (Savi) Ten.,"around Damata Village, near Alemaya. Between Chat and Sorghum fields. c. 9°24' N, 42°01' E Alt: 2000m"
N/A,Amanda Koch,Kenya,Kajiado,Dry bushland,Patrick Mutiso,Acacia reficiens misera (Vatke) Brenan,Kajiado District:Oloishobor,N/A,2003-10-22,N/A,Typed,2309478,AK61,N/A,Wilson Sakuda,no type status,"Amanda Koch, Wilson Sakuda, AK61, October 22, 2003",N/A,"November 02, 2003",N/A,"October 22, 2003",Acacia reficiens misera (Vatke) Brenan,Kenya: Kajiado District:Oloishobor
N/A,J. Lebrun,Congo Belge,Kibali-Ituri,N/A,C. A. Smith,Albizzia gummifera (Gmel.),Congo Belge. Kibali-Ituri (Uélé-Itimbiri),N/A,1931-03-00,N/A,Typed,867368,2409,Uélé-Itimbiri,N/A,no type status,J. Lebrun,N/A,N/A,N/A,Mars 1931,Albizia gummifera (Gmel.),Congo Belge. Kibali-Ituri (Uélé-Itimbiri)
N/A,Verdcourt,Kenya,N/A,N/A,N/A,Digitaria pennata (Hochst.) Chiov,"Tsavo - Mtito Andei, Kenya",N/A,1957-12-25,N/A,Mix of Handwritten and Typed,1559644,2077,N/A,N/A,no type status,Verdcourt no 2077,N/A,N/A,N/A,25.12.1957,Digitaria pennata (Hochst.) Chiov,"Tsavo - Mtito Andei, Kenya"
N/A,H. Callens,Congo Belge,N/A,foret secondaire,H. Callens,Gaertnera paniculata,Kisantu,N/A,1958-07-00,Kisantu,Typed,1584065|1732587,s.n.,N/A,N/A,no type status,HERBIER H. CALLENS s.j.,N/A,1/9/58,N/A,Juillet 1958,Gaertnera paniculata,Kisantu
N/A,G. Troupin,Congo,Kivu,Forêt ombrophile. Catena 1.540 m,N/A,Mikania cordata (BURM.f.) B.L.ROBINS,"Vers km 110,route Kavumu-Walekale; Irangi,réserve IRSAC",N/A,1958-02-10,N/A,Typed,1543353,6333,Kalehe,N/A,no type status,HERBIER G. TROUPIN,N/A,N/A,850 - 900 m,10/2/1958,COMPOSIT. Mikania cordata (BURM.f.) B.L.ROBINS,"Vers km 110,route Kavumu-Walekale; Irangi,réserve IRSAC"
N/A,G. McPherson,GABON,OGOOUE-IVINDO,Arbre 15 m; fruit brun; voucher de NCI; LF:Q66S-0223-G; BK:Q66S-0224-H; WD:366S-0225-I,Wilks & McPherson,Corynanthe mayumbensis (R. Good) N. Hallé,"Réserve de la Lopé, au sud d'Ayem; chantier SOFORGA",N/A,1989-03-20,N/A,Typed,2040859,13781,N/A,N/A,no type status,Gordon McPherson,0°25'S; 11°30'E,1989,c. 200 m,20 Mars 1989,Corynanthe mayumbensis (R. Good) N. Hallé,"Réserve de la Lopé, au sud d'Ayem; chantier SOFORGA. 0°25'S; 11°30'E c. 200 m"
"Guibourtia demeusei, Berlinia sp., Bombax sp.",J. M. Fay,CAMEROON,N/A,"Abundant understory tree, 5 m, 10 cm diam.",Ake Assi,Millettia zechiana Harms,"On the Sangha River across from Ndakan gorilla study area. In seasonally flooded forest with Guibourtia demeusei, Berlinia sp., Bombax sp.",N/A,1988-03-04,N/A,Typed,NCI# Leaves Q67P/0545-C | Wood Q67P/0546-H | Bark Q67P/0547-I | Root Q67P/0548-J,8294,N/A,N/A,no type status,J. M. Fay 8294,02°20'N 16°08'E,1988,385 m,4 March 1988,Millettia zechiana Harms,"On the Sangha River across from Ndakan gorilla study area. In seasonally flooded forest with Guibourtia demeusei, Berlinia sp., Bombax sp."
N/A,F. A. Melville,Annobon,N/A,"Clearing in wood, scrambling over herbage.",N/A,Phaseolus lunatus L.,"South West of Crater Lake. Clearing in wood, scrambling over herbage.",N/A,1959-07-29,N/A,Mix of Handwritten and Typed,1624518,199,N/A,N/A,no type status,F.A.Melville,N/A,N/A,"1,500ft.",29.vii.1959,Phaseolus lunatus L.,"South West of Crater Lake. Clearing in wood, scrambling over herbage."
N/A,R. L. Piemeisel,Kenya,N/A,N/A,N/A,N/A,"Muthaiga, near Nairobi; alt. 1,700 meters",1927-07-01,1927-06-28,Muthaiga,Typed,2074762,2,N/A,L. W. Kephart,no type status,"R. L. PIEMEISEL, L. W. KEPHART",N/A,N/A,"1,700 meters","June 28-July 1, 1927",N/A,"Muthaiga, near Nairobi; alt. 1,700 meters"
N/A,A. Léonard,ZAIRE,Masisi,Vieille forêt secondaire,B. Sonké,Oxyanthus speciosus DC. subsp. indet.,N/A,N/A,1959-02-19,N/A,Mix of Handwritten and Typed,2086095,3149,N/A,N/A,no type status,A. Léonard,N/A,1989,1900m,19/2 1959,Oxyanthus speciosus DC. subsp. indet.,N/A
N/A,R. P. KLAINE,Gabon,N/A,N/A,N/A,Klaineanthus gabonii Pierre,environs de LIBREVILLE,N/A,1904-03-25,N/A,Handwritten,3200|781173,s.n.,N/A,N/A,no type status,récolté par le R. P. KLAINE,N/A,N/A,N/A,25 Mars 1904,Klaineanthus gabonii Pierre,Herbier des environs de LIBREVILLE
N/A,J. T. Allen,Ghana,Volta Region,Anti-asthmatic; treating coughs and colds; antipyretic; for dysentery. Applied topically-arthritis,N/A,Dissotis rotundifolia (Sm.) Triana,Center for Scientific Research into Plant Medicine (CSRPM) farm,N/A,1996-09-23,Larteh,Typed,2200652,41,N/A,N/A,no type status,James T. Allen 41,N/A,N/A,N/A,"September 23, 1996",Dissotis rotundifolia (Sm.) Triana,Center for Scientific Research into Plant Medicine (CSRPM) farm
N/A,J. E. Andoh,Gold Coast,Ashanti Prov.,Medium sized tree 30ft. high and 2ft. girth. Planted in 1933,N/A,Chrysophyllum perpulchrum Mildbr.,Kumasi Township Forest Reserve,N/A,1952-03-00,Kumasi,Typed,1601919,5632,Kumasi District,N/A,no type status,J.E.Andoh,N/A,N/A,N/A,March 1952,Chrysophyllum perpulchrum Mildbr.,Kumasi Township Forest Reserve
N/A,J. Nemba,CAMEROON,SOUTHWEST,"Liana, buds green, flowers white, leaves green",D. W. Thomas,Donella welwitschii Pierre ex Engl.,Secondary growth and old growth forest along Kumba-Mamfe road at mile 14 Lkiliwindi,N/A,1987-06-15,N/A,Typed,"NCI# Leaves, Stems Q66Q/0052-L|N° 2041320",520,N/A,D. W. Thomas,no type status,J. Nemba & D.W. Thomas,04°44'N 09°29'E,1987,200 m,15 June 1987,Donella welwitschii Pierre ex Engl.,Prov. SOUTHWEST: Secondary growth and old growth forest along Kumba-Mamfe road at mile 14 Lkiliwindi. 04°44'N 09°29'E 200 m
N/A,J. Deaw,Ghana,N/A,"A shrub about 6' high. Flowering pedicels fascicled. Fruit ellipsoid, calyx persistent at the apex",A. A. Enti,Eugenia coronata,Accra,N/A,1971-10-04,Accra,Typed,1753421,Sp 283,N/A,N/A,no type status,J. Deaw,N/A,1971,N/A,4/10/71,Eugenia coronata,Accra
N/A,G. Schweinfurth,Colonia Eritrea,N/A,N/A,N/A,Rumex nervosus V.,Saganéiti pente du Nord au-dessous d'Addi-Abbour,N/A,1892-05-01,N/A,Typed,N/A,1814,N/A,D. Riva,no type status,colligerunt G. Schweinfurth et D. Riva,N/A,N/A,Altitudo 2300/2100 m,1 mai 1892,Rumex nervosus V.,Saganéiti pente du Nord au-dessous d'Addi-Abbour
Combretum schumannii,R. B. Faden,Kenya,K7,Coral rag dry forest with Combretum schumannii dominant,J. O. Kokwaro,Toddaliopsis sansibarensis (Engl.) Engl.,"Chale Peninsula, Coral rag dry forest with Combretum schumannii dominant",N/A,1977-03-07,N/A,Typed,2153520,77/711,Kwale District,A. J. Faden,no type status,R.B. & A.J. Faden,"4°26'S, 39°32'30""E",N/A,0-5 m,7 March 1977,Toddaliopsis sansibarensis (Engl.) Engl.,"Kenya, K7, Kwale District, Chale Peninsula, ca. 4°26'S, 39°32'30""E. Alt 0-5 m. Coral rag dry forest with Combretum schumannii dominant"
N/A,F. Szafranski,Zaïre,Haut-Zaïre,bas fond marécageux près de la route aux environs de l'usine SOTEXKI,N/A,Floscopa glomerata (Roem. et Schult.) Hassk.,bas fond marécageux près de la route aux environs de l'usine SOTEXKI,N/A,1988-02-05,Isiro,Typed,2054694,1378,Haut-Uele,N/A,no type status,F. SZAFRANSKI,N/A,N/A,N/A,5.2.1988,Floscopa glomerata (Roem. et Schult.) Hassk.,"Haut-Zaïre, S-Rég. Haut-Uele, Isiro"
N/A,F. W. H. Migeod,"AFRICA. Bamenda, British Cameroons",Bamenda,Shrub very thorny and spinous. Flower not seen. Fruit pale yellow 1 in. diam. soft.,M. Nee,Solanum aculeatissimum Jacq.,"Alt.5,500 ft.",N/A,1928-01-26,N/A,Mix of Handwritten and Typed,1441275,394,British Cameroons,N/A,no type status,F.W.H.Migeod,N/A,"Dec. 3,1997","5,500 ft.",26. 1. 1928,Solanum sp.,"Alt.5,500 ft."
N/A,T. C. Wrigley,Annobon,N/A,Open woodland. Small sepals; green petals; white filament tube with 10 stamens,A. W. Exell,Cassipourea annobonensis Mildbr. ex Alston,Ridge west of Crater Lake,N/A,1959-07-18,N/A,Mix of Handwritten and Typed,1624568,52,N/A,F. A. Melville,no type status,T.C. Wrigley 52,N/A,1961,1200ft.,18 July 1959,Cassipourea annobonensis Mildbr. ex Alston,ANNOBON: Ridge west of Crater Lake
Podocarpus + Juniperus,William Burger,Ethiopia,Harar,"Forming bush 2.5m tall under Podocarpus, etc.",WB/Kew!,Rubus apetalus Poir,Near G. Ades ±18Km East of Hirna along new highway. Steep slopes with remnant Podocarpus + Juniperus forest,N/A,1962-05-27,N/A,Mix of Handwritten and Typed,N/A,1767,N/A,N/A,no type status,William Burger,9°17'N × 41°13'E,N/A,9200 feet,27 May 1962,Rubus apetalus Poir,Near G. Ades ±18Km E. of Hirna along new hwy. Steep slopes with remnant Podocarpus + Juniperus forest Alt. 9200 feet (9°17'N × 41°13'E)
N/A,J. D. Sauer,Kenya,Coast Province,"Beach ridge, shallow open coast",N/A,Aerva lanata (L.) Juss,"Beach ridge, shallow open coast. Bumburri Beach, N of Mombasa. near Mombasa",N/A,1963-06-15,N/A,Typed,1595870,3914,Kwale District,N/A,no type status,"J.D. Sauer, no. 3914",N/A,N/A,N/A,15 June 1963,Aerva lanata (L.) Juss,"Beach ridge, shallow open coast. Bumburri Beach, N of Mombasa. Coast Province, Kwale District, near Mombasa"
N/A,C. Vigne,Gold Coast,N/A,N/A,N/A,Enantia polycarpa Engl. + Diels,[precise locality unknown],N/A,N/A,N/A,Typed,839434,4086,N/A,N/A,no type status,C. Vigne,N/A,N/A,N/A,s.d.,Enantia polycarpa Engl. + Diels,N/A
N/A,Eman Addo,Ghana,N/A,N/A,N/A,Uvaria versicolor Pierre,[precise locality unknown],N/A,1999-00-00,N/A,Typed,2325255,1026,N/A,N/A,no type status,Eman Addo,N/A,N/A,N/A,1999,Uvaria versicolor Pierre,N/A
N/A,A. A. Enti,Ghana,N/A,"A climber among grasses. Flower white, conspicuous. Latex present",A. A. Enti,Pergularia daemia,Awutu - Winneba Road,N/A,1971-11-22,N/A,Typed,1253349,Sp 398,N/A,N/A,no type status,A.A. Enti,N/A,19 71,N/A,22/11/19 71,Pergularia daemia,Awutu - Winneba Road
N/A,D. W. Thomas,CAMEROON,SOUTHWEST,"Understorey tree, 5 m tall",D. W. Thomas,Cola flavovelutinia K. Schum,PROV. SOUTHWEST: Korup National Park. Primary rain forest,N/A,1987-00-00,N/A,Typed,"NCI# Leaves, twigs Q66P/0029-T|N° 2041255",6850,N/A,N/A,no type status,D.W. Thomas 6850,05°02'N 08°50'E,1987,60 m,1987,Cola flavovelutinia K. Schum,PROV. SOUTHWEST: Korup National Park. Primary rain forest 05°02'N 08°50'E 60 m
N/A,S. A. Thompson,CAMEROON,Sud-Ouest,Erect herb up to 70 cm tall; growing on wet rocks; flowers purple,N/A,Impatiens macroptera Hook.f.,Bakingili; Trail up Mt. Cameroon,N/A,1984-07-09,Bakingili,Typed,N° 2086046,1522,Fako,N/A,no type status,Sue A. Thompson 1522,"4°04'N, 9°02'E",N/A,50-250 m,9 July 1984,Impatiens macroptera Hook.f.,"Bakingili; 4°04'N, 9°02'E. Alt. 50-250 m. Trail up Mt. Cameroon"
N/A,D. Wiens,Kenya,Kitui,Thornbush,N/A,Englerina tenuifolia (Engl.) Gilli,4 km north of Kangondi on road to Embu,N/A,1971-12-16,N/A,Typed,1861166,4484,N/A,N/A,no type status,D. Wiens,N/A,N/A,4500',16-12-71,Englerina tenuifolia (Engl.) Gilli,4 km n. of Kangondi on road to Embu
N/A,S. A. Thompson,CAMEROON,Sud-Ouest,Tree ca 2-3 m tall; bark with light blotches; flowers white,N/A,Avicennia africana P. Beauv.,Bakingili; Seaside,N/A,1984-06-03,Bakingili,Typed,N° 2088074,1333,Fako,John E. Rawlins,no type status,Sue A. Thompson & John E. Rawlins,"4°04'N, 9°02'E",N/A,0 m,3 June 1984,Avicennia africana P. Beauv.,"Bakingili; 4°04'N, 9°02'E. Alt. 0 m. Seaside."
N/A,G. Troupin,N/A,Kivu,forêt ombrophile. Catena II.500 m,N/A,Glyphaea brevis (SPRENG.) MONACHINO,"Vers Km 110 route Kavumu-Walikale; Irangi, réserve IRSAC",N/A,1958-02-18,N/A,Mix of Handwritten and Typed,1548374,6347,Kalehe,N/A,no type status,HERBIER G. TROUPIN,N/A,N/A,850 - 900 m,18.2.1958,Glyphaea brevis (SPRENG.) MONACHINO,"Vers Km 110 route Kavumu-Walikale; Irangi, réserve IRSAC"
N/A,A. Pappi,ERITREA,ASSAORTA,N/A,T. M. Upson,Lavandula pubescens Decaisne,LUNGO IL TORRENTE HADDAS,1902-08-15,1902-08-14,N/A,Mix of Handwritten and Typed,2652,2627,N/A,N/A,no type status,Legit: A. Pappi,N/A,2/4/1996,N/A,14-15.VIII.1902,Lavandula pubescens Decaisne,LUNGO IL TORRENTE HADDAS
N/A,William Burger,Ethiopia,Harar,Trees 8-10m tall. ± 8600 feet taller on steep slopes with mixed forest,WB,Juniperus procera Hochst ex Endl.,N.W face of Gara Mulatta Mtn. ca. 50 km due N of Harar,N/A,1962-02-14,N/A,Mix of Handwritten and Typed,1632855,1453,N/A,N/A,no type status,William Burger,9°16'N+41°43'E,N/A,2500 - 3000 m,"14 Feb, 1962",Juniperus procera Hochst ex Endl.,N.W face of Gara Mulatta Mtn. ca. 50 km due N of Harar 9°16'N+41°43'E alt 2500 - 3000 m
N/A,B. D. Doku,GHANA,VOLTA REGION,"A tree, to 40ft high, 6ft girth, wood yellow or brownish yellow",N/A,TERMINALIA GLAUCESCENS,"HO, VOLTA REGION, GHANA",N/A,1972-12-06,HO,Handwritten,N° 2007210|GC,1,N/A,N/A,no type status,B.D. Doku,N/A,1972,N/A,6/12/1972,TERMINALIA GLAUCESCENS,"HO, VOLTA REGION, GHANA"
N/A,Schimper,Abyssinia,N/A,N/A,N/A,Ipomoea hederacea Chois.,Amora Gettel,N/A,1863-11-24,N/A,Handwritten,373793,1467,N/A,N/A,no type status,Amora Gettel Schimper,N/A,N/A,N/A,24. 11. 63,Ipomoea hederacea Chois.,Amora Gettel
N/A,D. W. Thomas,CAMEROON,SOUTHWEST,"Tree, 15 m tall, with fluted trunk",D. W. Thomas,Tapura africana Oliv.,Degraded forest at Barombi Kang,N/A,1987-05-18,Kumba,Typed,NCI# Bark Q66P/0125-Y|Leaves Q66P/0261-W|№ 2040825,6988,N/A,M. Etuge,no type status,D.W. Thomas & M. Etuge,04°36'N 09°27'E,1987,150 m,18 May 1987,Tapura africana Oliv.,"PROV. SOUTHWEST: Degraded forest at Barombi Kang, Kumba"
N/A,E. A. Mearns,British East Africa,N/A,N/A,N/A,Evolvulus alsinoides L.,"Vicinity of Thika, British East Africa; altitude about 1350 meters",1909-09-07,1909-09-06,N/A,Typed,468387,1114,N/A,N/A,no type status,"Dr. EDGAR A. MEARNS, Collector",N/A,N/A,about 1350 meters,"September 6 and 7, 1909",Evolvulus alsinoides L,"Vicinity of Thika, British East Africa; altitude about 1350 meters"
N/A,G. Mac Naughton,Kenya,N/A,N/A,N/A,Combretum Schumannii Engl.,[precise locality unknown],N/A,N/A,N/A,Typed,856357,580,N/A,N/A,no type status,G. Mac Naughton,N/A,N/A,N/A,N/A,Combretum Schumannii Engl.,N/A
"Irvingia smithii, Guibourtia demeusei, Berlinia sp.",J. M. Fay,CAMEROON,N/A,"Liana, common on river bank. Young fruits with pinkish tinge",Ake Assi,Combretum smeathmannii G. Don,"Along the Sangha River adjacent to the island of Kilona. In riparian forest adjacent to seasonally flooded forest with Irvingia smithii, Guibourtia demeusei, Berlinia sp., Prec: 1400 mm",N/A,1988-02-28,N/A,Typed,2041248|NCI# Stem Q67F/0466-T|Leaves Q67F/0467-U,8271,N/A,N/A,no type status,J. M. Fay 8271,02°21'N 16°09'E,1988,385 m,28 February 1988,Combretum smeathmannii G. Don,"Along the Sangha River adjacent to the island of Kilona. In riparian forest adjacent to seasonally flooded forest with Irvingia smithii, Guibourtia demeusei, Berlinia sp., Prec: 1400 mm 02°21'N 16°09'E 385 m"
Thespesia populnea and Sophora occidentalis,D. D. Soejarto,Ghana,Greater Accra,"Straggling shrub, in association with Thespesia populnea and Sophora occidentalis. Fruits green. Forming clumps just behind beach, on sandy soil. Common",N/A,Diospyros tricolor Hiern.,"Ghana: Greater Accra Province, Bortianor village, 20 kilometers West of Accra, sea coast",N/A,1978-04-01,Bortianor village,Typed,1842606,4793,N/A,N/A,no type status,D.D. Soejarto,N/A,N/A,N/A,"April 1, 1978",Diospyros tricolor Hiern.,"Ghana: Greater Accra Province, Bortianor village, 20 km. West of Accra, sea coast"
N/A,N. Reyna R.,Peru,Loreto,"""Carahuasca amarilla"" - arbol, bosque húmedo tropical",D. R. Simpson,Guatteria scalarinervia D.R. Simpson,Santa María - Río Nanay,N/A,1967-12-15,Alto Nanay,Typed,1751405|229-I,40,Maynas,N/A,HOLOTYPE,Narciso Reyna R.,N/A,N/A,150 m,15 diciembre 1967,Guatteria scalarinervia D.R. Simpson,"Santa María - Río Nanay, distr. Alto Nanay, dept. Loreto, prov. Maynas"
N/A,M. O. Dillon,Peru,Arequipa,"Erect, glutinous shrub to 0.75 m.; flws. red.",N/A,Galvezia elisensii M.O. Dillon & Quipuscoa,"Lomas of Atiquipa, ca. 10.5 km N of turn-off to Atiquipa. KM 584 S of Lima. ca. 150-200 meters",N/A,1983-11-01,N/A,Typed,N° 1940835,3776,Caraveli,D. Dillon,HOLOTYPE,M. O. Dillon & D. Dillon,N/A,N/A,ca. 150-200 m.,1 Nov 1983,Galvezia fruticosa Gmel.,"Lomas of Atiquipa, ca. 10.5 km N of turn-off to Atiquipa. KM 584 S of Lima. ca. 150-200 m."
Achoornea peruviana Poepp.,N/A,N/A,N/A,N/A,F. Pax,Tetrorchidium rubrivenium var. genuinum Müll. Arg.,Tocache. Huallaga,N/A,1830-00-00,N/A,Mix of Handwritten and Typed,875422,1915,N/A,N/A,Isosyntype,N/A,N/A,N/A,N/A,1830,Tetrorchidium rubrivenium Popp. & Endl. var. genuinum Müll. Arg.,Tocache. Huallaga
N/A,J. Campos,PERU,Cajamarca,Trepadora; flor amarilla,W. R. Anderson,Amorimia camporum W.R. Anderson,Entre La Catagua y Tablón,N/A,1996-02-09,Distrito Chirinos,Typed,N° 2296033,2490,San Ignacio,O. Díaz,ISOTYPE,José Campos y O. Díaz 2490,05°19'S 078°47'W,2006,550 - 650 m,9 Febrero 1996,Amorimia camporum W.R. Anderson,Entre La Catagua y Tablón
N/A,Tafalla,Peru,N/A,N/A,A. Mesa,Nolana spathulata Ruiz & Pav.,[precise locality unknown],1788-00-00,1778-00-00,N/A,Typed,845155,s.n.,N/A,N/A,ISOLECTOTYPE,Ruiz et Pavón,N/A,1981,N/A,(1778-1788),Nolana spathulata R & P,N/A
N/A,C. Díaz,PERU,Amazonas,Liana con frutos verdes. Pecúnculos largos,B. Ståhl,Symplocos ovata Ståhl,"Camporedondo, Tullanya, Pascana ""Pajaro Tigre""",N/A,1996-12-04,Camporedondo,Typed,N° 2296023,8808,Luya Province,A. Peña,ISOTYPE,Camilo Díaz y Antonio Peña,N/A,2010,2250-2360 m,4 Diciembre 1996,ERICACEAE,"Camporedondo, Tullanya, Pascana ""Pajaro Tigre"""
Alstroemeria purpurea Ruiz & Pav.,H. Ruiz,Peru,N/A,N/A,Hofreiter,Bomarea purpurea (Ruiz & Pavón) Herb.,Pillao,1788-00-00,1778-00-00,N/A,Mix of Handwritten and Typed,29201|916119,9/58,N/A,J. Pavón,ISOTYPE,Ruiz et Pavón,N/A,2007,N/A,(1778-1788),Bomarea purpurea (R & P) Herb.,Pillao
N/A,V. Quipuscoa S.,PERU,Amazonas,Bosque montano fragmentado,Maximilian Weigend,Lithospermum leymebambense WEIGEND & NÜRK,"Carretera a Celendín, entre Ishpingo - Pomacocha. Bosque montano fragmentado.",N/A,1998-08-20,Leymebamba,Typed,2211679,1378,Chachapoyas,A. Sagástegui A.|S. Leiva G.|M. Bejarano C.,Isotype,"V. Quipuscoa S., A. Sagástegui A., S. Leiva G. & M. Bejarano C.",N/A,September 2006,2800-3000 m,20 agosto 1998,Lithospermum cinerascens (A.DC.) Johnst.,"Carretera a Celendín, entre Ishpingo - Pomacocha. Bosque montano fragmentado."
N/A,L. Williams,PERU,SAN MARTIN,forest,D. Giraldo-Cañas,Marcgraviastrum mixtum (Triana & Planch.) Bedell,SAN ROQUE,1930-02-00,1930-01-00,SAN ROQUE,Typed,624474|65813,6999,N/A,N/A,HOLOTYPE,LLEWELYN WILLIAMS,N/A,2010,ALT. 1350-1500 M.,"JAN.-FEB., 1930",Norantea curva Macbr.,SAN ROQUE
Norantea macroscypha Gilg,H. Ruiz,Peru,N/A,N/A,D. Giraldo-Cañas,Marcgraviastrum obovatum (G.Don) Bedell,Chacahuasi,1788-00-00,1778-00-00,N/A,Typed,843295,s.n.,N/A,J. Pavón,ISOTYPE,Ruiz et Pavón,N/A,2010,N/A,(1778-1788),Norantea obovata (R & P) G. Don,Chacahuasi
Norantea obovata G. Don,H. Ruiz,Peru,N/A,N/A,J. Giraldo-Cañas,Marcgraviastrum obovatum (G. Don) Bedell,in vice-regno Peruviano et Chilensi,1788-00-00,1778-00-00,N/A,Mix of Handwritten and Typed,842882,s.n.,N/A,Pavón,ISOTYPE,Ruiz et Pavón,N/A,2010,N/A,(1778-1788),Marcgravia obovata Fl. Peruv. ined.,in vice-regno Peruviano et Chilensi
N/A,R. B. Foster,PERU,Huánuco,"Shrub, 3 m; large white stigma; fruit turning yellow, 3 parted",M. J. Huft,Acidoton venezolanus (Pax.& Hoffm.) Webster,Puerto Inca to Sungaro. Foot trail between Río Pachitea and Río Sungaro. Forested low hills and ravines,N/A,1982-09-13,N/A,Typed,1921102,8752,Pachitea,N/A,no type status,Robin B. Foster,"75°00'W, 9°18'S",1983,250-300 m,13 Sept. 1982,Acidoton venezolanus (Pax.& Hoffm.) Webster,"Puerto Inca to Sungaro. Foot trail between Río Pachitea and Río Sungaro. Forested low hills and ravines. Alt. 250-300 m. 75°00'W, 9°18'S"
N/A,J. Schunke Vigo,Perú,San Martín,"Liana 8-9 m long ""Murcuhuasca"" Medicinal plant used for rheumatism",J. A. Lombardi,Tontelea attenuata Miers,"Quebrada Huicte (río Huallaga), in tall forest, 529 meters altitude",N/A,1964-05-27,N/A,Typed,1751666,6505,N/A,N/A,no type status,José Schunke Vigo,N/A,VI/1999-2000,529 m,27 May 1964,Hippocrateaceae Salacia Tontelea or Cheiloclinium,"Quebrada Huicte (río Huallaga), in tall forest, 529 m alt"
N/A,M. Rimachi Y.,PERU,LORETO,marginal forest,A. Chanderbali,Endlicheria anomala (Nees) Mez,"Río Ucayali, Quebrada de Aucayacu, above Genaro Herrera, marginal forest, ""muena,"" 8 meters, fr. green",N/A,1979-02-08,Dtto. Saquena,Typed,2055606,4268,Requena,N/A,no type status,Manuel Rimachi Y.,N/A,2001,8 m,"February 8, 1979",Nectandra krukovii (A.C. Smith) Kosterm.,"Río Ucayali, Quebrada de Aucayacu, above Genaro Herrera, marginal forest, ""muena,"" 8 m, fr. green"
N/A,S. Flores P.,PERU,LORETO,BOSQUE SECUNDARIO 35 Años,T. PLOWMAN,Poraqueiba SERICEA TUL.,AMPIYACU-PEVAS,N/A,1982-07-00,N/A,Mix of Handwritten and Typed,N/A,95(P1-2),MAYNAS,N/A,no type status,COLECCION DENDROLOGICA: SALVADOR FLORES P.,N/A,1985,100 m.s.n.m.,Julio/82,Poraqueiba SERICEA TUL.,AMPIYACU-PEVAS
N/A,Percy Núñez,PERU,CUZCO,Herb 0.6 m; fruits green,M. J. Huft,Euphorbia heterophylla L.,"Quillabamba, Salespampa",N/A,1986-10-29,Quillabamba,Typed,N/A,6330,La Convención,S. Walsh,no type status,Percy Núñez & S. Walsh,N/A,1987,1110 m,29 October 1986,Euphorbia heterophylla L.,"Quillabamba, Salespampa"
N/A,Jose Schunke,PERU,San Martin,"Arbusto de 1.5-2 m., flores strong reddish orange, sepalos dark red, frutos dark red, de 1 cm. de largo, por 7 mm. de diametro, carnoso. En bosque secundario, con abundante luz solar.",J. Dwyer,Hamelia patens Jacq.,"San Juan de Pacaizapa, km. 72 carretera Tarapoto-Moyobamba",N/A,1977-05-30,Alonso de Alvarado,Typed,1872133,9560,Lamas,N/A,no type status,Jose Schunke,N/A,1980,1000-1050 m.,30 Mayo 1977,Hamelia patens Jacq.,"Provincia: Lamas; Distrito: Alonso de Alvarado. San Juan de Pacaizapa, km. 72 carretera Tarapoto-Moyobamba. Alt. 1000-1050 m."
N/A,G. Moore,PERU,Loreto,"Tree of 20m. Important medicinal plant. The ""milk"" from the bark is drunk",William C. Burger,Ficus maxima P. Miller,"Quistococha, 14km north of Iquitos, 600m elevation",N/A,1981-08-18,N/A,Mix of Handwritten and Typed,№ 1023146,138,N/A,L. Luna|J. Ruiz,VOUCHER SPECIMEN,"G.Moore,L.Luna,J.Ruiz",UTM grid:,1982,600m elev,18-8-81,"Ficus ""Oje"" MORACEAE","Quistococha, 14km north of Iquitos, 600m elev"
N/A,E. P. KILLIP,Peru,Junín,dense forest,N/A,Psychotria racemosa (Aubl.) Willd.,"Cahuapanas, on Río Pichis",N/A,1929-07-20,N/A,Typed,607534,26721,N/A,A. C. SMITH,no type status,"E. P. KILLIP, A. C. SMITH",N/A,N/A,about 340 meters,"July 20, 1929",Psychotria racemosa (Aubl.) Willd.,"Dept. Junín: Cahuapanas, on Río Pichis; alt. about 340 meters; dense forest"
N/A,M. O. Dillon,Peru,Piura,Shrubs to 1 m; flowers yellow,P. Fryxell,Wissadula grandifolia Baker ex Fusby,ca. 2 kilometers N of Canchaque,N/A,1991-07-22,Canchaque,Typed,№ 2119563,6310,Huancabamba,I. Sánchez V.,no type status,M. O. Dillon and I. Sánchez V.,[5°24'S; 79°36'W],1993,ca. 1450 m,22 Jul 1991,Wissadula grandifolia Baker ex Fusby,ca. 2 km N of Canchaque
N/A,J. F. Macbride,PERU,N/A,Sunny brushy slope. Open brushy 4-5 ft,N/A,Croton Baillonianus,CUEVA GRANDE ESTACION NEAR POZUZO,N/A,1923-06-23,N/A,Typed,535840,4806,N/A,N/A,no type status,J. FRANCIS MACBRIDE,N/A,N/A,ABOUT 3500 FEET,"JUNE 23, 1923",Croton Baillonianus,CUEVA GRANDE ESTACION NEAR POZUZO
N/A,A. Sagástegui,Peru,Cajamarca,Ladera abierta,C. Aedo,Geranium chilloense Kunth,"Jalca, Provincia Contumazá, Dpto. Cajamarca",N/A,1977-05-26,N/A,Mix of Handwritten and Typed,1684365,N/A,Contumazá,N/A,no type status,A. Sagástegui A.,N/A,2007,3250,26-V-1977,Geranium chilloense Kunth,"Jalca, Provincia Contumazá, Dpto. Cajamarca"
N/A,J. Mostacero L.,Peru,Cajamarca,Ladera al borde de carretera,M. J. Huft,Dalechampia aristolochiifolia Kunth,La Pucarilla (Socota-San Andrés),N/A,1986-11-14,N/A,Typed,199382,1640,Cutervo,S. Leiva G.|F. Mejía C.|F. Peláez P.|J. Guevara B.,no type status,"J. Mostacero L., S. Leiva G., F. Mejía C., F. Peláez P., J. Guevara B.",N/A,1992,2450 m.s.m.,14-XI-1986,Dalechampia aristolochiifolia Kunth,La Pucarilla (Socota-San Andrés)
,,,,,,,,,,,,,,,,,,,,,,,
N/A,G. Klug,Peru,Loreto,"""Huairuru colorado"". Tree 18 m. high; fls. yellow",H. Harms,Batesia floribunda Benth.,"Mishuyacu, near Iquitos, forest",1929-11-00,1929-10-00,N/A,Mix of Handwritten and Typed,N/A,660,N/A,N/A,no type status,"G. KLUG, Collector",N/A,N/A,100 meters,"October-November, 1929",Batesia floribunda Benth.,"Dept. Loreto: Mishuyacu, near Iquitos, alt. 100 meters; forest"
N/A,T. R. Dudley,Peru,Ayacucho,"Parasitic; foliage yellowish-green; calyx bright orange; fr. translucent pink, waxy in dense and isolated, 40-50 ft. high elfin hepatic forest at timberline",Job Kuijt,Dendrophthora sp.,"eastern Massif of the Cordillera Central opposing the Cordillera Vilcabamba between Tambo San Miguel, Ayna and the Hacienda Luisiana, Punccu camp at 3220 meters, c. 45 kilometers walking distance SW from the Hacienda Luisiana and the Apurimac River; c. 30 kilometers from the Hacienda Santa Rosa; c. 10 kilometers from Tambo",N/A,1968-08-24,N/A,Typed,1721727,12063,La Mar,N/A,no type status,T. R. Dudley,c. 73°53'W; 12°45'S,18 Dec. 1984,3220 meters,24 Aug. 1968,Dendrophthora mesembryanthemifolia Urban,"Prov. La Mar, Dept. Ayacucho, eastern Massif of the Cordillera Central opposing the Cordillera Vilcabamba between Tambo San Miguel, Ayna and the Hacienda Luisiana, c. 73°53'W; 12°45'S"
N/A,G. Klug,Peru,Loreto,forest,M. Vásquez Avila,Ficus trigona L.f.,"Mishuyacu, near Iquitos, alt. 100 meters; forest",N/A,1931-04-00,N/A,Typed,873381,1595,N/A,N/A,no type status,"G. KLUG, Collector",N/A,Utrecht 1983,100 meters,April 1931,Ficus Llewelyni Standl.,"Dept. Loreto. Mishuyacu, near Iquitos, alt. 100 meters; forest"
N/A,M. E. Mathias,Perú,Loreto,"Liana 2-3 inches in diameter ""Barbasco silvestre""",W. R. Anderson,MALPIGHIACEAE,vicinity of Requena,N/A,1961-07-18,Requena,Mix of Handwritten and Typed,1733057,5576,N/A,D. Taylor,no type status,Mildred E. Mathias Dermot Taylor,N/A,1983,N/A,18 July 19 61,"MALPIGHIACEAE, BUT I CANNOT NAME IT STERILE, NOT EVEN TO GENUS",vicinity of Requena
N/A,J. Schunke Vigo,Peru,Loreto,tall forest,D. R. Simpson,Paullinia bracteosa Radlk.,"Quebrada de Maquia, (Contamana) in tall forest, 220 meters altitude",N/A,1964-12-17,N/A,Typed,1717601,5677,N/A,N/A,no type status,José Schunke Vigo 5677,N/A,2-21-1973,220 m,17 Dec. 1964,"Paullinia imberbis Radlk. (det. by D.R. Simpson, Oct., 1970)","Quebrada de Maquia, (Contamana) in tall forest, 220 m alt"
N/A,Llewelyn Williams,PERU,LORETO,Small tree. Fruit red. Forested Ack Itaya,C. HAMILTON,Psychotria viridis R.A.,ALTO RIO ITAYA,1929-10-00,1929-09-00,N/A,Mix of Handwritten and Typed,F. No. 3363|HERBARIUM FIELD MUSEUM 614121,3363,N/A,N/A,no type status,LLEWELYN WILLIAMS,N/A,1988-9,ALT. 145 M.,"SEPT.-OCT., 1929",Psychotria viridis R+P.,ALTO RIO ITAYA
N/A,T. Plowman,Peru,Cajamarca,Dry scrub forest on steep slopes. Suffrutice de 1 m. de alto. Flores blancas,P. Fryxell,Abutilon mollissimum (Cav.) Sweet,"Road from Pucará to Chamaya, km. 21 east of Pucará, along Río Huancabamba",N/A,1986-07-12,N/A,Typed,1973380,14242,Jaén,A. Sagástegui A. | J. Mostacero L. | F. R. Mejía | F. Peláez,no type status,"T. Plowman, A. Sagástegui A., J. Mostacero L., F. R. Mejía & F. Peláez",N/A,1987,700 m,12 July 1986,Abutilon mollissimum (Cav.) Sweet,"Road from Pucará to Chamaya, km. 21 east of Pucará, along Río Huancabamba"
N/A,Magda Chanco,PERU,CAJAMARCA,N/A,N/A,Abutilon sp.,Chilete-San Pablo road about 15 km from Chilete,N/A,2003-04-14,N/A,Typed,2253555,s.n.,N/A,Michelle McMahon|Larry Hufford,no type status,Magda Chanco with Michelle McMahon and Larry Hufford,S7° 10.554' W78° 49.665',N/A,3614 feet elevation,14 April 2003,Abutilon sp.,Chilete-San Pablo road about 15 km from Chilete. S7° 10.554' W78° 49.665'. 3614 feet elevation
N/A,Marcos Ríos,PERU,LORETO,"Bosque de Planicie Inundable de aguas blancas. Árbol 7 m, flores amarillas y los botones son de color beish (beige)",N/A,Andira macrothyrsa Ducke,"Quebrada Yanayacu-Río Blanco. Campamento Wiswincho del inventario rápido #27, de la región Tapiche-Blanco",N/A,2014-10-13,N/A,Typed,N° 2318558,4399,"Prov. Requena, Dtto. de Soplín",Tony Mori|Nigel Pitman|Luis Torres|Corine Vriesendorp,no type status,"Marcos Ríos 4399 Tony Mori, Nigel Pitman, Luis Torres, Corine Vriesendorp","05°48'33.5""S 73°51'53.8""W",N/A,90-110 msnm,13 octubre 2014,Andira macrothyrsa Ducke,"Quebrada Yanayacu-Río Blanco. Campamento Wiswincho del inventario rápido #27, de la región Tapiche-Blanco. 05°48'33.5""S 73°51'53.8""W. Alt. 90-110 msnm"
N/A,Marcos Ríos,PERU,LORETO,"Bosque de Planicie Inundable de aguas blancas. Árbol 7 m, flores amarillas y los botones son de color beish (beige)",N/A,Andira macrothyrsa Ducke,"Quebrada Yanayacu-Río Blanco. Campamento Wiswincho del inventario rápido #27, de la región Tapiche-Blanco",N/A,2014-10-13,N/A,Typed,N° 2318557,4399,"Prov. Requena, Dtto. de Soplín",Tony Mori|Nigel Pitman|Luis Torres|Corine Vriesendorp,no type status,"Marcos Ríos 4399 Tony Mori, Nigel Pitman, Luis Torres, Corine Vriesendorp","05°48'33.5""S 73°51'53.8""W",N/A,90-110 msnm,13 octubre 2014,Andira macrothyrsa Ducke,"Quebrada Yanayacu-Río Blanco. Campamento Wiswincho del inventario rápido #27, de la región Tapiche-Blanco"
N/A,Y. Mexia,Peru,Huanuco,"Perennial herb .8-2 m. high; stems weak; often forms small thickets; leaf blade joins petiole at angle, so often hangs perpendicular, shedding rain. Abundant. ""Matico.""",Trelease,Piper callosum Ruiz & Pavon,Departamento and Provincia Huanuco. Near confluence Rio Cayumba with Huallaga; forested slope above road,N/A,1936-10-09,N/A,Typed,1066996,8265,Huanuco,N/A,no type status,"Ynes Mexia, No. 8265",N/A,N/A,805 m,"Oct. 9, 1936",Piper callosum Ruiz & Pavon,Departamento and Provincia Huanuco. Near confluence Rio Cayumba with Huallaga; forested slope above road
N/A,Y. Mexia,Peru,Loreto,"Spreading, perennial herb 1.5 m. high; fruit brick-red when mature; fruit and foliage have a strong odor of wintergreen; tea is made from them. ""Huausa."" ""Anise del Monte.""",Trelease,Piper callosum Ruiz & Pav.,"Above Pongo de Manseriche, Right bank of mouth of Rio Santiago; dense forest",N/A,1931-11-24,N/A,Typed,872277,6157,N/A,N/A,no type status,"Ynes Mexia, No. 6157",N/A,N/A,200 m,"Nov. 24, 1931",Piper callosum Ruiz & Pav.,"Above Pongo de Manseriche, Right bank of mouth of Rio Santiago; dense forest"
N/A,Donald R. Simpson,PERU,Tumbes,"Vine clamboring over shrubs; corolla pale lavender, open in the morning sun, closed on this cloudy afternoon when collected.",D. Simpson,Ipomoea carnea Jacq.,"Common from the dry, deciduous forest zone, downward into the very dry thorn-scrub. Along the road about 10 kilometers northwest of El Caucho. Bosque Nacional de Tumbes: Región de ""bosque muy seco tropical"" (sensu Tosi, 1960) cerca de El Caucho o entre El Caucho y Pampas de Hospital.",N/A,1968-01-04,Pampas de Hospital,Typed,1897918,565,Tumbes,José Schunke V.,no type status,Donald R. Simpson 565 & José Schunke V.,N/A,Jan. 1969,N/A,"January 4, 1968","Ipomoea carnea Jacq. (det. D. Simpson, Jan. 1969)","Common from the dry, deciduous forest zone, downward into the very dry thorn-scrub. Along the road about 10 km. northwest of El Caucho. Bosque Nacional de Tumbes: Región de ""bosque muy seco tropical"" (sensu Tosi, 1960) cerca de El Caucho o entre El Caucho y Pampas de Hospital."
N/A,T. Plowman,Peru,Huánuco,Scandent shrub on roadside near houses. Stem with milky sap. Fls. pink.,A. McDonald,Ipomoea carnea Jacq.,8 km northeast of Huánuco on road to Tingo María,N/A,1981-12-06,N/A,Typed,N/A,11105,Huánuco,P. M. Rury,no type status,T. Plowman & P. M. Rury,"Approx. 9°52'S., 76°11'W",1983,1750 m,6 December 1981,Ipomoea carnea Jacq.,"DEPT. HUÁNUCO: Prov. Huánuco. 8 km. northeast of Huánuco on road to Tingo María. Approx. 9°52'S., 76°11'W. Alt. 1750 m."
N/A,R. B. Foster,PERU,LORETO,Terrestrial in white sand scrub; bracts bright red-pink; flowers white,E. J. Gouda,Aechmea corymbosa (Mart. ex Schult. & Schult.f.) Mez,Prov. Maynas: Rio Nanay Caseria Mishana 30 kilometers Southwest of Iquitos,N/A,1978-08-19,N/A,Typed,1852637,4240,Maynas,N/A,no type status,Robin B. Foster,N/A,2018-02-05,N/A,"Aug. 19, 1978",Aechmea corymbosa (Mart. ex Schult. & Schult.f.) Mez,Prov. Maynas: Rio Nanay Caseria Mishana 30km/SW of Iquitos
N/A,J. Farfán,PERU,Cusco,"Bosque Secundario. Epifita, hasta 70 cm, espádice rojo, espata verde",Thomas B. Croat,Anthurium clavigerum Poepp.,"Dist. Vilcabamba, Chuanquiri camino a Riobamba, Bosque secundario",N/A,2006-10-23,N/A,Typed,2315782,1262,La Convención,L. Valenzuela | I. Huamantupa | A. Carazas | W. Argandoña,no type status,"J. Farfán, L. Valenzuela, I. Huamantupa, A. Carazas, W. Argandoña 1262","12°47'15""S 073°10'10""W",2008,1009 m,23 Octubre 2006,Anthurium clavigerum Poepp.,"Dist. Vilcabamba, Chuanquiri camino a Riobamba, Bosque secundario"
N/A,T. B. Croat,Peru,Loreto,"leaves to 1.5 m. long, in basal rosette; infl to ca 5 m. high; fruits green; a few infl branches arising from near base",N/A,Agave americana L.,Sandy area 12.5 kilometers SW of Iquitos on road to Lago Quisto-cocha,N/A,1972-07-18,N/A,Typed,1759629,18210,N/A,N/A,no type status,Thomas B. Croat 18210,N/A,N/A,N/A,"July 18, 1972",Agave americana L.,Sandy area 12.5 km. SW of Iquitos on road to Lago Quisto-cocha
N/A,T. R. Dudley,Peru,Cuzco,"Common, terrestrial type with bright green foliage & purplish-black & glossy petioles; saxatile on almost vertical rock faces. In full sun on old open landslide, just above the cloud forest, between camp 4&5; almost to Camp 5; one of the commonest colonizers of landslide",Alan R. Smith,Thelypteris dudleyi A. R. Smith,"Common, terrestrial type with bright green foliage & purplish-black & glossy petioles; saxatile on almost vertical rock faces. In full sun on old open landslide, just above the cloud forest, between camp 4&5; almost to Camp 5; at c. 2825 m; one of the commonest colonizers of landslide",N/A,1968-07-04,N/A,Mix of Handwritten and Typed,1719861,10783,La Convencion,N/A,ISOTYPE,T. R. Dudley,12° 37'; 73° 32',1989,c. 2825 m,4 July 1968,Thelypteris dudleyi A. R. Smith,Prov. La Convencion; Dept. Cuzco 12° 37'; 73° 32'
N/A,S. Knapp,PANAMA,Colón,Terrestrial. Sori brown.,Robert G. Stolze,TRICHIPTERIS PINNATA Stolze,"Santa Rita Ridge road, 21-26 km from Transisthmian Highway. Tropical wet forest. 500-550 meters. 9°25'N, 79°37'W",N/A,1982-07-04,N/A,Typed,N° 1932768,5881,N/A,N/A,ISOTYPE,S.Knapp,"9°25'N, 79°37'W",1984,500-550 m,4 July 1982,TRICHIPTERIS PINNATA Stolze,"Santa Rita Ridge road, 21-26 km from Transisthmian Highway. Tropical wet forest. 500-550 m. 9°25'N, 79°37'W"
N/A,J. Dorantes,MEXICO,VERACRUZ,BOSQUE CADUCIFOLIO VEG.PRIMARIA SUELO ROJO ARCILLOSO MUY ABUNDANTE HELECHO TAM. 1.30 M. PERENNE VEG. RIPARIA,I. Mónica Palacios-Rios,WOODWARDIA SPINULOSA MART. & GAL.,ALTO DEL GATO.,N/A,1972-01-01,N/A,Typed,P005051|1730602,455,JALAPA,N/A,no type status,COL.J. DORANTES NO. 455,MAPA 38.5 29.0,"September, 2000",N/A,01/01/1972,WOODWARDIA SPINULOSA MART. & GAL.,ALTO DEL GATO.
N/A,A. Monteagudo,PERU,Pasco,"Helecho terrestre adpreso a la roca, soros marrones",H. van der Werff,Blechnum occidentalis L.,"Parque Nacional Yanachaga Chemillen Pozuzo Sector Pan de Azúcar, Zona de Recuperación. Bosque ribereño.",N/A,2003-04-10,Distrito Pozuzo,Typed,N° 2287355|C0644079F,4909,Oxapampa,C. Mateo|G. Ortiz,no type status,"A. Monteagudo, C. Mateo, G. Ortiz. 4909",10°15'S 75°13'W,2005,1100-1250m,10 Abril 2003,Blechnum occidentalis L.,"Parque Nacional Yanachaga Chemillen Pozuzo Sector Pan de Azúcar, Zona de Recuperación. Bosque ribereño."
N/A,Y. Mexia,Peru,Cusco,Common; scattered,F. M. Tryon,Adiantum pulverulentum L.,upper valley of Rio Sambray; western affluent of Vilcanota; along stream in virgin forest,N/A,1936-05-14,N/A,Typed,1065396|C0658238F,8066,La Convencion,N/A,no type status,"Ynes Mexia, No.8066",N/A,1959,about 1800 m,"May 14,1936",Adiantum pulverulentum L.,upper valley of Rio Sambray; western affluent of Vilcanota; along stream in virgin forest
"Liquidambar styraciflua, Quercus sp., Alnus sp.",J. I. Calzada,México,Veracruz,"Bosque Caducifolio, Muy húmedo, Café arcilloso, Escasa, Hierba, 1 mts., soros cafés",Robert G. Stolze,Diplazium franconis Liebm.,Ranchería de Coatitilán,N/A,1980-01-11,Xico,Mix of Handwritten and Typed,1894963,5759,Xico,N/A,no type status,J.I. Calzada,"19° 23' N, 97° 04' W",1983,1800 m.s.n.m.,11-enero-1980,Diplazium franconis Liebm.,Ranchería de Coatitilán
N/A,A. Molina R.,HONDURAS,Morazán,Bosque lluvioso,A. R. Smith,Thelypteris rudis (Kunze)Proctor,"Helecho arboreo. Bosque lluvioso, norte de la Mt. Uyuca, caminos Tatumbla, Labranza y Quebrada El Granadillo, sobre la Mt. Uyuca, Drainage of the Rio Yeguare, at about Longitude 87° W. and Latitude 14° N., Department of Morazán",N/A,1948-11-04,N/A,Typed,1394536|C0636906F,1427,N/A,N/A,no type status,Antonio Molina R.,Longitude 87° W. and Latitude 14° N.,1974,1800 m,"Nov. 4, 1948",Thelypteris piloso-hispida (Hook) Morton,"Helecho arboreo. Bosque lluvioso, norte de la Mt. Uyuca, caminos Tatumbla, Labranza y Quebrada El Granadillo, sobre la Mt. Uyuca, Drainage of the Rio Yeguare, at about Longitude 87° W. and Latitude 14° N., Department of Morazán"
N/A,B. León,PERU,CUZCO,"Hierba, rizoma masivo rastrero, hojas 1.5 m largo, pinnas reducidas base nectarios presentes",Robert G. Stolze,Thelypteris eucholora (Sod.) Reed,"Bosque de Nubes, Río La Unión. En ladera",N/A,1991-09-10,N/A,Mix of Handwritten and Typed,C0665739F | 2112158,2911,PAUCARTAMBO,K. Young | N. Huapaya,no type status,"B.León, K.Young & N.Huapaya",N/A,19 92,1700-1800 m,10 setiembre 1991,Thelypteris eucholora (Sod.) Reed,"Bosque de Nubes, Río La Unión. En ladera"
N/A,L. O. Williams,NICARAGUA,Matagalpa,Epiphyte on mossy tree,R. Stolze,Grammitis blepharodes (Maxon) Seymour,"Montane rain forest, or cloud forest, Disparate de Potter, Sta. Maria de Ostuma, Cordillera Central de Nicaragua, Department of Matagalpa, alt. 1600 meters",N/A,1963-01-15,N/A,Typed,1626179|C0626158F,27621,N/A,Antonio Molina R.|Terua P. Williams|Dorothy N. Gibson|Chester Laskowski,no type status,"Louis O. Williams, Antonio Molina R., Terua P. Williams, Dorothy N. Gibson, and Chester Laskowski",N/A,1965,1600 m,"January 15, 1963",Polypodium blepharodes Maxon,"Montane rain forest, or cloud forest, Disparate de Potter, Sta. Maria de Ostuma, Cordillera Central de Nicaragua, Department of Matagalpa, alt. 1600 m"
N/A,K. Young,PERU,Cuzco,Fern. Terrestrial; 1 m tall,A. R. Smith,Thelypteris (subg. Amauropelta) cheilanthoides (Kunze) Proctor,"Dept. Cuzco; Prov. La Convencion. Just east of Quillabamba. Finca Chichima; cocoa, coffee, yuca, mangoes, bananas, corn crops grown",N/A,1981-04-20,Quillabamba,Typed,N° 2038794|C0665657F,265,La Convencion,M. Eisenberg,no type status,Ken Young & Mark Eisenberg 265,N/A,1989,1300-1400 m,20 April 1981,Thelypteris (subg. Amauropelta) cheilanthoides (Kunze) Proctor,"Dept. Cuzco; Prov. La Convencion. Just east of Quillabamba. Finca Chichima; cocoa, coffee, yuca, mangoes, bananas, corn crops grown. Alt. 1300-1400 m"
N/A,T. G. Lammers,United States of America,Illinois,Local in mesic maple-basswood forest on steep slopes of deep ravine south of toboggan run,N/A,Dryopteris carthusiana (Vill.) H.P. Fuchs,"Swallow Cliffs Woods Forest Preserve, southwest of the junction of US Highway 45 and State Highway 83",N/A,1998-05-09,Palos Twp.,Typed,2228497 | C0045536F,10674,Cook Co.,N/A,no type status,Thomas G. Lammers,N/A,N/A,N/A,9 May 1998,Dryopteris carthusiana (Vill.) H.P. Fuchs,"Swallow Cliffs Woods Forest Preserve, southwest of the jct. of US Hwy 45 and State Hwy 83"
N/A,Louis O. Williams,EL SALVADOR,Santa Ana,Epífita,A. Molina R.,Polypodium montigenum Maxon,Bosque abierto de Montaña Montecristo,N/A,1963-05-22,N/A,Typed,0267222|C0627900F|1661895,12562,N/A,Antonio Molina R.|Albertina R. Molina,no type status,"Louis O. Williams, Antonio Molina R., Albertina R. Molina",N/A,N/A,2000 m,"Mayo 22, 1963",Polypodium montigenum Maxon,Bosque abierto de Montaña Montecristo
Cheilanthes mollis,M. O. Dillon,Chile,Antofagasta,"Terrestrial, growing in rock crevices",N/A,Notholaena mollis Kunze,"Cerro Perales, ca. 5 kilometers East of Taltal",N/A,1987-12-21,N/A,Typed,N° 2010984,5376,Antofagasta,N/A,no type status,M. O. Dillon 5376,"25° 25' S, 70° 25' W",N/A,600-850 m,21 Dec 1987,Notholaena mollis Kunze,"Cerro Perales, ca. 5 km E of Taltal, 600-850 m alt. (25° 25' S, 70° 25' W)"
N/A,R. M. Tryon,PERU,ANCASH,damp shaded rocks,A. R. Smith,"Thelypteris rufa (Poir.) A.R.Smith, ined.","Road from Huaras to Cusma, west valley",N/A,1965-10-23,N/A,Typed,C0666362F|1833066,6566,N/A,A. F. Tryon,no type status,ROLLA M. & ALICE F. TRYON 6566,N/A,"1979, 1989",2800 m,23 October 1965,Thelypteris lindigii (C.Chr.) Alston,"Road from Huaras to Cusma, west valley"
N/A,E. P. Killip,Peru,Loreto,dense forest,Alan R. Smith,Thelypteris pennata (Poiret) C. Morton,"Soledad, on Rio Itaya; dense forest",1929-09-22,1929-09-20,N/A,Typed,C0666207F,29741,N/A,A. C. Smith,no type status,E. P. KILLIP & A. C. SMITH | Collectors,N/A,1989,about 110 meters,"September 20-22, 1929",Dryopteris megalodus (Schk.) Urban,"Dept. Loreto: Soledad, on Rio Itaya; alt. about 110 meters; dense forest"
N/A,E. P. Killip,Peru,Loreto,dense forest,Alan R. Smith,Thelypteris pennata (Poiret) C. Morton,"San Antonio, on Rio Itaya; dense forest",N/A,1929-09-18,N/A,Typed,1520627,29437,N/A,A. C. Smith,no type status,E. P. KILLIP } Collectors,N/A,1989,about 110 meters,"September 18, 1929",Dryopteris megalodus (Schk.) Urban,"Dept. Loreto: San Antonio, on Rio Itaya; alt. about 110 meters; dense forest"
N/A,J. F. Macbride,PERU,N/A,Sunny dirt ledgs of the grass-shrub formation,Alan R. Smith,Thelypteris pavoniana (Kl.) Tryon,Sunny dirt ledgs of the grass-shrub formation,1922-07-22,1922-07-08,MITO,Typed,518129|C0666203F,1622,N/A,Featherstone,no type status,MACBRIDE & FEATHERSTONE,N/A,1979,ABOUT 9000 FT,"JULY 8-22, 1922",Dryopteris Pavoniana (Kl.) C.Chr.,Sunny dirt ledgs of the grass-shrub formation
N/A,J. J. Wurdack,Peru,Amazonas,"On banks, locally frequent",Alan R. Smith,Thelypteris pavoniana (Klotzsch) Tryon,Upper slopes of Puma-urcu east-southeast of Chachapoyas,N/A,1962-06-01,N/A,Typed,1647265|C0666202F,705,Chachapoyas,N/A,no type status,J. J. WURDACK No. 705,N/A,"1979, 1989",2700-3000 m,1 June 1962,Thelypteris (Thelypteris) pavoniana (Klotzsch),"Upper slopes of Puma-urcu east-southeast of Chachapoyas, elev. 2700-3000 m"
N/A,R. M. Tryon,PERU,LORETO,In old banana planting,A. R. Smith,Thelypteris opulenta (Kaulf.) Fosberg,"Rio Itaya, 10 kilometers south of Iquitos",N/A,1956-08-13,Iquitos,Typed,1587072|C0666112F,5202,Maynas,A. F. Tryon,no type status,ROLLA M. TRYON & ALICE F. TRYON,N/A,"1979, 1990",N/A,"Aug. 13, 1956",Thelypteris Dryopteris,"Rio Itaya, 10 km. s. of Iquitos"
N/A,Louis O. Williams,NICARAGUA,Matagalpa,Terrestrial on open bank,C. V. Morton & D. B. Lellinger,Lycopodium clavatum L.,"Cloud forest area, Sta. María de Ostuma, Cordillera Central de Nicaragua between Matagalpa and Jinotega, Department of Matagalpa, alt. 1300-1500 meters",1963-01-15,1963-01-08,N/A,Typed,1604338|C0639123F,23634,N/A,Antonio Molina R.|Terua P. Williams,no type status,"Louis O. Williams, Antonio Molina R. and Terua P. Williams",N/A,1964,1300-1500 meters,"January 8-15, 1963",Lycopodium clavatum L.,"Cloud forest area, Sta. María de Ostuma, Cordillera Central de Nicaragua between Matagalpa and Jinotega, Department of Matagalpa, alt. 1300-1500 meters"
N/A,J. T. Atwood,Nicaragua,Granada,Lower cloud forest,M. R. McCarthy,Adiantum poiretii McCarthy & Hickey,Volcan Mombacho. Lower cloud forest near Finca Cutirre,N/A,1977-02-08,N/A,Mix of Handwritten and Typed,1868242,77105,N/A,N/A,no type status,"John T. Atwood, Jr.",N/A,2012,N/A,8 Feb. 1977,Adiantum trapeziforme L.,Volcan Mombacho. Lower cloud forest near Finca Cutirre
N/A,H. Hinton,Mexico,Mexico,dry barranca,M. R. McCarthy,Adiantum exuberans McCarthy & Hickey,Pantoja,N/A,1935-04-21,Pantoja,Mix of Handwritten and Typed,954869,7644,Temascaltepec,et al.,no type status,H. et al.,N/A,2012,N/A,4-21-35,Adiantum trapeziforme L.,Pantoja
Conopharyngia holstii,R. A. Maas Geesteranus,Kenya,Nyanza,"riparian-woodland along the river Itare, among others with Conopharyngia holstii; epiphytic, frond fairly pale green; shaded, frequent",R. Faden,Asplenium sandersonii Hook.,"South Western Mau Forest Reserve, camp 8",N/A,1949-08-12,N/A,Mix of Handwritten and Typed,1445440 | C0355438F,5744,Kericho,N/A,no type status,R.A.Maas Geesteranus,"lat. 0°36'30"" S., long. 35°18'20"" E.",1976,1920 m s.m.,12-VIII-1949,Asplenium dregeanum Kze.,"South Western Mau Forest Reserve, camp 8, lat. 0°36'30"" S., long. 35°18'20"" E."
Quercus sp,M. Véliz,GUATEMALA,Jalapa,"Helecho muy frecuente, con frondes compuestos, glaucos en el envés; creciendo dentro de bosque de Quercus sp",M. Véliz,Lophosoria quadripinnata (J.F. Gmel)C. Chr. var quadripinnata,río Manzanillos,N/A,2005-11-22,Aldea San Raymundo,Typed,2298970|C0359489F,MV 16199,N/A,J. M. Véliz|J. Charco|H. Sains|J. Lopez|R. Esteban,no type status,"M. Véliz con J. M. Véliz, J. Charco, H. Sains, J. Lopez y R. Esteban",14° 33' 43.7 N; 90° 06' 19.7 O,24/XI/2005,2308 msnm,22/XI/2005,Lophosoria quadripinnata (J.F. Gmel)C. Chr. var quadripinnata,río Manzanillos
N/A,C. F. Millspaugh,JAMAICA,N/A,N/A,N/A,Asplenium dentatum L.,PORT ANTONIO,1899-02-06,1899-01-28,PORT ANTONIO,Typed,N/A,893,N/A,N/A,no type status,"PLANTS COLLECTED BY CHAS. F. MILLSPAUGH, M.D., DURING THE WEST-INDIAN CRUISE OF THE AUXILIARY S. YACHT ""UTOWANA"" ALLISON V. ARMOUR, ESQ., OWNER AND MASTER",N/A,N/A,N/A,JAN. 28-FEB. 6,Asplenium dentatum L.,PORT ANTONIO
N/A,T. G. Yuncker,Jamaica,St. Andrew,N/A,N/A,Lycopodium cernuum L.,"Scrambling over side of cut, along trail near Bellevue. Alt. 3000-4000 feet",N/A,1957-11-17,N/A,Typed,N/A,"17,429",N/A,N/A,no type status,T. G. YUNCKER,N/A,N/A,3000-4000 ft.,"Nov. 17, 1957",Lycopodium cernuum L.,"Scrambling over side of cut, along trail near Bellevue. Alt. 3000-4000 ft."
N/A,Carvalho,Equatorial Guinea,BIOCO,Postrada. Forma pequeñas colonias dispersas,J. Fernández Casas,Lycopodiella cernua (L.) Pic.-Serm.,"Malabo - Basilé, km 13, cerca de Basilé, márgenes de la carretera",N/A,1986-07-25,Malabo,Typed,2201362|C0363985F,2092,N/A,N/A,no type status,Carvalho,32NMK7808,1991,390 m,25-VII-1986,Lycopodiella cernua (L.) Pic.-Serm.,"Malabo - Basilé, km 13, cerca de Basilé, 32NMK7808, 390 m, márgenes de la carretera"
N/A,Henk van der Werff,AUSTRALIA,QUEENSLAND,"Rainforest. Terrestrial fern, fronds 1 m tall. Rhizome erect. In sets of two",Henk van der Werff,Diplazium assimile (Endl.) Bedd.,"Boonjee logging area, at base of Mt. Bartle Frere",N/A,1990-06-12,N/A,Typed,C0363442F | 2094887,11699,N/A,N/A,no type status,Henk van der Werff,145°43'E 17°25'S,1991,N/A,12 June 1990,Diplazium assimile (Endl.) Bedd.,"Boonjee logging area, at base of Mt. Bartle Frere"
N/A,M. Tagawa,Japan,Kyushu,Wet rocky slope in densely wooded ravine,N/A,Diplazium amabile (Tag.) Tag.,"western slope of Mt. Hoyoshi, south of Kanoya City",N/A,1956-07-28,Kanoya City,Typed,1475055|C0378283F,1150,Kagoshima,K. Iwatsuki,no type status,"M. Tagawa & K. Iwatsuki, No. 1150",N/A,N/A,N/A,"July 28, 1956",Diplazium amabile (Tag.) Tag.,"western slope of Mt. Hoyoshi, south of Kanoya City"
N/A,W. Takeuchi,Papua New Guinea,New Ireland,Pristine subcloud forest dominated by bryophytic and ferny growth,N/A,Blechnum ledermanni Brause,New Ireland; Hans Meyer Range. Site 4 on the expedition report,N/A,1994-02-05,N/A,Typed,0FCZ0683-A|2158436,9366,N/A,J. Wiakabu,no type status,W. Takeuchi & J. Wiakabu,4°25'S X 152°59'E,N/A,c. 1800 m,"February 5, 1994",Blechnum ledermanni Brause,New Ireland; Hans Meyer Range. Site 4 on the expedition report
N/A,Tagawa,JAPAN,N/A,N/A,N/A,Dryopteris crassirhizoma Nakai,[precise locality unknown],N/A,1956-05-20,N/A,Typed,1478001|C0366013F,888,N/A,Iwatsuki,no type status,Coll: Tagawa & Iwatsuki,N/A,N/A,N/A,"May 20, 1956",Dryopteris crassirhizoma Nakai,N/A
N/A,J. Ohwi,Japan,Honshu,N/A,N/A,Polystichum tripteron Presl,Jimmuji in Sagami,N/A,1951-04-00,N/A,Typed,1464206,NSM. No. 202,Sagami,N/A,no type status,J. Ohwi,N/A,N/A,N/A,April 1951,Polystichum tripteron Presl,Jimmuji in Sagami
N/A,M. Vanoverbergh,Philippines,Luzon,N/A,N/A,Asplenium contiguum Kaulf,Bontoc Subprovince. Luzon,N/A,1913-04-19,N/A,Typed,C0364207F,3591,Bontoc Subprovince,N/A,no type status,Father Morice Vanoverbergh,N/A,N/A,N/A,April 19 13,Asplenium contiguum.Kaulf,Bontoc Subprovince. Luzon
N/A,R. B. Faden,Ceylon,North Western Province,Forest. Locally common. Lithophyte. Rhizome creeping; fronds widely spaced,D. B. Lellinger,Pyrossia lanceolata (L.) Farw.,Doluwakanda Hill,N/A,1977-01-05,N/A,Typed,2014294,77/53,Kurunegala District,A. J. Faden,no type status,R.B. & A.J.Faden,"ca. 7°37'N, 80°24'30""E",1979,600 m,5 Jan. 1977,Pyrossia lanceolata (L.) Farw.,"Doluwakanda Hill, ca. 7°37'N, 80°24'30""E"
N/A,Albert N. Steward,China,Kweichow,"moist brushy slope, Sori black",N/A,Thelypteris esquirolii (Christ) Ching,"Ta Ho Yen, FAN CHING SHAN",N/A,1931-09-04,N/A,Typed,779919|C0377881F,344,N/A,C. Y. Chiao|H. C. Cheo,no type status,"By Albert N. Steward, C. Y. Chiao, and H. C. Cheo",N/A,N/A,980 m,"Sept. 4, 1931",Dryopteris Esquirolii Christ,"Ta Ho Yen, FAN CHING SHAN"
N/A,J. F. Barcelona,Philippines,"W. Visayas, Panay I.",in shaded & moist places along riverbank,Julie F. Barcelona,Selaginella philippina Spring,Egaña - on shaded & moist areas,N/A,1989-11-00,Sibalom,Mix of Handwritten and Typed,PNH No. 190135|018274-1|2210265,48,Antique,N/A,DUPLICATE,J. F. Barcelona,N/A,13 Sept. 2005,N/A,November 19 89,Selaginella cf. repanda,"Antique, Sibalom, Egaña, around"
N/A,L. Fay,LIBERIA,N/A,"On tree trunk about 10' from ground; common in groves of rubber trees, on trunks",N/A,Drynaria laurentii (Christ.) Hieron.,"Cuttington University College. Alt. 250 meters. On tree trunk about 10 feet from ground; common in groves of rubber trees, on trunks",N/A,1985-04-11,N/A,Typed,N° 2111378,1206,N/A,A. Fay,no type status,Col. L. & A. Fay,N/A,N/A,250 m,11 Apr 1985,FERN Drynaria laurentii (Christ.) Hieron.,"Cuttington University College. Alt. 250 m. On tree trunk about 10' from ground; common in groves of rubber trees, on trunks"
N/A,H. St. John,RURUTU,Austral Islands,"Epiphyte. Fronds mostly pendent, coriaceous",E. B. Copeland,Humata banksii Alston,"Northwest slope of Teape, Teti woods, on mossy tree limb, altitude 350 meters",N/A,1934-08-26,N/A,Mix of Handwritten and Typed,1435764,16662,N/A,N/A,no type status,H. St. John,N/A,N/A,altitude 350 meters,"Aug. 26, 1934",Humata banksii Alston,"Northwest slope of Teape, Teti woods, on mossy tree limb, altitude 350 meters"
N/A,T. G. Yuncker,Jamaica,Portland,"wet embankment along trail, rain forest",N/A,Selaginella plana (Desv.) Hieron.,"On wet embankment along trail, rain forest, John Crow Mts., 1.5-2 miles southwest of Ecclesdown",N/A,1958-03-30,N/A,Typed,1481969 | C0383576F,"18,561",N/A,N/A,no type status,T. G. YUNCKER,N/A,N/A,1500-2500 ft.,"Mar. 30, 1958",Selaginella plana (Desv.) Hieron.,"On wet embankment along trail, rain forest, John Crow Mts., 1.5-2 miles southwest of Ecclesdown"
Lycopodium chamae-cyparissus Br.,A. Carestia,N/A,N/A,N/A,Joan H. Wilce,Lycopodium complanatum L.,Salita alla Boscarola presso Scopello in Valsesia,N/A,1871-00-00,Scopello,Typed,Erb. Critt. Ital. Ser. II 851|Erb. Critt. ital. I. 106,s.n.,Valsesia,N/A,no type status,A. CARESTIA,N/A,1962,N/A,1871,LYCOPODIUM COMPLANATUM L.,Salita alla Boscarola presso Scopello in Valsesia
N/A,G. J. Chamberlain,New Zealand,N/A,N/A,N/A,Trichomanes reniforme,Ohakune,N/A,1911-10-15,Ohakune,Typed,1407795|C0358423F,s.n.,N/A,N/A,no type status,G.J. Chamberlain,N/A,N/A,N/A,"Oct. 15, 1911",Trichomanes reniforme,Ohakune
N/A,R. L. Wilbur,"DOMINICA, WEST INDIES",N/A,Common fern with trunk 2 dm. high. Fronds 2 m. long,R. L. Wilbur,Cnemidaria grandifolia (Willd.) Proctor var. grandifolia,Disturbed rainforest in the upper Layou Valley about 5 miles from Clarke Hall towards Pont Cassé,N/A,1964-08-02,N/A,Typed,1670026,8185,Parish of St. Paul,E. L. Dunn|H. A. Hespenheide|D. R. Wiseman,no type status,"R. L. Wilbur no. 8185, E. L. Dunn, H. A. Hespenheide, D. R. Wiseman",N/A,1966,N/A,2 August 1964,Hemidaria grandifolia (Willd.),Disturbed rainforest in the upper Layou Valley about 5 miles from Clarke Hall towards Pont Cassé
N/A,R. B. Faden,Ceylon,Central Province,Shady moist bank near stream. Local and uncommon,N/A,Thelypteris,between mile posts 46/3 and 46/4 on Nuwara Eliya-Kandy road,N/A,1977-01-02,N/A,Typed,2089703|C0377971F,77/31,Nuwara Eliya District,A. J. Faden,no type status,R.B. & A.J.Faden,"6°59'N,80°45'E",N/A,ca 1980 m,2 Jan 1977,= Thelypteris,"between mile posts 46/3 and 46/4 on Nuwara Eliya-Kandy road, 6°59'N,80°45'E"
"Cyathea dealbata, C. smithii, Phyllocladus, Podocarpus",H. K.,New Zealand,N/A,"in Humus unter Cyathea dealbata, C. smithii, Phyllocladus, Podocarpus,etc.",N/A,Crucispora naucorioides HK. 1971,"in Humus unter Cyathea dealbata, C. smithii, Phyllocladus, Podocarpus,etc.; Kauaeranga Valley, Coromandel Peninsula",N/A,1968-07-05,N/A,Typed,1017207 | C0003693F,68/641,N/A,N/A,Typus,HK.,N/A,N/A,N/A,5.VII.1968,Crucispora naucorioides HK. 1971 (Typus),"in Humus unter Cyathea dealbata, C. smithii, Phyllocladus, Podocarpus,etc.; Kauaeranga Valley, Coromandel Peninsula,N.Z."
N/A,Singer,ECUADOR,Napo,Ad terram in hylaea,N/A,HYGROCYBE DIMORPHOBASIDIATA Sing.,Lago Agrio,N/A,1973-05-14,Lago Agrio,Typed,1017827|C0004429F,B 7463,N/A,N/A,TYPUS!,Singer,N/A,N/A,N/A,14 V 1973,HYGROCYBE DIMORPHOBASIDIATA Sing.,Lago Agrio
Sphagnum spec. and Rubus geoides,Singer,ARGENTINA,Tierra del Fuego,Gregarious in bog margin with Sphagnum spec. and Rubus geoides,N/A,HYGROCYBE FUEGIANA Sing.,"road Ushuaya-Lago Fagnano, SW of highest point",N/A,1988-02-23,N/A,Typed,F1075922 | C0004430F,M10517,Departamento Ushuaia,N/A,HOLOTYPE,Singer M10517,N/A,N/A,N/A,23 II 1988,HYGROCYBE FUEGIANA Sing. (= H. rosea sensu Horak),"road Ushuaya-Lago Fagnano, SW of highest point"
"Blechnum novae-zealandiae, Weinmannia, Dicksonia squarrosa, Leptospermum scoparium",John J. Engel,New Zealand,North Island,"On clayey bank. Clay banks with Blechnum novae-zealandiae overhang, Weinmannia and Dicksonia squarrosa dominant canopy and occasional Leptospermum scoparium",N/A,Telaranea lindenbergii var. papillata Engel & Merr.,"Whareorino Forest, start of track to Leitch's Hut, 280 meters",N/A,2003-02-12,N/A,Typed,1173554,23773,Auckland Prov.,Matt von Konrat | John E. Braggins,Holotype,"John J. Engel, Matt von Konrat & John E. Braggins","38° 24.5' S., 174° 49.8' E.",N/A,280 m.,12 February 2003,Telaranea lindenbergii var. papillata Engel & Merr.,"Whareorino Forest, start of track to Leitch's Hut, 280 m., 38° 24.5' S., 174° 49.8' E."
N/A,Marko Lewis,Ecuador,Imbabura,Wet bank of runoff ravine,W. C. STEERE,Kindbergia praelonga (Hedw.) Ochyra,"E. side of Cerro Cotacachi, NW of Cotacachi",1978-11-22,1978-11-21,Cotacachi,Typed,1065158 | C2079898F,78-2684,N/A,N/A,no type status,"Marko Lewis, no. 78-2684","0°22'N., 78°20'W.",N/A,3750 m,21-22 November 1978,Kindbergia praelonga (Hedw.) Ochyra,"PROV. IMBABURA: E. side of Cerro Cotacachi, NW of Cotacachi, 0°22'N., 78°20'W."
N/A,Marko Lewis,Ecuador,Azuay,Stone wall,W. C. Steere,Hedwigia ciliata (Hedw.) P. Beauv.,"Area Nacional de Recreación ""Cajas"", forested hill S. of ""Surrochucho"" (Laguna Llaviuco), SW of Sayausí, 2°55'S., 79°09'W.",N/A,1978-12-08,Sayausí,Typed,1065433|C2077559F,78-3163,N/A,N/A,no type status,"Marko Lewis, no. 78-3163","2°55'S., 79°09'W.",N/A,3240 m,8 December 1978,Hedwigia ciliata (Hedw.) P. Beauv.,"PROV. AZUAY: Area Nacional de Recreación ""Cajas"", forested hill S. of ""Surrochucho"" (Laguna Llaviuco), SW of Sayausí, 2°55'S., 79°09'W."
N/A,R. Benoist,Equateur,N/A,N/A,Efrain De Luna,Hedwigia ciliata (Hedw.) P. Beauv,environs de Quito,N/A,N/A,N/A,Mix of Handwritten and Typed,1089453|C2077563F,4659 pp,N/A,N/A,no type status,R.Benoist,N/A,1997,N/A,N/A,Hedwigia albicans (Web.)Lindb,environs de Quito
N/A,R. Benoist,Equateur,N/A,N/A,Efrain De Luna,Hedwigia ciliata (Hedw.) P. Beauv.,Sur rocher d'andésite,N/A,1930-03-27,Quito,Mix of Handwritten and Typed,1089455|C2077564F,2279,N/A,N/A,no type status,R.Benoist,N/A,1992,N/A,27 mars 1930,Hedwigia albicans (Web.)Lindb.,Sur rocher d'andésite
N/A,R. S. Williams,Bolivia,N/A,N/A,Efrain De Luna,Hedwigia ciliata (Hedw.) P. Beauv.,"near Pelichuco, 3000 meters",N/A,1902-04-30,N/A,Typed,1089454|C2077565F,2850,N/A,N/A,no type status,"COLLECTED BY R. S. WILLIAMS, 1901-1902",N/A,1992,3000 meters,"April 30, 1902",Hedwigia albicans (Web.) Lindb.,"near Pelichuco, 3000 meters"
N/A,Marko Lewis,Bolivia,La Paz,"Bromeliad habitat. Abundant on rock faces of exposed cliffs, 2630 m",Efrain De Luna,Hedwigia ciliata (Hedw.) P. Beauv.,Near large red outcrop 2 miles from Sorata down Rio Consata,N/A,1979-03-22,Sorata,Typed,1032221|C2077566F,79-1237A,Larecaja,N/A,no type status,"Marko Lewis, no. 79-1237A","15° 41' S., 68° 43' W.",1992,2630 m,22 March 1979,Hedwigia ciliata (Hedw.) P. Beauv.,"Near large red outcrop 2 mi. from Sorata down Rio Consata, 15° 41' S., 68° 43' W."
N/A,Marko Lewis,Bolivia,La Paz,Bromeliad-grass habitat on exposed cliffs,Efrain De Luna,Hedwigia ciliata (Hedw.) P. Beauv.,Near large red outcrop 2 miles from Sorata down Río Consata,N/A,1979-03-22,Sorata,Typed,1032219|C2077567F,79-1232,Larecaja,N/A,no type status,"Marko Lewis, no. 79-1232","15° 41' S., 68° 43' W.",1992,2630 m,22 March 1979,Hedwigia ciliata (Hedw.) P. Beauv.,"DEPTO. LA PAZ, PROV. LARECAJA: Near large red outcrop 2 mi. from Sorata down Río Consata, 15° 41' S., 68° 43' W."
N/A,Marko Lewis,Bolivia,La Paz,Humid cliffs and steep slopes,Efrain De Luna,Hedwigia ciliata (Hedw.) P. Beauv.,"On mountain side directly N. of river, beneath Niño Karine, NNW of Chuma",N/A,1979-03-06,N/A,Typed,C2077568F|1032220,79-1114,Saavedra,N/A,no type status,"Marko Lewis, no. 79-1114","15° 08' S, 69° 03' W",1992,3320 m,6 March 1979,Hedwigia ciliata (Hedw.) P. Beauv.,"DEPTO. LA PAZ, PROV. SAAVEDRA: On mountain side directly N. of river, beneath Niño Karine, NNW of Chuma, 15° 08' S, 69° 03' W"
N/A,F. J. Hermann,Bolivia,Cochabamba,On conglomerate boulder on shrubby NW slope,Efrain De Luna,Hedwigia ciliata (Hedw.) P. Beauv.,"On conglomerate boulder on shrubby NW slope of Mt. Tunari, near Liriuni Aguas Termales Hotel, 28 kilometers NW",N/A,1972-12-27,Cochabamba,Typed,C2077569F|1040675,25152,N/A,N/A,no type status,F. J. Hermann,N/A,1992,ca. 2700 m.,"December 27, 1972",Hedwigia ciliata (Hedw.) Beauv.,"On conglomerate boulder on shrubby NW slope of Mt. Tunari, near Liriuni Aguas Termales Hotel, alt. ca. 2700 m., 28 km. NW."
N/A,Y. Mexia,Peru,Loreto,On fallen log,Bartram,Pilosium subchlorophyllosum C.M.,Above Pongo de Manseriche. Streamlet near mouth of Rio Santiago,N/A,1931-12-02,N/A,Typed,1057692|C2077570F,6204,N/A,N/A,no type status,"Ynes Mexia, No. 6204",N/A,N/A,400 m,"Dec. 2, 1931",Pilosium subchlorophyllosum C.M.,Above Pongo de Manseriche. Streamlet near mouth of Rio Santiago
N/A,Y. Mexia,Peru,Loreto,On fallen log,Bartram,Pilosium sub-lorophyllum C.M.,Above Pongo de Manseriche. Streamlet near mouth of Rio Santiago. On fallen log,N/A,1931-12-02,N/A,Typed,C2077571F,6204,N/A,N/A,no type status,"Ynes Mexia, No. 6204",N/A,N/A,400 m,"Dec. 2, 1931",Pilosium sub-lorophyllum C.M. det. Bartram,Above Pongo de Manseriche. Alt. 400 m. Streamlet near mouth of Rio Santiago. On fallen log
N/A,A. C. Smith,British Guiana,N/A,"On decayed wood, in swamp",E. B. Bartram,Pilosium flaccisetum C.M.,"Basin of Essequibo River, near mouth of Onoro Creek, lat. about 1°35' N.; dense forest",1937-12-24,1937-12-15,N/A,Typed,1023751|C2077572F,2748,N/A,N/A,no type status,"A. C. SMITH, NO. 2748",lat. about 1°35' N.,N/A,N/A,"Dec. 15-24, 1937",Pilosium flaccisetum C.M.,"Basin of Essequibo River, near mouth of Onoro Creek, lat. about 1°35' N.; dense forest"
Cecropia (bospapaja),J. Florschütz-de Waard,Surinam,Nickerie,Secondary wood with Cecropia (bospapaja) on rotting log,Rudi Zielman,Pilosium chlorophyllum (Hornsch.)C.Müll.,"area of Kabalebo Dam project, distr. Nickerie, line NW from road km 39.5, p. 5N 58W qu.SE",N/A,1981-11-05,N/A,Mix of Handwritten and Typed,1073523|1010101|C2077573F,5315,N/A,R. Zielman,no type status,J.Florschütz-de Waard & R.Zielman,5N 58W qu.SE,5 - 11 - 1981,0-50 m,5 - 11 - 1981,Pilosium chlorophyllum (Hornsch.)C.Müll.,"area of Kabalebo Dam project, distr. Nickerie, line NW from road km 39.5, p. 5N 58W qu.SE"
N/A,J. Florschütz-de Waard,Surinam,Nickerie,"Savanna forest, on rotting log",R. Zielman,Pilosium chlorophyllum(Hornsch.)C.Müll.,"Area of Kabalebo Dam project, distr. Nickerie, line NW from road km 39.5, p. 5N 56W qu. SE",N/A,1981-11-03,N/A,Mix of Handwritten and Typed,1073529|100107|C2077574F,5254,N/A,R. Zielman,no type status,J.Florschütz-de Waard & R.Zielman,N/A,N/A,0 - 50 m,3-11-1981,Pilosium chlorophyllum(Hornsch.)C.Müll.,"Area of Kabalebo Dam project, distr. Nickerie, line NW from road km 39.5, p. 5N 56W qu. SE"
N/A,J. Florschütz-de Waard,Surinam,Nickerie,"Rainforest, on rotting log",R. Zielman,Pilosium chlorophyllum(Hornsch.)C.Müll.,"Area of Kabalebo Dam project, distr. Nickerie, line W from road 34 km, p. 5N 58W qu. SE",N/A,1981-10-30,N/A,Typed,1073528|1040106,5098,N/A,R. Zielman,no type status,J.Florschütz-de Waard & R.Zielman,N/A,N/A,0 - 50 m,30-10-1981,Pilosium chlorophyllum(Hornsch.)C.Müll.,"Area of Kabalebo Dam project, distr. Nickerie, line W from road 34 km, p. 5N 58W qu. SE"
N/A,J. C. Lindeman,Surinam,Nickerie,Epiphyte on tree trunk,H. R. Zielman,Pilosium chlorophyllum (Hornsch.) C.Müll.,"Area of Kabalebo Dam project, distr.Nickerie, Forest S of km 28.7",N/A,1980-09-03,N/A,Typed,1073527|C2077576F,243 A,N/A,A. R. A. Görts-van Rijn|M. J. Jansen-Jacobs|A. M. C. Hetterscheid-Hollants,no type status,"J.C.Lindeman, A.R.A.Görts-van Rijn, M.J.Jansen-Jacobs & A.M.C.Hetterscheid-Hollants","4° 5° NB, 57° 30' 58° WL",N/A,30 - 130 m,3-IX-1980,Pilosium chlorophyllum (Hornsch.) C.Müll.,"Area of Kabalebo Dam project, distr.Nickerie, 4° 5° NB, 57° 30' 58° WL. Forest S of km 28.7"
Astrocaryum,J. Florschütz-de Waard,SURINAME,Nickerie,On decaying log in marsh forest with Astrocaryum,R. Zielman,PILOSIUM CHLOROPHYLLUM (Hornsch.) C. Müll.,"Distr. Nickerie, Kabalebo river area, line W, from road kilometers 34, 5°N., 58°W., alt. 0-50 meters",N/A,1981-10-31,N/A,Typed,1029882|A 1555539|C2077577F,5141,Kabalebo river area,R. Zielman,no type status,J. Florschütz-de Waard and R. Zielman,"5°N., 58°W.",N/A,0-50 m,31 October 1981,PILOSIUM CHLOROPHYLLUM (Hornsch.) C. Müll.,"Distr. Nickerie, Kabalebo river area, line W, from road km 34, 5°N., 58°W., alt. 0-50 m"
N/A,J. Florschütz,SURINAME,N/A,On rotting log in rainforest,R. Zielman and J. Florschütz-de Waard,PILOSIUM CHLOROPHYLLUM (Hornsch.) C. Muell.,"Brownsberg, trail to Leo Val, altitude approximately 500 meters",N/A,1975-12-18,N/A,Typed,№ 1065613|C2077578F,4690,N/A,P. A. Florschütz,no type status,J. and P.A. Florschütz 4690,N/A,N/A,ca. 500 m,18 December 1975,PILOSIUM CHLOROPHYLLUM (Hornsch.) C. Muell.,"Brownsberg, trail to Leo Val, alt. ca. 500 m"
N/A,H. Cornelissen,GUYANA,N/A,On rotting tree base in mixed rain forest,J. Florschütz-de Waard,Pilosium chlorophyllum (Hornsch.) C. Müll.,"Mabura Hill, 180 kilometers S of Georgetown",N/A,1977-03-08,N/A,Typed,N° 1091586|C2077579F,C076,N/A,S. R. Gradstein,no type status,H.Cornelissen & S.R.Gradstein C076,5°20'N 58°40'W,N/A,0-50 m,8 March 1977,Pilosium chlorophyllum (Hornsch.) C. Müll.,"Mabura Hill, 180 km S of Georgetown, 5°20'N 58°40'W, alt. 0-50 m"
N/A,R. Spruce,N/A,N/A,N/A,R. R. Ireland and W. R. Buck,Pilosium chlorophyllum (Hornsch.) C. Müll. in Broth.,Fl. Amazon prope Para,N/A,0000-00-00,Para,Mix of Handwritten and Typed,1078188|C2077580F,1321,N/A,N/A,no type status,Musci Amazonici et Andini ex R. Spruce,N/A,1992,N/A,s.d.,Stereophyllum chlorophyllum. Hornsch.,Fl. Amazon prope Para
N/A,R. E. Schultes,Colombia,Vaupés,On rotten log,H. A. Crum,Pilosium chlorophyllum (Hornsch.) Jaeg.,Río Vaupés: Mitú and vicinity. Cerro Mitú,N/A,1952-10-22,Mitú,Typed,1055492|C2077581F,17922,N/A,I. Cabrera,no type status,Richard Evans Schultes et Isidoro Cabrera,"Lat. 1° 0' N, Long. 70° 5' W",1956,N/A,"Oct. 22, 1952",Pilosium chlorophyllum (Hornsch.) Jaeg.,Río Vaupés: Mitú and vicinity. Cerro Mitú
N/A,Richard Evans Schultes,Colombia,Vaupés,On rotten logs,H. A. Crum,Pilosium chlorophyllum (Hornsch.) C.M.,"Rio Kuduyari (affluent of Rio Vaupés), Yapobodá, quartzitic savannah",1951-10-06,1951-10-04,N/A,Typed,C2077582F|1055491,14294,N/A,Isidoro Cabrera,no type status,Richard Evans Schultes et Isidoro Cabrera,N/A,1956,N/A,"October 4-6, 1951",Pilosium chlorophyllum (Hornsch.) C.M.,"Rio Kuduyari (affluent of Rio Vaupés), Yapobodá, quartzitic savannah"
N/A,R. E. Schultes,Colombia,Vaupés,On trunks,D. Griffin III,PILOSIUM CHLOROPHYLLUM (HORNSCH.) C.M. in BROTH.,"Comisaría del Vaupés, Rio Apaporis. Soratama",N/A,1951-06-00,N/A,Typed,1055490|C2077583F,12309,N/A,N/A,no type status,RICHARD EVANS SCHULTES,N/A,N/A,N/A,June 1951,PILOSIUM CHLOROPHYLLUM (HORNSCH.) C.M. in BROTH.,"Comisaría del Vaupés, Rio Apaporis. Soratama"
N/A,R. E. Schultes,Colombia,N/A,N/A,D. Griffin III,Pilosium chlorophyllum (Hornsch.) C. M. in Broth.,San Jose del Guaviare,N/A,1950-12-00,San Jose del Guaviare,Mix of Handwritten and Typed,1055459|C2077584F,11128,N/A,N/A,no type status,RICHARD EVANS SCHULTES,N/A,N/A,N/A,Dec. 1950,Pilosium chlorophyllum (Hornsch.) C. M. in Broth.,San Jose del Guaviare
N/A,Y. Mexia,Brazil,Pará,On fallen log,Bartram,Pilosum chlorophyllum (Hornsch.) C.M.,Thomé Assú; down Rio Acará 3 km,N/A,1931-08-31,Thomé Assú,Mix of Handwritten and Typed,C2077585F,6014a,Districto Acará,N/A,no type status,"Ynes Mexia, No. 6014a",N/A,N/A,35 m,"Aug. 31, 1931",Pilosum chlorophyllum (Hornsch.) C.M.,Thomé Assú; down Rio Acará 3 km
N/A,Y. Mexia,Brazil,Pará,On rotting log in woods. Abundant,Bartram,Pilosium Chlorophyllosum (Hsch.) C.M.,"Thomé Assú, Japanese Colony",N/A,1931-07-16,Thomé Assú,Typed,870829|C2077586F,5914,Districto Acará,N/A,no type status,"Ynes Mexia, No. 5914",N/A,N/A,about 30 m,"July 16, 1931",Pilosium Chlorophyllosum (Hsch.) C.M.,"Thomé Assú, Japanese Colony"
,,,,,,,,,,,,,,,,,,,,,,,
N/A,P. Dusén,Chile,Patagonia occident.,N/A,W. R. Buck,Brachythecium albicans (Hedw.) Schimp.,"Chile, Patagonia occident., Cerra Colorado",N/A,1897-02-22,N/A,Typed,No. 1136354|S reg. nr B11749|C2078913F,5872,Cerra Colorado,N/A,no type status,P. Dusén 5872,N/A,N/A,N/A,22 February 1897,Brachythecium albicans (Hedw.) Schimp.,"Chile, Patagonia occident., Cerra Colorado"
N/A,Y. Mexia,Chile,Territorio Magellanes,Common; scattered in small tufts,Kenneth D. McFarland,Brachythecium austro-glareosum (C. Muell.) Kindb.,Last Hope Inlet; Peninsula Antonio Varas; openings in Nothofagus wood in moist earth,N/A,1936-04-10,N/A,Typed,1036758|C2078924F,8001,N/A,N/A,no type status,"Ynes Mexia, No. 8001",N/A,Sept 1987,25 m,"April 10,1936",Brachythecium subpilosum (H.f.& W.)Jaeg.,Last Hope Inlet; Peninsula Antonio Varas; openings in Nothofagus wood in moist earth
N/A,Marko Lewis,Bolivia,Oruro,In warmish creek,R. Ochyra,Brachythecium calliergonoides Broth. in Herz.,"Río Junthuma Khuchu, 2 miles down river from Aguas termales de Río Junthuma Khuchu, In warmish creek",N/A,1979-05-25,N/A,Mix of Handwritten and Typed,C2078925F | 1049405,79-2108,Sajama,N/A,no type status,"Marko Lewis, no.79-2108","18° 07' S., 69° 00' W.",1982,4350 m.,25 May 1979,Brachythecium calliergonoides Broth. in Herz.,"DEPTO. ORURO, PROV. SAJAMA: Río Junthuma Khuchu, 2 mi. down river from Aguas termales de Río Junthuma Khuchu, 4350 m., 18° 07' S., 69° 00' W. In warmish creek"
N/A,Marko Lewis,Bolivia,Oruro,In warmish creek,R. Ochyra,Brachythecium calliergonoides Broth. in Herz.,"Río Junthuma Khuchu, 2 miles down river from Aguas termales de Río Junthuma Khuchu. In warmish creek",N/A,1979-05-25,N/A,Typed,1049406|C2078926F,79-2109,Sajama,N/A,no type status,"Marko Lewis, no.79-2109","18° 07' S., 69° 00' W.",1982,4350 m.,25 May 1979,Brachythecium calliergonoides Broth. in Herz.,"DEPTO. ORURO, PROV. SAJAMA: Río Junthuma Khuchu, 2 mi. down river from Aguas termales de Río Junthuma Khuchu, 4350 m., 18° 07' S., 69° 00' W. In warmish creek"
N/A,Marko Lewis,Bolivia,Oruro,In warmish creek,R. Ochyra,Brachythecium calliergonoides Broth. in Herz.,"Río Junthuma Khuchu, 2 miles down river from Aguas termales de Río Junthuma Khuchu, In warmish creek",N/A,1979-05-25,N/A,Typed,N° 1049407|C2078927F,79-2112,Sajama,N/A,no type status,"Marko Lewis, no79-2112","18° 07' S., 69° 00' W.",1982,4350 m.,25 May 1979,Brachythecium calliergonoides Broth. in Herz.,"DEPTO. ORURO, PROV. SAJAMA: Río Junthuma Khuchu, 2 mi. down river from Aguas termales de Río Junthuma Khuchu, 4350 m., 18° 07' S., 69° 00' W. In warmish creek"
N/A,Marko Lewis,Bolivia,Oruro,In warmish creek,R. Ochyra,Brachythecium calliergonoides Broth.,"Rio Junthuma Khuchu, 2 miles down river from Aguas termales de Rio Junthuma Khuchu, 4350 meters, 18° 07' S., 69° 00' W. In warmish creek",N/A,1979-05-25,N/A,Typed,C2078928F | 1049409,79-2115,Sajama,N/A,no type status,"Marko Lewis, no79-2115","18° 07' S., 69° 00' W",1982,4350 m,25 May 1979,Brachythecium calliergonoides Broth. in Herz.,"Rio Junthuma Khuchu, 2 mi. down river from Aguas termales de Rio Junthuma Khuchu, 4350 m., 18° 07' S., 69° 00' W. In warmish creek"
N/A,Marko Lewis,Bolivia,Oruro,In warmish creek,R. Ochyra,Brachythecium calliergonoides Broth.,"Río Junthuma Khuchu, 2 miles down river from Aguas termales de Río Junthuma Khuchu",N/A,1979-05-25,N/A,Typed,N° 1049410|C2078929F,79-2117,Sajama,N/A,no type status,"Marko Lewis, no. 79-2117","18° 07' S., 69° 00' W.",1982,4350 m.,25 May 1979,Brachythecium calliergonoides Broth. in Herz.,"DEPTO. ORURO, PROV. SAJAMA: Río Junthuma Khuchu, 2 mi. down river from Aguas termales de Río Junthuma Khuchu, 4350 m., 18° 07' S., 69° 00' W. In warmish creek"
N/A,M. Lewis,Bolivia,Oruro,In warmish creek,R. Ochyra,Brachythecium calliergonoides Broth. in Herz.,"Río Junthuma Khuchu, 2 miles down river from Aguas termales de Río Junthuma Khuchu, In warmish creek",N/A,1979-05-25,N/A,Mix of Handwritten and Typed,1049411|C2078930F,79-2118,Sajama,N/A,no type status,"Marko Lewis, no79-2118","18° 07' S., 69° 00' W.",February 1982,4350 m.,25 May 1979,Brachythecium calliergonoides Broth. in Herz.,"DEPTO. ORURO, PROV. SAJAMA: Río Junthuma Khuchu, 2 mi. down river from Aguas termales de Río Junthuma Khuchu, 4350 m., 18° 07' S., 69° 00' W. In warmish creek"
N/A,Marko Lewis,Bolivia,Oruro,In warmish creek,R. Ochyra,Brachythecium calliergonoides Broth. in Herz.,"Río Junthuma Khuchu, 2 miles down river from Aguas termales de Río Junthuma Khuchu, In warmish creek.",N/A,1979-05-25,N/A,Typed,N° 1049404|C2078931F|C2078933F,79-2107,Sajama,N/A,no type status,"Marko Lewis, no. 79-2107","18° 07' S., 69° 00' W.",1982,4350 m.,25 May 1979,Brachythecium calliergonoides Broth. in Herz.,"DEPTO. ORURO, PROV. SAJAMA: Río Junthuma Khuchu, 2 mi. down river from Aguas termales de Río Junthuma Khuchu, 4350 m., 18° 07' S., 69° 00' W. In warmish creek."
N/A,Marko Lewis,Bolivia,Oruro,In warmish creek,R. Ochyra,Brachythecium calliergonoides Broth. in Herz.,"Rio Junthuma Khuchu, 2 miles down river from Aguas termales de Rio Junthuma Khuchu. In warmish creek.",N/A,1979-05-25,N/A,Typed,Nº 1049412|C2078932F,79-2119,Sajama,N/A,no type status,"Marko Lewis, no. 79-2119","18° 07' S, 69° 00' W",1982,4350 m.,25 May 1979,Brachythecium calliergonoides Broth. in Herz.,"DEPTO. ORURO, PROV. SAJAMA: Rio Junthuma Khuchu, 2 mi. down river from Aguas termales de Rio Junthuma Khuchu, 4350 m., 18° 07' S, 69° 00' W. In warmish creek."
N/A,Ynes Mexia,Peru,Loreto,On stone in overflow forest,Bartram,Vesicularia amphibola (Spr.) Broth.,Above Pongo de Manseriche. Left bank of Rio Santiago.,N/A,1931-11-23,N/A,Typed,873368|C2079350F,6149,N/A,N/A,no type status,"Ynes Mexia, No. 6149",N/A,N/A,200 m,"Nov. 23, 1931",Vesicularia amphibola (Spr.) Broth.,Above Pongo de Manseriche. Left bank of Rio Santiago.
N/A,Y. Mexia,Peru,Loreto,Dense forest on log,Bartram,Vesicularia amphibola (Spr.) Broth.,Above Pongo de Manseriche. Right bank of Rio Santiago.,N/A,1931-11-25,N/A,Typed,873367|C2079351F,6160-a,N/A,N/A,no type status,"Ynes Mexia, No. 6160-a",N/A,N/A,200 m,"Nov. 25, 1931",Vesicularia amphibola (Spr.) Broth.,Above Pongo de Manseriche. Right bank of Rio Santiago.
N/A,Ynes Mexia,Peru,Loreto,On rocks wet by spray,Bartram,Vesicularia amphibola (Spr.) Broth.,Above Pongo de Manseriche. Streamlet on right bank of Rio Santiago. On rocks wet by spray.,N/A,1931-12-04,N/A,Typed,870879|C2079352F,6217-a,N/A,N/A,no type status,"Ynes Mexia, No. 6217-a",N/A,N/A,250 m,"Dec. 4, 1931",Vesicularia amphibola (Spr.) Broth.,Above Pongo de Manseriche. Streamlet on right bank of Rio Santiago. On rocks wet by spray.
N/A,Y. Mexia,Peru,Loreto,Log in forest,Bartram,Vesicularia amphibola (Spr.) Broth.,Above Pongo de Manseriche. Creek Carapisa.,N/A,1931-12-12,N/A,Typed,870867|C2079353F,6259-a,N/A,N/A,no type status,"Ynes Mexia, No. 6259-a",N/A,N/A,215 m,"Dec. 12, 1931",Vesicularia amphibola (Spr.) Broth.,Above Pongo de Manseriche. Creek Carapisa.
N/A,Ynes Mexia,Peru,Loreto,On earth collected on inclined tree trunk. Creep. loose.,Bartram,Vesicularia amphibola (Spr.) Broth.,Above Pongo de Manseriche. Creek Inche.,N/A,1932-01-03,N/A,Mix of Handwritten and Typed,873369|C2079354F,6354-a,N/A,N/A,no type status,"Ynes Mexia, No. 6354-a",N/A,N/A,215 m.,"Jan. 3, 1932",Vesicularia amphibola (Spr.) Broth.,Above Pongo de Manseriche. Creek Inche.
Taxithelium planum (Brid.) Mitt.,Y. Mexia,Peru,Loreto,On rotten log. Sterile.,Bartram,Vesicularia amphibola (Spr.) Broth.,Above Pongo de Manseriche. Creek Inche.,N/A,1932-01-03,N/A,Typed,1039121|C2079355F,6375a,N/A,N/A,no type status,"Ynes Mexia, No. 6375a",N/A,N/A,215 m.,"Jan. 3, 1932",Vesicularia amphibola (Spr.) Broth.,Above Pongo de Manseriche. Creek Inche.
Taxithelium planum (Brid.) Mitt.,Ynes Mexia,Peru,Loreto,On rotten log. Sterile.,Bartram,Vesicularia amphibola (Sprv.) Broth.,Above Pongo de Manseriche. Creek Inche.,N/A,1932-01-03,N/A,Mix of Handwritten and Typed,870880|C2079356F,6375-a,N/A,N/A,no type status,"Ynes Mexia, No. 6375-a",N/A,N/A,215 m.,"Jan. 3, 1932",Vesicularia amphibola (Sprv.) Broth.,Above Pongo de Manseriche. Creek Inche.
N/A,Y. Mexia,Peru,Loreto,On rotten log,Bartram,Vesicularia amphibola (Spr.) Broth.,Above Pongo de Manseriche. Creek Inche.,N/A,1932-01-03,N/A,Typed,870873|C2079357F,6377,N/A,N/A,no type status,"Ynes Mexia, No. 6377",N/A,N/A,215 m,"Jan. 3, 1932",Vesicularia amphibola (Spr.) Broth.,Above Pongo de Manseriche. Creek Inche.
In mixture,Y. Mexia,Peru,Cuzco,on rotten logs in virgin forest,Bartram,Vesicularia amphibola (Spr.) Broth.,upper valley of the Sambray; affluent of the Vilcanota; on rotten logs in virgin forest,N/A,1936-05-14,N/A,Typed,1036318|C2079358F,8070,La Convencion,N/A,no type status,"Ynes Mexia, No. 8070",N/A,N/A,1800 m,"May 14,1936",Vesicularia amphibola (Spr.) Broth.,Departamento Cuzco. Provincia La Convencion; upper valley of the Sambray; affluent of the Vilcanota; on rotten logs in virgin forest
N/A,Y. Mexia,Peru,Cuzco,on rotten logs in virgin forest,Bartram,Vesicularia amphibola (Spr.) Froth.,upper valley of the Sambray; affluent of the Vilcanota; on rotten logs in virgin forest,N/A,1936-05-14,N/A,Typed,1039122|C2079359F,8070,La Convencion,N/A,no type status,"Ynes Mexia, No. 8070",N/A,N/A,1800 m,"May 14,1936",Vesicularia amphibola (Spr.) Froth. in mixture,Departamento Cuzco. Provincia La Convencion; upper valley of the Sambray; affluent of the Vilcanota; on rotten logs in virgin forest
N/A,P. R. Reitz,BRASIL,SANTA CATARINA,"Epífito, da mata virgem",Bartram,Vesicularia vesicularis (Schwaegr.) Broth.,"Azambuja, Brusque",N/A,1949-09-20,Brusque,Mix of Handwritten and Typed,HBR 5.468|C2079360F,2.222,N/A,N/A,no type status,P. R. Reitz,N/A,1949,50 msm,20.9.1949,Vesicularia vesicularis (Schwaegr.) Broth.,"Azambuja, Brusque"
N/A,F. J. Hermann,Colombia,Santander,On base of tree trunk,H. Robinson,Vesicularia vesicularis (Schwaegr.) Broth.,"On base of tree trunk, Paraguitas, alt. ca. 4000 feet, 1/4 mile NW",N/A,1972-12-19,N/A,Mix of Handwritten and Typed,1039101|C2079361F,25019,N/A,N/A,no type status,F. J. Hermann 25019,N/A,N/A,ca. 4000 ft.,"December 19, 1972",Vesicularia vesicularis (Schwaegr.) Broth.,"On base of tree trunk, Paraguitas, alt. ca. 4000 ft., 1/4 mile NW"
N/A,R. E. Schultes,Colombia,Intendencia del Meta,N/A,D. Griffin III,Vesicularia vesicularis (Schwgr.) Broth.,alrededores de Villavicencio,N/A,1950-12-00,Villavicencio,Typed,No 1055509|C2079362F,11107,N/A,N/A,no type status,Legit RICHARD EVANS SCHULTES,N/A,N/A,500 m,"Dec., 1950",Vesicularia vesicularis (Schwgr.) Broth.,alrededores de Villavicencio
N/A,J.-P. Frahm,PERU,Amazonas,hochandiner Regenwald auf Kalkstein,W. Schultze-Motel,Entodon jamesonii (Tayl.) Mitt.,"Dep. Amazonas, Prov. Chachapoyas, Straße Chachapoyas-Cajamarca oberhalb Leimebamba km 417, s-exponierter Hang, hochandiner Regenwald auf Kalkstein",N/A,1982-09-04,N/A,Typed,1076822|1041230,875,Chachapoyas,P. Geissler|S. R. Gradstein|G. Philippi|W. Schultze-Motel,no type status,"leg.: J.-P. Frahm, P. Geissler, S.R. Gradstein, G. Philippi, W. Schultze-Motel",N/A,N/A,2800 msm,4.9.1982,Entodon jamesonii (Tayl.) Mitt.,"Dep. Amazonas, Prov. Chachapoyas, Straße Chachapoyas-Cajamarca oberhalb Leimebamba km 417, s-exponierter Hang, hochandiner Regenwald auf Kalkstein"
N/A,P. C. Hutchison,PERU,Amazonas,N/A,H. Robinson,Entodon jamesoni (Tayl.) Mitt.,"Cerros Calla Calla, east side, 5 kilometers above Leimebamba on the road to Balsas, at San Miguel (no buildings at this locality)",N/A,1964-04-01,N/A,Typed,C2079716F|1012181,4806,Chachapoyas,J. K. Wright,no type status,"PAUL C. HUTCHISON, J. KENNETH WRIGHT",N/A,1966,Altitude 2400 m,1 April 1964,Entodon jamesoni (Tayl.) Mitt.,"Cerros Calla Calla, east side, 5 km. above Leimebamba on the road to Balsas, at San Miguel (no buildings at this locality)"
N/A,Dana Griffin III,Venezuela,Merida,"Sobre roca + seca, a sombra",Dana Griffin III,Entodon jamesoni (tayl.) Broth.,"páramo de Los Granates, finca de Los Granates, a lo largo del río de Los Granates y en las lomas cercanas",N/A,1985-02-20,N/A,Typed,1064416|C2079717F,PV-966,N/A,N/A,no type status,Dana Griffin III,N/A,N/A,3.000-3.100 m,20 febr. 1985,Entodon jamesoni (tayl.) Broth.,"páramo de Los Granates, finca de Los Granates, a lo largo del río de Los Granates y en las lomas cercanas. Alt. 3.000-3.100 m"
N/A,Y. Mexia,Brazil,Minas Geraes,Base of living tree in shade,Bartram,Entodon Lindbergii Hpe.,Fazenda do Diamante. Campo Tiririca.,N/A,1931-04-21,Corinto,Typed,870818|C2079718F,5687,N/A,N/A,no type status,"Ynes Mexia, No. 5687",N/A,N/A,590 m,"April 21, 1931",Entodon Lindbergii Hpe.,Fazenda do Diamante. Campo Tiririca.
N/A,R. Spruce,N/A,Andes Quitenses,N/A,W. Mitten,Entodon longisetus Hook.,Andes Quitenses. Baños,N/A,0000-00-00,Baños,Mix of Handwritten and Typed,1078203,1023,N/A,N/A,no type status,Musci Amazonici et Andini ex R. Spruce,N/A,N/A,N/A,s.d.,Entodon longisetus. Hook.,Andes Quitenses. Baños
E. micans Herz.,Marko Lewis,Bolivia,Tarija,Bank of creek,W. Buck,Entodon cf. nano-climacium C.M.,"Canyon 5 miles SW of Tablada, SW of Tarija",N/A,1979-02-08,N/A,Typed,1078763|C2079720F,79-590,Méndez/Cercado/Avilés,N/A,no type status,"Marko Lewis, no. 79-590","21° 36' S., 64° 48' W.",1980,2160 m,8 February 1979,Entodon cf. nano-climacium C.M. (= E. micans Herz.),"DEPTO. TARIJA, PROV. MÉNDEZ/PROV. CERCADO/PROV. AVILÉS: Canyon 5 mi. SW of Tablada, SW of Tarija, 21° 36' S., 64° 48' W."
N/A,Marko Lewis,Bolivia,La Paz,Very shady ground along creek in humid shrubs,W. Buck,Entodon nano-climacium C.M.,Near large red outcrop 2 miles from Sorata down Río Consata,N/A,1979-03-22,N/A,Typed,1078799|1046765|C2079721F,79-1220,Larecaja,N/A,no type status,"Marko Lewis, no. 79-1220","15° 41' S., 68° 43' W.",1980,2600 m,22 March 1979,Entodon nano-climacium C.M. (= E. micans Herz.),"Near large red outcrop 2 mi. from Sorata down Río Consata, 15° 41' S., 68° 43' W."
N/A,H. W. Foote,N/A,N/A,On rocks,N/A,Entodon platygyrioides C.M.,"On rocks above San Miguel, 6000 feet",N/A,1911-09-03,N/A,Typed,N/A,s.n.,N/A,N/A,no type status,COLLECTED BY HARRY WARD FOOTE,N/A,N/A,6000ft.,Sep. 3,Entodon platygyrioides C.M.,"On rocks above San Miguel, 6000ft."
N/A,Marko Lewis,Bolivia,La Paz,"Waterfall ravine, highest extension of shrubs",W. Buck,Entodon polycarpus,Between Abra Huallata and waterfall at Millipaya,N/A,1979-04-01,N/A,Typed,N° 107875|1046746|C2079723F,79-1346,Larecaja,N/A,no type status,"Marko Lewis, no. 79-1346","15° 51' S., 68° 39' W",1980,3780 m,1 April 1979,cf. Entodon polycarpus,"DEPTO. LA PAZ, PROV. LARECAJA: Between Abra Huallata and waterfall at Millipaya, 15° 51' S., 68° 39' W"
Nothofagus pumilio,H. Roivainen,Argentina,Tierra del Fuego,"en fisuras de roca y en raizes humoso-arcillosos de Nothofagus pumilio, en orilla de la cascada, bastante copiosamente",R. Ochyra,Isopterygium pulchellum (Hedw.) Jaeg.,"Tierra del Fuego australis, Ushuaia, Arroyo Grande, en fisuras de roca y en raizes humoso-arcillosos de Nothofagus pumilio, en orilla de la cascada,150 meters s.m.,bastante copiosamente",N/A,1970-01-25,Ushuaia,Typed,1182417 | C2079595F,2095,N/A,N/A,no type status,H. Roivainen,"54°47'S,68°17'W",1996,150 m s.m.,25.1.1970,Isopterygium pulchellum (Hedw.) Jaeg.,"Tierra del Fuego australis, Ushuaia, Arroyo Grande (54°47'S,68°17'W), en fisuras de roca y en raizes humoso-arcillosos de Nothofagus pumilio, en orilla de la cascada,150 m s.m.,bastante copiosamente"
N/A,H. Roivainen,Argentina,Tierra del Fuego,suelo humoso húmedo en el pendiente del río,R. Ochyra,Isopterygium pulchellum (Brid.) Jaeg.,"Tierra del Fuego australis, Ushuaia, Valle del Río Pipo, suelo humoso húmedo en el pendiente del río, 300 meters s.m., bastante copiosamente",N/A,1969-12-24,Ushuaia,Typed,No 1182415|C2079596F,1352,N/A,N/A,no type status,H. Roivainen,"54°46'S, 68°20'W",1996,300 m s.m.,24.12.1969,Isopterygium pulchellum (Brid.) Jaeg.,"Tierra del Fuego australis, Ushuaia, Valle del Río Pipo (54°46'S, 68°20'W), suelo humoso húmedo en el pendiente del río, 300 m s.m., bastante copiosamente"
N/A,E. P. Killip,COLOMBIA,Santander,N/A,R. R. Ireland,Isopterygium tenerum (Sw.) Mitt.,"between Puerto Wilches and Puerto Santos, alt. 110-115 meters",N/A,1926-11-29,N/A,Typed,3040009,14871,N/A,A. C. Smith,no type status,E. P. Killip & A. C. Smith,N/A,1988,110-115 m.,"November 29, 1926",Isopterygium stigmocarpum (C.M.) Par.,"between Puerto Wilches and Puerto Santos, alt. 110-115 m."
N/A,R. E. Schultes,Colombia,Meta,N/A,D. Griffin III,Isopterygium tenerum (Sw.) Mitt.,alrededores de Villavicencio,N/A,1950-12-00,Villavicencio,Typed,1055473,11110,N/A,N/A,no type status,Legit RICHARD EVANS SCHULTES,N/A,N/A,500 m,"Dec., 1950",Isopterygium tenerum (Sw.) Mitt.,Intendencia del Meta: alrededores de Villavicencio
N/A,D. C. Geijskes,Surinam,N/A,"Rainforest On roots and rocks on bank of river, shad",H. R. Zielman,Isopterygium tenerum(Sw.)Mitt.,Marowijne River; Armina Falls,N/A,1952-09-29,N/A,Mix of Handwritten and Typed,1073518|1040096,s.n.,N/A,N/A,no type status,D.C.Geijskes,N/A,N/A,N/A,29 - 9 - 1952,Isopterygium tenerum(Sw.)Mitt.,Marowijne River; Armina Falls
N/A,Y. Mexia,Brazil,Minas Gerais,On rotting log. Abundant.,R. R. Ireland,Isopterygium tenerum (Sw.) Mitt.,Agricultural College land. Horticultural Hill. Cut over woods near base.,N/A,1930-07-06,Viçosa,Typed,C2079600F|1039979,4841,N/A,N/A,no type status,"Ynes Mexia, No. 4841",N/A,1988,670 m,"July 6, 1930",Isopterygium brachyneuron (C.M.)Mitt. ex p.,Agricultural College land. Horticultural Hill. Cut over woods near base.
N/A,Ynes Mexia,Brazil,Minas Geraes,Shady streambank. On rotten wood.,R. R. Ireland,Isopterygium tenerum (Sw.) Mitt.,Viçosa Agricultural College lands. Corriga Riberro. Shady streambank. On rotten wood.,N/A,1930-07-21,Viçosa,Typed,873365|C2079601F,4888,N/A,N/A,no type status,"Ynes Mexia, No. 4888",N/A,1988,675 m.,"July 21, 1930",Isopterygium laxum (Hpe.) Broth.,Viçosa Agricultural College lands. Corriga Riberro. Shady streambank. On rotten wood.
N/A,Y. Mexia,Brazil,Minas Gerais,Dense forest. On rotten log. In fruit.,R. R. Ireland,Isopterygium tenerum (Sw.)Mitt.,Road to São Miguel. About 1 miles O. Dense forest. On rotten log. In fruit.,N/A,1930-12-08,Viçosa,Typed,870841|C2079602F,5306,N/A,N/A,no type status,"Ynes Mexia, No. 5306",N/A,1988,710 m.,"Dec. 8, 1930",Isopterygium brachyneuron (C.M.) Mitt.,Road to São Miguel. About 1m. O. Dense forest. On rotten log. In fruit.
N/A,Y. Mexia,Brazil,Minas Geraes,"On rotting log, in woods. Abundant.",R. R. Ireland,Isopterygium tenerum (Sw.) Mitt.,"Viçosa Agricultural College lands. Base of Horticultural Hill. On rotting log, in woods. Abundant.",N/A,1930-12-23,Viçosa,Mix of Handwritten and Typed,870823|1796006|C2079603F,5441,N/A,N/A,no type status,"Ynes Mexia, No. 5441",N/A,1988,670 m.,"Dec. 23, 1930",Isopterygium tenerum (Sw.) Mitt.,"Viçosa Agricultural College lands. Base of Horticultural Hill. On rotting log, in woods. Abundant."
Coccoloba sp.,H. S. Irwin,Brasil,Bahia,"On the bark and exposed roots of Coccoloba sp, and on adjacent soil, at river bank. Cut-over gallery forest and adjacent cerrado",R. R. Ireland,Isopterygium tenerum (Sw.) Mitt.,"On the bark and exposed roots of Coccoloba sp, and on adjacent soil, at river bank. Cut-over gallery forest and adjacent cerrado, ca. 10km W. of Barreiras, elev. ca. 500m",N/A,1971-03-02,Barreiras,Typed,1059328 | C2079604F,31332,N/A,R. M. Harley | G. L. Smith,no type status,"H. S. Irwin, R. M. Harley, G. L. Smith",N/A,1988,ca. 500m,2 March 1971,ISOPTERYGIUM TENERUM (Sw.) Mitt.,Valley of the Rio das Ondas
N/A,Y. Mexia,Brazil,Minas Geraes,"Shady streambank, on rotten log. Abundant.",R. R. Ireland,Isopterygium tenerum (Sw.) Mitt.,Viçosa Agricultural College lands. Corrigo Riberro.,N/A,1930-07-21,Viçosa,Typed,870845|C2079606F,4884,N/A,N/A,no type status,"Ynes Mexia, No. 4884",N/A,1988,675 m.,"July 21, 1930",Isopterygium curvicollum (C.M.) Mitt.,Viçosa Agricultural College lands. Corrigo Riberro.
N/A,Ynes Mexia,Brazil,Minas Geraes,On rotten log,R. R. Ireland,Isopterygium tenerum (Sw.) Mitt.,Fazenda de Cresiuma. Wood on slope. On rotten log.,N/A,1930-05-14,Viçosa,Mix of Handwritten and Typed,870839|C2079607F,4698,N/A,N/A,no type status,"Ynes Mexia, No. 4698",N/A,19 88,700 m,"May 14, 1930",Isopterygium curvicollum (C.M.) Mitt. Ex P.,Fazenda de Cresiuma. Wood on slope. On rotten log.
N/A,Y. Mexia,Brazil,Minas Geraes,"Shady streambank, on rotten log. Abundant.",R. R. Ireland,Isopterygium tenerum (Sw.) Mitt.,Viçosa Agricultural College lands. Corrige Riberro.,N/A,1930-07-21,Viçosa,Typed,1039977|C2079608F,4884,N/A,N/A,no type status,"Ynes Mexia, No. 4884",N/A,1988,675 m.,"July 21, 1930",Isopterygium curvicollum (C.M.) Mitt.,Viçosa Agricultural College lands. Corrige Riberro.
N/A,Y. Mexia,Brazil,Minas Gerais,On rotting tree trunk,R. R. Ireland,Isopterygium tenerum (Sw.) Mitt.,"Road to São Miguel. Near stream ""Turca."" Cut over woods on slope. On rotting tree trunk",N/A,1930-03-31,Viçosa,Typed,1039978,4545,N/A,N/A,no type status,"Ynes Mexia, No. 4545",N/A,1988,710 m,"March 31, 1930",Isopterygium curvicollum (C.M.) Mitt.,"Road to São Miguel. Near stream ""Turca."" Cut over woods on slope. On rotting tree trunk"
N/A,V. Schiffner,Brasilia,São Paulo,in palude,R. R. Ireland,Isopterygium tenerum (Sw.) Mitt.,"prope urbem Cerqueira-Cesar, in palude, c. 500 meters s. m.",N/A,0000-07-00,Cerqueira-Cesar,Typed,1012176|C2079611F,2898,N/A,N/A,no type status,"V. Schiffner, V. F. Brotherus",N/A,1988,c. 500 m. s. m.,m. Jul. fr.,Isopterygium aurantiacum (C.M.) Broth.,"prope urbem Cerqueira-Cesar, in palude, c. 500 m. s. m."
N/A,Y. Mexia,Brazil,Minas Geraes,On rotting log. Abundant.,R. R. Ireland,Isopterygium tenerum (Sw.) Mitt.,Viçosa Agricultural College lands. Horticultural Hill. Cut over woods near base.,N/A,1930-07-06,Viçosa,Typed,870837|C2079856F,4841,N/A,N/A,no type status,"Ynes Mexia, No. 4841",N/A,1988,670 m,"July 6, 1930",Isopterygium brachyneuron (C.M.) Mitt.ex p,Viçosa Agricultural College lands. Horticultural Hill. Cut over woods near base.
N/A,R. S. Williams,BOLIVIA,N/A,on bark,R. R. Ireland,Isopterygium tenerum (Sw.) Mitt.,"San Buena Ventura, 190 meters, on bark",N/A,1901-11-29,N/A,Typed,1039983|C2079858F,2095,N/A,N/A,no type status,"COLLECTED BY R. S. WILLIAMS, 1901-1902",N/A,1988,190 meters,"Nov. 29, 1901",Isopterygium tenerum (Sw.) Mitt.,"San Buena Ventura, 190 meters, on bark"
N/A,R. S. Williams,Bolivia,N/A,N/A,R. S. Williams,Isopterygium tenerum (Sw.) Mitt.,Tumupasa,1902-00-00,1901-00-00,N/A,Typed,1017412|C2079859F,2059,N/A,N/A,no type status,"COLLECTED BY R. S. WILLIAMS, 1901-1902",N/A,23 Jan. 1902,N/A,1901-1902,Isopterygium tenerum (Sw.) Mitt.,Tumupasa
N/A,Hagen,Norvegia,Trondelag,N/A,N/A,Pogonatum urnigerum (L.) var. α humile (Wahlenb.),Vårstigen,N/A,1907-07-27,Opdal,Handwritten,C2010970F,s.n.,Sundbygdens amt,N/A,no type status,Hagen,N/A,N/A,altit. mtr. 900,27/7 1907,Pogonatum urnigerum (L.) var. α humile (Wahlenb.),Vårstigen
N/A,E. Hall,England,N/A,N/A,N/A,Pogonatum umigerum Brid.,[precise locality unknown],N/A,0000-00-00,N/A,Typed,Z35534|C2010972F,s.n.,N/A,N/A,no type status,Herbarium of Elihu Hall,N/A,N/A,N/A,s.d.,Pogonatum umigerum Brid,N/A
N/A,N/A,N/A,Pyrenées,N/A,N/A,Pogonatum urnigerum Par.,Gorge de Jeret,N/A,1878-00-00,N/A,Handwritten,C2000534F,s.n.,N/A,N/A,no type status,N/A,N/A,N/A,N/A,1878,Pogonatum urnigerum Par.,Gorge de Jeret
N/A,W. Mitten,England,Sussex,N/A,N/A,Pogonatum urnigerum,Hendey Hill Near Blackdown,N/A,1847-03-00,N/A,Mix of Handwritten and Typed,1096014,s.n.,N/A,N/A,no type status,W.M.,N/A,N/A,N/A,Mch 1847,Pogonatum urnigerum,Hendey Hill Near Blackdown
Vaccinium virgatum,Holmes,N/A,Devon,N/A,N/A,Pogonatum urnigerum,Plymouth,N/A,1879-00-00,Plymouth,Handwritten,1182972|C2000538F,s.n.,N/A,N/A,no type status,Ex. Herb: GEORGE E. HUNT,N/A,N/A,N/A,1879,Pogonatum urnigerum,Plymouth
N/A,Jeanpert,N/A,N/A,sable,N/A,Pogonatum urnigerum P.B,"Villers Cotterets route de Soissons, saussaie",N/A,1894-04-21,Villers Cotterets,Handwritten,1058477,s.n.,N/A,N/A,no type status,Jeanpert,N/A,N/A,N/A,21/4/94,Pogonatum urnigerum P.B,"Villers Cotterets route de Soissons, saussaie"
N/A,C. Müller,N/A,Baden,auf Erde in Felsritzen,N/A,Pogonatum urnigerum (L.) Pal. Beauv.,"auf Erde in Felsritzen zwischen Rinken und Seebrück am Feldberge, etwa 1250 meters",N/A,1905-09-09,N/A,Typed,1194391|C2000932F,N/A,N/A,N/A,no type status,C. Müller Frib.,N/A,N/A,etwa 1250 m s. m.,9. Sept. 1905,Pogonatum urnigerum (L.) Pal. Beauv. c. fr.,"auf Erde in Felsritzen zwischen Rinken und Seebrück am Feldberge, etwa 1250 m s. m."
N/A,Zd. Pilous,Bohemia,Montes Krkonoše,In declivis graminosis silvaticis,N/A,Pogonatum urnigerum P.B.,"In declivis graminosis silvaticis prope pagum Hoření Vrchlabí, ca 580 meters",N/A,1946-05-00,Hoření Vrchlabí,Typed,1270015,214,N/A,N/A,no type status,leg.Zd.Pilous,N/A,N/A,ca 580 m,V.1946,Pogonatum urnigerum P.B.,"In declivis graminosis silvaticis prope pagum Hoření Vrchlabí, ca 580 m"
N/A,James Thompson,Scotland,N/A,N/A,C. Müller,Pogonatum urnigerum C. Müller,[precise locality unknown],N/A,1842-09-02,N/A,Mix of Handwritten and Typed,1230970|C2000936F,1042,N/A,N/A,no type status,Collected in 1841-3 by James Thompson,N/A,N/A,N/A,Sept. 2 1842,Pogonatum urnigerum,N/A
N/A,Philippe,N/A,N/A,N/A,N/A,Pogonatum urnigerum,Peña de Rheuis,N/A,0000-00-00,N/A,Handwritten,1058446,s.n.,N/A,N/A,no type status,Philippe,N/A,N/A,N/A,s.d.,Pogonatum urnigerum,Peña de Rheuis
N/A,L. N. Johnson,Germany,N/A,N/A,N/A,"Pogonatum urnigerum, Breuv.",Marraques Fall,N/A,1848-00-00,N/A,Handwritten,1159426,s.n.,N/A,N/A,no type status,Herbarium of L. N. Johnson,N/A,N/A,N/A,1848,"Pogonatum urnigerum, Breuv.",Marraques Fall
N/A,C. Jensen,Denmark,Sjælland,in a gravel-pit,N/A,Pogonatum urnigerum (Hedw.) PB.,Magistratskoven by Hvalse in a gravel-pit,N/A,1901-10-25,Hvalse,Handwritten,N/A,s.n.,N/A,N/A,no type status,C. Jensen,N/A,N/A,N/A,25/10 1901,Pogonatum urnigerum (Hedw.) PB.,Magistratskoven by Hvalse in a gravel-pit
N/A,Ed. Jeanpert,N/A,N/A,N/A,N/A,unsure and check,[precise locality unknown],N/A,0000-00-00,N/A,Handwritten,1058475,s.n.,N/A,N/A,no type status,Herbier Ed. Jeanpert,N/A,N/A,N/A,s.d.,unsure and check,N/A
N/A,Restoin,N/A,manche,N/A,N/A,Pogonatum urnigerum P.B.,Sourdenal (manche),N/A,1876-00-00,N/A,Handwritten,1058481,s.n.,N/A,N/A,no type status,1876 Restoin,N/A,N/A,N/A,1876,Pogonatum urnigerum P.B.,Sourdenal (manche)
N/A,G. E. Hunt,SCOTLAND,N/A,N/A,N/A,Pogonatum aloides Bridel,[precise locality unknown],N/A,0000-00-00,N/A,Typed,1182976,s.n.,N/A,N/A,no type status,ex herb. George E. Hunt,N/A,N/A,N/A,s.d.,Pogonatum aloides Bridel,N/A
Polytrichum urnigerum L.,M. Onraedt,Suisse,Canton du Valais,sur talus ensoleillé; alt. Ca. 1750 m,M. Onraedt,"Pogonatum urnigerum P. Beauv., Schimp.","Suisse: Canton du Valais, Val d'Hérens, à La Forclaz",N/A,1976-07-18,La Forclaz,Mix of Handwritten and Typed,2010614F,76.L.8693,Val d'Hérens,N/A,no type status,M. Onraedt,N/A,N/A,Ca. 1750 m,Le 18.07.1976,"Pogonatum urnigerum P. Beauv., Schimp. = Polytrichum urnigerum L.","Suisse: Canton du Valais, Val d'Hérens, à La Forclaz"
N/A,M. Onraedt,Suisse,Canton du Valais,talus forestier,N/A,Pogonatum urnigerum P. Beauv. Schimp.,entre St. Martin et Mase,N/A,1976-07-24,N/A,Typed,No. 1050867|C2010616F,76.5.1580,Val d'Hérens,N/A,no type status,M. Onraedt,N/A,N/A,1600m,Le 24/07/1976,Pogonatum urnigerum P. Beauv. Schimp.,entre St. Martin et Mase
N/A,Barnes,N/A,Westmorland,N/A,N/A,Pogonatum urnigerum,[precise locality unknown],N/A,1868-02-00,N/A,Handwritten,1058318|C2010618F,s.n.,N/A,N/A,no type status,Barnes legit.,N/A,N/A,N/A,Feb. 1868,"Pogonatum urnigerum, Bridel.",N/A
N/A,Jack,N/A,N/A,N/A,N/A,Pogonatum urnigerum (L.) Pal. Beauv,An Waldgräben bei Salem,N/A,1850-08-25,Salem,Typed,1054838,986A b,N/A,Leiner u. Stizenberger,no type status,"Jack, Leiner u. Stizenberger",N/A,N/A,N/A,25. August 1850,Pogonatum urnigerum (L.) Pal. Beauv,An Waldgräben bei Salem
N/A,Dr. Hepp,N/A,N/A,N/A,N/A,Pogonatum urnigerum (L.) Pal. Beauv.,An einem Waldrande auf dem rothen Sandsteinbruche oberhalb Degerfelden,N/A,1862-10-17,Degerfelden,Mix of Handwritten and Typed,1054981,986 B,N/A,N/A,no type status,"Jack, Leiner u. Stizenberger, Kryptogamen Badens",N/A,N/A,N/A,17. October 1862,Pogonatum urnigerum (L.) Pal. Beauv.,An einem Waldrande auf dem rothen Sandsteinbruche oberhalb Degerfelden
N/A,Schenk,N/A,N/A,N/A,N/A,Pogonatum urnigerum (L.) Pal. Beauv.,In Hohlwegen bei Schaffhausen,N/A,1862-09-00,Schaffhausen,Handwritten,1055069,986B,N/A,N/A,no type status,Schenk,N/A,N/A,N/A,September 1862,Pogonatum urnigerum (L.) Pal. Beauv.,In Hohlwegen bei Schaffhausen
N/A,C. Jensen,Denmark,Zealand,sandy soil,C. Jensen,Pogonatum urnigerum (Hedw.) PB.,sandy soil in Magistratskoven south of Hvalsö,N/A,1904-11-21,N/A,Typed,N/A,104,N/A,N/A,no type status,and determ. C. Jensen,N/A,N/A,N/A,"November 21, 1904",Pogonatum urnigerum (Hedw.) PB. c. fr.,sandy soil in Magistratskoven south of Hvalsö
"Blasia pusilla L., Pellia epiphylla (L.) Lindb., Alicularia scalaris (Schr.) Corda, Dichodontium pellucidum (L. pp.) Schimp., Rhytidiadelphus loreus (Dill., L.) Warnst",P. Allorge,Spain,Navarra,"Calcifuge, mésophile, sciaphile. Fréquent sur les talus siliceux frais, récemment dénudés",N/A,Pogonatum urnigerum (Linné) Palisot de Beauvois,"Puerto de Ibañeta (Navarra), talus argileux (schistes)",N/A,1927-08-22,N/A,Typed,1200129,N/A,N/A,N/A,no type status,P. Allorge,N/A,N/A,ca 1.050 m,22. VIII. 1927,"Pogonatum urnigerum (Linné Sp. Plant. II, p. 1109, N° 3, 1753, sub Polytricho), Palisot de Beauvois Prodr., p. 84, 1805, f. 2","Puerto de Ibañeta (Navarra), talus argileux (schistes)"
N/A,Zd. Pilous,Slovakia,Montes Nízké Tatry,N/A,N/A,Pogonatum urnigerum Pal. var.humile Brid.,"In terra montis Ďumbier, ca 1840 m",N/A,1949-07-00,N/A,Typed,1350887|C2010976F,1025,N/A,N/A,no type status,leg.Zd.Pilous,N/A,N/A,ca 1840 m,VII.1949,Pogonatum urnigerum Pal. var.humile Brid.,"In terra montis Ďumbier,ca 1840 m"
"Prumnopitys exigua, Podocarpus, Myrcianthes, N. chilensis",S. Churchill,BOLIVIA,Chuquisaca,Musgo sobre rama de árbol; c.fr.; con N. chilensis,S. Churchill,Neckera scabridens C. Müller,"Monte Grande, ca. 32 km de Villa Serrano. Bosque montano de yungas. Con Prumnopitys exigua, Podocarpus, Myrcianthes. <22845-22885>",N/A,2004-05-12,N/A,Typed,1183467,22853,Belisario Boeto,H. Huaylla | R. Lozano | M. Serrano,no type status,S. Churchill et al.,"18°43'43""S 64°29'07""W",Jun 2004,2740 m,12 May 2004,Neckera scabridens C. Müller,"Monte Grande, ca. 32 km de Villa Serrano. Bosque montano de yungas. Con Prumnopitys exigua, Podocarpus, Myrcianthes. <22845-22885>"
N/A,E. Córdula,BRASIL,Pernambuco,"Caatinga arbórea-arbustiva densa, solo derivado de embasamento cristalino",G. P. Lewis,Ancistrotropis peduncularis (Fawcett & Rendle) A. Delgado,Município de Mirandiba. Serra das Umburanas (afloramento rochoso),N/A,2007-06-23,N/A,Mix of Handwritten and Typed,49243 | K000931304,309,Mirandiba,Y. Melo | K. Pinheiro,no type status,E. Córdula (309); Y Melo & K.Pinheiro,Lat.: 8°12' S Long.: 38°32',12.2012,457 m (base),23/VI/2007,Vigna peduncularis (Kunth.) Fawc & Rendle,Município de Mirandiba. Serra das Umburanas (afloramento rochoso)
N/A,I. Kukkonen,AUSTRALIA,Queensland,Patch of rain forest. Fern climbing on tree stems,J. Sarvela,Arthropteris tenella (Forst.f.) J.Sm.,"Lamin's Hill, East of Malanda",N/A,1981-09-13,N/A,Typed,EIG.6763|1591810|1459190,11003,Atherton Tableland,N/A,no type status,Ilkka Kukkonen 11003,N/A,1982,N/A,13. Sept. 1981,Arthropteris tenella (Forst.f.) J.Sm.,"Lamin's Hill, E. of Malanda"
N/A,Pabst,Brasil,Guanabara,Arbusto e pequenas árvores de flores brancas,A. P. Duarte,Avicenia tomentosa,mangue próximo ao Jóquei Club da Ilha do Governador,N/A,1960-09-07,Ilha do Governador,Mix of Handwritten and Typed,K001046329,5421,N/A,N/A,no type status,Pabst 5421,N/A,23.9.60,N/A,7.9.60,Avicenia tomentosa,"Brasil-Guanabara, mangue próximo ao Jóquei Club da Ilha do Governador"
N/A,W. Hoehne,Brasil,São Paulo,N/A,M. Kuhlmann,Cestrum corymbosum Schlecht.,"Cantareiras, São Paulo",N/A,1933-09-13,São Paulo,Mix of Handwritten and Typed,K000964719|SPF 10228,10228,N/A,N/A,no type status,W. Hoehne,N/A,N/A,N/A,13/9/33,Cestrum corymbosum Schlecht.,"Cantareiras, São Paulo"
N/A,H. Eggert,N/A,Illinois,N/A,N/A,Cystopteris bulbifera (L) Bernh,Bluffs in Illinois,N/A,1877-05-17,N/A,Handwritten,EIG.5460|1126455,s.n.,N/A,N/A,no type status,H. EGGERT,N/A,N/A,N/A,17 May '77,Cystopteris bulbifera (L) Bernh,Bluffs in Illinois
"Festuca schefflerii, Euryops prostrata, Anthemis tigrensis, Juniperus procera",I. Kukkonen,Ethiopia,Bale Adm. Reg.,"Steep forested slope of a river canyon, Pastured slope",J. Sarvela,Dryopteris inaequalis (Schlechtend.) O. Kuntze,"On the way to Saneti plateau from Robe. Steep forested slope of a river canyon, e.g. Juniperus procera. Pastured slope",N/A,1982-11-08,N/A,Typed,H 1489739|EIG.435,12608,N/A,N/A,no type status,Ilkka Kukkonen 12608,06°55'N; 39°40'E,1983,c. 3400 m,8.XI.1982,Dryopteris inaequalis (Schlechtend.) O. Kuntze,"Bale Adm. Reg., Saneti plateau and Mount Batu, 06°55'N; 39°40'E, c. 4000-4200 m. In alpine belt dominated by Festuca schefflerii, Euryops prostrata, Anthemis tigrensis"
M. x robertsii,M. Vallejo-Marín,British Isles,Scotland,Occurring on the banks of a stream on a substrate of sand and shingle,N/A,Mimulus peregrinus Vall.-Marín,"British Isles, v.c. 77, Shortcleuch Water, Leadhills, South Lanarkshire, Scotland. OS Grid reference: NS 9029 1578. WGS84 coordinates: N 55.4237°, W 3.7349°",N/A,2012-03-23,Leadhills,Typed,E00570050,11-LED-seed-2-14,South Lanarkshire,G. Lye | D. Barragán | M. A. Vallejo | C. Marín | I. Vallejo,HOLOTYPE,"Vallejo-Marín, M. with: Lye, G., Barragán, D., Vallejo, M.A., Marín, C., Vallejo, I.","N 55.4237°, W 3.7349°",N/A,360 m,23 Mar 2012,Mimulus peregrinus sp. nov.,"British Isles, v.c. 77, Shortcleuch Water, Leadhills, South Lanarkshire, Scotland. OS Grid reference: NS 9029 1578. WGS84 coordinates: N 55.4237°, W 3.7349°"
N/A,B. T. Lowne,United Kingdom,Surrey,N/A,N/A,Monotropa Hypopithys,Reigate Hill. Surrey,N/A,1902-08-09,N/A,Mix of Handwritten and Typed,K000773283,s.n.,N/A,N/A,no type status,B.T. Lowne,N/A,N/A,N/A,Aug. 9th 1902,Monotropa Hypopithys,Reigate Hill. Surrey
Cistus and Pinus,B. Van de Vijver,ITALIA,Promontorio del Gargano,macchia-shrub with Cistus and Pinus,N/A,Ophrys oestrifera subsp. garganensis Van de Vijver & W. Van Looken,Behind the Chapel of Madonna di Loreto,N/A,2007-04-25,Madonna di Loreto,Mix of Handwritten and Typed,BR - S.P. 691 837|0000006 91837 8,s.n.,N/A,N/A,no type status,Collector: Bart Van de Vijver,N/A,N/A,N/A,25/04/2007,Ophrys oestrifera subsp. garganensis Van de Vijver & W. Van Looken,Behind the Chapel of Madonna di Loreto
N/A,G. Hatschbach,Brazil,Paraná,"Erva 1m, terreno arenoso, margens de rio",T. M. Pedersen,Pfaffia glabratoides Ssgth.,"Rio Iguaçu, prox. a barra do Perdido (mun. Laranjeiras do Sul) Paraná",N/A,1968-11-09,N/A,Mix of Handwritten and Typed,K001207911,20590,Laranjeiras do Sul,N/A,no type status,G. Hatschbach,N/A,971,N/A,9/11/968,Pfaffia glabratoides Ssgth.,"Rio Iguaçu, prox. a barra do Perdido (mun. Laranjeiras do Sul) Paraná"
N/A,J. J. de Wilde,Gabon,N/A,"Vine, 7 m. long in tree in roadside. Pods silvery-grey. Seeds glossy, dark blue. Leaflets thick leathery, dull, green above, beneath paler green, with reddish nervation",N/A,Rhynchosia gabonensis Jongkind,About 10 kilometers on the road from Tchimbélé to Assok,N/A,1991-01-22,N/A,Typed,K000263710,10130,N/A,Sosef | van Nek,ISOTYPE,"J.J. de Wilde, Sosef & van Nek","0 04 N., 10 23 E",N/A,± 580 m,22-1-1991,Rhynchosia gabonensis Jongkind,"About 10 km. on the road from Tchimbélé to Assok. 0 04 N., 10 23 E. Alt.:± 580 m."
N/A,W. Suksdorf,United States,WASHINGTON,High sandy river-bank,T. Särkinen,Solanum triflorum Nutt.,High sandy river-bank at Bingen,N/A,1926-08-03,Bingen,Typed,BM000934757,12045,KLICKITAT COUNTY,N/A,no type status,WILHELM SUKSDORF,N/A,2014,N/A,3. Aug. 1926,Solanum triflorum Nutt.,High sandy river-bank at Bingen
N/A,J. F. Macbride,PERU,N/A,N/A,F. A. Michelangeli,Tococa undabunda J.F. Macbr.,Montaña slope ABOUT 4000 FEET HACIENDA SCHUNKE,1923-09-01,1923-08-27,N/A,Typed,K000536956,5234,LA MERCED,N/A,Isotype of Tococa undabunda J.F. Macbr. Publ. Field Col. Mus. Bot. Ser. 4:177. 1929,J. FRANCIS MACBRIDE,N/A,20.08,ABOUT 4000 FEET,"AUG. 27-SEPT. 1, 1923",Tococa undabunda Macbr.,Montaña slope ABOUT 4000 FEET HACIENDA SCHUNKE
"C.heterophylla, C.scabrida, C.lanceolata y C.crotonoides",X. Cornejo,ECUADOR,Manabí,"Arbusto de 1 m alto hasta arbolillo de 4 m. Flores blancas, corola refleja color blanco puro, filamentos (2mm). Ginóforo con pedúnculo blanco, cuando maduro púrpura. Partes vegetativas con olor a legumbre",N/A,Capparis sclerophylla Iltis,"Bahía de Caráquez a 8 Km. Alrededores de Universidad Católica. Bosque seco tropical deciduo, fuertemente intervenido",N/A,1997-10-27,Bahía de Caráquez,Typed,B 10 0375227,5822,N/A,C. Bonifaz,ISOTIPO,"X.Cornejo, C.Bonifaz: 5822",-00.45 -80.32,N/A,30 m,"Oct. 27, 1997",Capparis sclerophylla Iltis nov.sp. ISOTIPO,"Prov.Manabí.Bahía de Caráquez a 8 Km. Alrededores de Universidad Católica.Bosque seco tropical deciduo, fuertemente intervenido"
N/A,DELAVAY,CHINE,YUN-NAN,N/A,N/A,Gentiana albescens Franch.,in collibus prope Mo-so-yn,N/A,1887-04-02,N/A,Mix of Handwritten and Typed,B 10 0185601,s.n.,N/A,N/A,no type status,M. l'Abbé DELAVAY,N/A,N/A,N/A,2 april 1887,Gentiana albescens Franch.,in collibus prope Mo-so-yn
N/A,Winfried Meier,Venezuela,"Distrito Federal, Estado Miranda","arbol caido, secado",P. J. M. Maas,Klarobelia subglobosa Chatrou,"Distrito Federal, Estado Miranda: Cordillera de la Costa: excursión Guatire-Caruao: ruta: Fila Juan Torres-Rio Brazo Grande-Fila Maestra-Rio Caruao-población San Jorge de Caruao",1993-04-19,1993-04-16,N/A,Mix of Handwritten and Typed,B 10 0030508,3685,N/A,Silvia Llamozas,Isotypus,Winfried Meier y Silvia Llamozas,"lat.: 10°34'N, long.: 66°23'O",1994,500 msnm,16-19 de abril 1993,Malmea diclina vel. aff.,"Distrito Federal, Estado Miranda: Cordillera de la Costa: excursión Guatire-Caruao: ruta: Fila Juan Torres-Rio Brazo Grande-Fila Maestra-Rio Caruao-población San Jorge de Caruao"
N/A,Kessler,Indonesia,Sarawak,"Secondary vegetation along road. Shrub c. 4 m tall, stem and lower leaf surface brownish, fruit greenish brown",Kessler,Mallotus paniculatus,Base of Gunung Pueh,N/A,1988-12-21,N/A,Typed,M/2003-8,283,1st Division,N/A,no type status,Kessler 283,N/A,N/A,up to 200 m,21.12.1988,Mallotus paniculatus,Base of Gunung Pueh
N/A,M. Jacobs,Borneo,Sarawak,"In very moist sandstone gorge on rocks. Inflor. sheath violet, tip olive-greenish; ♀ and ♂ flowers sordidly pale yellow. Frequent on the spot. Pollinated by small blue glossy beetles.",N/A,Piptospatha grabowskii (Engl.)Engl.,"N.slopes of Mount Penrissen (S. of Kuching), Primary forest on sandstone substratum",N/A,1958-08-01,N/A,Typed,B 10 0279821,5005,1st div.,N/A,no type status,M. JACOBS,"approx. 1° N, 110° 10' E",N/A,Alt.: c. 700-900 m.,Aug. 1,Piptospatha grabowskii (Engl.)Engl. (Syn. P. havilandii (Engl.)Engl.),"N.slopes of Mount Penrissen (S. of Kuching), approx. 1° N, 110° 10' E. Primary forest on sandstone substratum."
N/A,P. J. M. Maas,Brazil,Espírito Santo,"High forest, on brown sand; vegetation with many Palmae and terrestrial and epiphytic Bromeliaceae",P. J. M. Maas,Pseudoxandra spiritus-sancti Maas,"Est. Espírito Santo, Município de Santa Teresa, Estação Biológica de Santa Lúcia",N/A,1999-02-16,Santa Teresa,Typed,B 10 0030420,8833,Santa Teresa,H. Maas|L. Kollmann,Isotype,"P. J. M. & H. Maas, L. Kollmann",19°58'S 40°32'W,1999,800 m,16 Feb 1999,Pseudoxandra sp. nov.,"Est. Espírito Santo, Município de Santa Teresa, Estação Biológica de Santa Lúcia"
N/A,R. Berazaín,Cuba,Guantánamo,N/A,H. Manitz,Stenandrium pallidum H. Dietr.,"Abra de Mariana, loma al oeste del barranco",N/A,1979-02-09,N/A,Typed,B 10 0385068,HFC 39098,San Antonio del Sur,J. Bisse | M. A. Díaz | H. Dietrich | L. González Géigel | J. Gutiérrez | E. Köhler | L. Lepper | U. Rändel | H. Schaarschmidt,Isotypus,"R. Berazaín, J. Bisse, M. A. Díaz, H. Dietrich, L. González Géigel, J. Gutiérrez, E. Köhler, L. Lepper, U. Rändel, H. Schaarschmidt","16/71 [,,15/70""]",2007,N/A,09-II-1979,Stenandrium pallidum H. Dietr.,"Abra de Mariana, loma al oeste del barranco Coordenadas de la cuadrícula (Cuba 1:250000): 16/71 [,,15/70""]"
