associatedTaxa,collectedBy,country,firstPoliticalUnit,habitat,identifiedBy,latestScientificName,locality,maximumEventDate,minimumEventDate,municipality,originalMethod,otherCatalogNumbers,recordNumber,secondPoliticalUnit,secondaryCollectors,typeStatus,verbatimCollectors,verbatimCoordinates,verbatimDateIdentified,verbatimElevation,verbatimEventDate,verbatimIdentification,verbatimLocality
N/A,E. A. Mearns,South Sudan,Bahr el Jebel,N/A,J. Koyap,Cyperus maculatus,Rhino Camp,1910-02-02,1910-01-10,N/A,Mix of Handwritten and Typed,468360,2532,Lado Enclave,N/A,no type status,Dr. Edgar A. Mearns,N/A,19.10.1971,N/A,"Jan. 10 to Feb. 2, 1910",Cyperus caldwellii Ridley,"""Rhino Camp"""
N/A,F. G. Overlaet,Democratic Republic of the Congo,N/A,N/A,B. Pettersson,Habenaria,[precise locality unknown],N/A,1923-04-00,N/A,Typed,752356,s.n.,N/A,N/A,no type status,COLL. F. G. OVERLAET,N/A,1984,N/A,1923-4,Habenaria,N/A
Dombeya mastersii | Olea hochstetteri,R. A. Maas Geesteranus,Kenya,Nyanza,glade surrounded by rather open tall forest,unsure and check,Pycreus segmentatus,Tinderet Forest Reserve Camp I,N/A,1949-06-14,N/A,Mix of Handwritten and Typed,1417352,4924,Londiani,N/A,no type status,R. A. Maas Geesteranus,lat. 0° 5' S long. 35° 27' E,N/A,2260 m s.m.,14-VI-1949,Pycreus segmentatus C.B.C.L.,Tinderet Forest Reserve Camp I
N/A,J. M. Reitsma,Gabon,N/A,Primary rain forest,O. Kosovsky,Bulbophyllum scaberulum,6 kilometers northwest of Ovan chantier Rougier Océan,N/A,1985-03-03,N/A,Typed,2310219,2013,N/A,C. B. Reitsma,no type status,Récolteurs: J. M. et C. B. Reitsma,0 41 N x 11 07 E,2011,N/A,3-3-85,Bulbophyllum scaberulum (Rolfe) Bolus var. scaberulum,ca 6 km NW of Ovan chantier Rougier Océan
N/A,Carvalho,Equatorial Guinea,Bioco,Bosque secundario y terrenos incultos Herbacea 20-30 cm,C. Cebolla | M. A. Rivas Ponce,Mariscus alternifolius,finca las Carboneras,N/A,1986-07-26,Malabo,Typed,2201108,2102,N/A,N/A,no type status,Carvalho 2102,N/A,1995,8 m,26-VII-1986,Mariscus alternifolius Vahl,finca las Carboneras 32NMK7415 8 m
N/A,N. Fernández,Equatorial Guinea,Bioco,márgenes de la pista,C. Cebolla | M. A. Rivas Ponce,Agrostis manii,Cumbre del pico Basilé,N/A,1989-11-05,N/A,Typed,2200806,11206,N/A,N/A,no type status,Fernández Casas 11206,32NMJ7396,1993,2870 m,5-11-1989,Agrostis manii (Hooker fil.) Stapf,cumbre del pico Basilé 32NMJ7396 2870 m márgenes de la pista
N/A,F. G. Overlaet,Democratic Republic of the Congo,N/A,N/A,A. Peter,Scirpus mucronatus,[precise locality unknown],1924-00-00,1923-00-00,N/A,Typed,752378,s.n.,N/A,N/A,no type status,COLL. F. G. OVERLAET,N/A,1960,N/A,1923-4,Scirpus,N/A
N/A,C. J. P. Seegeler,Ethiopia,Shewa,In full sun on lava rock,G. J. H. Amshoff,Vernonia abyssinica,3 kilometers from Metahara on road to Nazareth,N/A,1972-10-23,N/A,Typed,2302805,2806,N/A,N/A,no type status,Collected by C.J.P. Seegeler,c. 8°56'N 39°55'E,1982,Alt: 925m,23 October 1972,Vernonia abyssinica Sch.Bip.,3 km from Metahara on road to Nazareth
N/A,N/A,Democratic Republic of the Congo,Sud-Kivu,N/A,N/A,Carduus leptacanthus,Musisi,N/A,2003-08-05,Musisi,Mix of Handwritten and Typed,2257689,48,Kabare,N/A,no type status,Nom du récolteur,N/A,N/A,N/A,05.08.2003,Carduus leptacanthus Fres,Musisi
N/A,J. M. Fay,Central African Republic,Manovo-Gounda-St. Floris,N/A,J. M. Fay,Burkea africana,Vicinity of Camp Koumbala,N/A,1987-05-25,N/A,Typed,NCI# Wood Q67B/0065 Bark Q67B/0066 Root Q67B/0067 Leaves Q67B/0068,8017,N/A,N/A,no type status,J.M. Fay 8017,08°29'N 21°12'E,N/A,elev. 600 m,25 May 1987,Burkea africana Hook.,Vicinity of Camp Koumbala
N/A,P. C. M. Jansen,Ethiopia,Harerge,Between chat and Sorghum fields,C. C. H. Jongkind,Cirsium vulgare,around Damata Village near Alemaya,N/A,1976-04-14,N/A,Typed,2302849,5996,N/A,N/A,no type status,Collected by: P.C.M. Jansen,c. 9°24' N 42°01' E,1987,2000m,14 April 1976,Cirsium vulgare (Savi) Ten.,around Damata Village near Alemaya Between chat and Sorghum fields
N/A,A. Koch,Kenya,Kajiado,Dry bushland,P. Mutiso,Acacia reficiens,Oldepe,N/A,2003-10-22,N/A,Typed,2309478,AK61,Oloishobor,W. Sakuda,no type status,"Amanda Koch, Wilson Sakuda, AK61, October 22, 2003",N/A,"November 02, 2003",N/A,"October 22, 2003",Acacia reficiens misera (Vatke) Brenan,Maasai Name: Oldepe
N/A,J. Lebrun,Democratic Republic of the Congo,Lualaba,N/A,C. A. Smith,Albizzia gummifera,Lolo,N/A,1931-03-00,N/A,Mix of Handwritten and Typed,867368,2409,N/A,N/A,no type status,J. Lebrun,N/A,N/A,N/A,Mars 1931,Albizzia gummifera (J. M. G.),Lolo (Uele Itimbiri)
N/A,N/A,Kenya,N/A,N/A,N/A,Digitaria pennata,Tsavo - Mtito Andei,N/A,1957-12-25,N/A,Mix of Handwritten and Typed,1559644,2077,N/A,N/A,no type status,N/A,N/A,N/A,N/A,25.12.1957,Digitaria pennata (Hochst) Chiov,Tsavo - Mtito Andei Kenya
N/A,N/A,Democratic Republic of the Congo,N/A,foret secondaire,H. Callens,Gaertnera paniculata,[precise locality unknown],N/A,1958-07-00,Kisantu,Typed,158465,s.n.,N/A,N/A,no type status,N/A,N/A,1/9/58,N/A,Juillet 1958,Gaertnera paniculata,Kisantu (Congo Belge) Africa
N/A,G. Troupin,Democratic Republic of the Congo,Kivu,"Foret ombrophile Canton 1,540 m",N/A,Mikani cordata,Vers le 110 route Kavumu-Walikale pres reserve Tshelo,N/A,1958-02-10,N/A,Typed,1543353,6333,Kelehe,N/A,no type status,G. Troupin,N/A,N/A,850 - 900 m,10/2/1958,Mikani cordata (Burm.f.) B.L.Robins,Vers le 110 route Kavumu-Walikale pres reserve Tshelo
N/A,G. McPherson,Gabon,Ogooue-Ivindo,Arbre 15 m fruit brun,Wilks | McPherson,Corynanthe mayumbensis,Réserve de la Lopé au sud d'Ayem chantier SOFORGA,N/A,1989-03-20,N/A,Typed,LF:Q665-0223-G BK:Q665-0224-H WD:Q665-0225-I,13781,N/A,N/A,no type status,Gordon McPherson 13781,0°25'S 11°30'E,1989,c. 200 m,20 Mars 1989,Corynanthe mayumbensis (R. Good) N. Hallé,Réserve de la Lopé au sud d'Ayem chantier SOFORGA
Guibourtia demeusei | Berlinia sp. | Bombax sp.,J. M. Fay,Cameroon,N/A,In seasonally flooded forest,A. Assi,Millettia zechiana,On the Sangha River across from Ndakan gorilla study area,N/A,1988-03-04,N/A,Typed,NCI Leaves 067E/0545-C | Wood 067E/0546-H | Bark 067E/0547-I | Root 067E/0548-J,8294,N/A,N/A,no type status,J. M. Fay,02°20'N 16°08'E,1988,385 m,4 March 1988,Millettia zechiana Harms,On the Sangha River across from Ndakan gorilla study area
N/A,F. A. Melville,Equatorial Guinea,Annobón,Clearing in wood scrambling over herbage,unsure and check,Phaseolus lunatus,South West of Crater Lake,N/A,1959-07-29,N/A,Typed,1624518,199,N/A,N/A,no type status,F. A. Melville,N/A,N/A,"1,500 ft.",29.vii.1959,Phaseolus lunatus L.,South West of Crater Lake
N/A,R. L. Piemeisel,Kenya,N/A,N/A,N/A,N/A,Muthaiga near Nairobi,N/A,1937-06-28,Nairobi,Typed,2074762,2,N/A,L. W. Kephart,no type status,R. L. Piemeisel L. W. Kephart,N/A,N/A,"1,700 meters",June 28 1937,N/A,Muthaiga near Nairobi
N/A,A. Léonard,Democratic Republic of the Congo,North Kivu,Vieille forêt secondaire,B. Sonké,Oxyanthus speciosus,Masisi,N/A,1959-02-19,Masisi,Typed,2086095,3149,N/A,N/A,no type status,A. Léonard,N/A,1989,1900 m,19/2 1959,Oxyanthus speciosus DC. subsp. indet.,Masisi
N/A,R. P. Klaine,Gabon,N/A,fruit et arille rouge,N/A,Klainedoxa,[precise locality unknown],N/A,0000-00-00,Libreville,Mix of Handwritten and Typed,781173,3200,N/A,N/A,no type status,récolté par le R. P. Klaine,N/A,N/A,N/A,N/A,Klainedoxa,Herbier des environs de Libreville
N/A,J. T. Allen,Ghana,Volta,Anti-asthmatic; treating coughs and colds; antipyretic; for dysentery; Applied topically-arthritis,N/A,Dissotis rotundifolia,Larteh; Center for Scientific Research into Plant Medicine farm,N/A,1996-09-23,N/A,Typed,2200652,41,N/A,N/A,no type status,James T. Allen,N/A,N/A,N/A,"September 23, 1996",Dissotis rotundifolia (Sm.) Triana,Larteh; Center for Scientific Research into Plant Medicine (CSRPM) farm
N/A,J. E. Andoh,Ghana,Ashanti,Medium sized tree 30 ft high and 2 ft girth Planted in 1935,N/A,Chrysophyllum perpulchrum,Kumasi Township Forest Reserve,N/A,1952-03-00,N/A,Typed,1601919,5632,Kumasi,N/A,no type status,J E Andoh,N/A,N/A,N/A,March 1952,Chrysophyllum perpulchrum Mildbr.,Kumasi Township Forest Reserve
N/A,J. Nemba,Cameroon,Southwest,Secondary growth and old growth forest,D. W. Thomas,Donella welwitschii,Kumba-Mamfe road at mile 14 Lkilwindi,N/A,1987-06-15,N/A,Typed,Q66/0052-L,520,N/A,D. W. Thomas,no type status,J. Nemba & D.W. Thomas 520,04°44'N 09°29'E,1987,200 m,15 June 1987,Donella welwitschii Pierre ex Engl.,Secondary growth and old growth forest along Kumba-Mamfe road at mile 14 Lkilwindi
N/A,J. Deaw,Ghana,N/A,A shrub about 6 feet high flowering pedicels fascicled fruit ellipsoid calyx persistent at the apex,A. A. Enti,Eugenia coronata,[precise locality unknown],N/A,1971-10-04,Accra,Typed,1753423,Sp 283,N/A,N/A,no type status,J. Deaw,N/A,19,N/A,4 10 71,Eugenia coronata,Accra
N/A,G. Schweinfurth,Eritrea,N/A,N/A,unsure and check,Rumex nervosus,Saganeïti,N/A,1892-05-01,N/A,Mix of Handwritten and Typed,71288,1814,N/A,D. Riva,no type status,G. Schweinfurth et D. Riva,N/A,N/A,2300/2100 m,1 mai 1892,Rumex nervosus V.,Saganeïti pente du Nord au dessous d'Addi-Abbougn
Combretum schumannii,R. B. Faden,Kenya,Kwale,Coral rag dry forest,J. O. Kokwaro,Toddaliopsis sansibarensis,Chale Peninsula,N/A,1977-03-07,N/A,Typed,2153520,77/711,N/A,A. J. Faden,no type status,R.B. & A.J. Faden 77/711,"ca. 4°26'S 39°32'30""E",N/A,0-5 m,7 March 1977,Toddaliopsis sansibarensis (Engl.) Engl. confirmed J.O. Kokwaro,Kenya K7 Kwale District Chale Peninsula
N/A,F. Szafranski,Democratic Republic of the Congo,Haut-Uele,bas fond marécageux près de la route aux environs de l'usine SOCODIA,N/A,Floscopa glomerata,[precise locality unknown],N/A,1988-02-05,Isiro,Typed,2084694,1378,N/A,N/A,no type status,F. Szafranski,N/A,N/A,N/A,5.2.1988,Floscopa glomerata (Roem. et Schult.) Hassk.,Haut-Zaïre S-Rég Haut-Uele Isiro
N/A,F. W. H. Migeod,Cameroon,Northwest,Shrub very thorny and spinous,M. Nee,Solanum aculeatissimum,Bamenda,N/A,1928-01-25,Bamenda,Typed,1441275,394,N/A,N/A,no type status,F. W. H. Migeod,N/A,"Dec. 3, 1977","5,500 ft.",25. 1. 1928.,Solanum sp.,Bamenda British Cameroons
N/A,T. C. Wrigley,Equatorial Guinea,Annobon,Open woodland,A. W. Exell,Cassipourea annobonensis,Ridge west of Crater Lake,N/A,1959-07-18,N/A,Typed,1624568,52,N/A,F. A. Melville,no type status,T.C. Wrigley and F.A. Melville,N/A,1961,1200 m,18 July 1959,Cassipourea annobonensis Mildbr. ex Alston,Ridge west of Crater Lake
N/A,W. Burger,Ethiopia,Harar,Forming bush 2.5m tall under Podocarpus etc,W. B. Kwan,Rubus apetalus,Near G. Ades 18 kilometers east of Hirna along new highway steep slopes,N/A,1962-05-27,N/A,Mix of Handwritten and Typed,1825230,1767,N/A,N/A,no type status,William Burger,9°17'N 41°3'E,N/A,At 7200 feet,27 May 1962,Rubus apetalus Poir,Near G. Ades 18Km. e. of Hirna along new hwy steep slopes with remnant Podocarpus & juniperous forest
N/A,J. D. Sauer,Kenya,Coast,Beach ridge shallow open coast,N/A,Aerva lanata,Bumburri Beach near Mombasa,N/A,1963-06-15,N/A,Typed,1595670,3914,Kwale,N/A,no type status,J.D. Sauer,N/A,N/A,N/A,15 June 1963,Aerva lanata (L.) Juss.,Bumburri Beach N of Mombasa
N/A,C. Vigne,Ghana,N/A,N/A,N/A,Enantia polycarpa,[precise locality unknown],N/A,0000-00-00,N/A,Typed,839434,4068,N/A,N/A,no type status,C. Vigne,N/A,N/A,N/A,N/A,Enantia polycarpa Engl. & Diels,Gold Coast
N/A,E. Addo,Ghana,N/A,N/A,N/A,Uvaria versicolor,[precise locality unknown],N/A,1999-00-00,N/A,Typed,2325285,1026,N/A,N/A,no type status,Eman Addo,N/A,N/A,N/A,Collected in 1999,Uvaria versicolor Pierre,N/A
N/A,A. A. Enti,Ghana,Central,A climber among grasses,A. A. Enti,Pergularia daemia,Awutu - Winneba Road,N/A,1971-11-22,N/A,Typed,1753348,Sp 393,N/A,N/A,no type status,A.A. Enti,N/A,19 71,N/A,22 11 19 71,Pergularia daemia,Awutu - Winneba Road
N/A,D. W. Thomas,Cameroon,Southwest,Primary rain forest Understorey tree 5 m tall,D. W. Thomas,Cola flavovelutina,Korup National Park,N/A,1987-00-00,N/A,Typed,2041255,6850,N/A,N/A,no type status,D.W. Thomas 6850,05°02'N 08°50'E,1987,60 m,1987,Cola flavovelutina K. Schum,PROV. SOUTHWEST: Korup National Park
N/A,S. A. Thompson,Cameroon,Sud-Ouest,Erect herb up to 70 cm tall growing on wet rocks flowers purple,N/A,Impatiens macroptera,Trail up Mount Cameroon,N/A,1984-07-09,Bakingili,Typed,2086046,1522,Fako,N/A,no type status,Sue A. Thompson 1522,4°04'N 9°02'E,N/A,50-250 m.,9 July 1984,Impatiens macroptera Hook.f.,Trail up Mt. Cameroon
N/A,D. Wiens,Kenya,Kitui,Thornshrub,N/A,Englerina tenuifolia,4 kilometers north of Kangondi on road to Embu,N/A,1971-12-16,N/A,Mix of Handwritten and Typed,1864166,4484,N/A,N/A,no type status,D. Wiens,N/A,N/A,4500 ft,16-12-71,Englerina tenuifolia (Engl.) Gilli,4 km n. of Kangondi on road to Embu
N/A,S. A. Thompson,Cameroon,Sud-Ouest,Seaside Tree ca 2-3 m tall bark with light blotches flowers white,N/A,Avicennia africana,Bakingili,N/A,1984-06-03,Bakingili,Typed,2088074,1333,Fako,J. E. Rawlins,no type status,Sue A. Thompson 1333 & John E. Rawlins,4°04' N 9°02' E,N/A,0 m,3 June 1984,Avicennia africana P. Beauv.,Bakingili 4°04' N 9°02' E Alt. 0 m Seaside
N/A,G. Troupin,Democratic Republic of the Congo,Kivu,forêt ombrophile,unsure and check,Tithonia diversifolia,Vers la 110 route Kavumu-Kalonge,N/A,1958-09-12,N/A,Typed,1543374,6347,Itombwe,N/A,no type status,G. Troupin,N/A,N/A,850-900 m,12.9.1958,Tithonia diversifolia (Hemsl.) A. Gray,Vers la 110 route Kavumu-Kalonge
N/A,A. Pappi,Eritrea,N/A,N/A,T. M. Upson,Lavandula pubescens,Lungo il Torrente Haddas,1902-08-15,1902-08-14,N/A,Typed,1559413,262,N/A,N/A,no type status,A. Pappi,N/A,2/4/1996,N/A,14-15.VIII.1902,Lavandula pubescens Decaisne,Lungo il Torrente Haddas
N/A,W. M. Burger,Ethiopia,Harar,Taller on steep slopes with mixed forest,W. B.,Juniperus procera,N. W. face of Gara Mullata Mountain approximately 50 kilometers due west of Harar,N/A,1962-02-14,N/A,Mix of Handwritten and Typed,1632855,1453,N/A,N/A,no type status,W. M. Burger,9°16'N 41°43'E,N/A,8600 feet 2500-3000 m,14 Feb. 1962,Juniperus procera Hochst. ex Endl.,N. W. face of Gara Mullata Mtn. ca. 50 km due W of Harar 9°16'N 41°43'E alt 2500-3000 m
N/A,G. B. D. Coker,Ghana,Volta Region,A tree to 40 feet high 6 feet girth wood yellow or brownish yellow,N/A,Terminalia glaucescens,Ho,N/A,1972-12-10,Ho,Mix of Handwritten and Typed,2007210,No. 1,N/A,N/A,no type status,G. B. D. Coker No. 1,N/A,1972,N/A,10/12/1972,Terminalia glaucescens,Ho Volta Region Ghana
N/A,W. Schimper,Ethiopia,unsure and check,N/A,unsure and check,Ipomoea cummunis,Amora Galla,N/A,1863-11-24,N/A,Mix of Handwritten and Typed,373793,1467,N/A,N/A,no type status,Schimper,N/A,N/A,N/A,24.11.63,Ipomoea cummunis; Chois.,Amora Galla
N/A,D. W. Thomas,Cameroon,Southwest,Degraded forest,D. W. Thomas,Tapura africana,Barombi Kang Kumba,N/A,1987-05-18,N/A,Typed,2040825,6988,N/A,M. Etuge,no type status,D.W. Thomas & M. Etuge,04°36'N 09°27'E,1987,150 m,18 May 1987,Tapura africana Oliv.,Degraded forest at Barombi Kang Kumba
N/A,E. A. Mearns,Kenya,N/A,N/A,unsure and check,Evolvulus alsinoides,Vicinity of Thika,1909-09-07,1909-09-06,N/A,Typed,468287,1114,N/A,N/A,no type status,Edgar A. Mearns,N/A,N/A,altitude about 1350 meters,"September 6 and 7, 1909",Evolvulus alsinoides L.,Vicinity of Thika British East Africa
N/A,G. MacNaughton,Kenya,N/A,N/A,unsure and check,Combretum schumannii,[precise locality unknown],N/A,0000-00-00,N/A,Typed,856357,580,N/A,N/A,no type status,G MacNaughton,N/A,N/A,N/A,s.d.,Combretum schumannii Engl.,N/A
Irvingia smithii | Guibourtia demensii | Berlinia sp.,J. M. Fay,Cameroon,N/A,In riparian forest adjacent to seasonally flooded forest,A. Assi,Combretum smeathmannii,Along the Sangha River adjacent to the island of Kilona,N/A,1988-02-28,N/A,Typed,NCI# Stem 067E/0466-T | Leaves 067E/0467-U,8271,N/A,N/A,no type status,J. M. Fay 8271,02°21'N 16°09'E,1988,385 m,28 February 1988,Combretum smeathmannii G. Don,Along the Sangha River adjacent to the island of Kilona
Thespesia populnea | Sophora occidentalis,D. D. Soejarto,Ghana,Greater Accra,"Straggling shrub, in association with Thespesia populnea and Sophora occidentalis. Fruits green. Forming clumps just behind beach, on sandy soil. Common",unsure and check,Diospyros tricolor,"20 kilometers West of Accra, Sea coast",N/A,1978-04-01,Bortianor,Mix of Handwritten and Typed,1842606,4793,N/A,N/A,no type status,D.D. Soejarto,N/A,N/A,N/A,"April 1, 1978",Diospyros tricolor Hiern.,"20 km. West of Accra, Sea coast"
N/A,N. Reyna,Peru,Loreto,arbol bosque húmedo tropical,D. R. Simpson,Guatteria scalarinervia,Santa María - Río Nanay,N/A,1967-12-15,Alto Nanay,Typed,229-I,40,Maynas,N/A,Holotype,Narciso Reyna R. 40,N/A,1975,150 m,15 diciembre 1967,Guatteria scalarinervia D. R. Simpson,Santa María - Río Nanay distr. Alto Nanay dept. Loreto prov. Maynas
N/A,M. O. Dillon,Peru,Arequipa,Erect glutinous shrub to 0.75 meters flowers red,unsure and check,Galvezia elisensii,Lomas of Atiquipa ca. 10.5 kilometers North of turn-off to Atiquipa Kilometer 584 South of Lima,N/A,1983-11-01,N/A,Typed,1940835,3776,Caraveli,D. Dillon,Holotype,M. O. Dillon & D. Dillon,N/A,unsure and check,ca. 150-200 m,1 Nov 1983,Galvezia fruticosa Gmel.,Lomas of Atiquipa ca. 10.5 km N of turn-off to Atiquipa KM 584 S of Lima ca. 150-200 m
N/A,F. Habbeg,N/A,N/A,N/A,F. Pax,Tetrorchidium rubrivenium,[precise locality unknown],N/A,1830-00-00,N/A,Mix of Handwritten and Typed,60787,1915,N/A,N/A,Isosyntype,Frank Habbeg,N/A,N/A,N/A,1830,Tetrorchidium rubrivenium var. genuinum Müll. Arg.,N/A
N/A,J. Campos,Peru,Cajamarca,Trepadora; flor amarilla,W. R. Anderson,Amorimia camporum,Entre La Catagua y Tablón,N/A,1996-02-09,N/A,Typed,2296033,2490,San Ignacio,O. Díaz,Isotype,José Campos y O. Díaz 2490,05°19'S 078°47'W,2006,550 - 650 m,9 Febrero 1996,Amorimia camporum W.R. Anderson,Distrito Chirinos: Entre La Catagua y Tablón
N/A,H. Ruiz,Peru,N/A,N/A,A. Mesa,Nolana spathulata,[precise locality unknown],N/A,1784-11-14,N/A,Typed,845155,s.n.,N/A,J. Pavon | Tafalla,Isolectotype,Tafalla collected with and for Ruiz & Pavon,N/A,1981,N/A,14 November 1784,Nolana spathulata R & P,N/A
N/A,C. Díaz,Peru,Amazonas,Liana con frutos verdes Pedúnculos largos,B. Ståhl,Symplocos ovata,"Camporredondo Tullanya Pascana ""Pajaro Tigre""",N/A,1996-12-04,N/A,Typed,2296023,8808,Luya,A. Peña,Isotype,Camilo Díaz y Antonio Peña 8808,N/A,2010,2250-2360 m,4 Diciembre 1996,Symplocos ovata Ståhl,"Camporredondo Tullanya Pascana ""Pajaro Tigre"""
N/A,R. P.,Peru,N/A,N/A,N. Hofreiter,Bomarea purpurea,[precise locality unknown],1788-00-00,1778-00-00,Pillao,Mix of Handwritten and Typed,916119,9/58,N/A,N/A,isotype,R & P,N/A,2007,N/A,1778-1788,Bomarea purpurea (Ruiz & Pavón) Herb.,N/A
N/A,V. Quipuscoa,Peru,Amazonas,Bosque montano fragmentado,M. Weigend,Lithospermum leymabambense,Carretera a Celendín between Ishpingo and Pomacocha,N/A,1998-08-20,Leymebamba,Typed,2211679,1378,Chachapoyas,A. Sagástegui | A. S. Leiva | G. M. Bejarano,Isotype,V. Quipuscoa S. A. Sagástegui A. S. Leiva G. M. Bejarano C.,N/A,Septiembre 2006,2800-3000 m,20 agosto 1998,Lithospermum cinerascens (A.DC.) Johnst.,Carretera a Celendín entre Ishpingo - Pomacocha
N/A,L. Williams,Peru,San Martin,Vine forest,D. Giraldo-Cañas,Marcgraviastrum mixtum,Forest Roque,N/A,1930-01-01,San Roque,Mix of Handwritten and Typed,65813,6999,N/A,N/A,Holotype,Llewellyn Williams,N/A,2010,1350-1500 m,1/1/1930,Norantea cuneifolia Macbr.,Forest Roque San Martin
N/A,N/A,Peru,N/A,N/A,D. Giraldo-Cañas | H. G. Bedell,Marcgraviastrum obovatum,Chachapoyas,1788-00-00,1778-00-00,N/A,Mix of Handwritten and Typed,843295,s.n.,N/A,N/A,Isotype,Ruiz et Pavón,N/A,2010 | VIII 1982,N/A,1778-1788,Norantea obovata (R & P) G. Don,Chachapoyas
N/A,N/A,Peru,N/A,N/A,J. Giraldo-Cañas | H. G. Bedell,Marcgraviastrum obovatum,[precise locality unknown],1788-00-00,1778-00-00,N/A,Mix of Handwritten and Typed,65816,s.n.,N/A,N/A,Isotype,Ruiz et Pavón,N/A,2010 | VIII 1982,N/A,1778-1788,Norantea obovata G. Don,N/A
N/A,R. B. Foster,Peru,Huánuco,Forested low hills and ravines,M. J. Huft,Acidoton venezolanus,Pachitea; Puerto Inca to Sungaro. Foot trail between Río Pachitea and Río Sungaro.,N/A,1982-09-13,N/A,Typed,1921102,8752,N/A,N/A,no type status,Robin B. Foster,"75°00'W, 9°18'S.",1983,250-300 m.,13 Sept. 1982,Acidoton venezolanus (Pax & Hoffm.) Webster,Pachitea; Puerto Inca to Sungaro. Foot trail between Río Pachitea and Río Sungaro.
N/A,J. Schunke,Peru,San Martín,In tall forest,J. A. Lombardi,Tontelea attenuata,Quebrada Huicte,N/A,1949-05-27,N/A,Mix of Handwritten and Typed,1751666,6505,N/A,N/A,no type status,José Schunke Vigo,N/A,IV 1999 2000,529 m,27 May 1949,Tontelea attenuata Miers,Quebrada Huicte (rio Huallaga) in tall forest
N/A,M. Rimachi,Peru,Loreto,"marginal forest, ""muena,"" 8 m, fr. green",D. A. Chanderbali,Endlicheria anomala,"Quebrada de Aucayacu, above Genaro Herrera",N/A,1979-02-08,Saquena,Typed,2058606,4268,Requena,N/A,no type status,Manuel Rimachi Y.,N/A,2001,N/A,"February 8, 1979",Nectandra krukovii (A.C. Smith) Kosterm.,"Río Ucayali, Quebrada de Aucayacu, above Genaro Herrera"
N/A,S. Flores,Peru,Loreto,Bosque secundario 35 años,T. Plowman,Paracoubea sericea,Ampiyacu-Pevas,N/A,1982-07-00,N/A,Typed,1968315,95(P1-2),Maynas,N/A,no type status,SALVADOR FLORES P.,N/A,1985,100 m.s.n.m.,Julio/82,Paracoubea sericea Tul.,Ampiyacu-Pevas
N/A,P. Núñez,Peru,Cuzco,N/A,M. H. Mayfield,Euphorbia heterophylla,Quillabamba Salsapampa,N/A,1986-10-29,N/A,Typed,1982606,6330,La Convención,S. Walsh,no type status,Percy Núñez & S. Walsh,N/A,Oct. 1995,1110 m.,29 October 1986,Euphorbia heterophylla L.,Quillabamba Salsapampa
N/A,J. Schunke,Peru,San Martin,En bosque secundario con abundante luz solar,J. Dwyer,Hamelia patens,San Juan de Pacaiquama km 72 carretera Tarapoto-Moyobamba,N/A,1977-05-30,Alonso de Alvarado,Typed,1872133,9560,Lamas,N/A,no type status,Jose Schunke,N/A,1980,1000-1050 m,30 Mayo 1977,Hamelia patens Jacq.,San Juan de Pacaiquama km 72 carretera Tarapoto-Moyobamba
N/A,G. Moore,Peru,Loreto,"Tree of 20m Important medicinal plant The ""milk"" from the bark is drunk",W. C. Burger,Ficus maxima,Quistococha 14 kilometers north of Iquitos,N/A,1981-08-18,N/A,Typed,1923146,138,N/A,L. Luna | J. Ruiz,no type status,G.Moore L.Luna J.Ruiz,N/A,1982,600m elev,18-8-81,Ficus maxima P. Miller,Quistococha 14km north of Iquitos
N/A,E. P. Killip,Peru,Junín,dense forest,N/A,Psychotria racemosa,Cahuapanas on Rio Pichis,1929-07-21,1929-07-20,N/A,Mix of Handwritten and Typed,607534,26721,N/A,A. C. Smith,no type status,E. P. Killip | A. C. Smith,N/A,N/A,about 340 meters,"July 20, 21, 1929",Psychotria racemosa (Aubl.) Willd.,Cahuapanas on Rio Pichis
N/A,M. O. Dillon,Peru,Piura,Shrubs to 1 m; flowers yellow,P. Fryxell,Wissadula grandifolia,2 kilometers north of Canchaque,N/A,1991-07-22,N/A,Typed,2119563,6310,Huancabamba,I. Sánchez V.,no type status,M. O. Dillon and I. Sánchez V.,[5°24'S; 79°36'W],1993,ca. 1450 m,22 Jul 1991,Wissadula grandifolia Baker ex Rusby,ca. 2 km N of Canchaque
N/A,J. F. Macbride,Peru,N/A,Sunny brushy slope open brushy 4-5 ft shrub,unsure and check,Croton balsamensis,Cueva Grande Estacion near Pozuzo,N/A,1923-06-23,N/A,Typed,535840,4806,N/A,N/A,no type status,COLL. J. FRANCIS MACBRIDE,N/A,N/A,ABOUT 3500 FEET,"June 23, 1923",Croton balsamensis,Cueva Grande Estacion near Pozuzo
N/A,A. Sagastegui,Peru,Cajamarca,Ladera abierta,B. H. Nielsen | C. Aedo,Geranium chilloense,Tingo Trinidad,N/A,1962-07-18,N/A,Mix of Handwritten and Typed,1684365,3820,Contumaza,N/A,No type status,A. Sagastegui A.,N/A,1993 | 2007,2820 m s.n.m.,18 Julio 1962,Geranium chilloense Kunth,Tingo Trinidad
N/A,J. Mostacero,Peru,Cajamarca,Ladera al borde de carretera,M. J. Huft,Dalechampia aristolochiifolia,La Pucarilla,N/A,1986-10-14,N/A,Typed,199382,1640,Cutervo,S. Leiva | F. Mejia | F. Pelaez | J. Guevara,no type status,J. Mostacero L. S. Leiva G. F. Mejia C. F. Pelaez J. Guevara B.,N/A,1992,2450 m.s.n.m.,14-X-1986,Dalechampia aristolochiifolia Kunth,La Pucarilla (Socota-San Andres)
N/A,R. Spichiger,Peru,Loreto,Bosque de terraza alta suelo arenoso,N/A,Pourouma guianensis,[precise locality unknown],N/A,1986-04-10,Jenaro Herrera,Mix of Handwritten and Typed,N° 2027582,3012,N/A,P.-A. Loizeau,no type status,"SPICHIGER, R. & P.-A. LOIZEAU",73°45'W-4°55'S,N/A,125 m,10-4-86,Pourouma guianensis ssp guianensis,Bosque de terraza alta suelo arenoso
N/A,G. Klug,Peru,Loreto,forest,H. F. Loomis,Balsesia floribunda,Mishuyacu near Iquitos,N/A,1929-12-00,N/A,Mix of Handwritten and Typed,613565,660,N/A,N/A,no type status,G. Klug,N/A,N/A,100 meters,Dec. 1929,Balsesia floribunda Benth.,Mishuyacu near Iquitos
N/A,T. R. Dudley,Peru,Ayacucho,Parasitic foliage yellowish-green calyx bright orange rare translucent pink waxy in dense areas isolated 40-50 feet high on hepatic forest at timberline,J. Kuijt,Dendrophthora sp.,eastern Massif of the Cordillera Central opposing the Cordillera Vilcabamba between Tambo San Miguel Ayma and the Hacienda Luisiana,N/A,1968-08-24,N/A,Typed,1721727,12063,La Mar,N/A,no type status,T. R. Dudley,c. 73°54'W 12°45'S,18 Dec. 1984,c. 3220 meters,24 Aug. 1968,Dendrophthora mesembryanthemoides Urb.,eastern Massif of the Cordillera Central opposing the Cordillera Vilcabamba between Tambo San Miguel Ayma and the Hacienda Luisiana
N/A,G. Klug,Peru,Loreto,forest,M. Vásquez Avila,Ficus trigona,Mishuyacu near Iquitos,N/A,1931-04-11,N/A,Typed,873381,1595,N/A,N/A,no type status,G. Klug,N/A,1983,100 meters,April 11 1931,Ficus llewelynii Standl.,Mishuyacu near Iquitos
N/A,M. E. Mathias,Peru,Loreto,N/A,W. R. Anderson,Malpighiaceae,vicinity of Requena,N/A,1961-07-13,N/A,Typed,1733057,5576,N/A,D. Taylor,no type status,Mildred E. Mathias Dermot Taylor,N/A,1983,N/A,13 July 1961,Malpighiaceae,vicinity of Requena
N/A,J. Schunke,Peru,Loreto,tall forest,D. R. Simpson,Paullinia bracteosa,Quebrada de Maquia Contamana,N/A,1964-12-17,N/A,Mix of Handwritten and Typed,1717601,6677,N/A,N/A,no type status,José Schunke Vigo,N/A,Apr. 1973,220 m,17 Dec. 1964,Paullinia imberbis Radlk.,Quebrada de Maquia Contamana
N/A,L. Williams,Peru,Loreto,forest,unsure and check,Psychotria viridis,Panais Alto Rio Itaya,1929-10-00,1929-09-00,N/A,Typed,61.4121,3363,N/A,N/A,no type status,LLEWELYN WILLIAMS,N/A,N/A,ALT. 145 M.,"SEPT.-OCT., 1929",Psychotria viridis R & P,forest of Panais Alto Itaya
N/A,T. Plowman,Peru,Cajamarca,Dry scrub forest on steep slopes,P. Fryxell,Abutilon mollissimum,Road from Pucará to Chamaya 21 kilometers east of Pucará along Río Huancabamba,N/A,1986-07-12,N/A,Typed,1973380,14242,Jaén,A. Sagástegui A. | J. Mostacero L. | F. R. Mejía | F. Pelaéz,no type status,"T. Plowman, A. Sagástegui A., J. Mostacero L., F. R. Mejía & F. Pelaéz",N/A,1987,700 m.,12 July 1986,Abutilon mollissimum (Cav.) Sweet,Road from Pucará to Chamaya km. 21 east of Pucará along Río Huancabamba
N/A,M. Chanco,Peru,Cajamarca,N/A,N/A,Abutilon,Chilete-San Pablo road about 15 kilometers from Chilete,N/A,2003-04-14,N/A,Typed,2253555,s.n.,N/A,M. McMahon | L. Hufford,no type status,Magda Chanco with Michelle McMahon and Larry Hufford,S7° 10.554' W78° 49.665',N/A,3614 feet elevation,14 April 2003,Abutilon sp.,Chilete-San Pablo road about 15 km from Chilete
N/A,M. Ríos,Peru,Loreto,Bosque de Planicie Inundable de aguas blancas,unsure and check,Andira macrothyrsa,Campamento Wiswincho del inventario rapido number 27 de la region Tapiche-Blanco,N/A,2014-10-13,N/A,Typed,2318558,4399,Requena,T. Mori | N. Pitman | L. Torres | C. Vriesendorp,no type status,Marcos Ríos 4399 Tony Mori Nigel Pitman Luis Torres Corine Vriesendorp,"05°48'33.5""S 73°51'53.8""W",N/A,90-110 msnm,13 octubre 2014,Andira macrothyrsa Ducke,Prov. Requena Dtto. de Soplin Quebrada Yanayacu-Rio Blanco Campamento Wiswincho del inventario rapido #27 de la region Tapiche-Blanco
N/A,M. Ríos,Peru,Loreto,Bosque de Planicie Inundable de aguas blancas Arbol 7 m flores amarillas y los botones son de color beige (beige),unsure and check,Andira macrothyrsa,Campamento Wiswincho del inventario rapido number 27 de la region Tapiche-Blanco,N/A,2014-10-13,N/A,Typed,2318557,4399,Requena,T. Mori | N. Pitman | L. Torres | C. Vriesendorp,no type status,Marcos Ríos 4399 Tony Mori Nigel Pitman Luis Torres Corine Vriesendorp,"05°48'33.5""S 73°51'53.3""W",N/A,90-110 msnm,13 octubre 2014,Andira macrothyrsa Ducke,Dtto de Soplin Quebrada Yanayacu-Rio Blanco Campamento Wiswincho del inventario rapido #27 de la region Tapiche-Blanco
N/A,Y. Mexia,Peru,Huanuco,Forested slope above road,W. Trelease,Piper callosum,Near confluence Rio Cayumba with Huallaga,N/A,1936-10-09,N/A,Typed,1066996,8265,N/A,N/A,no type status,Ynes Mexia,N/A,N/A,805 m,"Oct. 9, 1936",Piper callosum Ruiz & Pavon,Near confluence Rio Cayumba with Huallaga
N/A,Y. Mexia,Peru,Loreto,Dense forest,N. L. Britton,Piper callosum,Above Pongo de Manseriche Right bank of mouth of Rio Santiago,N/A,1931-11-24,N/A,Typed,872277,6157,N/A,N/A,no type status,Ynes Mexia,N/A,N/A,200 m.,"Nov. 24, 1931",Piper callosum Ruiz & Pav.,Above Pongo de Manseriche Right bank of mouth of Rio Santiago
N/A,D. R. Simpson,Peru,Tumbes,Vine clambering over shrubs corolla pale lavender open in the morning sun closed on this cloudy afternoon when collected Common from the dry deciduous forest zone downward into the very dry thorn-scrub,D. Simpson,Ipomoea carnea,Along the road about 10 kilometers northwest of El Caucho,N/A,1968-01-04,N/A,Typed,1837948,565,Pampas de Hospital,J. Schunke V.,no type status,Donald R. Simpson & José Schunke V.,N/A,Jan. 1969,N/A,"January 4, 1968",Ipomoea carnea Jacq.,Along the road about 10 km. northwest of El Caucho
N/A,T. Plowman,Peru,Huánuco,Scandent shrub on roadside near houses. Stem with milky sap. Fls. pink.,P. MacDonald,Ipomoea carnea,8 kilometers northeast of Huánuco on road to Tingo María,N/A,1981-12-06,N/A,Typed,1896900,11105,Huánuco,P. M. Rury,no type status,T. Plowman & P. M. Rury,Approx. 9°52'S. 76°11'W.,1983,1750 m.,6 December 1981,Ipomoea carnea Jacq.,8 km. northeast of Huánuco on road to Tingo María
N/A,R. B. Foster,Peru,Loreto,Terrestrial in white sand scrub bracts bright red-pink flowers white,E. J. Gouda,Aechmea corymbosa,Rio Nanay Caseria Mishana 30 kilometers southwest of Iquitos,N/A,1978-08-19,N/A,Typed,1852637,4240,Maynas,N/A,no type status,Robin B. Foster,N/A,2018-02-05,N/A,"Aug. 19, 1978",Aechmea,Rio Nanay Caseria Mishana 30km SW of Iquitos
N/A,J. Farfán,Peru,Cusco,"Bosque Secundario. Epífita, hasta 70 cm, espádice rojo, espata verde",T. B. Croat,Anthurium clavigerum,Chuanquiri camino a Riobamba,N/A,2006-10-23,N/A,Typed,2315782,1262,La Convención,L. Valenzuela | I. Huamantup a | A. Carazas | W. Argandoña,no type status,"J. Farfán, L. Valenzuela, I. Huamantup a, A. Carazas, W. Argandoña 1262","12°47'15""S 073°10'10""W",2008,1009 m,23 Octubre 2006,Anthurium clavigerum Poepp.,"Dist. Vilcabamba, Chuanquiri camino a Riobamba, Bosque secundario"
N/A,T. B. Croat,Peru,Loreto,Sandy area,N/A,Agave americana,Sandy area 12.5 kilometers southwest of Iquitos on road to Lago Quisto-cocha,N/A,1972-07-18,N/A,Typed,1759629,18210,N/A,N/A,no type status,Thomas B. Croat,N/A,N/A,N/A,"July 18, 1972",Agave americana L.,Sandy area 12.5 km. SW of Iquitos on road to Lago Quisto-cocha
N/A,T. R. Dudley,Peru,Cuzco,Common terrestrial type with bright green foliage and purplish-black and glossy petioles saxatile on almost vertical rock faces in full sun on old open landslide just above the cloud forest between camp 4 and 5 almost to Camp 5 at c. 2825 meters one of the commonest colonizers of landslide,A. R. Smith,Thelypteris dudleyi,[precise locality unknown],N/A,1968-07-04,N/A,Typed,65658,10783,La Convencion,N/A,Isotype,T. R. Dudley,12° 37' 73° 32',1989,c. 2825 m,4 July 1968,Thelypteris dudleyi A. R. Smith,Prov. La Convencion; Dept. Cuzco
N/A,S. Knapp,Panama,Colón,Tropical wet forest,Robert G. Stolze,Trichipteris pinnata,Santa Rita Ridge road 21 to 26 kilometers from Transisthmian Highway,N/A,1982-07-04,N/A,Typed,1932768,5881,N/A,N/A,Isotype,S. Knapp,9°25'N 79°37'W,1984,500-550 m,4 July 1982,TRICHIPTERIS PINNATA Stolze,Santa Rita Ridge road 21-26 km from Transisthmian Highway
N/A,J. Dorantes,Mexico,Veracruz,Bosque caducifolio suelo rojo arcilloso muy abundante helecho perenne veg. riparia,M. Palacios-Rios,Woodwardia spinulosa,Alto del Gato,N/A,1972-01-01,N/A,Typed,1736002,455,Jalapa,N/A,no type status,COL. J. DORANTES,MAPA 38.5 29.0,"September, 2000",TAM. 1.30 M.,01/01/1972,Woodwardia spinulosa Mart. & Gal.,Alto del Gato
N/A,A. Monteagudo,Peru,Pasco,Bosque ribereño Helecho terrestre adpreso a la roca soros marrones,H. van der Werff,Blechnum occidentalis,Parque Nacional Yanachaga Chemillen Pozuzo Sector Pan de Azúcar Zona de Recuperación,N/A,2003-04-10,N/A,Typed,2287355,4909,Oxapampa,C. Mateo | G. Ortiz,no type status,"A. Monteagudo, C. Mateo, G. Ortiz",10°15'S 75°13'W,2005,1100-1250m,10 Abril 2003,Blechnum occidentalis L.,Distrito Pozuzo Parque Nacional Yanachaga Chemillen Pozuzo Sector Pan de Azúcar Zona de Recuperación Bosque ribereño
N/A,Y. Mexia,Peru,Cuzco,virgin forest Common scattered,E. B. Copeland,Adiantum pulverulentum,upper valley of Rio Sambray western affluent of Vilcanota along stream,N/A,1936-05-14,N/A,Typed,1005396,8066,La Convencion,N/A,no type status,Ynes Mexia,N/A,N/A,about 1800 m.,"May 14,1936",Adiantum pulverulentum L.,upper valley of Rio Sambray western affluent of Vilcanota along stream in virgin forest
Liquidambar styraciflua | Quercus sp. | Alnus sp.,J. I. Calzada,Mexico,Veracruz,Bosque Caducifolio Muy húmedo,R. G. Stolze,Diplazium francois,Ranchería de Coatititlán,N/A,1980-01-11,N/A,Typed,1894963,5759,Xico,N/A,no type status,J.I. Calzada,19° 29' N 97° 04' W,1983,1820 m.s.n.m.,11-enero-1980,Diplazium francois Liebm.,Ranchería de Coatititlán
N/A,A. Molina,Honduras,Morazán,Bosque lluvioso,A. R. Smith,Thelypteris rudis,"North of the Mt. Uyuca, Tatumbla, Lebranza and Quebrada El Granadillo, on the Mt. Uyuca",N/A,1948-11-04,N/A,Typed,1394536,1427,N/A,N/A,no type status,Antonio Molina R.,at about Longitude 87° W and Latitude 14° N,1974,1800 m,"Nov. 4, 1948",Thelypteris piloso-hispida (Hook) Morton,"Bosque lluvioso, norte de la Mt. Uyuca, caminos Tatumbla, Lebranza y Quebrada El Granadillo, sobre la Mt. Uyuca"
N/A,B. León,Peru,Cuzco,N/A,R. G. Stolze,Thelypteris euchlora,"Bosque de Nubes, Río La Unión",N/A,1991-09-10,N/A,Typed,2112158,2911,Paucartambo,K. Young | N. Huapaya,no type status,"B. León, K. Young & N. Huapaya",N/A,1992,1700-1800 m,10 setiembre 1991,Thelypteris euchlora (Sod.) Reed,"Bosque de Nubes, Río La Unión. En ladera"
N/A,L. O. Williams,Nicaragua,Matagalpa,Epiphyte on mossy tree,R. G. Stolze,Grammitis blepharodes,Disparate de Potter Santa María de Ostuma Cordillera Central de Nicaragua,N/A,1965-01-15,N/A,Typed,1626179,27621,N/A,A. Molina R. | T. P. Williams | D. N. Gibson | C. Laskowski,no type status,Louis O. Williams Antonio Molina R. Terua P. Williams Dorothy N. Gibson and Chester Laskowski,N/A,1979,1600 m,January 15 1965,Polypodium blepharodes Maxon,Montane rain forest or cloud forest Disparate de Potter Sta. María de Ostuma Cordillera Central de Nicaragua
N/A,K. Young,Peru,Cuzco,Cocoa coffee yuca mangoes bananas corn crops grown,A. R. Smith,Thelypteris cheilanthoides,Just east of Quillabamba Finca Chichima,N/A,1981-04-20,N/A,Typed,2038794,265,La Convencion,M. Eisenberg,no type status,Ken Young & Mark Eisenberg 265,N/A,1989,1300-1400 m,20 April 1981,Thelypteris (subg. Amauropelta) cheilanthoides (Kunze) Proctor,Just east of Quillabamba Finca Chichima
N/A,T. G. Lammers,United States,Illinois,Local in mesic maple-basswood forest on steep slopes of deep ravine south of toboggan run,N/A,Dryopteris carthusiana,Swallow Cliffs Woods Forest Preserve southwest of the junction of US Highway 45 and State Highway 83,N/A,1998-05-09,N/A,Typed,2228497,10674,Cook,N/A,no type status,Thomas G. Lammers,N/A,N/A,N/A,9 May 1998,Dryopteris carthusiana (Vill.) H.P. Fuchs,Palos Twp. Swallow Cliffs Woods Forest Preserve southwest of the jct. of US Hwy 45 and State Hwy 83
N/A,L. O. Williams,El Salvador,Santa Ana,Epífita Bosque abierto de Montaña,A. Molina,Polypodium montigenum,Montecristo,N/A,1963-05-22,N/A,Typed,1661895,12562,N/A,A. Molina R. | A. R. Molina,no type status,Louis O. Williams | Antonio Molina R. | Albertina R. Molina,N/A,N/A,2000 m,"Mayo 22, 1963",Polypodium montigenum Maxon,Bosque abierto de Montaña Montecristo
N/A,M. O. Dillon,Chile,Antofagasta,Terrestrial growing in rock crevices,unsure and check,Notholaena mollis,Cerro Perales approximately 5 kilometers east of Taltal,N/A,1987-12-21,N/A,Typed,Nº 2010984,5376,Antofagasta,N/A,no type status,M. O. Dillon 5376,25° 25' S 70° 25' W,N/A,600-850 m,21 Dec 1987,Notholaena mollis Kunze,Cerro Perales ca. 5 km E of Taltal
N/A,R. M. Tryon,Peru,Ancash,damp shaded rocks,A. R. Smith,Thelypteris rufa,"Road from Huaras to Cusma, west valley",N/A,1963-10-23,N/A,Typed,1833066,6566,N/A,A. F. Tryon,no type status,Rolla M. & Alice F. Tryon,N/A,"1979, 1989",2800 m.,23 October 1963,Thelypteris lindigii (C.Chr.) Alston,"Road from Huaras to Cusma, west valley"
N/A,E. P. Killip,Peru,Loreto,Dense forest,A. R. Smith,Thelypteris pennata,Soledad on Rio Itaya,1929-09-29,1929-09-22,N/A,Typed,1520668,2974,N/A,A. C. Smith,no type status,E. P. Killip A. C. Smith,N/A,1989,about 110 meters,"September 22-29, 1929",Dryopteris megalodus (Schk.) Urban,Soledad on Rio Itaya
N/A,F. P. Killip,Peru,Loreto,Dense forest,A. R. Smith,Thelypteris pennata,San Antonio on Rio Itaya,N/A,1929-09-18,N/A,Mix of Handwritten and Typed,1520607,24937,N/A,A. C. Smith,no type status,F. P. Killip & A. C. Smith,N/A,Date 1989,about 110 meters,"September 18, 1929",Dryopteris megalodus (Schk.) Urban,San Antonio on Rio Itaya
N/A,J. F. Macbride,Peru,Mito,Sunny dirt ledges of the grass-shrub formation,A. R. Smith,Thelypteris pavoniana,[precise locality unknown],1922-07-22,1922-07-08,N/A,Mix of Handwritten and Typed,518129,1622,N/A,J. Featherstone,no type status,Macbride & Featherstone,N/A,1979,About 9000 ft,"JULY 8-22, 1922",Dryopteris pavoniana (Klf) C Chr,Sunny dirt ledges of the grass-shrub formation
N/A,J. J. Wurdack,Peru,Amazonas,On banks locally frequent,A. R. Smith,Thelypteris pavoniana,Upper slopes of Puma-urcu east-southeast of Chachapoyas,N/A,1962-06-01,N/A,Typed,1647265,705,Chachapoyas,N/A,no type status,J. J. Wurdack No. 705,N/A,1979,elev. 2700-3000 m,1 June 1962,Thelypteris (Thelypteris) pavoniana (Klotzsch),Upper slopes of Puma-urcu east-southeast of Chachapoyas
N/A,R. M. Tryon,Peru,Loreto,In old banana planting,A. R. Smith,Thelypteris opulenta,"Rio Itaya, 10 kilometers south of Iquitos",N/A,1956-08-13,N/A,Typed,1587072,5202,Maynas,A. F. Tryon,no type status,ROLLA M. TRYON & ALICE F. TRYON,N/A,"1979, 1990",N/A,"Aug. 13, 1956",Thelypteris,"Rio Itaya, 10 km. s. of Iquitos"
N/A,L. O. Williams,Nicaragua,Matagalpa,Terrestrial on open bank,C. V. Morton | D. B. Lellinger,Lycopodium clavatum,Sta. Maria de Ostuma Cordillera Central de Nicaragua between Matagalpa and Jinotega,1963-01-15,1963-01-08,N/A,Typed,1604338,23634,N/A,A. Molina R. | T. P. Williams,no type status,Louis O. Williams Antonio Molina R. and Terua P. Williams,N/A,1964,1300-1500 meters,"January 8-15, 1963",Lycopodium clavatum L.,Cloud forest area Sta. Maria de Ostuma Cordillera Central de Nicaragua between Matagalpa and Jinotega Department of Matagalpa
N/A,J. T. Atwood,Nicaragua,Granada,Lower cloud forest,M. R. McCarthy,Adiantum eximium,Volcan Mombacho near finca Cutirre,N/A,1977-02-08,N/A,Typed,1868242,77105,N/A,N/A,no type status,"John T. Atwood, Jr.",N/A,2012,N/A,8 Feb. 1977,Adiantum trapeziforme L.,Volcan Mombacho Lower cloud forest near finca Cutirre
N/A,H.,Mexico,Mexico,dry barranca,M. R. McCarthy,Adiantum exuberans,[precise locality unknown],N/A,1935-04-21,Pantoja,Typed,954869,7644,Temascaltepec,N/A,no type status,H. et al.,N/A,2012,N/A,4-21-35,Adiantum trapeziforme L.,Pantoja
Conopharyngia holstii,R. A. Maas Geesteranus,Kenya,Nyanza,riparian-woodland along the river Itare among others,R. Faden,Asplenium sandersonii,South Western Mau Forest Reserve camp 8,N/A,1949-08-12,N/A,Mix of Handwritten and Typed,1445440,5744,Kericho,N/A,no type status,R. A. Maas Geesteranus,"lat. 0°36'30"" S. long. 35°12'20"" E.",1976,1920 m s.m.,12-VIII-1949,Asplenium dregeanum Kze.,South Western Mau Forest Reserve camp 8
Quercus,M. Véliz,Guatemala,Jalapa,Helecho muy frecuente con frondes compuestos glaucos en el envés creciendo dentro de bosque de Quercus sp,M. Véliz,Lophosoria quadripinnata,Río Manzanillos,N/A,2005-11-22,Aldea San Raymundo,Typed,2298970,16199,N/A,J. M. Véliz | J. Charco | H. Sains | J. Lopez | R. Esteban,no type status,M. Véliz con J. M. Véliz J. Charco H. Sains J. Lopez y R. Esteban,14° 33' 43.7'' N 90° 06' 19.7'' O,24/XI/2005,2308 msnm,22/XI/2005,Lophosoria quadripinnata (J.F. Gmel) C. Chr. var quadripinnata,río Manzanillos
N/A,C. F. Millspaugh,Jamaica,N/A,N/A,N/A,Asplenium trichomanes,Port Antonio,1889-02-06,1889-01-28,Port Antonio,Typed,80890,893,N/A,N/A,no type status,Chas. F. Millspaugh M. D.,N/A,N/A,N/A,Jan. 28-Feb. 6,Asplenium trichomanes L.,Port Antonio
N/A,T. G. Yuncker,Jamaica,St. Andrew,Scrambling over side of cut,N/A,Lycopodium cernuum,Bellevue,N/A,1957-11-17,N/A,Typed,1483756,17429,N/A,N/A,no type status,T. G. Yuncker,N/A,N/A,3000-4000 ft.,"Nov. 17, 1957",Lycopodium cernuum L.,"Scrambling over side of cut, along trail near Bellevue"
N/A,Carvalho,Equatorial Guinea,Bioco,Postrada Forma pequeñas colonias dispersas,J. Fernández Casas,Lycopodiella cernua,Malabo - Basilé km 13 cerca de Basilé,N/A,1986-07-25,N/A,Typed,2201362,2092,N/A,N/A,no type status,Carvalho,32NMK7808,1991,390 m,25-VII-1986,Lycopodiella cernua (L.) Pic.-Serm.,Malabo - Basilé km 13 cerca de Basilé 32NMK7808 390 m márgenes de la carretera
N/A,H. van der Werff,Australia,Queensland,Rainforest,H. van der Werff,Diplazium assimile,Boonjee logging area at base of Mount Bartle Frere,N/A,1990-06-12,N/A,Typed,2094887,11699,N/A,N/A,no type status,Henk van der Werff 11699,145°43'E 17°25'S,1991,N/A,12 June 1990,Diplazium assimile (Endl.) Bedd.,Boonjee logging area at base of Mt. Bartle Frere
N/A,M. Tagawa,Japan,Kagoshima,Wet rocky slope in densely wooded ravine,M. Tagawa | K. Iwatsuki,Diplazium amabile,"Western slope of Mount Hoyoshi, south of Kanoya City",N/A,1956-07-28,N/A,Typed,1478055,1150,N/A,K. Iwatsuki,no type status,M. Tagawa & K. Iwatsuki,N/A,N/A,N/A,"July 28, 1956",Diplazium amabile (Tag.) Tag.,"Loc. Kyushu. Pref. Kagoshima: western slope of Mt. Hoyoshi, south of Kanoya City"
N/A,W. Takeuchi,Papua New Guinea,New Ireland,Pristine subcloud forest dominated by bryophytic and ferny growth,Field Char,Blechnum ledermannii,Hans Meyer Range Site 4,N/A,1994-02-05,N/A,Typed,OFCZ0683-A,9366,N/A,J. Wiakabu,no type status,W. Takeuchi & J. Wiakabu,4°25'S X 152°59'E,N/A,c. 1800 m,"February 5, 1994",Blechnum ledermannii Brause,Hans Meyer Range Site 4 on the expedition report
N/A,M. Tagawa,Japan,N/A,N/A,N/A,Dryopteris crassirhizoma,[precise locality unknown],N/A,1956-05-20,N/A,Typed,1478001,888,N/A,K. Iwatsuki,no type status,Tagawa & Iwatsuki,N/A,N/A,N/A,"May 20, 1956",Dryopteris crassirhizoma Nakai,N/A
N/A,J. Ohwi,Japan,Honshu,N/A,N/A,Polystichum tripteron,Jizmuji,N/A,1951-04-00,N/A,Typed,NSM. No. 202,s.n.,Sagami,N/A,no type status,J. Ohwi,N/A,N/A,N/A,April 1951,Polystichum tripteron Presl,Jizmuji in Sagami
N/A,M. Vanoverbergh,Philippines,Luzon,N/A,N/A,Asplenium contiguum,[precise locality unknown],N/A,19XX-04-13,N/A,Typed,393439,3591,Bontoc,N/A,no type status,Father Morice Vanoverbergh,N/A,N/A,N/A,April 13,Asplenium contiguum. Kaulf.,N/A
N/A,R. B. Faden,Sri Lanka,North Western Province,Forest Locally common Lithophyte Rhizoma creeping fronds widely spaced,D. B. Lellinger,Pyrossia lanceolata,Doluwakanda Hill,N/A,1977-01-05,N/A,Typed,2014294,77/53,Kurunegala,A. J. Faden,no type status,R.B. & A.J. Faden,"7 37'N 80 24'30""E",1979,600 m,5 Jan. 1977,Pyrossia lanceolata (L.) Farw.,"Doluwakanda Hill ca. 7 37'N 80 24'30""E"
N/A,A. N. Steward,China,Guizhou,moist brushy slope soil black,N/A,Dryopteris esquirolii,[precise locality unknown],N/A,1931-09-04,N/A,Typed,779919,344,N/A,C. Y. Chiao | H. C. Cheo,no type status,By Albert N Steward C Y Chiao and H C Cheo,N/A,N/A,980 m,Sept 4 1931,Dryopteris esquirolii Christ,moist brushy slope
N/A,J. F. Barcelona,Philippines,Western Visayas,In shaded and moist places along riverbank,J. F. Barcelona,Selaginella philippina,Antique poblacion forest along riverbank,N/A,1989-11-00,Sibalom,Mix of Handwritten and Typed,2210265,48,Antique,N/A,no type status,J. F. Barcelona,N/A,Nov. 1989,N/A,November 1989,Selaginella cf repanda,Antique poblacion forest along riverbank
N/A,L. Fay,Liberia,N/A,"On tree trunk about 10 feet from ground; common in groves of rubber trees on trunks. Pinnae 12-15 pairs (fertile leaves); stipe/blade 15,16,17/55,59,55 cm. Sterile leaves 25 x 12 cm. no stipe.",N/A,Drynaria laurentii,Cuttington University College,N/A,1985-04-11,N/A,Typed,2111378,1206,N/A,A. Fay,no type status,Col. L. & A. Fay 1206,N/A,N/A,250 m.,11 Apr 1985,Drynaria laurentii (Christ.) Hieron.,LIBERIA. Cuttington University College. Alt. 250 m.
N/A,H. St. John,French Polynesia,Austral Islands,Epiphyte Fronds mostly pendent coriaceous,E. B. Copeland,Humata banksii,Northwest slope of Teape Teti woods,N/A,1934-08-26,N/A,Typed,1435764,16662,Rurutu,N/A,no type status,H. St. John,N/A,N/A,altitude 350 meters,"Aug. 26, 1934",Humata banksii Alston,Northwest slope of Teape Teti woods on mossy tree limb
N/A,T. G. Yuncker,Jamaica,Portland,On wet embankment along trail rain forest,unsure and check,Selaginella plana,John Crow Mountains 1.5 to 2 miles southwest of Ecclesdown,N/A,1958-03-30,N/A,Typed,1481955,"18,561",N/A,N/A,no type status,T. G. Yuncker,N/A,N/A,1500-2500 ft.,"Mar. 30, 1958",Selaginella plana (Diev.) Hieron.,On wet embankment along trail rain forest John Crow Mts. 1.5-2 miles southwest of Ecclesdown
N/A,A. Carestia,Italy,Piedmont,N/A,J. H. Wilce,Lycopodium complanatum,Salita alla Boscarola,N/A,1871-00-00,Scopello,Typed,28302,s.n.,Valsesia,N/A,no type status,A. Carestia,N/A,1962,N/A,1871,Lycopodium complanatum L.,Salita alla Boscarola presso Scopello in Valsesia
N/A,C. J. Chamberlain,New Zealand,N/A,N/A,N/A,Trichomanes reniforme,[precise locality unknown],N/A,1911-10-15,Ohakune,Typed,1407795,s.n.,N/A,N/A,no type status,C.J. Chamberlain,N/A,N/A,N/A,"Oct. 15, 1911",Trichomanes reniforme,Ohakune
N/A,R. L. Wilbur,Dominica,Saint Paul,Disturbed rainforest,R. L. Wilbur,Cnemidaria grandifolia,Upper Layou Valley about 5 miles from Clarke Hall towards Pont Cassé,N/A,1964-08-02,N/A,Typed,1670026,8185,N/A,E. L. Dunn | H. A. Hespenheide | D. R. Wiseman,no type status,R. L. Wilbur no. 8185 E. L. Dunn H. A. Hespenheide D. R. Wiseman,N/A,1966,N/A,2 August 1964,Cnemidaria grandifolia (Willd.) Proctor var. grandifolia,Parish of St. Paul Disturbed rainforest in the upper Layou Valley about 5 miles from Clarke Hall towards Pont Cassé
N/A,R. B. Faden,Sri Lanka,Central,Shady moist bank near stream Local and uncommon,unsure and check,Trigonospora obtusiloba,between mile posts 46/3 and 46/4 on Nuwara Eliya-Kandy road,N/A,1977-01-02,N/A,Typed,2089703,77/31,Nuwara Eliya,A. J. Faden,no type status,R.B. & A.J. Faden,6 59'N 80 45'E,N/A,ca 1980 m,2 Jan 1977,Trigonospora obtusiloba Sledge,between mile posts 46/3 and 46/4 on Nuwara Eliya-Kandy road
Cyathea dealbata | C. smithii | Phyllocladus | Podocarpus,H. K.,New Zealand,N/A,in Humus unter Cyathea dealbata C. smithii Phyllocladus Podocarpus etc.,unsure and check,Crucispora naucorioides,Kauaeranga Valley Coromandel Peninsula,N/A,1968-07-05,N/A,Typed,1017207,68/641,N/A,N/A,Typus,H.K.,N/A,1971,N/A,5.VII.1968,Crucispora naucorioides HK. 1971 (Typus),Kauaeranga Valley Coromandel Peninsula N.Z.
N/A,R. Singer,Ecuador,Napo,Ad terram in hylaea,R. Singer,Hygrocybe dimorphobasiditata,Lago Agrio,N/A,1973-05-14,Lago Agrio,Typed,1017827,B 7463,N/A,N/A,Type,Singer,N/A,N/A,N/A,14 V 1973,Hygrocybe dimorphobasiditata Sing.,Lago Agrio
Sphagnum | Rubus geoides,R. Singer,Argentina,Tierra del Fuego,Gregarious in bog margin,N/A,Hygrocybe fuegiana,Ushuaya-Lago Fagnano southwest of highest point,N/A,1988-02-23,N/A,Typed,F1075922,M10517,Ushuaia,N/A,Holotype,Singer,N/A,N/A,N/A,23 II 1988,Hygrocybe fuegiana Sing (= H. rosea sensu Horak),ya road Ushuaya-Lago Fagnano SW of highest point
Blechnum novae-zelandiae | Weinmannia | Dicksonia squarrosa | Leptospermum scoparium,J. J. Engel,New Zealand,Auckland,"On clayey bank. Clay banks with Blechnum novae-zelandiae overhang, Weinmannia and Dicksonia squarrosa dominant canopy and occasional Leptospermum scoparium",N/A,Telaranea lindenbergii,"Whareorino Forest, start of track to Leitch's Hut",N/A,2003-02-12,N/A,Typed,1173554,23773,N/A,M. von Konrat | J. E. Braggins,Holotype,"John J. Engel, Matt von Konrat & John E. Braggins","38° 24.5' S, 174° 49.8' E",N/A,280 m,12 February 2003,Telaranea lindenbergii var. papillata Engel & Merr.,"Whareorino Forest, start of track to Leitch's Hut"
N/A,M. Lewis,Ecuador,Imbabura,Wet bank of runoff ravine,W. C. Steere,Kindbergia praelonga,East side of Cerro Cotacachi northwest of Cotacachi,1978-11-22,1978-11-21,N/A,Mix of Handwritten and Typed,1065158,78-2684,N/A,N/A,no type status,Marko Lewis,0°22'N 78°20'W,N/A,3750 m,21-22 November 1978,Kindbergia praelonga (Hedw.) Ochyra,E. side of Cerro Cotacachi NW of Cotacachi
N/A,M. Lewis,Ecuador,Azuay,Stone wall,W. C. Steere | E. De Luna,Hedwigia ciliata,"Area Nacional de Recreación Cajas, forested hill south of Surrochuco, Laguna Llaviuco, southwest of Sayausí",N/A,1978-12-08,N/A,Typed,1065433,78-3163,N/A,N/A,no type status,Marko Lewis,"2°55'S, 79°09'W",1992,3240 m,8 December 1978,Hedwigia ciliata (Hedw.) P. Beauv.,"Area Nacional de Recreación ""Cajas"", forested hill S. of ""Surrochuco"" (Laguna Llaviuco), SW of Sayausí"
N/A,R. Benoist,Ecuador,N/A,N/A,E. De Luna,Hedwigia ciliata,[precise locality unknown],N/A,0000-00-00,Quito,Mix of Handwritten and Typed,1089453,4659,N/A,N/A,no type status,R.Benoist,N/A,1992,N/A,s.d.,Hedwigia albicans (Web.) Lindb.,environs de Quito
N/A,R. Benoist,Ecuador,N/A,Sur rocher d'andésite,E. De Luna | I. Thériot,Hedwigia ciliata,[precise locality unknown],N/A,1930-03-27,Quito,Typed,1039455,s.n.,N/A,N/A,no type status,Lég. R. Benoist,N/A,1992 | N/A,N/A,27 mars 1930,Hedwigia albicans (Web.) Lindb.,Sur rocher d'andésite. Quito
N/A,R. S. Williams,Bolivia,N/A,N/A,E. De Luna,Hedwigia ciliata,near Pelechuco,N/A,1902-04-30,N/A,Mix of Handwritten and Typed,C00775656,2853,N/A,N/A,no type status,COLLECTED BY R. S. WILLIAMS 1901-1902,N/A,1992,3500 meters,April 30 1902,Hedwigia albicans (W. P. Schimper),near Pelechuco
N/A,M. Lewis,Bolivia,La Paz,Bromeliad habitat. Abundant on rock faces of exposed cliffs,E. De Luna,Hedwigia ciliata,Near large red outcrop 2 miles from Sorata down Rio Consata,N/A,1979-03-22,N/A,Typed,1032221,79-1237A,Larecaja,N/A,no type status,Marko Lewis,15° 41' S. 68° 43' W.,1992,2630 m,22 March 1979,Hedwigia ciliata (Hedw.) P. Beauv.,Near large red outcrop 2 mi. from Sorata down Rio Consata
N/A,M. Lewis,Bolivia,La Paz,Bromeliad-grass habitat on exposed cliffs,E. De Luna,Hedwigia ciliata,Near large red outcrop 2 miles from Sorata down Rio Consata,N/A,1979-03-22,N/A,Typed,C2077567F,79-1232,Larecaja,N/A,no type status,Marko Lewis,15° 41' S 68° 43' W,1992,2630 m,22 March 1979,Hedwigia ciliata (Hedw.) P. Beauv.,Near large red outcrop 2 mi. from Sorata down Rio Consata
N/A,M. Lewis,Bolivia,La Paz,Humid cliffs and steep slopes,E. De Luna,Hedwigia ciliata,"On mountain side directly North of river, beneath Niño Karine, North-Northwest of Chuma",N/A,1979-03-06,N/A,Typed,C2077568F,79-1114,Saavedra,N/A,no type status,Marko Lewis,"15° 08' S., 69° 03' W.",1992,3320 m.,6 March 1979,Hedwigia ciliata (Hedw.) P. Beauv.,"On mountain side directly N. of river, beneath Niño Karine, NNW of Chuma"
N/A,F. J. Hermann,Bolivia,Cochabamba,On conglomerate boulder on shrubby northwest slope,E. De Luna,Hedwigia ciliata,"On conglomerate boulder on shrubby northwest slope of Mount Tunari, near Liriuni Aguas Termales Hotel, 28 kilometers northwest",N/A,1972-12-27,N/A,Typed,1040675,25152,N/A,N/A,no type status,F. J. Hermann,N/A,1992,ca. 2700 m.,"December 27, 1972",Hedwigia ciliata (Hedw.) Beauv.,"On conglomerate boulder on shrubby NW slope of Mt. Tunari, near Liriuni Aguas Termales Hotel, alt. ca. 2700 m., 28 km. NW"
N/A,Y. Mexia,Peru,Loreto,Streamlet near mouth of Rio Santiago On fallen log,E. Bartram,Pilotrichum subchlorophyllosum,Above Pongo de Manseriche,N/A,1931-12-02,N/A,Typed,1057692,6204,N/A,N/A,no type status,Ynes Mexia,N/A,N/A,400 m.,"Dec. 2, 1931",Pilotrichum subchlorophyllosum C. M.,Above Pongo de Manseriche
N/A,Y. Mexia,Peru,Loreto,On fallen log,Bartram,Pilotrichum subchlorophyllum,Above Pongo de Manseriche Streamlet near mouth of Rio Santiago,N/A,1931-12-02,N/A,Typed,C2077571F,6204,N/A,N/A,No type status,Ynes Mexia,N/A,N/A,400 m.,"Dec. 2, 1931",Pilotrichum subchlorophyllum,Above Pongo de Manseriche Streamlet near mouth of Rio Santiago On fallen log
N/A,A. C. Smith,Guyana,N/A,On decayed wood in swamp dense forest,E. B. Bartram,Pilotricum flaccidum,Basin of Essequibo River near mouth of Onoro Creek,1937-12-24,1937-12-15,N/A,Mix of Handwritten and Typed,1023751,2748,N/A,N/A,no type status,A. C. Smith,lat. about 1°35' N.,N/A,N/A,"Dec. 15-24, 1937",Pilotricum flaccidum C. M.,Basin of Essequibo River near mouth of Onoro Creek lat. about 1°35' N.
Cecropia,J. Florschütz-de Waard,Suriname,Nickerie,Secondary wood with Cecropia (bospapaja) on rotting log,R. Zielman,Pilosiom chlorophyllum,area of Kabalebo Dam project line NW from road km 39.5,N/A,1981-11-05,N/A,Typed,1073523,5315,N/A,R. Zielman,no type status,J.Florschütz-de Waard & R.Zielman,5N 58W qu.SE,N/A,ALT. 0 - 50 m,5 - 11 - 1981,Pilosiom chlorophyllum (Hornsch.) C.Müll. c.fr.,area of Kabalebo Dam project distr. Nickerie line NW from road km 39.5 p. 5N 58W qu.SE
N/A,J. Florschütz-de Waard,Suriname,Nickerie,Savanna forest on rotting log,R. Zijlman,Pilosium chlorophyllum,area of Kabalebo Dam project line NW from road kilometer 39.5 point 5N 50W quadrant SE,N/A,1981-11-05,N/A,Typed,1073529,5254,N/A,R. Zijlman,no type status,J. Florschütz-de Waard & R. Zijlman,N/A,N/A,0 - 50 m.,5-11-1981,Pilosium chlorophyllum (Hornsch.) C. Müll.,area of Kabalebo Dam project distr. Nickerie line NW from road km 39.5 p. 5N 50W qu. SE
N/A,J. Florschütz-de Waard,Suriname,Nickerie,Rainforest on rotting log,R. Zijlman,Pilosium chlorophyllum,area of Kabalebo Dam project line West from road 34 kilometers,N/A,1981-10-30,N/A,Typed,1073528,5098,N/A,R. Zijlman,no type status,J. Florschütz-de Waard & R. Zijlman,5N 58W,N/A,0 - 50 m.,30-10-1981,Pilosium chlorophyllum (Hornsch.) C. Müll.,area of Kabalebo Dam project distr. Nickerie line W from road 34 km p. 5N 58W qu. SE
N/A,J. C. Lindeman,Suriname,Nickerie,Epiphyte on tree trunk,H. H. Zijlstra,Pilotricum chlorophyllum,Area of Kabalebo Dam project Forest South of kilometer 28.7,N/A,1980-09-03,N/A,Typed,C02077576F,243 A,N/A,A. A. A. Göts-van Rijn | M. J. Jansen-Jacobs | A. M. C. Hetterscheid-Hollants,no type status,"J.C.Lindeman,A.A.A.Göts-van Rijn,M.J.Jansen-Jacobs & A.M.C.Hetterscheid-Hollants",5°09' N 57°30' W,N/A,Alt.: 30 - 130 m.,3-IX-1980,Pilotricum chlorophyllum (Hornsch.) C.Müll.,Area of Kabalebo Dam project distr. Nickerie Forest S of km 28.7
Astrocaryum,J. Florschütz-de Waard,Suriname,Nickerie,On decaying log in marsh forest with Astrocaryum,R. Zijlman,Pilosium chlorophyllum,Kabalebo river area line W from road kilometer 34,N/A,1981-10-31,N/A,Typed,1079833,5141,N/A,R. Zijlman,no type status,J. Florschütz-de Waard and R. Zijlman 5141,5°N 58°W,N/A,0-50 m,31 October 1981,Pilosium chlorophyllum (Hornsch.) C. Müll.,Kabalebo river area line W from road km 34
N/A,J. Florschütz,Suriname,N/A,On rotting log in rainforest,R. Zielman | J. Florschütz-de Waard,Pilostium chlorophyllum,Brownsberg trail to Leo Val,N/A,1975-12-18,N/A,Typed,C2077578F,4690,N/A,P. A. Florschütz,no type status,J. and P.A. Florschütz,N/A,N/A,ca. 500 m.,18 December 1975,PILOSTIUM CHLOROPHYLLUM (Hornsch.) C. Muell.,Brownsberg trail to Leo Val
N/A,H. Cornelissen,Guyana,N/A,On rotting tree base in mixed rain forest,J. Florschütz-de Waard,Pilosium chlorophyllum,Mabura Hill 180 kilometers south of Georgetown,N/A,1977-03-08,N/A,Typed,1091586,C076,N/A,S. R. Gradstein,no type status,H.Cornelissen & S.R.Gradstein C076,5°20'N 58°40'W,N/A,0-50 m,8 March 1977,Pilosium chlorophyllum (Hornsch.) C. Müll.,GUYANA Mabura Hill 180 km S of Georgetown
N/A,R. Spruce,Brazil,Para,N/A,R. R. Ireland | W. R. Buck,Pilosium chlorophyllum,[precise locality unknown],N/A,0000-00-00,N/A,Mix of Handwritten and Typed,1078188,5321,N/A,N/A,no type status,R. Spruce,N/A,1992,N/A,N/A,Streptophlœum chlorophyllum Hornsch.,Fl. Amazon prope Para
N/A,R. E. Schultes,Colombia,Vaupés,On rotten log,H. A. Crum,Pilotrichum chlorophyllum,Cerro Mitá,N/A,1952-10-22,N/A,Mix of Handwritten and Typed,1055492,7932,N/A,I. Cabrera,no type status,Richard Evans Schultes & Isidoro Cabrera,Lat. 1° N Long. 70° 5' W,1956,N/A,"Oct. 22, 1952",Pilotrichum chlorophyllum (Hornsch.) Jaeg.,Río Vaupés Mitu and vicinity Cerro Mitá
N/A,R. E. Schultes,Colombia,Vaupés,quartzite savannah,H. A. Crum,Pilosiun chlorophyllum,"Rio Kuduyari, Yapobodá",1951-10-06,1951-10-04,N/A,Typed,1055491,14294,N/A,I. Cabrera,no type status,Richard Evans Schultes et Isidoro Cabrera,N/A,1956,N/A,"October 4-6, 1951",Pilosiun chlorophyllum (Hornsch.) C. M.,"Rio Kuduyari (affluent of Rio Vaupés), Yapobodá, quartzite savannah"
N/A,R. E. Schultes,Colombia,Vaupés,On trunks,D. Griffin III,Pilosium chlorophyllum,Rio Apaporis. Soratama,N/A,1951-06-00,N/A,Mix of Handwritten and Typed,1055490,12309,N/A,N/A,no type status,RICHARD EVANS SCHULTES,N/A,June 1951,N/A,June 1951,PILOSIUM CHLOROPHYLLUM (HORNSCH.) C. M. in BROTH.,Rio Apaporis. Soratama
N/A,R. E. Schultes,Colombia,Guaviare,N/A,D. Griffin III,Pilosium chlorophyllum,San Jose del Guaviare,N/A,1950-12-00,San Jose del Guaviare,Typed,C2077584F,11128,N/A,N/A,no type status,RICHARD EVANS SCHULTES,N/A,N/A,N/A,Dec. 1950,Pilosium chlorophyllum (Hsch.) C. M. in Broth.,San Jose del Guaviare
N/A,Y. Mexia,Brazil,Pará,On fallen log,E. Bartram,Filosum chlorophyllum,Thomé Assú; down Rio Acará 3 kilometers,N/A,1931-08-31,N/A,Typed,C027586F,6014a,Acará,N/A,no type status,Ynes Mexia,N/A,N/A,35 m.,"Aug. 31, 1931",Filosum chlorophyllum (Hsch.) C. M.,Thomé Assú; down Rio Acará 3 km
N/A,Y. Mexia,Brazil,Pará,On rotting log in woods Abundant,N/A,Pilosiun chlorophyllosum,Thomé Assú Japanese Colony,N/A,1931-07-16,N/A,Typed,870829,5914,Acará,N/A,no type status,Ynes Mexia,N/A,N/A,about 30 m.,"July 16, 1931",Pilosiun Chlorophyllosum (Hsch.) C. M.,Thomé Assú Japanese Colony
N/A,D. Griffin,Venezuela,Trujillo,Sobre roca húmeda lecho de riachuelo a sol,D. Griffin,Brachythecium plumosum,Páramo de Guirigay above the town of Las Piedras between the Buey River and Páramo Blancos,N/A,1985-03-14,N/A,Mix of Handwritten and Typed,1064449,PV-1525,N/A,M. López,no type status,Dana Griffin III Manuel López F.,N/A,N/A,3300 m,14 marzo 1985,Brachythecium plumosum (Hedw.) BSG,páramo de Guirigay arriba del pueblo de Las Piedras Entre el río Buey y Páramo Blancos con Espeletia schultzii
N/A,P. Dusén,Chile,Patagonia,N/A,W. R. Buck,Brachythecium albicans,Cerra Colorado,N/A,1897-02-22,N/A,Typed,B11749,5872,N/A,N/A,no type status,P. Dusén 5872,N/A,N/A,N/A,22 February 1897,Brachythecium albicans (Hedw.) Schimp.,Cerra Colorado
Nothofagus,Y. Mexia,Chile,Magallanes,Openings in Nothofagus wood in moist earth,K. D. McFarland,Brachythecium austro-glareosum,Last Hope Inlet; Peninsula Antonio Varas,N/A,1936-04-10,N/A,Typed,1036758,8001,N/A,N/A,no type status,Ynes Mexia,N/A,Sept 1989,25 m,"April 10, 1936",Brachythecium sublosum (H. f. & W. Jlaeg.),Last Hope Inlet; Peninsula Antonio Varas
N/A,M. Lewis,Bolivia,Oruro,In warmish creek,R. Ochyra,Brachythecium calliergonioides,Río Junthuma Khuchu 2 miles down river from Aguas termales de Río Junthuma Khuchu,N/A,1979-05-25,N/A,Mix of Handwritten and Typed,C2078925F,79-2108,Sajama,N/A,no type status,Marko Lewis,18° 07' S 69° 00' W,1982,4350 m,25 May 1979,Brachythecium cf. calliergonioides Broth. in Herz.,Río Junthuma Khuchu 2 mi. down river from Aguas termales de Río Junthuma Khuchu 4350 m
N/A,M. Lewis,Bolivia,Oruro,In warmish creek,R. Ochyra,Brachythecium calliergonioides,Rio Junthuma Khuchu 2 miles down river from Aguas termales de Rio Junthuma Khuchu,N/A,1979-05-25,N/A,Typed,C2078926F,79-2109,Sajama,N/A,no type status,Marko Lewis,18° 07' S. 69° 00' W.,1982,4350 m,25 May 1979,Brachythecium calliergonioides Broth. in Herz.,Rio Junthuma Khuchu 2 mi. down river from Aguas termales de Rio Junthuma Khuchu
N/A,M. Lewis,Bolivia,Oruro,In warmish creek,R. Ochyra,Brachythecium calliergonioides,Rio Junthuma Khuchu 2 miles down river from Aguas termales de Rio Junthuma Khuchu,N/A,1979-05-25,N/A,Typed,C2079827F,no79-2112,Sajama,N/A,no type status,Marko Lewis,18° 07' S. 69° 00' W.,1982,4350 m,25 May 1979,Brachythecium calliergonioides Broth. in Herz.,Rio Junthuma Khuchu 2 mi. down river from Aguas termales de Rio Junthuma Khuchu
N/A,M. Lewis,Bolivia,Oruro,In warmish creek,R. Ochyra,Brachythecium calliergonioides,Río Junthuma Khuchu 2 miles down river from Aguas termales de Río Junthuma Khuchu,N/A,1979-05-25,N/A,Typed,C2078928F,79-2115,Sajama,N/A,no type status,Marko Lewis,18° 07' S 69° 00' W,1982,4350 m,25 May 1979,Brachythecium calliergonioides Broth. in Herz.,Río Junthuma Khuchu 2 mi. down river from Aguas termales de Río Junthuma Khuchu
N/A,M. Lewis,Bolivia,Oruro,In warmish creek,R. Ochyra,Brachythecium calliergonioides,Río Junthuma Khuchu 2 miles down river from Aguas termales de Río Junthuma Khuchu,N/A,1979-05-25,N/A,Typed,C2078629F,79-2117,Sajama,N/A,no type status,Marko Lewis,18° 07' S 69° 00' W,1982,4350 m,25 May 1979,Brachythecium calliergonioides Broth. in Herz.,Río Junthuma Khuchu 2 mi. down river from Aguas termales de Río Junthuma Khuchu 4350 m 18° 07' S 69° 00' W In warmish creek
N/A,M. Lewis,Bolivia,Oruro,In warmish creek,R. Ochyra,Brachythecium calliergonioides,Rio Junthuma Khuchu 2 miles down river from Aguas termales de Rio Junthuma Khuchu,N/A,1979-05-25,N/A,Mix of Handwritten and Typed,C0207830F,79-2118,Sajama,N/A,no type status,Marko Lewis,18° 07' S 69° 00' W,1982,4350 m,25 May 1979,Brachythecium calliergonioides Broth. in Herz.,Rio Junthuma Khuchu 2 mi. down river from Aguas termales de Rio Junthuma Khuchu
N/A,M. Lewis,Bolivia,Oruro,In warmish creek,R. Ochyra,Brachythecium calliergonioides,Río Junthuma Khuchu 2 miles down river from Aguas termales de Río Junthuma Khuchu,N/A,1979-05-25,N/A,Typed,C2078931F,79-2107,Sajama,N/A,no type status,Marko Lewis,18° 07' S 69° 00' W,1982,4350 m,25 May 1979,Brachythecium calliergonioides Broth. in Herz.,Río Junthuma Khuchu 2 mi. down river from Aguas termales de Río Junthuma Khuchu
N/A,M. Lewis,Bolivia,Oruro,In warmish creek,R. Ochyra,Brachythecium calliergonoides,Rio Junthuma Khuchu 2 miles down river from Aguas termales de Rio Junthuma Khuchu,N/A,1979-05-25,N/A,Typed,1049412,79-2119,Sajama,N/A,no type status,Marko Lewis,18° 07' S. 69° 00' W.,1982,4350 m.,25 May 1979,Brachythecium calliergonoides Broth. in Herz.,Rio Junthuma Khuchu 2 mi. down river from Aguas termales de Rio Junthuma Khuchu
N/A,Y. Mexia,Peru,Loreto,On stone in overflow forest,E. B. Bartram,Vesicularia amphibola,Above Pongo de Manseriche Left bank of Rio Santiago,N/A,1931-11-23,N/A,Typed,873368,6149,N/A,N/A,no type status,Ynes Mexia,N/A,N/A,200 m.,"Nov. 23, 1931",Vesicularia amphibola (Spr.) Broth.,Above Pongo de Manseriche Left bank of Rio Santiago
N/A,Y. Mexia,Peru,Loreto,Dense forest on log,M. Bartram,Vesicularia amphibola,Above Pongo de Manseriche Right bank of Rio Santiago,N/A,1931-11-25,N/A,Typed,873367,6160-a,N/A,N/A,no type status,Yves Mexia No. 6160-a,N/A,N/A,200 m.,"Nov. 25, 1931",Vesicularia amphibola (Spr.) Broth.,Above Pongo de Manseriche Right bank of Rio Santiago
N/A,Y. Mexia,Peru,Loreto,On rocks wet by spray,N/A,Vesicularia amphibola,Streamlet on right bank of Rio Santiago,N/A,1931-12-04,N/A,Typed,870879,6217-a,N/A,N/A,no type status,Ynes Mexia,N/A,N/A,250 m.,"Dec. 4, 1931",Vesicularia amphibola (Spr.) Broth.,Above Pongo de Manseriche
N/A,Y. Mexia,Peru,Loreto,Creek Carapias log in forest,E. Extram,Vesicularia amphibola,Above Pongo de Manseriche,N/A,1931-12-12,N/A,Typed,870867,6259-a,N/A,N/A,no type status,Ynes Mexia,N/A,N/A,215 m.,"Dec. 12, 1931",Vesicularia amphibola (Spr.) Broth.,Above Pongo de Manseriche
N/A,Y. Mexia,Peru,Loreto,On earth collected on inclined tree trunk,E. Bartram,Vesicularia amphibola,Above Pongo de Manseriche,N/A,1932-01-03,N/A,Typed,873369,6354-a,N/A,N/A,no type status,Ynes Mexia,N/A,N/A,215 m.,"Jan. 3, 1932",Vesicularia amphibola (Spr.) Broth.,Above Pongo de Manseriche
Taxithelium planum,Y. Mexia,Peru,Loreto,On rotten log Sterile,N/A,Vesicularia amphibola,Above Pongo de Manseriche Creek Inche,N/A,1932-01-03,N/A,Typed,1039121,6375a,N/A,N/A,no type status,Ynes Mexia,N/A,det. Bartram,215 m.,"Jan. 3, 1932",Vesicularia amphibola (Spr.) Broth.,Above Pongo de Manseriche Creek Inche
Taxithelium planum,Y. Mexia,Peru,Loreto,Creek Incho On rotten log Sterile,J. Bartram,Vestiazelia amphibia,Above Pongo de Manseriche,N/A,1935-01-03,N/A,Typed,870880,6375-m,N/A,N/A,no type status,Ynes Mexia,N/A,N/A,215 m,"Jan. 3, 1935",Vestiazelia amphibia (Spr.) Broth.,Above Pongo de Manseriche
N/A,Y. Mexia,Peru,Loreto,On rotten log.,E. Bartram,Vesicularia amphibola,Above Pongo de Manseriche. Creek Inche.,N/A,1932-01-03,N/A,Typed,870873,6377,N/A,N/A,no type status,Ynes Mexia,N/A,N/A,215 m.,"Jan. 3, 1932",Vesicularia amphibola (Spr.) Broth.,Above Pongo de Manseriche. Creek Inche.
N/A,Y. Mexia,Peru,Cuzco,on rotten logs in virgin forest,F. Bartram,Vesicularia amphibia,upper valley of the Sambray; affluent of the Vilcanota,N/A,1936-05-14,N/A,Typed,106818,8070,La Convencion,N/A,no type status,Ynes Mexia,N/A,N/A,1800 m,"May 14, 1936",Vesicularia amphibia (Spr.) Broth. in mixture,upper valley of the Sambray; affluent of the Vilcanota
N/A,Y. Mexia,Peru,Cuzco,on rotten logs in virgin forest,E. Bartram,Vesicularia amphibola,upper valley of the Sambray; affluent of the Vilcanota,N/A,1936-05-14,N/A,Typed,1039122,8070,La Convencion,N/A,no type status,Ynes Mexia,N/A,N/A,1800 m.,"May 14, 1936",Vesicularia amphibola (Spr.) Broth. in mixture,upper valley of the Sambray; affluent of the Vilcanota; on rotten logs in virgin forest
N/A,L. Reitz,Brazil,Santa Catarina,Epiphyte da mata virgem,R. Reimers,Vesicularia vesicularis,Asambuja Brusque,N/A,1950-09-02,N/A,Typed,5468,2222,N/A,N/A,no type status,L. Reitz,N/A,1954,50 m,2.9.50,Vesicularia vesicularis (Schwagr.) Broth.,Asambuja Brusque
N/A,F. J. Hermann,Colombia,Santander,On base of tree trunk,H. Robinson,Vesicularia vesicularis,Paraguitas 1/4 mile northwest,N/A,1972-12-19,N/A,Typed,4039401,25019,N/A,N/A,no type status,F. J. Hermann,N/A,N/A,ca. 4000 ft.,"December 19, 1972",Vesicularia vesicularis (Schwaegr.) Broth.,On base of tree trunk Paraguitas 1/4 mile NW
N/A,R. E. Schultes,Colombia,Meta,N/A,D. Griffin,Vesicularia vesicularis,[precise locality unknown],N/A,1950-12-00,Villavicencio,Typed,N/A,11107,N/A,N/A,no type status,RICHARD EVANS SCHULTES,N/A,N/A,500 m.,"Dec., 1950",Vesicularia vesicularis (Schwgr.) Broth.,alrededores de Villavicencio
N/A,J. P. Frahm,Peru,Amazonas,South-exposed slope high Andean rainforest on limestone,W. Schultze-Motel,Entodon jamesonii,Straße Chachapoyas-Cajamarca above Leimebamba kilometer 417,N/A,1982-09-04,N/A,Typed,1076822 | 104130,875,Chachapoyas,P. Geissler | S. R. Gradstein | G. Philippi | W. Schultze-Motel,no type status,"J.P. Frahm, P. Geissler, S.R. Gradstein, G. Philippi, W. Schultze-Motel",N/A,N/A,2800 msm,4.9.1982,Entodon jamesonii (Tayl.) Mitt.,Straße Chachapoyas-Cajamarca oberhalb Leimebamba km 417 s-exponierter Hang hochandiner Regenwald auf Kalkstein
N/A,P. C. Hutchison,Peru,Amazonas,N/A,H. Robinson,Entodon jamesonii,"Cerros Calla Calla, east side, 5 kilometers above Leimebamba on the road to Balsas, at San Miguel (no buildings at this locality)",N/A,1964-04-01,N/A,Typed,1012131,1806,Chachapoyas,J. K. Wright,no type status,PAUL C. HUTCHISON | J. KENNETH WRIGHT,N/A,1966,Altitude 2400 m,1 April 1964,"Entodon jamesonii (Tayl.) Mitt. dupl. det. H. Robinson, 1966","Cerros Calla Calla, east side, 5 km. above Leimebamba on the road to Balsas, at San Miguel (no buildings at this locality)"
N/A,D. Griffin,Venezuela,Merida,Sobre roca seca a sombra,D. Griffin,Entodon jamesoni,Páramo de Los Granates finca de Los Granates along the río de Los Granates and in the nearby hills,N/A,1985-02-20,N/A,Typed,1064416,PV-966,N/A,N/A,no type status,Dana Griffin III,N/A,N/A,3000-3100 m,20 Feb. 1985,Entodon jamesoni (tayl.) Broth.,páramo de Los Granates finca de Los Granates a lo largo del río de Los Granates y en las lomas cercanas
N/A,Y. Mexia,Brazil,Minas Gerais,Base of living tree in shade,E. Bartram,Entodon lindbergii,Fazenda do Diamante Campo Tiririca,N/A,1931-04-21,Corinto,Typed,870818,5687,N/A,N/A,no type status,Ynes Mexia,N/A,N/A,500 m.,"April 21, 1931",Entodon Lindbergii Ipe.,Fazenda do Diamante Campo Tiririca
N/A,R. Spruce,Ecuador,N/A,N/A,W. Mitten,Entodon longisetus,Baños,N/A,0000-00-00,Baños,Mix of Handwritten and Typed,1078203,1023,N/A,N/A,no type status,R. Spruce,N/A,s.d.,N/A,s.d.,Entodon longisetus Hook.,Andes Ecuatorices Baños
N/A,M. Lewis,Bolivia,Tarija,Bank of creek,W. Buck,Entodon nano-climacium,Canyon 5 miles southwest of Tablada southwest of Tarija,N/A,1979-02-08,Cercado,Typed,1078788,79-590,Méndez,N/A,no type status,Marko Lewis,21° 36' S 64° 48' W,1980,2160 m.,8 February 1979,Entodon cf. nano-climacium C.M. (= E. micans Herz.),Canyon 5 mi. SW of Tablada SW of Tarija
N/A,M. Lewis,Bolivia,La Paz,Very shady ground along creek in humid shrubs,W. Buck,Entodon nano-climacium,Near large red outcrop 2 miles from Sorata down Río Consata,N/A,1979-03-22,N/A,Typed,C0207921F,79-1220,Larecaja,N/A,no type status,Marko Lewis,"15° 41' S., 68° 43' W.",1980,2600 m.,22 March 1979,Entodon nano-climacium C.M. (= E. micans Herz.),Near large red outcrop 2 mi. from Sorata down Río Consata
N/A,H. W. Foote,Peru,N/A,N/A,unsure and check,Entosthodon platyphylloides,On rocks above San Miguel,N/A,1911-09-03,San Miguel,Mix of Handwritten and Typed,N/A,s.n.,N/A,N/A,no type status,COLLECTED BY HARRY WARD FOOTE,N/A,N/A,10000 ft,Sept. 3,Entosthodon platyphylloides C. Muell.,On rocks above San Miguel 10000 ft
N/A,M. Lewis,Bolivia,La Paz,Waterfall ravine highest extension of shrubs,W. Buck,Entodon polycarpus,Between Abra Huallata and waterfall at Millipaya,N/A,1979-04-01,N/A,Typed,104636,79-1346,Larecaja,N/A,no type status,Marko Lewis,15° 51' S 68° 39' W,1980,3780 m,1 April 1979,cf. Entodon polycarpus,Between Abra Huallata and waterfall at Millipaya
Nothofagus pumilio,H. Roivainen,Argentina,Tierra del Fuego,en fisuras de roca y en raices humoso-arcillosos de Nothofagus pumilio en orilla de la cascada,R. Ochyra,Isopterygium pulchellum,Arroyo Grande in fissures of rock and in humus-clay roots of Nothofagus pumilio on the edge of the waterfall 150 meters,N/A,1970-01-25,Ushuaia,Typed,1132417,2095,N/A,N/A,no type status,H. Roivainen,54°47'S 68°17'W,1996,150 m s.m.,25.1.1970,Isopterygium pulchellum (Hedw.) Jaeg.,australis Ushuaia Arroyo Grande (54°47'S 68°17'W) en fisuras de roca y en raices humoso-arcillosos de Nothofagus pumilio en orilla de la cascada 150 m s.m. bastante copiosamente
N/A,H. Roivainen,Argentina,Tierra del Fuego,suelo humoso húmedo en el pendiente del río bastante copiosamente,R. Ochyra,Isopterygium pulchellum,Valle del rio Pipo,N/A,1969-12-24,Ushuaia,Typed,C2079596F,1352,N/A,N/A,no type status,H. Roivainen,54°46'S 68°20'W,1996,300 m s.m.,24.12.1969,Isopterygium pulchellum (Brid.) Jaeg.,Valle del río Pipo
N/A,E. P. Killip,Colombia,Santander,N/A,R. R. Ireland,Isopterygium tenerum,Between Puerto Wilches and Puerto Santos,N/A,1926-11-29,N/A,Typed,104009,14871,N/A,A. C. Smith,no type status,E. P. Killip & A. C. Smith,N/A,1988,110-115 m.,"November 29, 1926",Isopterygium stigmocarpum (C. M.) Par.,"Dept. Santander, between Puerto Wilches and Puerto Santos"
N/A,R. E. Schultes,Colombia,Meta,N/A,D. Griffin III,Isopterygium tenerum,[precise locality unknown],N/A,1950-12-00,Villavicencio,Typed,1055473,1110,N/A,N/A,no type status,RICHARD EVANS SCHULTES,N/A,N/A,500 m.,"Dec., 1950",Isopterygium tenerum (Sw.) Mitt.,alrededores de Villavicencio
N/A,D. C. Geijskes,Suriname,N/A,Rainforest On roots and rocks on bank of river,H. R. Zielman,Isopterygium tenerum,Juroka River Amima falls,N/A,1952-09-29,N/A,Typed,1073518,s.n.,N/A,N/A,no type status,D. C. Geijskes,N/A,N/A,N/A,29 - 9 - 1952,Isopterygium tenerum (Sw.) Mitt.,Juroka River Amima falls
N/A,Y. Mexia,Brazil,Minas Gerais,On rotting log Abundant,R. R. Ireland,Isopterygium tenerum,Agricultural College land Horticultural Hill Out over woods near base,N/A,1930-07-06,Vicosa,Typed,1039979,4842,N/A,N/A,no type status,Ynes Mexia,N/A,1988,670 m,July 6 1930,Isopterygium brachyneuron (C M) Mitt ex p p Bartram,Agricultural College land Horticultural Hill Out over woods near base
N/A,Y. Mexia,Brazil,Minas Gerais,Shady streambank. On rotten wood.,Bertram,Isopterygium tenerum,Vicosa Agricultural College lands. Corriga Ribero.,N/A,1930-07-21,N/A,Typed,873365,4888,N/A,N/A,no type status,Ynes Mexia,N/A,N/A,675 m.,"July 21, 1930",Isopterygium laxum (Hpe.) Broth.,Vicosa Agricultural College lands. Corriga Ribero.
N/A,Y. Mexia,Brazil,Minas Gerais,Dense forest On rotten log In fruit,R. R. Ireland,Isopterygium tenerum,Road to São Miguel About 4.8 kilometers,N/A,1930-12-06,Viçosa,Typed,870841,5386,N/A,N/A,no type status,Ynes Mexia,N/A,1988,710 m.,"Dec. 6, 1930",Isopterygium brachypus (C. Mull.) Mitt.,Road to São Miguel About km 4.8
N/A,Y. Mexia,Brazil,Minas Gerais,On rotting logs in woods Abundant,N. L. Dartram,Isopterygium tenerum,Vicosa Agricultural College lands Base of Horticultural Hill,N/A,1930-12-23,N/A,Typed,870823,5441,N/A,N/A,no type status,Ynes Mexia,N/A,N/A,670 m.,"Dec. 23, 1930",Isopterygium laxum (Hpe.) Broth.,Vicosa Agricultural College lands Base of Horticultural Hill
Coccoloba sp.,H. S. Irwin,Brazil,Bahia,On the bark and exposed roots of Coccoloba sp. and on adjacent soil at river bank Cut-over gallery forest and adjacent cerrado,R. R. Ireland,Isopterygium tenerum,Valley of the Rio das Ondas approximately 10 kilometers west of Barreiras,N/A,1971-03-02,N/A,Typed,1059328,31332,N/A,R. M. Harley | G. L. Smith,no type status,H S Irwin R M Harley G L Smith,N/A,1988,ca. 500m,2 March 1971,Isopterygium tenerum (Sw.) Mitt.,Valley of the Rio das Ondas ca. 10km W. of Barreiras
N/A,Y. Mexia,Brazil,Minas Gerais,Shady streambank on rotten log. Abundant,E. Bartram,Isopterygium tenerum,Vicosa Agricultural College lands. Corrego Ribeiro,N/A,1929-07-21,N/A,Typed,870845,4884,N/A,N/A,no type status,Ynes Mexia,N/A,N/A,675 m,"July 21, 1929",Isopterygium tenerum (Sw.) Mitt.,Vicosa Agricultural College lands. Corrego Ribeiro
N/A,Y. Mexia,Brazil,Minas Gerais,Wood on slope On rotten log,E. Bartram,Isopterygium tenerum,Fazenda de Cresiuma,N/A,1930-05-14,Viçosa,Typed,870839,4698,N/A,N/A,no type status,Ynes Mexia,N/A,N/A,700 m.,"May 14, 1930",Isopterygium curvicollum (C. M.) Mitt. ex p.,Fazenda de Cresiuma
N/A,Y. Mexia,Brazil,Minas Gerais,Shady streambank on rotten log,N/A,Isopterygium tenerum,Viçosa Agricultural College lands Corriga Riberro,N/A,1930-07-21,N/A,Typed,1039977,4884,N/A,N/A,no type status,Ynes Mexia,N/A,N/A,675 m.,"July 21, 1930",Isopterygium curvicollum (C. M.) Mitt.,Viçosa Agricultural College lands Corriga Riberro
N/A,Y. Mexia,Brazil,Minas Gerais,Cut over woods on slope On rotting tree trunk,E. B. Bartram | R. R. Ireland,Isopterygium tenerum,Road to São Miguel Near stream Turca,N/A,1930-03-31,Viçosa,Typed,1039978,4545,N/A,N/A,no type status,Ynes Mexia,N/A,1988,710 m.,"March 31, 1930",Isopterygium curvifolium (C. M.) Mitt.,"Road to São Miguel Near stream ""Turca"" Cut over woods on slope On rotting tree trunk"
N/A,V. Schiffner,Brazil,Sao Paulo,in palude,V. F. Brotherus | R. R. Ireland,Isopterygium tenerum,near the city Cerqueira Cesar in marsh,N/A,00-07-00,N/A,Mix of Handwritten and Typed,1012176,2898,N/A,N/A,no type status,V. Schiffner,N/A,1988,c. 600 m s. m.,m. Jul. fr.,Isopterygium aurantiacum (C. M.) Broth.,prope urbem Cerqueira-Cesar in palude c. 600 m s. m.
N/A,Y. Mexia,Brazil,Minas Gerais,Cut over woods near base On rotting log Abundant,E. Bartram,Isopterygium tenerum,Vicosa Agricultural College lands,N/A,1930-07-06,N/A,Typed,870887,4841,N/A,N/A,no type status,Ynes Mexia,N/A,N/A,670 m,"July 6, 1930",Isopterygium brachyneuron (C. Muell.) Mitt. ex. Paris,Vicosa Agricultural College lands
N/A,R. S. Williams,Bolivia,N/A,on rock,R. R. Ireland,Isopterygium tenerum,San Buena Ventura,N/A,1901-11-29,N/A,Mix of Handwritten and Typed,1039993,2095,N/A,N/A,no type status,R. S. Williams,N/A,1988,190 meters,"Nov. 29, 1901",Isopterygium tenerum (Sw.) Mitt.,"San Buena Ventura, 190 meters, on rock"
N/A,R. S. Williams,Bolivia,N/A,N/A,R. S. Williams,Isopterygium tenerum,Tumucasa,1902-00-00,1901-00-00,N/A,Mix of Handwritten and Typed,1017412,2038,N/A,N/A,no type status,Collected by R. S. Williams 1901-1902,N/A,23 Jan 1902,N/A,1901-1902,Isopterygium tenerum (Sw.) Mitt. Tumucasa,Tumucasa
N/A,I. Hagen,Norway,Nordland,N/A,unsure and check,Pycnolium rugosum,Gpbl. Vælfjeld,N/A,1907-07-27,N/A,Mix of Handwritten and Typed,C0201099F,s.n.,Vefsn,N/A,no type status,Hagen,N/A,Dec 1951,altit. mtr. 700,27/7 1907,Pycnolium rugosum (R) var. elimbat (Welw.),Gpbl. Vælfjeld
N/A,N/A,England,N/A,N/A,N/A,Pogonatum urnigerum,[precise locality unknown],N/A,0000-00-00,N/A,Mix of Handwritten and Typed,C2010972F,s.n.,N/A,N/A,no type status,N/A,N/A,N/A,N/A,s.d.,Pogonatum urnigerum Brid,England
N/A,N/A,France,N/A,N/A,N/A,Pogonatum urnigerum,Gorge de Jeret,N/A,1878-00-00,N/A,Mix of Handwritten and Typed,N/A,s.n.,N/A,N/A,no type status,N/A,N/A,N/A,1500,1878,Pogonatum urnigerum,Gorge de Jeret
N/A,N/A,England,Sussex,N/A,N/A,Pogonatum urnigerum,[precise locality unknown],N/A,0000-00-00,N/A,Typed,1096014,s.n.,N/A,N/A,no type status,N/A,N/A,N/A,N/A,N/A,Pogonatum urnigerum,Sussex England
N/A,W. W. Calkins,United States,Illinois,N/A,N/A,Pogonatum urnigerum,[precise locality unknown],N/A,0000-00-00,Chicago,Mix of Handwritten and Typed,1182972,s.n.,Cook,N/A,no type status,W. W. Calkins,N/A,N/A,N/A,N/A,Pogonatum urnigerum,N/A
N/A,E. Jeanpert,France,N/A,"rock de lierre, moissons",N/A,Pogonatum urnigerum,Villers le Sec,N/A,1894-10-23,N/A,Handwritten,1058477,s.n.,N/A,N/A,no type status,Jeanpert,N/A,N/A,N/A,23/10/94,Pogonatum urnigerum,Villers le Sec
N/A,C. Müller,Germany,Baden-Württemberg,auf Erde in Felstriemen,E. Bauer,Pogonatum urnigerum,[precise locality unknown],N/A,1905-09-00,N/A,Mix of Handwritten and Typed,1194391,476,N/A,N/A,no type status,C. Müller Frib.,N/A,Nov. 10. 1909,etwa 1250 m s. m.,Sept. 1905,Pogonatum urnigerum (L.) Pal. Beauv. e. fr.,auf Erde in Felstriemen zwischen Rinken und Seebrick am Feldberg
N/A,Z. Pilous,Czech Republic,Bohemia,In declivis graminosis silvaticis,N/A,Pogonatum urnigerum,Montes Krkonoše near the village Hořejí Vrchlabí,N/A,1946-05-00,N/A,Typed,1270015,s.n.,Krkonoše,N/A,no type status,Zd. Pilous,N/A,N/A,ca 580 m,V. 1946,Pogonatum urnigerum P. B.,Montes Krkonoše In declivis graminosis silvaticis prope pagum Hořejí Vrchlabí ca 580 m
N/A,J. Thompson,Scotland,N/A,N/A,N/A,Pogonatum urnigerum,[precise locality unknown],N/A,1843-00-00,N/A,Mix of Handwritten and Typed,1230979,s.n.,N/A,N/A,no type status,Collected in 1843 by James Thompson,N/A,N/A,N/A,1843,Pogonatum urnigerum,N/A
N/A,Philippe,Costa Rica,N/A,N/A,N/A,Hypnum vernigerum,Costa de Ricas,N/A,0000-00-00,N/A,Handwritten,1058446,s.n.,N/A,N/A,no type status,Philippe,N/A,N/A,N/A,N/A,Hypnum vernigerum,Costa de Ricas
N/A,N/A,Germany,N/A,N/A,N/A,Pogonatum urnigerum,[precise locality unknown],N/A,0000-00-00,N/A,Handwritten,1159295,s.n.,N/A,N/A,no type status,N/A,N/A,N/A,N/A,N/A,Pogonatum urnigerum Bruch,Germany
N/A,C. Jensen,Denmark,Sjælland,in a gravel pit,C. Jensen,Pogonatum urnigerum,Magistratskoven by Hvalsø in a gravel pit,N/A,1901-10-25,N/A,Typed,C200004345,s.n.,N/A,N/A,no type status,C Jensen,N/A,N/A,N/A,25/10 1901,Pogonatum urnigerum (Hedw.) P. B.,Magistratskoven by Hvalsø in a gravel-pit
N/A,N/A,France,N/A,N/A,N/A,Syntrichia norvegica,Vittel,N/A,1913-10-15,N/A,Mix of Handwritten and Typed,1058475,s.n.,N/A,N/A,no type status,N/A,N/A,N/A,N/A,15 Octobre 1913,Syntrichia norvegica,Environs de la Ville de Vittel
N/A,N/A,France,N/A,N/A,N/A,Andreaeum crassinervum,[precise locality unknown],N/A,0000-00-00,N/A,Handwritten,1058481,1976,N/A,N/A,no type status,Rostan,N/A,N/A,N/A,N/A,Andreaeum crassinervum Duby,Briancon
N/A,G. E. Hunt,Scotland,N/A,N/A,unsure and check,Sphagnum subsecundum,Bield,N/A,0000-00-00,N/A,Mix of Handwritten and Typed,1182976,s.n.,N/A,N/A,no type status,ex herb. George E. Hunt,N/A,unsure and check,N/A,s.d.,Sphagnum subsecundum,Bield
Polytrichum urnigerum,M. Conrad,Switzerland,Valais,N/A,M. Conrad,Pogonatum urnigerum,Sur talus éboulis,N/A,1976-07-18,La Forclaz,Mix of Handwritten and Typed,1050871,76.1.8693,Val d'Hérens,N/A,no type status,M. Conrad,N/A,N/A,ca. 1750 m,Le 18.07.1976,"Pogonatum urnigerum J. Beauv., Schimp.",Sur talus éboulis alt. ca. 1750 m
N/A,M. Onraedt,Switzerland,Valais,talus forestier,J. Lewin,Pogonatum urnigerum,Cote du Palais Val d'Herens entre St. Martin et Mase,N/A,1976-07-29,N/A,Mix of Handwritten and Typed,1050867,70.5.1880,N/A,N/A,no type status,M. Onraedt,N/A,N/A,1600m,Le 29.07.1976,Pogonatum urnigerum P. Beauv. (Schimp.),Cote du Palais Val d'Herens entre St. Martin et Mase
N/A,N/A,United Kingdom,England,N/A,N/A,Pogonatum urnigerum,[precise locality unknown],N/A,1840-02-00,N/A,Mix of Handwritten and Typed,C2010618F,s.n.,Westmorland,N/A,no type status,Barnes legit,N/A,N/A,N/A,Feb. 1840,Pogonatum urnigerum Brid.,Westmorland
N/A,Jack,Germany,Baden-Württemberg,N/A,N/A,Pogonatum urnigerum,An Waldgraben near Salem,N/A,1850-08-25,Salem,Typed,1058838,986A b,N/A,N/A,no type status,Jack,N/A,N/A,N/A,25 August 1850,Pogonatum urnigerum (L.) Pal. Beauv.,b. An Waldgraben bei Salem
N/A,D. Hepp,Germany,Baden-Württemberg,An einem Waldrande auf dem rothen Sandsteinbruche,unsure and check,Pogonatum urnigerum,[precise locality unknown],N/A,1862-10-17,Degerfelden,Typed,1054981,986,N/A,N/A,no type status,Dr. Hepp,N/A,N/A,N/A,17. October 1862,Pogonatum urnigerum (L.) Pal. Beauv.,An einem Waldrande auf dem rothen Sandsteinbruche oberhalb Degerfelden
N/A,N/A,Switzerland,N/A,N/A,N/A,Pogonatum urnigerum,In Hohlwegen bei Schaffhausen,N/A,1862-09-00,N/A,Typed,1055060,9863 d,N/A,N/A,no type status,"Jack, Leiner u. Stizenberger",N/A,N/A,N/A,September 1862,Pogonatum urnigerum (L.) Pal. Beauv.,In Hohlwegen bei Schaffhausen
N/A,C. Jensen,Denmark,Zealand,sandy soil,C. Jensen,Pogonatum urnigerum,Magistratskovene south of Hvalsø,N/A,1904-11-21,N/A,Typed,N/A,104,N/A,N/A,no type status,and determ. C. Jensen,N/A,N/A,N/A,"November 21, 1904",Pogonatum urnigerum (Hedw.) P. B. c. fr.,sandy soil in Magistratskovene south of Hvalsø
Blasia pusilla | Pellia epiphylla | Aulacomnion androgynum | Dicranella heteromalla,P. Allorge,Spain,Navarra,Calcifuge mesophytic scapiule Frequent sur les talus siliceux frais récemment dénudés,N/A,Pogonatum urnigerum,Puerto de Ibañeta,N/A,1927-08-22,N/A,Typed,1200429,49,N/A,N/A,no type status,P. Allorge,N/A,N/A,ca. 1050 m,22 VIII 1927,"Pogonatum urnigerum (Linde) Spr. Plant. II p. 1109 N. 3 1733, sub Polytricho Palisot de Beauvois Prodr. p. 81 1805 C.",Puerto de Ibañeta
N/A,Z. Pilous,Slovakia,Nízke Tatry,N/A,N/A,Pogonatum urnigerum var. humile,In terra montis Ďumbier,N/A,1949-07-00,N/A,Typed,1350887,s.n.,N/A,N/A,no type status,Zdeněk Pilous,N/A,N/A,ca 1840 m,VII.1949,1025. Pogonatum urnigerum Pal. var. humile Brid.,In terra montis Ďumbier ca 1840 m
N. chilensis | Prumnopitys exigua | Podocarpus | Myrcianthes,S. Churchill,Bolivia,Chuquisaca,Bosque montano de yungas Musgo sobre rama de árbol,S. Churchill,Neckera scabridens,Monte Grande approximately 32 kilometers from Villa Serrano,N/A,2004-05-12,N/A,Typed,1183467,22853,Belisario Boeto,H. Huaylla | R. Lozano | M. Serrano,no type status,S. Churchill et al. 22853,"18°43'43""S 64°29'07""W",Jun 2004,2740 m,12 May 2004,Neckera scabridens C. Müller,Monte Grande ca. 32 km de Villa Serrano
N/A,C. E. Córdula,Brazil,Pernambuco,Arbusto denso solo derivado de embasamento cristalino,G. P. Lewis,Vigna peduncularis,Serra das Umburanas,N/A,2007-06-23,Mirandiba,Mix of Handwritten and Typed,K000931304,49243,N/A,Y. Melo | K. Pinheiro,no type status,C. E. Córdula | Y. Melo | K. Pinheiro,Lat. 8°12' S Long. 38°32' W,12.2012,457 m,23/VI/2007,Vigna peduncularis (Kunth) Fawc. & Rendle,Serra das Umburanas (afloramento rochoso)
N/A,I. Kukkonen,Australia,Queensland,Patch of rain forest Fern climbing on tree stems,J. Sarvela,Arthropteris tenella,Lamin's Hill East of Malanda,N/A,1981-09-13,N/A,Mix of Handwritten and Typed,EIG.6763,11003,Atherton Tableland,N/A,no type status,Ilkka Kukkonen 11003,N/A,1982,N/A,13. Sept. 1981,Arthropteris tenella (Forst. f.) J. Sm.,Lamin's Hill E. of Malanda
N/A,G. Pabst,Brazil,Guanabara,Arbusto e pequenas árvores de flores brancas,A. P. Duarte,Avicennia tomentosa,Mangue próximo ao Jóquei Club da Ilha do Governador,N/A,1960-09-07,N/A,Typed,K001046329,5121,N/A,N/A,no type status,G. Pabst 5121,N/A,23.9.60,N/A,7.9.60,Avicennia tomentosa,Mangue próximo ao Jóquei Club da Ilha do Governador
N/A,W. Hoehne,Brazil,São Paulo,N/A,M. Kuhlmann,Cestrum corymbosum,Cantareiras,N/A,1933-08-13,N/A,Typed,K000964719,10228,N/A,N/A,no type status,W. Hoehne,N/A,N/A,Alt.: . . . m,13/8/33,Cestrum corymbosum Schlecht.,Cantareiras. São Paulo
N/A,H. Eggert,United States,Illinois,N/A,unsure and check,Cystopteris bulbifera,Randolph,N/A,1879-05-17,N/A,Handwritten,1126455,s.n.,N/A,N/A,no type status,H. Eggert,N/A,N/A,N/A,17. Mai 79,Cystopteris bulbifera (L.) Bernh.,Randolph
Juniperus procera,I. Kukkonen,Ethiopia,Bale,In alpine belt dominated by Festuca schaefferi Euryops prostrata Anthemis tigresis Steep forested slope of a river canyon Pastured slope,J. Sarvela,Dryopteris inaequalis,Saneti plateau and Mount Batu,N/A,1982-11-08,N/A,Mix of Handwritten and Typed,H 1489739,12608,N/A,N/A,no type status,Ilkka Kukkonen 12608,0655'N 3940'E,1987,c. 3400 m,8.XI.1982,Dryopteris inaequalis (Schltdl.) O. Kuntze,Saneti plateau and Mount Batu 0655'N 3940'E c. 4000-4200 m
Mimulus x robertsii,M. Vallejo-Marin,Scotland,South Lanarkshire,Occurring on the banks of a stream on a substrate of sand and shingle,N/A,Mimulus peregrinus,Shortcleuch Water Leadhills,N/A,2012-03-23,N/A,Mix of Handwritten and Typed,E00570050,11-LED-seed-2.14,N/A,N/A,Holotype,Vallejo-Marin M. 11-LED-seed-2.14,N 55 25.437 W 3 43.749,N/A,360 m,23 March 2012,Mimulus peregrinus sp. nov.,British Isles vc 77 Shortcleuch Water Leadhills
N/A,B. T. Lownes,United Kingdom,Surrey,N/A,Bentham,Monotropa hypopitys,N/A,N/A,1902-08-09,N/A,Mix of Handwritten and Typed,648,45,N/A,N/A,no type status,B. T. Lownes,N/A,N/A,N/A,Aug. 9th 1902,Monotropa Hypopitys,N/A
Cistus | Pinus,B. Van de Vijver,Italy,Apulia,macchia-shrub with Cistus and Pinus,unsure and check,Ophrys oestrifera,Behind the Chapel of Madonna di Loreto,N/A,2007-04-25,N/A,Mix of Handwritten and Typed,691 837,s.n.,N/A,N/A,no type status,Bart Van de Vijver,N/A,N/A,N/A,25/04/2007,Ophrys oestrifera subsp. garganensis Van de Vijver & W. Van Looken,Promontorio del Gargano Madonna di Loreto Behind the Chapel of Madonna di Loreto
N/A,G. Hatschbach,Brazil,Parana,Erva 1m terreno arenoso margens de rio,I. M. Pedersen,Pfaffia glabrataides,Rio Iguacu near the mouth of Perdido,N/A,1968-11-09,N/A,Typed,K001207911,20590,Curitiba,N/A,no type status,G. Hatschbach 20590,N/A,971,N/A,09/11/1968,Pfaffia glabrataides Ssgth.,Rio Iguacu prox a barra do Perdido
N/A,J. J. de Wilde,Gabon,N/A,Vine 7 meters long in tree in roadside,N/A,Rhynchosia gabonensis,About 10 kilometers on the road from Tchimbélé to Assok,N/A,1991-01-22,N/A,Typed,K000263710,10130,N/A,Sosef | K. van Nek,Isotype,J.J. de Wilde Sosef K. van Nek,0 04 N. 10 23 E.,N/A,± 580 m.,22-1-1991,Rhynchosia gabonensis Jongkind,About 10 km. on the road from Tchimbélé to Assok
N/A,W. Suksdorf,United States,Washington,N/A,T. Särkinen | M. Nee,Solanum triflorum,High sandy river-bank,N/A,1926-08-03,Bingen,Typed,BM000994757,12045,Klickitat,N/A,no type status,WILHELM SUKSDORF,N/A,2014 | 2005,N/A,3. Aug. 1926,Solanum triflorum Nutt.,High sandy river-bank at Bingen
N/A,J. F. Macbride,Peru,N/A,Montaña slope,F. A. Michelangeli,Tococa undabunda,Hacienda Schunke,1923-09-01,1923-08-27,La Merced,Mix of Handwritten and Typed,K000536956,5234,N/A,N/A,Isotype,COLL. J. FRANCIS MACBRIDE,N/A,20.08,About 4000 feet,"AUG. 27-SEPT. 1, 1923",Isotype of Tococa undabunda J. F. Macbr.,La Merced Hacienda Schunke
C. heterophylla | C. scabrida | C. lanceolata | C. crotonoides,X. Cornejo,Ecuador,Manabí,"Bosque seco tropical deciduo, fuertemente intervenido",unsure and check,Capparis sclerophylla,Alrededores de Universidad Católica,N/A,1997-10-27,Bahía de Caráquez,Typed,B 10 0375227,5822,N/A,C. Bonifaz,Isotipo,"X. Cornejo, C. Bonifaz",LATITUD -00.45 LONGITUD -80.32,19 Jul 2010,30 m,"Oct. 27, 1997",Capparis sclerophylla Iltis nov. sp.,"Alrededores de Universidad Católica. Bosque seco tropical deciduo, fuertemente intervenido"
N/A,M. Delavay,China,Yunnan,N/A,unsure and check,Gentiana albescens,[precise locality unknown],N/A,1887-04-02,N/A,Mix of Handwritten and Typed,B 10 0185601,s.n.,N/A,N/A,no type status,M. l'abbé Delavay,N/A,N/A,N/A,2 avril 1887,Gentiana albescens Franch.,in collibus prope Mo-so-yn
N/A,W. Meier,Venezuela,Distrito Federal,arbol caido secado Fila Jabilllar en selva,P. J. M. Maas,Klarobelia subglobosa,Cordillera de la Costa en cuenca Guatire-Caucagua ruta Fila Juan Torres-Rio Brazo Grande-Fila Maestra-Rio Caruao-poblacion San Jorge de Caruao,1993-04-17,1993-04-16,N/A,Mix of Handwritten and Typed,B 10 0030508,3685,Estado Miranda,S. Llamozas,Isotypus,Winfried Meier y Silvia Llamozas,lat. 10°34' N long. 66°23' O,1994,500 m,16-17 de abril 1993,Klarobelia subglobosa Chatrou,Cordillera de la Costa en: cuenca Guatire-Caucagua ruta: Fila Juan Torres-Rio Brazo Grande-Fila Maestra-Rio Caruao-poblacion San Jorge de Caruao
N/A,M. Kessler,Malaysia,Sarawak,Secondary vegetation along road,M. Kessler,Mallotus paniculatus,Base of Gunung Pueh,N/A,1988-12-21,N/A,Typed,B 10 0069251,283,N/A,N/A,no type status,Kessler 283,N/A,18. MRZ 1994,up to 200 m,21.12.1988,Mallotus paniculatus,Sarawak 1st Division Base of Gunung Pueh
N/A,M. Jacobs,Malaysia,Sarawak,In very moist sandstone gorge on rocks. Inflorescence sheath violet tip olive-greenish. Male and female flowers sordidly pale yellow. Frequent on the spot. Pollinated by small blue-glossy beetles,N/A,Piptospatha grabowskii,North slopes of Mount Penrissen South of Kuching,N/A,1958-08-01,N/A,Typed,B 10 0027824,5005,N/A,N/A,no type status,M. Jacobs,approx. 1°5' N. 110°15' E.,N/A,c. 700-900 m,Aug. 1,Piptospatha grabowskii (Engl.) Engl. (Syn. P. havilandii (Engl.) Engl.),N. slopes of Mount Penrissen (S. of Kuching)
N/A,P. J. M. Maas,Brazil,Espírito Santo,"High forest, on brown sand; vegetation with many Palmae and terrestrial and epiphytic Bromeliaceae",P. J. M. Maas,Pseudoxandra spiritus-sancti,Estação Biológica de Santa Lúcia,N/A,1999-02-16,N/A,Typed,B 10 0030420,8833,Santa Teresa,H. Maas | L. Kollmann,Isotype,"P. J. M. & H. Maas, L. Kollmann",19°58'S 40°32'W,"Utrecht, 2001",800 m,16 Feb 1999,Pseudoxandra spiritus-sancti Maas,"Est. Espírito Santo, Municipio de Santa Teresa, Estação Biológica de Santa Lúcia"
N/A,R. Berazaín,Cuba,Guantánamo,N/A,H. Manitz,Hieracium pallidum,"Abra de Mariana, loma al oeste del barranco",N/A,1979-11-09,N/A,Mix of Handwritten and Typed,HFC 39098,1671,San Antonio del Sur,J. Bisse | M. A. Díaz | H. Dietrich | L. González Gijépel | J. Gutiérrez | K. Kohler | L. Lepper | U. Rändel | H. Schaarschmidt,Isotype,"R. Berazaín, J. Bisse, M. A. Díaz, H. Dietrich, L. González Gijépel, J. Gutiérrez, K. Kohler, L. Lepper, U. Rändel, H. Schaarschmidt",Coordenadas de la cuadrícula (Cuba 1:250000): 1671 [5/7]0,2007,1671 [5/7]0 m,09-11-1979,Hieracium pallidum K. Dietr.,"Abra de Mariana, loma al oeste del barranco"
