modelname,associatedTaxa,collectedBy,country,firstPoliticalUnit,habitat,identifiedBy,latestScientificName,locality,maximumEventDate,minimumEventDate,municipality,originalMethod,otherCatalogNumbers,recordNumber,secondPoliticalUnit,secondaryCollectors,typeStatus,verbatimCollectors,verbatimCoordinates,verbatimDateIdentified,verbatimElevation,verbatimEventDate,verbatimIdentification,verbatimLocality
sonnet-3.5_gpt-4o-cropped_gpt-4o-collage,N/A,E. A. Mearns,PASS,PASS,N/A,PASS,PASS,PASS,PASS,PASS,N/A,PASS,PASS,PASS,PASS,N/A,no type status,PASS,N/A,19.10.1971,N/A,PASS,PASS,PASS
sonnet-3.5_gpt-4o-cropped_gpt-4o-collage,N/A,F. G. Overlaet,PASS,N/A,N/A,PASS,Habenaria,[precise locality unknown],PASS,PASS,N/A,Typed,PASS,PASS,N/A,N/A,no type status,COLL. F. G. OVERLAET,N/A,PASS,N/A,PASS,Habenaria,N/A
sonnet-3.5_gpt-4o-cropped_gpt-4o-collage,PASS,R. A. Maas Geesteranus,Kenya,Nyanza,PASS,PASS,PASS,PASS,N/A,1949-06-14,N/A,PASS,PASS,4924,Londiani,N/A,no type status,PASS,PASS,N/A,2260 m s.m.,PASS,PASS,PASS
sonnet-3.5_gpt-4o-cropped_gpt-4o-collage,N/A,J. M. Reitsma,Gabon,N/A,PASS,PASS,PASS,PASS,N/A,PASS,N/A,Typed,PASS,2013,N/A,PASS,no type status,PASS,0 41 N x 11 07 E,2011,N/A,PASS,Bulbophyllum scaberulum (Rolfe) Bolus var. scaberulum,PASS
sonnet-3.5_gpt-4o-cropped_gpt-4o-collage,N/A,Carvalho,PASS,BIOCO,PASS,PASS,PASS,PASS,N/A,1986-07-26,Malabo,Typed,PASS,2102,N/A,N/A,no type status,PASS,PASS,1995,8 m,26-VII-1986,Mariscus alternifolius Vahl,PASS
sonnet-3.5_gpt-4o-cropped_gpt-4o-collage,N/A,PASS,PASS,PASS,márgenes de la pista,PASS,PASS,PASS,N/A,PASS,N/A,Typed,PASS,11206,N/A,N/A,no type status,PASS,32NMJ7396,1993,2870 m,PASS,Agrostis manii (Hooker fil.) Stapf,PASS
sonnet-3.5_gpt-4o-cropped_gpt-4o-collage,N/A,F. G. Overlaet,PASS,N/A,N/A,PASS,PASS,[precise locality unknown],PASS,PASS,N/A,Typed,PASS,s.n.,N/A,N/A,no type status,COLL. F. G. OVERLAET,N/A,PASS,N/A,1923-4,Scirpus,N/A
sonnet-3.5_gpt-4o-cropped_gpt-4o-collage,N/A,C. J. P. Seegeler,ETHIOPIA,SHEWA,PASS,G. J. H. Amshoff,PASS,PASS,N/A,1972-10-23,N/A,Typed,PASS,2806,N/A,N/A,no type status,PASS,PASS,1982,PASS,23 October 1972,Vernonia abyssinica Sch.Bip.,PASS
sonnet-3.5_gpt-4o-cropped_gpt-4o-collage,N/A,N/A,PASS,Sud-Kivu,PASS,N/A,PASS,PASS,N/A,2003-08-05,PASS,PASS,PASS,48,Kabare,N/A,no type status,PASS,N/A,N/A,N/A,05.08.2003,PASS,Musisi
sonnet-3.5_gpt-4o-cropped_gpt-4o-collage,N/A,J. M. Fay,Central African Republic,PASS,N/A,J. M. Fay,PASS,PASS,N/A,1987-05-25,N/A,Typed,PASS,8017,N/A,N/A,no type status,PASS,08°29'N 21°12'E,N/A,PASS,25 May 1987,Burkea africana Hook.,PASS
sonnet-3.5_gpt-4o-cropped_gpt-4o-collage,N/A,P. C. M. Jansen,ETHIOPIA,HARERGE,PASS,C. C. H. Jongkind,PASS,PASS,N/A,1976-04-14,N/A,Typed,PASS,5996,N/A,N/A,no type status,PASS,PASS,1987,2000m,14 April 1976,Cirsium vulgare (Savi) Ten.,PASS
sonnet-3.5_gpt-4o-cropped_gpt-4o-collage,N/A,PASS,Kenya,Kajiado,Dry bushland,PASS,PASS,PASS,N/A,2003-10-22,PASS,Typed,PASS,AK61,PASS,PASS,no type status,"Amanda Koch, Wilson Sakuda, AK61, October 22, 2003",N/A,"November 02, 2003",N/A,"October 22, 2003",Acacia reficiens misera (Vatke) Brenan,PASS
sonnet-3.5_gpt-4o-cropped_gpt-4o-collage,N/A,J. Lebrun,PASS,PASS,N/A,C. A. Smith,PASS,PASS,N/A,1931-03-00,N/A,PASS,PASS,2409,PASS,N/A,no type status,J. Lebrun,N/A,N/A,N/A,Mars 1931,PASS,PASS
sonnet-3.5_gpt-4o-cropped_gpt-4o-collage,N/A,PASS,Kenya,N/A,N/A,N/A,PASS,PASS,N/A,1957-12-25,N/A,Mix of Handwritten and Typed,PASS,2077,N/A,N/A,no type status,PASS,N/A,N/A,N/A,PASS,PASS,PASS
sonnet-3.5_gpt-4o-cropped_gpt-4o-collage,N/A,PASS,PASS,N/A,foret secondaire,H. Callens,Gaertnera paniculata,PASS,N/A,1958-07-00,Kisantu,Typed,PASS,s.n.,N/A,N/A,no type status,PASS,N/A,1/9/58,PASS,Juillet 1958,Gaertnera paniculata,PASS
sonnet-3.5_gpt-4o-cropped_gpt-4o-collage,N/A,PASS,PASS,Kivu,PASS,N/A,PASS,PASS,N/A,1958-02-10,N/A,Typed,PASS,PASS,PASS,N/A,no type status,PASS,N/A,N/A,PASS,10/2/1958,PASS,PASS
sonnet-3.5_gpt-4o-cropped_gpt-4o-collage,N/A,G. McPherson,GABON,OGOOUE-IVINDO,PASS,PASS,PASS,PASS,N/A,1989-03-20,N/A,Typed,PASS,13781,N/A,N/A,no type status,PASS,PASS,1989,c. 200 m,20 Mars 1989,Corynanthe mayumbensis (R. Good) N. Hallé,PASS
sonnet-3.5_gpt-4o-cropped_gpt-4o-collage,PASS,J. M. Fay,CAMEROON,N/A,PASS,PASS,PASS,PASS,N/A,1988-03-04,N/A,Typed,PASS,8294,N/A,N/A,no type status,PASS,02°20'N 16°08'E,1988,385 m,4 March 1988,Millettia zechiana Harms,PASS
sonnet-3.5_gpt-4o-cropped_gpt-4o-collage,N/A,F. A. Melville,PASS,PASS,PASS,PASS,PASS,PASS,N/A,1959-07-29,N/A,PASS,PASS,199,N/A,N/A,no type status,PASS,N/A,N/A,PASS,29.vii.1959,Phaseolus lunatus L.,PASS
sonnet-3.5_gpt-4o-cropped_gpt-4o-collage,N/A,R. L. Piemeisel,Kenya,N/A,N/A,N/A,N/A,PASS,PASS,PASS,PASS,Typed,PASS,2,N/A,L. W. Kephart,no type status,PASS,N/A,N/A,PASS,PASS,N/A,PASS
sonnet-3.5_gpt-4o-cropped_gpt-4o-collage,N/A,A. Léonard,PASS,PASS,Vieille forêt secondaire,B. Sonké,PASS,PASS,N/A,1959-02-19,PASS,PASS,PASS,PASS,N/A,N/A,no type status,A. Léonard,N/A,1989,PASS,19/2 1959,PASS,PASS
sonnet-3.5_gpt-4o-cropped_gpt-4o-collage,N/A,R. P. KLAINE,Gabon,N/A,PASS,N/A,PASS,PASS,N/A,PASS,PASS,PASS,PASS,PASS,N/A,N/A,no type status,récolté par le R. P. KLAINE,N/A,N/A,N/A,PASS,PASS,PASS
sonnet-3.5_gpt-4o-cropped_gpt-4o-collage,N/A,J. T. Allen,Ghana,PASS,PASS,N/A,PASS,PASS,N/A,1996-09-23,PASS,Typed,PASS,41,N/A,N/A,no type status,PASS,N/A,N/A,N/A,"September 23, 1996",Dissotis rotundifolia (Sm.) Triana,PASS
sonnet-3.5_gpt-4o-cropped_gpt-4o-collage,N/A,J. E. Andoh,PASS,PASS,PASS,N/A,PASS,Kumasi Township Forest Reserve,N/A,1952-03-00,PASS,Typed,PASS,5632,PASS,N/A,no type status,PASS,N/A,N/A,N/A,March 1952,Chrysophyllum perpulchrum Mildbr.,Kumasi Township Forest Reserve
sonnet-3.5_gpt-4o-cropped_gpt-4o-collage,N/A,J. Nemba,CAMEROON,SOUTHWEST,PASS,D. W. Thomas,PASS,PASS,N/A,1987-06-15,N/A,Typed,PASS,520,N/A,D. W. Thomas,no type status,PASS,04°44'N 09°29'E,1987,200 m,15 June 1987,Donella welwitschii Pierre ex Engl.,PASS
sonnet-3.5_gpt-4o-cropped_gpt-4o-collage,N/A,J. Deaw,Ghana,N/A,PASS,A. A. Enti,Eugenia coronata,PASS,N/A,1971-10-04,Accra,Typed,PASS,Sp 283,N/A,N/A,no type status,J. Deaw,N/A,PASS,N/A,PASS,Eugenia coronata,Accra
sonnet-3.5_gpt-4o-cropped_gpt-4o-collage,N/A,G. Schweinfurth,PASS,N/A,N/A,PASS,PASS,PASS,N/A,1892-05-01,N/A,PASS,PASS,1814,N/A,D. Riva,no type status,PASS,N/A,N/A,PASS,1 mai 1892,Rumex nervosus V.,PASS
sonnet-3.5_gpt-4o-cropped_gpt-4o-collage,Combretum schumannii,R. B. Faden,Kenya,PASS,PASS,J. O. Kokwaro,PASS,PASS,N/A,1977-03-07,N/A,Typed,PASS,77/711,PASS,A. J. Faden,no type status,PASS,PASS,N/A,PASS,7 March 1977,PASS,PASS
sonnet-3.5_gpt-4o-cropped_gpt-4o-collage,N/A,F. Szafranski,PASS,PASS,PASS,N/A,PASS,PASS,N/A,1988-02-05,Isiro,Typed,PASS,1378,PASS,N/A,no type status,F. SZAFRANSKI,N/A,N/A,N/A,5.2.1988,Floscopa glomerata (Roem. et Schult.) Hassk.,PASS
sonnet-3.5_gpt-4o-cropped_gpt-4o-collage,N/A,F. W. H. Migeod,PASS,PASS,PASS,M. Nee,PASS,PASS,N/A,PASS,PASS,PASS,PASS,394,PASS,N/A,no type status,PASS,N/A,PASS,PASS,PASS,Solanum sp.,PASS
sonnet-3.5_gpt-4o-cropped_gpt-4o-collage,N/A,T. C. Wrigley,PASS,PASS,PASS,A. W. Exell,PASS,Ridge west of Crater Lake,N/A,1959-07-18,N/A,PASS,PASS,52,N/A,F. A. Melville,PASS,PASS,N/A,1961,PASS,18 July 1959,Cassipourea annobonensis Mildbr. ex Alston,PASS
sonnet-3.5_gpt-4o-cropped_gpt-4o-collage,PASS,PASS,Ethiopia,Harar,PASS,PASS,PASS,PASS,N/A,1962-05-27,N/A,Mix of Handwritten and Typed,PASS,1767,N/A,N/A,no type status,William Burger,PASS,N/A,PASS,27 May 1962,Rubus apetalus Poir,PASS
sonnet-3.5_gpt-4o-cropped_gpt-4o-collage,N/A,J. D. Sauer,Kenya,PASS,PASS,N/A,PASS,PASS,N/A,1963-06-15,N/A,Typed,PASS,3914,PASS,N/A,no type status,PASS,N/A,N/A,N/A,15 June 1963,PASS,PASS
sonnet-3.5_gpt-4o-cropped_gpt-4o-collage,N/A,C. Vigne,PASS,N/A,N/A,PASS,PASS,[precise locality unknown],N/A,PASS,N/A,Typed,PASS,PASS,N/A,N/A,no type status,C. Vigne,N/A,N/A,N/A,PASS,PASS,PASS
sonnet-3.5_gpt-4o-cropped_gpt-4o-collage,N/A,PASS,Ghana,N/A,N/A,N/A,PASS,[precise locality unknown],N/A,1999-00-00,N/A,Typed,PASS,1026,N/A,N/A,no type status,Eman Addo,N/A,N/A,N/A,PASS,Uvaria versicolor Pierre,N/A
sonnet-3.5_gpt-4o-cropped_gpt-4o-collage,N/A,A. A. Enti,Ghana,PASS,PASS,A. A. Enti,Pergularia daemia,PASS,N/A,1971-11-22,N/A,Typed,PASS,PASS,N/A,N/A,no type status,PASS,N/A,PASS,N/A,PASS,Pergularia daemia,Awutu - Winneba Road
sonnet-3.5_gpt-4o-cropped_gpt-4o-collage,N/A,D. W. Thomas,CAMEROON,SOUTHWEST,PASS,D. W. Thomas,PASS,PASS,N/A,1987-00-00,N/A,Typed,PASS,6850,N/A,N/A,no type status,D.W. Thomas 6850,05°02'N 08°50'E,1987,60 m,1987,PASS,PASS
sonnet-3.5_gpt-4o-cropped_gpt-4o-collage,N/A,S. A. Thompson,CAMEROON,Sud-Ouest,PASS,N/A,PASS,PASS,N/A,1984-07-09,Bakingili,Typed,PASS,1522,Fako,N/A,no type status,PASS,PASS,N/A,PASS,9 July 1984,Impatiens macroptera Hook.f.,PASS
sonnet-3.5_gpt-4o-cropped_gpt-4o-collage,N/A,PASS,Kenya,Kitui,PASS,N/A,PASS,PASS,N/A,PASS,N/A,PASS,PASS,4484,N/A,N/A,no type status,PASS,N/A,N/A,PASS,PASS,Englerina tenuifolia (Engl.) Gilli,4 km n. of Kangondi on road to Embu
sonnet-3.5_gpt-4o-cropped_gpt-4o-collage,N/A,S. A. Thompson,CAMEROON,Sud-Ouest,PASS,N/A,PASS,PASS,N/A,1984-06-03,PASS,Typed,PASS,1333,Fako,PASS,no type status,PASS,PASS,N/A,PASS,3 June 1984,Avicennia africana P. Beauv.,PASS
sonnet-3.5_gpt-4o-cropped_gpt-4o-collage,N/A,PASS,PASS,Kivu,PASS,PASS,PASS,PASS,N/A,PASS,N/A,PASS,PASS,6347,PASS,N/A,no type status,PASS,N/A,N/A,PASS,PASS,PASS,PASS
sonnet-3.5_gpt-4o-cropped_gpt-4o-collage,N/A,A. Pappi,ERITREA,PASS,N/A,T. M. Upson,PASS,LUNGO IL TORRENTE HADDAS,1902-08-15,1902-08-14,N/A,PASS,PASS,PASS,N/A,N/A,no type status,PASS,N/A,2/4/1996,N/A,14-15.VIII.1902,Lavandula pubescens Decaisne,PASS
sonnet-3.5_gpt-4o-cropped_gpt-4o-collage,N/A,PASS,Ethiopia,PASS,PASS,PASS,PASS,PASS,N/A,1962-02-14,N/A,Mix of Handwritten and Typed,PASS,1453,N/A,N/A,no type status,PASS,PASS,N/A,PASS,PASS,PASS,PASS
sonnet-3.5_gpt-4o-cropped_gpt-4o-collage,N/A,PASS,GHANA,VOLTA REGION,PASS,N/A,TERMINALIA GLAUCESCENS,PASS,N/A,PASS,HO,PASS,PASS,PASS,N/A,N/A,no type status,PASS,N/A,1972,N/A,PASS,TERMINALIA GLAUCESCENS,PASS
sonnet-3.5_gpt-4o-cropped_gpt-4o-collage,N/A,PASS,PASS,PASS,N/A,PASS,PASS,PASS,N/A,1863-11-24,N/A,PASS,PASS,1467,N/A,N/A,no type status,PASS,N/A,N/A,N/A,PASS,PASS,PASS
sonnet-3.5_gpt-4o-cropped_gpt-4o-collage,N/A,D. W. Thomas,CAMEROON,SOUTHWEST,PASS,D. W. Thomas,PASS,PASS,N/A,1987-05-18,PASS,Typed,PASS,6988,N/A,M. Etuge,no type status,D.W. Thomas & M. Etuge,04°36'N 09°27'E,1987,150 m,18 May 1987,Tapura africana Oliv.,PASS
sonnet-3.5_gpt-4o-cropped_gpt-4o-collage,N/A,E. A. Mearns,PASS,N/A,N/A,PASS,PASS,PASS,1909-09-07,1909-09-06,N/A,Typed,PASS,1114,N/A,N/A,no type status,PASS,N/A,N/A,PASS,"September 6 and 7, 1909",PASS,PASS
sonnet-3.5_gpt-4o-cropped_gpt-4o-collage,N/A,PASS,Kenya,N/A,N/A,PASS,PASS,[precise locality unknown],N/A,PASS,N/A,Typed,PASS,580,N/A,N/A,no type status,PASS,N/A,N/A,N/A,PASS,Combretum Schumannii Engl.,N/A
sonnet-3.5_gpt-4o-cropped_gpt-4o-collage,PASS,J. M. Fay,CAMEROON,N/A,PASS,PASS,PASS,PASS,N/A,1988-02-28,N/A,Typed,PASS,8271,N/A,N/A,no type status,PASS,02°21'N 16°09'E,1988,385 m,28 February 1988,Combretum smeathmannii G. Don,PASS
sonnet-3.5_gpt-4o-cropped_gpt-4o-collage,PASS,D. D. Soejarto,Ghana,Greater Accra,PASS,PASS,PASS,PASS,N/A,1978-04-01,PASS,PASS,PASS,4793,N/A,N/A,no type status,PASS,N/A,N/A,N/A,"April 1, 1978",Diospyros tricolor Hiern.,PASS
sonnet-3.5_gpt-4o-cropped_gpt-4o-collage,N/A,PASS,Peru,Loreto,PASS,PASS,PASS,Santa María - Río Nanay,N/A,1967-12-15,PASS,Typed,PASS,40,Maynas,N/A,HOLOTYPE,PASS,N/A,PASS,PASS,15 diciembre 1967,PASS,PASS
sonnet-3.5_gpt-4o-cropped_gpt-4o-collage,N/A,M. O. Dillon,Peru,Arequipa,PASS,PASS,PASS,PASS,N/A,1983-11-01,N/A,Typed,PASS,3776,Caraveli,D. Dillon,HOLOTYPE,M. O. Dillon & D. Dillon,N/A,PASS,PASS,1 Nov 1983,Galvezia fruticosa Gmel.,PASS
sonnet-3.5_gpt-4o-cropped_gpt-4o-collage,PASS,PASS,N/A,N/A,N/A,PASS,PASS,PASS,N/A,1830-00-00,N/A,Mix of Handwritten and Typed,PASS,PASS,N/A,N/A,Isosyntype,PASS,N/A,N/A,N/A,1830,PASS,PASS
sonnet-3.5_gpt-4o-cropped_gpt-4o-collage,N/A,J. Campos,PERU,Cajamarca,Trepadora; flor amarilla,W. R. Anderson,PASS,Entre La Catagua y Tablón,N/A,1996-02-09,PASS,Typed,PASS,2490,PASS,O. Díaz,ISOTYPE,José Campos y O. Díaz 2490,05°19'S 078°47'W,2006,550 - 650 m,9 Febrero 1996,Amorimia camporum W.R. Anderson,PASS
sonnet-3.5_gpt-4o-cropped_gpt-4o-collage,N/A,PASS,Peru,N/A,N/A,A. Mesa,PASS,[precise locality unknown],PASS,PASS,N/A,Typed,PASS,s.n.,N/A,PASS,ISOLECTOTYPE,PASS,N/A,1981,N/A,PASS,PASS,N/A
sonnet-3.5_gpt-4o-cropped_gpt-4o-collage,N/A,PASS,PERU,Amazonas,PASS,B. Ståhl,PASS,PASS,N/A,1996-12-04,PASS,Typed,PASS,8808,PASS,A. Peña,ISOTYPE,PASS,N/A,2010,2250-2360 m,4 Diciembre 1996,PASS,PASS
sonnet-3.5_gpt-4o-cropped_gpt-4o-collage,PASS,PASS,Peru,N/A,N/A,PASS,PASS,PASS,1788-00-00,1778-00-00,PASS,Mix of Handwritten and Typed,PASS,9/58,N/A,PASS,ISOTYPE,PASS,N/A,2007,N/A,PASS,PASS,PASS
sonnet-3.5_gpt-4o-cropped_gpt-4o-collage,N/A,PASS,PERU,Amazonas,Bosque montano fragmentado,PASS,PASS,PASS,N/A,1998-08-20,Leymebamba,Typed,PASS,1378,Chachapoyas,PASS,Isotype,PASS,N/A,PASS,2800-3000 m,20 agosto 1998,PASS,PASS
sonnet-3.5_gpt-4o-cropped_gpt-4o-collage,N/A,L. Williams,PERU,SAN MARTIN,PASS,D. Giraldo-Cañas,PASS,PASS,PASS,PASS,SAN ROQUE,PASS,PASS,6999,N/A,N/A,HOLOTYPE,PASS,N/A,2010,PASS,PASS,PASS,PASS
sonnet-3.5_gpt-4o-cropped_gpt-4o-collage,PASS,PASS,Peru,N/A,N/A,PASS,PASS,PASS,1788-00-00,1778-00-00,N/A,PASS,PASS,s.n.,N/A,PASS,ISOTYPE,PASS,N/A,PASS,N/A,PASS,PASS,PASS
sonnet-3.5_gpt-4o-cropped_gpt-4o-collage,PASS,PASS,Peru,N/A,N/A,PASS,PASS,PASS,PASS,PASS,N/A,Mix of Handwritten and Typed,PASS,s.n.,N/A,PASS,ISOTYPE,PASS,N/A,PASS,N/A,PASS,PASS,PASS
sonnet-3.5_gpt-4o-cropped_gpt-4o-collage,N/A,R. B. Foster,PERU,Huánuco,PASS,M. J. Huft,PASS,PASS,N/A,1982-09-13,N/A,Typed,PASS,8752,PASS,N/A,no type status,Robin B. Foster,PASS,1983,PASS,13 Sept. 1982,PASS,PASS
sonnet-3.5_gpt-4o-cropped_gpt-4o-collage,N/A,PASS,PASS,San Martín,PASS,J. A. Lombardi,PASS,PASS,N/A,PASS,N/A,PASS,PASS,6505,N/A,N/A,PASS,José Schunke Vigo,N/A,PASS,PASS,PASS,PASS,PASS
sonnet-3.5_gpt-4o-cropped_gpt-4o-collage,N/A,PASS,PERU,LORETO,PASS,PASS,PASS,PASS,N/A,1979-02-08,PASS,Typed,PASS,4268,Requena,N/A,no type status,Manuel Rimachi Y.,N/A,PASS,PASS,"February 8, 1979",Nectandra krukovii (A.C. Smith) Kosterm.,PASS
sonnet-3.5_gpt-4o-cropped_gpt-4o-collage,N/A,PASS,PERU,LORETO,BOSQUE SECUNDARIO 35 Años,T. PLOWMAN,PASS,AMPIYACU-PEVAS,N/A,1982-07-00,N/A,PASS,PASS,95(P1-2),MAYNAS,N/A,no type status,PASS,N/A,1985,100 m.s.n.m.,Julio/82,PASS,AMPIYACU-PEVAS
sonnet-3.5_gpt-4o-cropped_gpt-4o-collage,N/A,PASS,PERU,CUZCO,PASS,PASS,PASS,PASS,N/A,1986-10-29,PASS,Typed,PASS,PASS,La Convención,S. Walsh,no type status,Percy Núñez & S. Walsh,N/A,PASS,PASS,29 October 1986,Euphorbia heterophylla L.,PASS
sonnet-3.5_gpt-4o-cropped_gpt-4o-collage,N/A,PASS,PERU,San Martin,PASS,J. Dwyer,PASS,PASS,N/A,1977-05-30,Alonso de Alvarado,Typed,PASS,9560,Lamas,N/A,no type status,Jose Schunke,N/A,1980,PASS,30 Mayo 1977,Hamelia patens Jacq.,PASS
sonnet-3.5_gpt-4o-cropped_gpt-4o-collage,N/A,G. Moore,PERU,Loreto,PASS,PASS,PASS,PASS,N/A,1981-08-18,N/A,PASS,PASS,138,N/A,PASS,PASS,PASS,PASS,PASS,600m elev,18-8-81,PASS,PASS
sonnet-3.5_gpt-4o-cropped_gpt-4o-collage,N/A,E. P. KILLIP,Peru,Junín,dense forest,N/A,PASS,PASS,PASS,1929-07-20,N/A,PASS,PASS,26721,N/A,A. C. SMITH,no type status,PASS,N/A,N/A,PASS,PASS,Psychotria racemosa (Aubl.) Willd.,PASS
sonnet-3.5_gpt-4o-cropped_gpt-4o-collage,N/A,M. O. Dillon,Peru,Piura,PASS,P. Fryxell,PASS,PASS,N/A,1991-07-22,PASS,Typed,PASS,6310,Huancabamba,I. Sánchez V.,no type status,M. O. Dillon and I. Sánchez V.,[5°24'S; 79°36'W],1993,PASS,22 Jul 1991,PASS,ca. 2 km N of Canchaque
sonnet-3.5_gpt-4o-cropped_gpt-4o-collage,N/A,J. F. Macbride,PERU,N/A,PASS,PASS,PASS,CUEVA GRANDE ESTACION NEAR POZUZO,N/A,1923-06-23,N/A,Typed,PASS,4806,N/A,N/A,no type status,COLL. J. FRANCIS MACBRIDE,N/A,N/A,ABOUT 3500 FEET,"JUNE 23, 1923",PASS,CUEVA GRANDE ESTACION NEAR POZUZO
sonnet-3.5_gpt-4o-cropped_gpt-4o-collage,N/A,PASS,Peru,Cajamarca,PASS,PASS,PASS,PASS,N/A,PASS,N/A,Mix of Handwritten and Typed,PASS,PASS,PASS,N/A,no type status,PASS,N/A,PASS,PASS,PASS,Geranium chilloense Kunth,PASS
sonnet-3.5_gpt-4o-cropped_gpt-4o-collage,N/A,PASS,Peru,Cajamarca,PASS,M. J. Huft,PASS,PASS,N/A,PASS,N/A,PASS,PASS,1640,Cutervo,PASS,no type status,PASS,N/A,1992,PASS,PASS,PASS,PASS
sonnet-3.5_gpt-4o-cropped_gpt-4o-collage,PASS,PASS,PASS,PASS,PASS,PASS,PASS,PASS,PASS,PASS,PASS,PASS,PASS,PASS,PASS,PASS,PASS,PASS,PASS,PASS,PASS,PASS,PASS,PASS
sonnet-3.5_gpt-4o-cropped_gpt-4o-collage,N/A,G. Klug,Peru,Loreto,PASS,PASS,PASS,PASS,PASS,PASS,N/A,PASS,PASS,660,N/A,N/A,no type status,PASS,N/A,N/A,PASS,PASS,PASS,PASS
sonnet-3.5_gpt-4o-cropped_gpt-4o-collage,N/A,T. R. Dudley,Peru,Ayacucho,PASS,PASS,Dendrophthora sp.,PASS,N/A,1968-08-24,N/A,Typed,PASS,12063,La Mar,N/A,no type status,PASS,PASS,18 Dec. 1984,PASS,24 Aug. 1968,PASS,PASS
sonnet-3.5_gpt-4o-cropped_gpt-4o-collage,N/A,G. Klug,Peru,Loreto,forest,M. Vásquez Avila,PASS,PASS,N/A,PASS,N/A,PASS,PASS,1595,N/A,N/A,no type status,PASS,N/A,PASS,PASS,PASS,PASS,PASS
sonnet-3.5_gpt-4o-cropped_gpt-4o-collage,N/A,M. E. Mathias,PASS,Loreto,PASS,W. R. Anderson,MALPIGHIACEAE,vicinity of Requena,N/A,PASS,PASS,PASS,PASS,5576,N/A,D. Taylor,no type status,Mildred E. Mathias Dermot Taylor,N/A,1983,N/A,PASS,PASS,vicinity of Requena
sonnet-3.5_gpt-4o-cropped_gpt-4o-collage,N/A,PASS,Peru,Loreto,tall forest,D. R. Simpson,PASS,PASS,N/A,1964-12-17,N/A,PASS,PASS,PASS,N/A,N/A,no type status,PASS,N/A,PASS,PASS,PASS,PASS,PASS
sonnet-3.5_gpt-4o-cropped_gpt-4o-collage,N/A,PASS,PERU,LORETO,PASS,PASS,PASS,PASS,1929-10-00,1929-09-00,N/A,PASS,PASS,3363,N/A,N/A,no type status,PASS,N/A,PASS,ALT. 145 M.,"SEPT.-OCT., 1929",PASS,PASS
sonnet-3.5_gpt-4o-cropped_gpt-4o-collage,N/A,T. Plowman,Peru,Cajamarca,PASS,P. Fryxell,PASS,PASS,N/A,1986-07-12,N/A,Typed,PASS,14242,Jaén,PASS,no type status,PASS,N/A,1987,PASS,12 July 1986,Abutilon mollissimum (Cav.) Sweet,PASS
sonnet-3.5_gpt-4o-cropped_gpt-4o-collage,N/A,PASS,PERU,CAJAMARCA,N/A,N/A,PASS,PASS,N/A,2003-04-14,N/A,Typed,PASS,s.n.,N/A,PASS,no type status,Magda Chanco with Michelle McMahon and Larry Hufford,S7° 10.554' W78° 49.665',N/A,3614 feet elevation,14 April 2003,Abutilon sp.,PASS
sonnet-3.5_gpt-4o-cropped_gpt-4o-collage,N/A,PASS,PERU,LORETO,PASS,PASS,PASS,PASS,N/A,2014-10-13,N/A,Typed,PASS,4399,PASS,PASS,no type status,PASS,"05°48'33.5""S 73°51'53.8""W",N/A,PASS,13 octubre 2014,Andira macrothyrsa Ducke,PASS
sonnet-3.5_gpt-4o-cropped_gpt-4o-collage,N/A,PASS,PERU,LORETO,PASS,PASS,PASS,PASS,N/A,2014-10-13,N/A,Typed,PASS,4399,PASS,PASS,no type status,PASS,PASS,N/A,PASS,13 octubre 2014,Andira macrothyrsa Ducke,PASS
sonnet-3.5_gpt-4o-cropped_gpt-4o-collage,N/A,Y. Mexia,Peru,Huanuco,PASS,PASS,PASS,PASS,N/A,1936-10-09,N/A,Typed,PASS,8265,PASS,N/A,no type status,PASS,N/A,N/A,PASS,"Oct. 9, 1936",Piper callosum Ruiz & Pavon,PASS
sonnet-3.5_gpt-4o-cropped_gpt-4o-collage,N/A,Y. Mexia,Peru,Loreto,PASS,PASS,PASS,PASS,N/A,1931-11-24,N/A,Typed,PASS,6157,N/A,N/A,no type status,PASS,N/A,N/A,PASS,"Nov. 24, 1931",Piper callosum Ruiz & Pav.,PASS
sonnet-3.5_gpt-4o-cropped_gpt-4o-collage,N/A,PASS,PERU,Tumbes,PASS,D. Simpson,PASS,PASS,N/A,1968-01-04,PASS,Typed,PASS,565,PASS,PASS,no type status,PASS,N/A,Jan. 1969,N/A,"January 4, 1968",PASS,PASS
sonnet-3.5_gpt-4o-cropped_gpt-4o-collage,N/A,T. Plowman,Peru,Huánuco,Scandent shrub on roadside near houses. Stem with milky sap. Fls. pink.,PASS,PASS,PASS,N/A,1981-12-06,N/A,Typed,PASS,11105,Huánuco,P. M. Rury,no type status,PASS,PASS,1983,PASS,6 December 1981,Ipomoea carnea Jacq.,PASS
sonnet-3.5_gpt-4o-cropped_gpt-4o-collage,N/A,R. B. Foster,PERU,LORETO,PASS,E. J. Gouda,PASS,PASS,N/A,1978-08-19,N/A,Typed,PASS,4240,Maynas,N/A,no type status,Robin B. Foster,N/A,2018-02-05,N/A,"Aug. 19, 1978",PASS,PASS
sonnet-3.5_gpt-4o-cropped_gpt-4o-collage,N/A,J. Farfán,PERU,Cusco,PASS,PASS,PASS,PASS,N/A,2006-10-23,N/A,Typed,PASS,1262,La Convención,PASS,no type status,PASS,"12°47'15""S 073°10'10""W",2008,1009 m,23 Octubre 2006,Anthurium clavigerum Poepp.,PASS
sonnet-3.5_gpt-4o-cropped_gpt-4o-collage,N/A,T. B. Croat,Peru,Loreto,PASS,N/A,PASS,PASS,N/A,1972-07-18,N/A,Typed,PASS,18210,N/A,N/A,no type status,PASS,N/A,N/A,N/A,"July 18, 1972",Agave americana L.,Sandy area 12.5 km. SW of Iquitos on road to Lago Quisto-cocha
sonnet-3.5_gpt-4o-cropped_gpt-4o-collage,N/A,T. R. Dudley,Peru,Cuzco,PASS,PASS,PASS,PASS,N/A,1968-07-04,N/A,PASS,PASS,10783,La Convencion,N/A,ISOTYPE,PASS,PASS,PASS,c. 2825 m,4 July 1968,Thelypteris dudleyi A. R. Smith,PASS
sonnet-3.5_gpt-4o-cropped_gpt-4o-collage,N/A,S. Knapp,PANAMA,Colón,PASS,Robert G. Stolze,PASS,PASS,N/A,1982-07-04,N/A,Typed,PASS,5881,N/A,N/A,ISOTYPE,PASS,PASS,1984,500-550 m,4 July 1982,TRICHIPTERIS PINNATA Stolze,PASS
sonnet-3.5_gpt-4o-cropped_gpt-4o-collage,N/A,J. Dorantes,MEXICO,VERACRUZ,PASS,PASS,PASS,PASS,N/A,1972-01-01,N/A,Typed,PASS,455,JALAPA,N/A,no type status,PASS,MAPA 38.5 29.0,"September, 2000",PASS,01/01/1972,WOODWARDIA SPINULOSA MART. & GAL.,PASS
sonnet-3.5_gpt-4o-cropped_gpt-4o-collage,N/A,A. Monteagudo,PERU,Pasco,PASS,H. van der Werff,PASS,PASS,N/A,2003-04-10,PASS,Typed,PASS,4909,Oxapampa,PASS,no type status,PASS,10°15'S 75°13'W,2005,1100-1250m,10 Abril 2003,Blechnum occidentalis L.,PASS
sonnet-3.5_gpt-4o-cropped_gpt-4o-collage,N/A,Y. Mexia,Peru,PASS,PASS,PASS,PASS,PASS,N/A,1936-05-14,N/A,Typed,PASS,8066,La Convencion,N/A,no type status,PASS,N/A,PASS,PASS,PASS,Adiantum pulverulentum L.,PASS
sonnet-3.5_gpt-4o-cropped_gpt-4o-collage,PASS,J. I. Calzada,PASS,Veracruz,PASS,PASS,PASS,PASS,N/A,1980-01-11,PASS,PASS,PASS,5759,Xico,N/A,no type status,J.I. Calzada,PASS,1983,PASS,11-enero-1980,PASS,PASS
sonnet-3.5_gpt-4o-cropped_gpt-4o-collage,N/A,PASS,HONDURAS,PASS,Bosque lluvioso,A. R. Smith,PASS,PASS,N/A,1948-11-04,N/A,Typed,PASS,1427,N/A,N/A,no type status,Antonio Molina R.,PASS,1974,PASS,"Nov. 4, 1948",Thelypteris piloso-hispida (Hook) Morton,PASS
sonnet-3.5_gpt-4o-cropped_gpt-4o-collage,N/A,B. León,PERU,CUZCO,PASS,PASS,PASS,PASS,N/A,1991-09-10,N/A,PASS,PASS,2911,PAUCARTAMBO,PASS,no type status,PASS,N/A,PASS,1700-1800 m,10 setiembre 1991,PASS,PASS
sonnet-3.5_gpt-4o-cropped_gpt-4o-collage,N/A,L. O. Williams,NICARAGUA,Matagalpa,Epiphyte on mossy tree,PASS,PASS,PASS,N/A,PASS,N/A,Typed,PASS,27621,N/A,PASS,no type status,PASS,N/A,PASS,PASS,PASS,Polypodium blepharodes Maxon,PASS
sonnet-3.5_gpt-4o-cropped_gpt-4o-collage,N/A,K. Young,PERU,Cuzco,PASS,A. R. Smith,PASS,PASS,N/A,1981-04-20,PASS,Typed,PASS,265,La Convencion,M. Eisenberg,no type status,Ken Young & Mark Eisenberg 265,N/A,1989,PASS,20 April 1981,Thelypteris (subg. Amauropelta) cheilanthoides (Kunze) Proctor,PASS
sonnet-3.5_gpt-4o-cropped_gpt-4o-collage,N/A,T. G. Lammers,PASS,Illinois,Local in mesic maple-basswood forest on steep slopes of deep ravine south of toboggan run,N/A,PASS,PASS,N/A,1998-05-09,PASS,Typed,PASS,10674,PASS,N/A,no type status,Thomas G. Lammers,N/A,N/A,N/A,9 May 1998,Dryopteris carthusiana (Vill.) H.P. Fuchs,PASS
sonnet-3.5_gpt-4o-cropped_gpt-4o-collage,N/A,PASS,EL SALVADOR,Santa Ana,PASS,PASS,PASS,PASS,N/A,1963-05-22,N/A,Typed,PASS,12562,N/A,PASS,no type status,PASS,N/A,N/A,PASS,"Mayo 22, 1963",Polypodium montigenum Maxon,Bosque abierto de Montaña Montecristo
sonnet-3.5_gpt-4o-cropped_gpt-4o-collage,PASS,M. O. Dillon,Chile,Antofagasta,PASS,PASS,PASS,PASS,N/A,1987-12-21,N/A,Typed,PASS,5376,Antofagasta,N/A,no type status,PASS,PASS,N/A,600-850 m,21 Dec 1987,Notholaena mollis Kunze,PASS
sonnet-3.5_gpt-4o-cropped_gpt-4o-collage,N/A,R. M. Tryon,PERU,ANCASH,damp shaded rocks,A. R. Smith,PASS,"Road from Huaras to Cusma, west valley",N/A,PASS,N/A,Typed,PASS,6566,N/A,A. F. Tryon,no type status,PASS,N/A,"1979, 1989",PASS,PASS,Thelypteris lindigii (C.Chr.) Alston,"Road from Huaras to Cusma, west valley"
sonnet-3.5_gpt-4o-cropped_gpt-4o-collage,N/A,E. P. Killip,Peru,Loreto,dense forest,PASS,PASS,PASS,PASS,PASS,N/A,Typed,PASS,PASS,N/A,A. C. Smith,no type status,PASS,N/A,1989,PASS,PASS,Dryopteris megalodus (Schk.) Urban,PASS
sonnet-3.5_gpt-4o-cropped_gpt-4o-collage,N/A,PASS,Peru,Loreto,dense forest,PASS,PASS,PASS,N/A,1929-09-18,PASS,PASS,PASS,PASS,N/A,A. C. Smith,no type status,PASS,N/A,PASS,PASS,"September 18, 1929",Dryopteris megalodus (Schk.) Urban,PASS
sonnet-3.5_gpt-4o-cropped_gpt-4o-collage,N/A,J. F. Macbride,PERU,PASS,PASS,PASS,PASS,PASS,1922-07-22,1922-07-08,PASS,PASS,PASS,1622,N/A,PASS,no type status,PASS,N/A,1979,ABOUT 9000 FT,"JULY 8-22, 1922",PASS,PASS
sonnet-3.5_gpt-4o-cropped_gpt-4o-collage,N/A,J. J. Wurdack,Peru,Amazonas,PASS,PASS,PASS,Upper slopes of Puma-urcu east-southeast of Chachapoyas,N/A,1962-06-01,N/A,Typed,PASS,705,Chachapoyas,N/A,no type status,J. J. WURDACK No. 705,N/A,PASS,PASS,1 June 1962,Thelypteris (Thelypteris) pavoniana (Klotzsch),PASS
sonnet-3.5_gpt-4o-cropped_gpt-4o-collage,N/A,R. M. Tryon,PERU,LORETO,PASS,A. R. Smith,PASS,"Rio Itaya, 10 kilometers south of Iquitos",N/A,1956-08-13,PASS,Typed,PASS,5202,Maynas,A. F. Tryon,no type status,ROLLA M. TRYON & ALICE F. TRYON,N/A,PASS,N/A,"Aug. 13, 1956",PASS,"Rio Itaya, 10 km. s. of Iquitos"
sonnet-3.5_gpt-4o-cropped_gpt-4o-collage,N/A,PASS,NICARAGUA,Matagalpa,Terrestrial on open bank,PASS,PASS,PASS,1963-01-15,1963-01-08,N/A,Typed,PASS,23634,N/A,PASS,no type status,PASS,N/A,1964,PASS,"January 8-15, 1963",Lycopodium clavatum L.,PASS
sonnet-3.5_gpt-4o-cropped_gpt-4o-collage,N/A,J. T. Atwood,Nicaragua,Granada,Lower cloud forest,M. R. McCarthy,PASS,PASS,N/A,1977-02-08,N/A,PASS,PASS,77105,N/A,N/A,no type status,PASS,N/A,2012,N/A,8 Feb. 1977,Adiantum trapeziforme L.,PASS
sonnet-3.5_gpt-4o-cropped_gpt-4o-collage,N/A,PASS,Mexico,Mexico,dry barranca,M. R. McCarthy,PASS,PASS,N/A,1935-04-21,Pantoja,PASS,PASS,7644,PASS,PASS,no type status,H. et al.,N/A,2012,N/A,4-21-35,Adiantum trapeziforme L.,Pantoja
sonnet-3.5_gpt-4o-cropped_gpt-4o-collage,Conopharyngia holstii,R. A. Maas Geesteranus,Kenya,Nyanza,PASS,R. Faden,PASS,PASS,N/A,1949-08-12,N/A,PASS,PASS,5744,Kericho,N/A,no type status,PASS,PASS,1976,1920 m s.m.,12-VIII-1949,Asplenium dregeanum Kze.,PASS
sonnet-3.5_gpt-4o-cropped_gpt-4o-collage,PASS,M. Véliz,GUATEMALA,Jalapa,PASS,M. Véliz,PASS,PASS,N/A,PASS,PASS,Typed,PASS,PASS,N/A,PASS,no type status,PASS,PASS,24/XI/2005,2308 msnm,PASS,PASS,PASS
sonnet-3.5_gpt-4o-cropped_gpt-4o-collage,N/A,C. F. Millspaugh,JAMAICA,N/A,N/A,N/A,PASS,PORT ANTONIO,PASS,PASS,PASS,Typed,PASS,893,N/A,N/A,no type status,PASS,N/A,N/A,N/A,JAN. 28-FEB. 6,PASS,PORT ANTONIO
sonnet-3.5_gpt-4o-cropped_gpt-4o-collage,N/A,T. G. Yuncker,Jamaica,St. Andrew,PASS,N/A,PASS,PASS,N/A,1957-11-17,N/A,Typed,PASS,PASS,N/A,N/A,no type status,PASS,N/A,N/A,PASS,"Nov. 17, 1957",Lycopodium cernuum L.,PASS
sonnet-3.5_gpt-4o-cropped_gpt-4o-collage,N/A,PASS,Equatorial Guinea,BIOCO,PASS,J. Fernández Casas,PASS,PASS,N/A,1986-07-25,PASS,Typed,PASS,2092,N/A,N/A,no type status,Carvalho,32NMK7808,1991,390 m,25-VII-1986,Lycopodiella cernua (L.) Pic.-Serm.,PASS
sonnet-3.5_gpt-4o-cropped_gpt-4o-collage,N/A,PASS,AUSTRALIA,QUEENSLAND,PASS,PASS,PASS,PASS,N/A,1990-06-12,N/A,Typed,PASS,11699,N/A,N/A,no type status,PASS,145°43'E 17°25'S,1991,N/A,12 June 1990,Diplazium assimile (Endl.) Bedd.,PASS
sonnet-3.5_gpt-4o-cropped_gpt-4o-collage,N/A,M. Tagawa,Japan,PASS,Wet rocky slope in densely wooded ravine,PASS,PASS,PASS,N/A,1956-07-28,PASS,Typed,PASS,1150,PASS,K. Iwatsuki,no type status,PASS,N/A,N/A,N/A,"July 28, 1956",Diplazium amabile (Tag.) Tag.,PASS
sonnet-3.5_gpt-4o-cropped_gpt-4o-collage,N/A,W. Takeuchi,Papua New Guinea,New Ireland,PASS,PASS,PASS,PASS,N/A,1994-02-05,N/A,Typed,PASS,9366,N/A,J. Wiakabu,no type status,W. Takeuchi & J. Wiakabu,PASS,N/A,c. 1800 m,"February 5, 1994",PASS,PASS
sonnet-3.5_gpt-4o-cropped_gpt-4o-collage,N/A,PASS,JAPAN,N/A,N/A,N/A,PASS,[precise locality unknown],N/A,1956-05-20,N/A,Typed,PASS,888,N/A,PASS,no type status,PASS,N/A,N/A,N/A,"May 20, 1956",Dryopteris crassirhizoma Nakai,N/A
sonnet-3.5_gpt-4o-cropped_gpt-4o-collage,N/A,J. Ohwi,Japan,Honshu,N/A,N/A,PASS,PASS,N/A,1951-04-00,N/A,Typed,PASS,PASS,PASS,N/A,no type status,PASS,N/A,N/A,N/A,April 1951,Polystichum tripteron Presl,PASS
sonnet-3.5_gpt-4o-cropped_gpt-4o-collage,PASS,PASS,PASS,PASS,PASS,PASS,PASS,PASS,PASS,PASS,PASS,PASS,PASS,PASS,PASS,PASS,PASS,PASS,PASS,PASS,PASS,PASS,PASS,PASS
sonnet-3.5_gpt-4o-cropped_gpt-4o-collage,N/A,R. B. Faden,PASS,North Western Province,PASS,D. B. Lellinger,PASS,PASS,N/A,1977-01-05,N/A,Typed,PASS,77/53,PASS,A. J. Faden,no type status,PASS,PASS,1979,PASS,5 Jan. 1977,Pyrossia lanceolata (L.) Farw.,PASS
sonnet-3.5_gpt-4o-cropped_gpt-4o-collage,N/A,PASS,China,PASS,PASS,N/A,PASS,PASS,N/A,1931-09-04,N/A,Typed,PASS,344,N/A,PASS,no type status,PASS,N/A,N/A,PASS,PASS,PASS,PASS
sonnet-3.5_gpt-4o-cropped_gpt-4o-collage,N/A,J. F. Barcelona,Philippines,PASS,PASS,PASS,PASS,PASS,N/A,1989-11-00,Sibalom,Mix of Handwritten and Typed,PASS,48,PASS,N/A,PASS,PASS,N/A,PASS,N/A,PASS,PASS,PASS
sonnet-3.5_gpt-4o-cropped_gpt-4o-collage,N/A,L. Fay,LIBERIA,N/A,PASS,N/A,PASS,PASS,N/A,1985-04-11,N/A,Typed,PASS,1206,N/A,A. Fay,no type status,PASS,N/A,N/A,PASS,11 Apr 1985,PASS,PASS
sonnet-3.5_gpt-4o-cropped_gpt-4o-collage,N/A,H. St. John,PASS,PASS,PASS,E. B. Copeland,PASS,PASS,N/A,1934-08-26,N/A,PASS,PASS,16662,PASS,N/A,no type status,PASS,N/A,N/A,PASS,"Aug. 26, 1934",Humata banksii Alston,PASS
sonnet-3.5_gpt-4o-cropped_gpt-4o-collage,N/A,T. G. Yuncker,Jamaica,Portland,PASS,PASS,PASS,PASS,N/A,1958-03-30,N/A,Typed,PASS,PASS,N/A,N/A,no type status,T. G. YUNCKER,N/A,N/A,PASS,"Mar. 30, 1958",PASS,PASS
sonnet-3.5_gpt-4o-cropped_gpt-4o-collage,PASS,A. Carestia,PASS,PASS,N/A,PASS,PASS,PASS,N/A,1871-00-00,Scopello,Typed,PASS,PASS,Valsesia,N/A,no type status,A. CARESTIA,N/A,1962,N/A,1871,LYCOPODIUM COMPLANATUM L.,Salita alla Boscarola presso Scopello in Valsesia
sonnet-3.5_gpt-4o-cropped_gpt-4o-collage,N/A,PASS,New Zealand,N/A,N/A,N/A,Trichomanes reniforme,PASS,N/A,1911-10-15,Ohakune,Typed,PASS,s.n.,N/A,N/A,no type status,PASS,N/A,N/A,N/A,"Oct. 15, 1911",Trichomanes reniforme,Ohakune
sonnet-3.5_gpt-4o-cropped_gpt-4o-collage,N/A,R. L. Wilbur,PASS,PASS,PASS,PASS,PASS,PASS,N/A,1964-08-02,N/A,Typed,PASS,8185,PASS,PASS,no type status,PASS,N/A,PASS,N/A,2 August 1964,PASS,PASS
sonnet-3.5_gpt-4o-cropped_gpt-4o-collage,N/A,R. B. Faden,PASS,PASS,PASS,PASS,PASS,between mile posts 46/3 and 46/4 on Nuwara Eliya-Kandy road,N/A,1977-01-02,N/A,Typed,PASS,77/31,PASS,A. J. Faden,no type status,PASS,PASS,N/A,ca 1980 m,2 Jan 1977,PASS,PASS
sonnet-3.5_gpt-4o-cropped_gpt-4o-collage,PASS,H. K.,New Zealand,N/A,PASS,PASS,PASS,PASS,N/A,1968-07-05,N/A,Typed,PASS,PASS,N/A,N/A,Typus,PASS,N/A,PASS,N/A,5.VII.1968,Crucispora naucorioides HK. 1971 (Typus),PASS
sonnet-3.5_gpt-4o-cropped_gpt-4o-collage,N/A,PASS,ECUADOR,Napo,Ad terram in hylaea,PASS,PASS,Lago Agrio,N/A,1973-05-14,Lago Agrio,Typed,PASS,B 7463,N/A,N/A,PASS,Singer,N/A,N/A,N/A,14 V 1973,PASS,PASS
sonnet-3.5_gpt-4o-cropped_gpt-4o-collage,PASS,PASS,ARGENTINA,Tierra del Fuego,PASS,N/A,PASS,PASS,N/A,1988-02-23,N/A,Typed,PASS,M10517,PASS,N/A,HOLOTYPE,PASS,N/A,N/A,N/A,23 II 1988,PASS,PASS
sonnet-3.5_gpt-4o-cropped_gpt-4o-collage,PASS,PASS,New Zealand,PASS,PASS,N/A,PASS,PASS,N/A,2003-02-12,N/A,Typed,1173554,23773,PASS,PASS,Holotype,"John J. Engel, Matt von Konrat & John E. Braggins",PASS,N/A,PASS,12 February 2003,Telaranea lindenbergii var. papillata Engel & Merr.,PASS
sonnet-3.5_gpt-4o-cropped_gpt-4o-collage,N/A,PASS,Ecuador,Imbabura,Wet bank of runoff ravine,W. C. STEERE,PASS,PASS,1978-11-22,1978-11-21,PASS,PASS,PASS,78-2684,N/A,N/A,no type status,PASS,PASS,N/A,3750 m,21-22 November 1978,Kindbergia praelonga (Hedw.) Ochyra,PASS
sonnet-3.5_gpt-4o-cropped_gpt-4o-collage,N/A,PASS,Ecuador,Azuay,Stone wall,PASS,PASS,PASS,N/A,1978-12-08,PASS,Typed,PASS,78-3163,N/A,N/A,no type status,PASS,PASS,PASS,3240 m,8 December 1978,Hedwigia ciliata (Hedw.) P. Beauv.,PASS
sonnet-3.5_gpt-4o-cropped_gpt-4o-collage,N/A,R. Benoist,PASS,N/A,N/A,PASS,PASS,PASS,N/A,PASS,PASS,Mix of Handwritten and Typed,PASS,PASS,N/A,N/A,no type status,PASS,N/A,PASS,N/A,PASS,PASS,environs de Quito
sonnet-3.5_gpt-4o-cropped_gpt-4o-collage,N/A,R. Benoist,PASS,N/A,PASS,PASS,PASS,PASS,N/A,1930-03-27,Quito,PASS,PASS,PASS,N/A,N/A,PASS,PASS,N/A,PASS,N/A,27 mars 1930,PASS,PASS
sonnet-3.5_gpt-4o-cropped_gpt-4o-collage,N/A,R. S. Williams,Bolivia,N/A,N/A,PASS,PASS,PASS,N/A,1902-04-30,N/A,PASS,PASS,PASS,N/A,N/A,no type status,PASS,N/A,1992,PASS,PASS,PASS,PASS
sonnet-3.5_gpt-4o-cropped_gpt-4o-collage,N/A,PASS,Bolivia,La Paz,PASS,PASS,PASS,Near large red outcrop 2 miles from Sorata down Rio Consata,N/A,1979-03-22,PASS,Typed,PASS,79-1237A,Larecaja,N/A,no type status,PASS,PASS,1992,PASS,22 March 1979,Hedwigia ciliata (Hedw.) P. Beauv.,PASS
sonnet-3.5_gpt-4o-cropped_gpt-4o-collage,N/A,PASS,Bolivia,La Paz,Bromeliad-grass habitat on exposed cliffs,PASS,PASS,PASS,N/A,1979-03-22,PASS,Typed,PASS,79-1232,Larecaja,N/A,no type status,PASS,PASS,1992,PASS,22 March 1979,Hedwigia ciliata (Hedw.) P. Beauv.,PASS
sonnet-3.5_gpt-4o-cropped_gpt-4o-collage,N/A,PASS,Bolivia,La Paz,Humid cliffs and steep slopes,PASS,PASS,PASS,N/A,1979-03-06,N/A,Typed,PASS,79-1114,Saavedra,N/A,no type status,PASS,PASS,1992,PASS,6 March 1979,Hedwigia ciliata (Hedw.) P. Beauv.,PASS
sonnet-3.5_gpt-4o-cropped_gpt-4o-collage,N/A,F. J. Hermann,Bolivia,Cochabamba,PASS,PASS,PASS,PASS,N/A,1972-12-27,PASS,Typed,PASS,25152,N/A,N/A,no type status,F. J. Hermann,N/A,1992,PASS,"December 27, 1972",Hedwigia ciliata (Hedw.) Beauv.,PASS
sonnet-3.5_gpt-4o-cropped_gpt-4o-collage,N/A,Y. Mexia,Peru,Loreto,PASS,PASS,PASS,PASS,N/A,1931-12-02,N/A,Typed,PASS,6204,N/A,N/A,no type status,PASS,N/A,N/A,PASS,"Dec. 2, 1931",PASS,PASS
sonnet-3.5_gpt-4o-cropped_gpt-4o-collage,N/A,Y. Mexia,Peru,Loreto,PASS,Bartram,PASS,PASS,N/A,1931-12-02,N/A,Typed,PASS,6204,N/A,N/A,no type status,PASS,N/A,N/A,PASS,"Dec. 2, 1931",PASS,PASS
sonnet-3.5_gpt-4o-cropped_gpt-4o-collage,N/A,A. C. Smith,PASS,N/A,PASS,E. B. Bartram,PASS,PASS,1937-12-24,1937-12-15,N/A,PASS,PASS,2748,N/A,N/A,no type status,PASS,lat. about 1°35' N.,N/A,N/A,"Dec. 15-24, 1937",PASS,PASS
sonnet-3.5_gpt-4o-cropped_gpt-4o-collage,PASS,J. Florschütz-de Waard,PASS,Nickerie,Secondary wood with Cecropia (bospapaja) on rotting log,PASS,PASS,PASS,N/A,1981-11-05,N/A,PASS,PASS,5315,N/A,R. Zielman,no type status,PASS,PASS,PASS,PASS,PASS,PASS,PASS
sonnet-3.5_gpt-4o-cropped_gpt-4o-collage,N/A,J. Florschütz-de Waard,PASS,Nickerie,PASS,PASS,PASS,PASS,N/A,PASS,N/A,PASS,PASS,5254,N/A,PASS,no type status,PASS,N/A,N/A,PASS,PASS,PASS,PASS
sonnet-3.5_gpt-4o-cropped_gpt-4o-collage,N/A,J. Florschütz-de Waard,PASS,Nickerie,PASS,PASS,PASS,PASS,N/A,1981-10-30,N/A,Typed,PASS,5098,N/A,PASS,no type status,PASS,PASS,N/A,PASS,30-10-1981,PASS,PASS
sonnet-3.5_gpt-4o-cropped_gpt-4o-collage,N/A,J. C. Lindeman,PASS,Nickerie,Epiphyte on tree trunk,PASS,PASS,PASS,N/A,1980-09-03,N/A,Typed,PASS,243 A,N/A,PASS,no type status,PASS,PASS,N/A,PASS,3-IX-1980,PASS,PASS
sonnet-3.5_gpt-4o-cropped_gpt-4o-collage,Astrocaryum,J. Florschütz-de Waard,SURINAME,Nickerie,On decaying log in marsh forest with Astrocaryum,PASS,PASS,PASS,N/A,1981-10-31,N/A,Typed,PASS,5141,PASS,PASS,no type status,PASS,PASS,N/A,PASS,31 October 1981,PILOSIUM CHLOROPHYLLUM (Hornsch.) C. Müll.,PASS
sonnet-3.5_gpt-4o-cropped_gpt-4o-collage,N/A,J. Florschütz,SURINAME,N/A,On rotting log in rainforest,PASS,PASS,PASS,N/A,1975-12-18,N/A,Typed,PASS,4690,N/A,P. A. Florschütz,no type status,PASS,N/A,N/A,PASS,18 December 1975,PASS,PASS
sonnet-3.5_gpt-4o-cropped_gpt-4o-collage,N/A,H. Cornelissen,GUYANA,N/A,On rotting tree base in mixed rain forest,J. Florschütz-de Waard,PASS,PASS,N/A,1977-03-08,N/A,Typed,PASS,C076,N/A,S. R. Gradstein,no type status,PASS,5°20'N 58°40'W,N/A,PASS,8 March 1977,Pilosium chlorophyllum (Hornsch.) C. Müll.,PASS
sonnet-3.5_gpt-4o-cropped_gpt-4o-collage,N/A,R. Spruce,PASS,PASS,N/A,PASS,PASS,PASS,N/A,0000-00-00,PASS,Mix of Handwritten and Typed,PASS,PASS,N/A,N/A,no type status,PASS,N/A,PASS,N/A,PASS,PASS,Fl. Amazon prope Para
sonnet-3.5_gpt-4o-cropped_gpt-4o-collage,N/A,R. E. Schultes,Colombia,Vaupés,On rotten log,H. A. Crum,PASS,PASS,N/A,1952-10-22,PASS,PASS,PASS,PASS,N/A,I. Cabrera,no type status,PASS,PASS,1956,N/A,"Oct. 22, 1952",PASS,PASS
sonnet-3.5_gpt-4o-cropped_gpt-4o-collage,N/A,PASS,Colombia,Vaupés,PASS,H. A. Crum,PASS,PASS,1951-10-06,1951-10-04,N/A,Typed,PASS,14294,N/A,PASS,no type status,Richard Evans Schultes et Isidoro Cabrera,N/A,1956,N/A,"October 4-6, 1951",PASS,PASS
sonnet-3.5_gpt-4o-cropped_gpt-4o-collage,N/A,R. E. Schultes,Colombia,Vaupés,On trunks,D. Griffin III,PASS,PASS,N/A,1951-06-00,N/A,PASS,PASS,12309,N/A,N/A,no type status,RICHARD EVANS SCHULTES,N/A,PASS,N/A,June 1951,PASS,PASS
sonnet-3.5_gpt-4o-cropped_gpt-4o-collage,PASS,PASS,PASS,PASS,PASS,PASS,PASS,PASS,PASS,PASS,PASS,PASS,PASS,PASS,PASS,PASS,PASS,PASS,PASS,PASS,PASS,PASS,PASS,PASS
sonnet-3.5_gpt-4o-cropped_gpt-4o-collage,N/A,Y. Mexia,Brazil,Pará,On fallen log,PASS,PASS,PASS,N/A,1931-08-31,PASS,PASS,PASS,6014a,PASS,N/A,no type status,PASS,N/A,N/A,PASS,"Aug. 31, 1931",PASS,PASS
sonnet-3.5_gpt-4o-cropped_gpt-4o-collage,N/A,Y. Mexia,Brazil,Pará,PASS,PASS,PASS,PASS,N/A,1931-07-16,PASS,Typed,PASS,5914,PASS,N/A,no type status,PASS,N/A,N/A,PASS,"July 16, 1931",PASS,PASS
sonnet-3.5_gpt-4o-cropped_gpt-4o-collage,PASS,PASS,PASS,PASS,PASS,PASS,PASS,PASS,PASS,PASS,PASS,PASS,PASS,PASS,PASS,PASS,PASS,PASS,PASS,PASS,PASS,PASS,PASS,PASS
sonnet-3.5_gpt-4o-cropped_gpt-4o-collage,N/A,P. Dusén,Chile,PASS,N/A,W. R. Buck,PASS,PASS,N/A,1897-02-22,N/A,Typed,PASS,5872,PASS,N/A,no type status,PASS,N/A,N/A,N/A,22 February 1897,Brachythecium albicans (Hedw.) Schimp.,PASS
sonnet-3.5_gpt-4o-cropped_gpt-4o-collage,PASS,Y. Mexia,Chile,PASS,PASS,PASS,PASS,PASS,N/A,1936-04-10,N/A,Typed,PASS,8001,N/A,N/A,no type status,PASS,N/A,PASS,PASS,PASS,PASS,PASS
sonnet-3.5_gpt-4o-cropped_gpt-4o-collage,N/A,PASS,Bolivia,Oruro,In warmish creek,R. Ochyra,PASS,PASS,N/A,1979-05-25,N/A,PASS,PASS,79-2108,Sajama,N/A,no type status,PASS,PASS,1982,PASS,25 May 1979,PASS,PASS
sonnet-3.5_gpt-4o-cropped_gpt-4o-collage,N/A,PASS,Bolivia,Oruro,In warmish creek,R. Ochyra,PASS,PASS,N/A,1979-05-25,N/A,Typed,PASS,79-2109,Sajama,N/A,no type status,PASS,PASS,1982,PASS,25 May 1979,PASS,PASS
sonnet-3.5_gpt-4o-cropped_gpt-4o-collage,N/A,PASS,Bolivia,Oruro,In warmish creek,R. Ochyra,PASS,PASS,N/A,1979-05-25,N/A,Typed,PASS,PASS,Sajama,N/A,no type status,PASS,PASS,1982,PASS,25 May 1979,PASS,PASS
sonnet-3.5_gpt-4o-cropped_gpt-4o-collage,N/A,PASS,Bolivia,Oruro,In warmish creek,R. Ochyra,PASS,PASS,N/A,1979-05-25,N/A,Typed,PASS,79-2115,Sajama,N/A,no type status,PASS,PASS,1982,4350 m,25 May 1979,PASS,PASS
sonnet-3.5_gpt-4o-cropped_gpt-4o-collage,N/A,PASS,Bolivia,Oruro,In warmish creek,R. Ochyra,PASS,PASS,N/A,1979-05-25,N/A,Typed,PASS,79-2117,Sajama,N/A,no type status,PASS,PASS,1982,PASS,25 May 1979,PASS,PASS
sonnet-3.5_gpt-4o-cropped_gpt-4o-collage,N/A,M. Lewis,Bolivia,Oruro,In warmish creek,R. Ochyra,PASS,PASS,N/A,1979-05-25,N/A,PASS,PASS,79-2118,Sajama,N/A,no type status,PASS,PASS,PASS,PASS,25 May 1979,PASS,PASS
sonnet-3.5_gpt-4o-cropped_gpt-4o-collage,N/A,PASS,Bolivia,Oruro,In warmish creek,R. Ochyra,PASS,PASS,N/A,1979-05-25,N/A,Typed,PASS,79-2107,Sajama,N/A,no type status,PASS,PASS,1982,PASS,25 May 1979,PASS,PASS
sonnet-3.5_gpt-4o-cropped_gpt-4o-collage,N/A,PASS,Bolivia,Oruro,In warmish creek,R. Ochyra,PASS,PASS,N/A,1979-05-25,N/A,Typed,PASS,79-2119,Sajama,N/A,no type status,PASS,PASS,1982,PASS,25 May 1979,PASS,PASS
sonnet-3.5_gpt-4o-cropped_gpt-4o-collage,N/A,PASS,Peru,Loreto,On stone in overflow forest,PASS,PASS,PASS,N/A,1931-11-23,N/A,Typed,PASS,6149,N/A,N/A,no type status,PASS,N/A,N/A,PASS,"Nov. 23, 1931",Vesicularia amphibola (Spr.) Broth.,PASS
sonnet-3.5_gpt-4o-cropped_gpt-4o-collage,N/A,Y. Mexia,Peru,Loreto,Dense forest on log,PASS,PASS,PASS,N/A,1931-11-25,N/A,Typed,PASS,6160-a,N/A,N/A,no type status,PASS,N/A,N/A,PASS,"Nov. 25, 1931",Vesicularia amphibola (Spr.) Broth.,PASS
sonnet-3.5_gpt-4o-cropped_gpt-4o-collage,N/A,PASS,Peru,Loreto,PASS,PASS,PASS,PASS,N/A,1931-12-04,N/A,Typed,PASS,6217-a,N/A,N/A,no type status,PASS,N/A,N/A,PASS,"Dec. 4, 1931",Vesicularia amphibola (Spr.) Broth.,PASS
sonnet-3.5_gpt-4o-cropped_gpt-4o-collage,N/A,Y. Mexia,Peru,Loreto,PASS,PASS,PASS,PASS,N/A,1931-12-12,N/A,Typed,PASS,6259-a,N/A,N/A,no type status,PASS,N/A,N/A,PASS,"Dec. 12, 1931",Vesicularia amphibola (Spr.) Broth.,PASS
sonnet-3.5_gpt-4o-cropped_gpt-4o-collage,N/A,PASS,Peru,Loreto,PASS,PASS,PASS,PASS,N/A,1932-01-03,N/A,PASS,PASS,6354-a,N/A,N/A,no type status,PASS,N/A,N/A,PASS,"Jan. 3, 1932",Vesicularia amphibola (Spr.) Broth.,PASS
sonnet-3.5_gpt-4o-cropped_gpt-4o-collage,PASS,Y. Mexia,Peru,Loreto,PASS,PASS,PASS,PASS,N/A,1932-01-03,N/A,Typed,PASS,6375a,N/A,N/A,no type status,PASS,N/A,PASS,PASS,"Jan. 3, 1932",PASS,PASS
sonnet-3.5_gpt-4o-cropped_gpt-4o-collage,PASS,PASS,Peru,Loreto,PASS,PASS,PASS,PASS,N/A,PASS,N/A,PASS,PASS,PASS,N/A,N/A,no type status,PASS,N/A,N/A,PASS,PASS,PASS,PASS
sonnet-3.5_gpt-4o-cropped_gpt-4o-collage,N/A,Y. Mexia,Peru,Loreto,PASS,PASS,PASS,PASS,N/A,1932-01-03,N/A,Typed,PASS,6377,N/A,N/A,no type status,PASS,N/A,N/A,PASS,"Jan. 3, 1932",Vesicularia amphibola (Spr.) Broth.,PASS
sonnet-3.5_gpt-4o-cropped_gpt-4o-collage,PASS,Y. Mexia,Peru,Cuzco,on rotten logs in virgin forest,PASS,PASS,PASS,N/A,1936-05-14,N/A,Typed,PASS,8070,La Convencion,N/A,no type status,PASS,N/A,N/A,PASS,PASS,PASS,PASS
sonnet-3.5_gpt-4o-cropped_gpt-4o-collage,N/A,Y. Mexia,Peru,Cuzco,on rotten logs in virgin forest,PASS,PASS,PASS,N/A,1936-05-14,N/A,Typed,PASS,8070,La Convencion,N/A,no type status,PASS,N/A,PASS,PASS,PASS,PASS,PASS
sonnet-3.5_gpt-4o-cropped_gpt-4o-collage,N/A,PASS,PASS,SANTA CATARINA,PASS,PASS,PASS,PASS,N/A,PASS,PASS,PASS,PASS,PASS,N/A,N/A,no type status,PASS,N/A,PASS,PASS,PASS,PASS,PASS
sonnet-3.5_gpt-4o-cropped_gpt-4o-collage,N/A,F. J. Hermann,Colombia,Santander,On base of tree trunk,H. Robinson,PASS,PASS,N/A,1972-12-19,N/A,PASS,PASS,25019,N/A,N/A,no type status,PASS,N/A,N/A,PASS,"December 19, 1972",Vesicularia vesicularis (Schwaegr.) Broth.,PASS
sonnet-3.5_gpt-4o-cropped_gpt-4o-collage,N/A,R. E. Schultes,Colombia,PASS,N/A,PASS,PASS,PASS,N/A,1950-12-00,Villavicencio,Typed,PASS,11107,N/A,N/A,no type status,PASS,N/A,N/A,PASS,"Dec., 1950",Vesicularia vesicularis (Schwgr.) Broth.,alrededores de Villavicencio
sonnet-3.5_gpt-4o-cropped_gpt-4o-collage,PASS,PASS,PASS,PASS,PASS,PASS,PASS,PASS,PASS,PASS,PASS,PASS,PASS,PASS,PASS,PASS,PASS,PASS,PASS,PASS,PASS,PASS,PASS,PASS
sonnet-3.5_gpt-4o-cropped_gpt-4o-collage,N/A,P. C. Hutchison,PERU,Amazonas,N/A,H. Robinson,PASS,PASS,N/A,1964-04-01,N/A,Typed,PASS,PASS,PASS,J. K. Wright,no type status,PASS,N/A,1966,PASS,1 April 1964,PASS,"Cerros Calla Calla, east side, 5 km. above Leimebamba on the road to Balsas, at San Miguel (no buildings at this locality)"
sonnet-3.5_gpt-4o-cropped_gpt-4o-collage,PASS,PASS,PASS,PASS,PASS,PASS,PASS,PASS,PASS,PASS,PASS,PASS,PASS,PASS,PASS,PASS,PASS,PASS,PASS,PASS,PASS,PASS,PASS,PASS
sonnet-3.5_gpt-4o-cropped_gpt-4o-collage,N/A,Y. Mexia,Brazil,PASS,PASS,PASS,PASS,PASS,N/A,1931-04-21,Corinto,Typed,PASS,5687,N/A,N/A,no type status,PASS,N/A,N/A,PASS,"April 21, 1931",PASS,PASS
sonnet-3.5_gpt-4o-cropped_gpt-4o-collage,N/A,R. Spruce,PASS,PASS,N/A,W. Mitten,PASS,PASS,N/A,0000-00-00,Baños,Mix of Handwritten and Typed,1078203,1023,N/A,N/A,PASS,PASS,N/A,PASS,N/A,PASS,PASS,PASS
sonnet-3.5_gpt-4o-cropped_gpt-4o-collage,PASS,PASS,Bolivia,Tarija,Bank of creek,W. Buck,PASS,PASS,N/A,1979-02-08,PASS,Typed,PASS,79-590,PASS,N/A,no type status,PASS,PASS,1980,PASS,8 February 1979,Entodon cf. nano-climacium C.M. (= E. micans Herz.),PASS
sonnet-3.5_gpt-4o-cropped_gpt-4o-collage,N/A,PASS,Bolivia,La Paz,Very shady ground along creek in humid shrubs,W. Buck,PASS,Near large red outcrop 2 miles from Sorata down Río Consata,N/A,1979-03-22,N/A,Typed,PASS,79-1220,Larecaja,N/A,no type status,PASS,"15° 41' S., 68° 43' W.",1980,PASS,22 March 1979,PASS,PASS
sonnet-3.5_gpt-4o-cropped_gpt-4o-collage,N/A,H. W. Foote,PASS,N/A,PASS,PASS,PASS,PASS,N/A,1911-09-03,PASS,PASS,N/A,s.n.,N/A,N/A,no type status,COLLECTED BY HARRY WARD FOOTE,N/A,N/A,PASS,PASS,PASS,PASS
sonnet-3.5_gpt-4o-cropped_gpt-4o-collage,N/A,PASS,Bolivia,La Paz,PASS,W. Buck,Entodon polycarpus,Between Abra Huallata and waterfall at Millipaya,N/A,1979-04-01,N/A,Typed,PASS,79-1346,Larecaja,N/A,no type status,PASS,PASS,1980,3780 m,1 April 1979,cf. Entodon polycarpus,PASS
sonnet-3.5_gpt-4o-cropped_gpt-4o-collage,Nothofagus pumilio,H. Roivainen,Argentina,Tierra del Fuego,PASS,R. Ochyra,PASS,PASS,N/A,1970-01-25,PASS,Typed,PASS,2095,PASS,N/A,no type status,H. Roivainen,PASS,1996,150 m s.m.,25.1.1970,Isopterygium pulchellum (Hedw.) Jaeg.,PASS
sonnet-3.5_gpt-4o-cropped_gpt-4o-collage,N/A,H. Roivainen,Argentina,Tierra del Fuego,PASS,R. Ochyra,PASS,PASS,N/A,1969-12-24,Ushuaia,Typed,PASS,1352,N/A,N/A,no type status,H. Roivainen,PASS,1996,300 m s.m.,24.12.1969,Isopterygium pulchellum (Brid.) Jaeg.,PASS
sonnet-3.5_gpt-4o-cropped_gpt-4o-collage,N/A,E. P. Killip,COLOMBIA,Santander,N/A,R. R. Ireland,PASS,PASS,N/A,1926-11-29,N/A,Typed,PASS,14871,N/A,A. C. Smith,no type status,E. P. Killip & A. C. Smith,N/A,1988,PASS,"November 29, 1926",PASS,PASS
sonnet-3.5_gpt-4o-cropped_gpt-4o-collage,N/A,R. E. Schultes,Colombia,Meta,N/A,D. Griffin III,PASS,PASS,N/A,1950-12-00,Villavicencio,Typed,PASS,PASS,N/A,N/A,no type status,PASS,N/A,N/A,PASS,"Dec., 1950",Isopterygium tenerum (Sw.) Mitt.,PASS
sonnet-3.5_gpt-4o-cropped_gpt-4o-collage,N/A,D. C. Geijskes,PASS,N/A,PASS,H. R. Zielman,PASS,PASS,N/A,1952-09-29,N/A,PASS,PASS,s.n.,N/A,N/A,no type status,PASS,N/A,N/A,N/A,29 - 9 - 1952,PASS,PASS
sonnet-3.5_gpt-4o-cropped_gpt-4o-collage,N/A,Y. Mexia,Brazil,Minas Gerais,PASS,R. R. Ireland,PASS,PASS,N/A,PASS,PASS,Typed,PASS,PASS,N/A,N/A,PASS,PASS,N/A,1988,PASS,PASS,PASS,PASS
sonnet-3.5_gpt-4o-cropped_gpt-4o-collage,N/A,PASS,Brazil,PASS,PASS,PASS,PASS,PASS,N/A,1930-07-21,PASS,Typed,PASS,4888,N/A,N/A,no type status,PASS,N/A,PASS,PASS,"July 21, 1930",Isopterygium laxum (Hpe.) Broth.,PASS
sonnet-3.5_gpt-4o-cropped_gpt-4o-collage,N/A,Y. Mexia,Brazil,Minas Gerais,PASS,PASS,PASS,PASS,N/A,PASS,Viçosa,Typed,PASS,PASS,N/A,N/A,no type status,PASS,N/A,1988,PASS,PASS,PASS,PASS
sonnet-3.5_gpt-4o-cropped_gpt-4o-collage,N/A,Y. Mexia,Brazil,PASS,PASS,PASS,PASS,PASS,N/A,1930-12-23,PASS,PASS,PASS,5441,N/A,N/A,no type status,PASS,N/A,PASS,PASS,"Dec. 23, 1930",PASS,PASS
sonnet-3.5_gpt-4o-cropped_gpt-4o-collage,Coccoloba sp.,H. S. Irwin,PASS,Bahia,PASS,R. R. Ireland,PASS,PASS,N/A,1971-03-02,PASS,Typed,PASS,31332,N/A,R. M. Harley | G. L. Smith,no type status,PASS,N/A,1988,ca. 500m,2 March 1971,ISOPTERYGIUM TENERUM (Sw.) Mitt.,PASS
sonnet-3.5_gpt-4o-cropped_gpt-4o-collage,N/A,Y. Mexia,Brazil,PASS,PASS,PASS,PASS,PASS,N/A,PASS,PASS,Typed,PASS,4884,N/A,N/A,no type status,PASS,N/A,PASS,PASS,PASS,PASS,PASS
sonnet-3.5_gpt-4o-cropped_gpt-4o-collage,N/A,PASS,Brazil,PASS,PASS,PASS,PASS,PASS,N/A,1930-05-14,PASS,PASS,PASS,4698,N/A,N/A,no type status,PASS,N/A,PASS,PASS,"May 14, 1930",PASS,PASS
sonnet-3.5_gpt-4o-cropped_gpt-4o-collage,N/A,Y. Mexia,Brazil,PASS,PASS,PASS,PASS,PASS,N/A,1930-07-21,PASS,Typed,PASS,4884,N/A,N/A,no type status,PASS,N/A,PASS,PASS,"July 21, 1930",PASS,PASS
sonnet-3.5_gpt-4o-cropped_gpt-4o-collage,N/A,Y. Mexia,Brazil,Minas Gerais,PASS,PASS,PASS,PASS,N/A,1930-03-31,PASS,Typed,PASS,4545,N/A,N/A,no type status,PASS,N/A,1988,PASS,"March 31, 1930",PASS,PASS
sonnet-3.5_gpt-4o-cropped_gpt-4o-collage,N/A,V. Schiffner,PASS,PASS,PASS,PASS,PASS,PASS,PASS,PASS,PASS,PASS,PASS,2898,N/A,N/A,no type status,PASS,N/A,1988,PASS,PASS,PASS,PASS
sonnet-3.5_gpt-4o-cropped_gpt-4o-collage,N/A,Y. Mexia,Brazil,PASS,PASS,PASS,PASS,PASS,N/A,1930-07-06,PASS,Typed,PASS,PASS,N/A,N/A,no type status,PASS,N/A,PASS,PASS,"July 6, 1930",PASS,PASS
sonnet-3.5_gpt-4o-cropped_gpt-4o-collage,N/A,R. S. Williams,BOLIVIA,N/A,PASS,R. R. Ireland,PASS,PASS,N/A,1901-11-29,N/A,PASS,PASS,2095,N/A,N/A,no type status,PASS,N/A,1988,190 meters,"Nov. 29, 1901",Isopterygium tenerum (Sw.) Mitt.,PASS
sonnet-3.5_gpt-4o-cropped_gpt-4o-collage,N/A,R. S. Williams,Bolivia,N/A,N/A,R. S. Williams,PASS,PASS,1902-00-00,1901-00-00,N/A,PASS,PASS,PASS,N/A,N/A,no type status,PASS,N/A,PASS,N/A,1901-1902,PASS,PASS
sonnet-3.5_gpt-4o-cropped_gpt-4o-collage,N/A,PASS,PASS,PASS,N/A,PASS,PASS,PASS,N/A,1907-07-27,PASS,PASS,PASS,s.n.,PASS,N/A,no type status,PASS,N/A,PASS,PASS,27/7 1907,PASS,PASS
sonnet-3.5_gpt-4o-cropped_gpt-4o-collage,N/A,PASS,England,N/A,N/A,N/A,PASS,[precise locality unknown],N/A,0000-00-00,N/A,PASS,PASS,s.n.,N/A,N/A,no type status,PASS,N/A,N/A,N/A,s.d.,PASS,PASS
sonnet-3.5_gpt-4o-cropped_gpt-4o-collage,N/A,N/A,PASS,PASS,N/A,N/A,PASS,Gorge de Jeret,N/A,1878-00-00,N/A,PASS,PASS,s.n.,N/A,N/A,no type status,N/A,N/A,PASS,PASS,1878,PASS,PASS
sonnet-3.5_gpt-4o-cropped_gpt-4o-collage,N/A,PASS,England,Sussex,N/A,N/A,Pogonatum urnigerum,PASS,N/A,PASS,N/A,PASS,1096014,s.n.,N/A,N/A,no type status,PASS,N/A,N/A,N/A,PASS,Pogonatum urnigerum,PASS
sonnet-3.5_gpt-4o-cropped_gpt-4o-collage,PASS,PASS,PASS,PASS,N/A,N/A,PASS,PASS,N/A,PASS,PASS,PASS,PASS,s.n.,PASS,N/A,no type status,PASS,N/A,N/A,N/A,PASS,PASS,PASS
sonnet-3.5_gpt-4o-cropped_gpt-4o-collage,N/A,PASS,PASS,PASS,PASS,N/A,PASS,PASS,N/A,PASS,PASS,Handwritten,1058477,s.n.,N/A,N/A,no type status,PASS,N/A,N/A,N/A,PASS,PASS,PASS
sonnet-3.5_gpt-4o-cropped_gpt-4o-collage,N/A,C. Müller,PASS,PASS,PASS,PASS,PASS,PASS,N/A,PASS,N/A,PASS,PASS,PASS,N/A,N/A,no type status,C. Müller Frib.,N/A,PASS,etwa 1250 m s. m.,PASS,PASS,PASS
sonnet-3.5_gpt-4o-cropped_gpt-4o-collage,N/A,PASS,PASS,PASS,In declivis graminosis silvaticis,PASS,PASS,PASS,N/A,1946-05-00,PASS,Typed,1270015,PASS,PASS,N/A,no type status,PASS,N/A,N/A,ca 580 m,PASS,PASS,PASS
sonnet-3.5_gpt-4o-cropped_gpt-4o-collage,N/A,PASS,Scotland,N/A,N/A,PASS,PASS,[precise locality unknown],N/A,PASS,N/A,PASS,PASS,PASS,N/A,N/A,no type status,PASS,N/A,PASS,N/A,PASS,Pogonatum urnigerum,N/A
sonnet-3.5_gpt-4o-cropped_gpt-4o-collage,N/A,Philippe,PASS,N/A,N/A,N/A,PASS,PASS,N/A,0000-00-00,N/A,PASS,1058446,s.n.,N/A,N/A,no type status,PASS,N/A,N/A,N/A,PASS,PASS,PASS
sonnet-3.5_gpt-4o-cropped_gpt-4o-collage,N/A,PASS,Germany,N/A,N/A,N/A,PASS,PASS,N/A,PASS,N/A,PASS,PASS,s.n.,N/A,N/A,no type status,PASS,N/A,N/A,N/A,PASS,PASS,PASS
sonnet-3.5_gpt-4o-cropped_gpt-4o-collage,N/A,C. Jensen,Denmark,Sjælland,PASS,PASS,PASS,PASS,N/A,1901-10-25,PASS,PASS,PASS,s.n.,N/A,N/A,no type status,PASS,N/A,N/A,N/A,25/10 1901,PASS,PASS
sonnet-3.5_gpt-4o-cropped_gpt-4o-collage,N/A,PASS,PASS,N/A,N/A,N/A,PASS,PASS,N/A,PASS,N/A,PASS,1058475,s.n.,N/A,N/A,no type status,PASS,N/A,N/A,N/A,PASS,PASS,PASS
sonnet-3.5_gpt-4o-cropped_gpt-4o-collage,N/A,PASS,PASS,PASS,N/A,N/A,PASS,PASS,N/A,PASS,N/A,PASS,1058481,PASS,N/A,N/A,no type status,PASS,N/A,N/A,N/A,PASS,PASS,PASS
sonnet-3.5_gpt-4o-cropped_gpt-4o-collage,N/A,G. E. Hunt,SCOTLAND,N/A,N/A,PASS,PASS,PASS,N/A,PASS,N/A,PASS,1182976,s.n.,N/A,N/A,no type status,ex herb. George E. Hunt,N/A,PASS,N/A,PASS,PASS,PASS
sonnet-3.5_gpt-4o-cropped_gpt-4o-collage,PASS,PASS,PASS,PASS,PASS,PASS,PASS,PASS,N/A,1976-07-18,PASS,Mix of Handwritten and Typed,PASS,PASS,PASS,N/A,no type status,PASS,N/A,N/A,PASS,Le 18.07.1976,PASS,PASS
sonnet-3.5_gpt-4o-cropped_gpt-4o-collage,N/A,M. Onraedt,PASS,PASS,talus forestier,PASS,PASS,PASS,N/A,PASS,N/A,PASS,PASS,PASS,PASS,N/A,no type status,M. Onraedt,N/A,PASS,PASS,PASS,PASS,PASS
sonnet-3.5_gpt-4o-cropped_gpt-4o-collage,N/A,PASS,PASS,PASS,N/A,N/A,Pogonatum urnigerum,[precise locality unknown],N/A,PASS,N/A,PASS,PASS,s.n.,PASS,N/A,no type status,PASS,N/A,N/A,N/A,PASS,PASS,PASS
sonnet-3.5_gpt-4o-cropped_gpt-4o-collage,N/A,PASS,PASS,PASS,N/A,N/A,PASS,PASS,N/A,PASS,PASS,PASS,PASS,PASS,N/A,PASS,no type status,PASS,N/A,N/A,N/A,PASS,PASS,PASS
sonnet-3.5_gpt-4o-cropped_gpt-4o-collage,N/A,PASS,PASS,PASS,PASS,PASS,PASS,PASS,N/A,1862-10-17,Degerfelden,PASS,1054981,PASS,N/A,N/A,no type status,PASS,N/A,N/A,N/A,17. October 1862,Pogonatum urnigerum (L.) Pal. Beauv.,An einem Waldrande auf dem rothen Sandsteinbruche oberhalb Degerfelden
sonnet-3.5_gpt-4o-cropped_gpt-4o-collage,N/A,PASS,PASS,PASS,N/A,N/A,PASS,PASS,N/A,1862-09-00,PASS,PASS,PASS,PASS,N/A,N/A,no type status,PASS,N/A,N/A,N/A,September 1862,Pogonatum urnigerum (L.) Pal. Beauv.,PASS
sonnet-3.5_gpt-4o-cropped_gpt-4o-collage,N/A,C. Jensen,Denmark,Zealand,sandy soil,C. Jensen,PASS,PASS,N/A,1904-11-21,N/A,Typed,N/A,104,N/A,N/A,no type status,PASS,N/A,N/A,N/A,"November 21, 1904",PASS,PASS
sonnet-3.5_gpt-4o-cropped_gpt-4o-collage,PASS,P. Allorge,Spain,Navarra,PASS,PASS,PASS,PASS,N/A,PASS,N/A,Typed,PASS,PASS,N/A,N/A,no type status,P. Allorge,N/A,PASS,PASS,PASS,PASS,PASS
sonnet-3.5_gpt-4o-cropped_gpt-4o-collage,N/A,PASS,PASS,PASS,N/A,N/A,PASS,PASS,N/A,PASS,N/A,Typed,PASS,PASS,N/A,N/A,no type status,PASS,N/A,N/A,PASS,PASS,PASS,PASS
sonnet-3.5_gpt-4o-cropped_gpt-4o-collage,PASS,S. Churchill,BOLIVIA,Chuquisaca,PASS,S. Churchill,PASS,PASS,N/A,2004-05-12,N/A,Typed,PASS,22853,Belisario Boeto,H. Huaylla | R. Lozano | M. Serrano,no type status,PASS,"18°43'43""S 64°29'07""W",Jun 2004,2740 m,12 May 2004,Neckera scabridens C. Müller,PASS
sonnet-3.5_gpt-4o-cropped_gpt-4o-collage,N/A,PASS,PASS,Pernambuco,PASS,G. P. Lewis,PASS,PASS,N/A,2007-06-23,PASS,Mix of Handwritten and Typed,PASS,PASS,PASS,PASS,no type status,PASS,PASS,12.2012,PASS,23/VI/2007,PASS,PASS
sonnet-3.5_gpt-4o-cropped_gpt-4o-collage,N/A,I. Kukkonen,AUSTRALIA,Queensland,PASS,J. Sarvela,PASS,PASS,N/A,1981-09-13,N/A,PASS,PASS,11003,Atherton Tableland,N/A,no type status,PASS,N/A,1982,N/A,13. Sept. 1981,PASS,PASS
sonnet-3.5_gpt-4o-cropped_gpt-4o-collage,N/A,PASS,PASS,Guanabara,PASS,A. P. Duarte,PASS,PASS,N/A,1960-09-07,PASS,PASS,K001046329,PASS,N/A,N/A,no type status,PASS,N/A,23.9.60,N/A,7.9.60,PASS,PASS
sonnet-3.5_gpt-4o-cropped_gpt-4o-collage,N/A,W. Hoehne,PASS,São Paulo,N/A,M. Kuhlmann,PASS,PASS,N/A,PASS,PASS,PASS,PASS,10228,N/A,N/A,no type status,W. Hoehne,N/A,N/A,PASS,PASS,Cestrum corymbosum Schlecht.,PASS
sonnet-3.5_gpt-4o-cropped_gpt-4o-collage,N/A,H. Eggert,PASS,Illinois,N/A,PASS,PASS,PASS,N/A,PASS,N/A,PASS,PASS,s.n.,N/A,N/A,no type status,PASS,N/A,N/A,N/A,PASS,PASS,PASS
sonnet-3.5_gpt-4o-cropped_gpt-4o-collage,PASS,I. Kukkonen,Ethiopia,PASS,PASS,J. Sarvela,PASS,PASS,N/A,1982-11-08,N/A,PASS,PASS,12608,N/A,N/A,no type status,Ilkka Kukkonen 12608,PASS,PASS,PASS,8.XI.1982,PASS,PASS
sonnet-3.5_gpt-4o-cropped_gpt-4o-collage,PASS,PASS,PASS,PASS,Occurring on the banks of a stream on a substrate of sand and shingle,PASS,PASS,PASS,N/A,2012-03-23,PASS,PASS,E00570050,PASS,PASS,PASS,HOLOTYPE,PASS,PASS,PASS,360 m,PASS,Mimulus peregrinus sp. nov.,PASS
sonnet-3.5_gpt-4o-cropped_gpt-4o-collage,N/A,PASS,United Kingdom,Surrey,N/A,PASS,PASS,PASS,N/A,1902-08-09,N/A,Mix of Handwritten and Typed,PASS,PASS,N/A,N/A,no type status,PASS,PASS,N/A,N/A,Aug. 9th 1902,PASS,PASS
sonnet-3.5_gpt-4o-cropped_gpt-4o-collage,PASS,B. Van de Vijver,PASS,PASS,macchia-shrub with Cistus and Pinus,PASS,PASS,PASS,N/A,2007-04-25,PASS,Mix of Handwritten and Typed,PASS,s.n.,N/A,N/A,no type status,PASS,N/A,PASS,N/A,25/04/2007,Ophrys oestrifera subsp. garganensis Van de Vijver & W. Van Looken,PASS
sonnet-3.5_gpt-4o-cropped_gpt-4o-collage,N/A,G. Hatschbach,Brazil,PASS,PASS,PASS,PASS,PASS,N/A,1968-11-09,PASS,PASS,K001207911,20590,PASS,N/A,no type status,PASS,PASS,971,N/A,PASS,PASS,PASS
sonnet-3.5_gpt-4o-cropped_gpt-4o-collage,N/A,J. J. de Wilde,Gabon,N/A,PASS,N/A,PASS,PASS,N/A,1991-01-22,N/A,Typed,K000263710,10130,N/A,PASS,ISOTYPE,PASS,PASS,N/A,PASS,22-1-1991,Rhynchosia gabonensis Jongkind,PASS
sonnet-3.5_gpt-4o-cropped_gpt-4o-collage,N/A,W. Suksdorf,United States,WASHINGTON,PASS,PASS,PASS,PASS,N/A,1926-08-03,Bingen,Typed,PASS,12045,PASS,N/A,no type status,WILHELM SUKSDORF,N/A,PASS,N/A,PASS,Solanum triflorum Nutt.,PASS
sonnet-3.5_gpt-4o-cropped_gpt-4o-collage,N/A,J. F. Macbride,PERU,N/A,PASS,F. A. Michelangeli,PASS,PASS,1923-09-01,1923-08-27,PASS,PASS,PASS,5234,PASS,N/A,PASS,COLL. J. FRANCIS MACBRIDE,N/A,20.08,ABOUT 4000 FEET,"AUG. 27-SEPT. 1, 1923",PASS,PASS
sonnet-3.5_gpt-4o-cropped_gpt-4o-collage,PASS,X. Cornejo,ECUADOR,Manabí,PASS,PASS,PASS,PASS,N/A,1997-10-27,PASS,PASS,B 10 0375227,5822,N/A,C. Bonifaz,ISOTIPO,PASS,PASS,PASS,PASS,"Oct. 27, 1997",PASS,PASS
sonnet-3.5_gpt-4o-cropped_gpt-4o-collage,N/A,PASS,PASS,PASS,N/A,PASS,PASS,PASS,N/A,1887-04-02,N/A,Mix of Handwritten and Typed,B 10 0185601,s.n.,N/A,N/A,no type status,M. l'Abbé DELAVAY,N/A,N/A,N/A,PASS,Gentiana albescens Franch.,PASS
sonnet-3.5_gpt-4o-cropped_gpt-4o-collage,N/A,PASS,Venezuela,PASS,PASS,PASS,PASS,PASS,PASS,1993-04-16,N/A,Mix of Handwritten and Typed,B 10 0030508,3685,PASS,PASS,PASS,PASS,PASS,PASS,PASS,PASS,PASS,PASS
sonnet-3.5_gpt-4o-cropped_gpt-4o-collage,N/A,PASS,PASS,Sarawak,PASS,PASS,Mallotus paniculatus,Base of Gunung Pueh,N/A,1988-12-21,N/A,Typed,PASS,283,PASS,N/A,no type status,PASS,N/A,PASS,PASS,21.12.1988,Mallotus paniculatus,PASS
sonnet-3.5_gpt-4o-cropped_gpt-4o-collage,N/A,M. Jacobs,PASS,Sarawak,PASS,N/A,PASS,PASS,N/A,1958-08-01,N/A,Typed,PASS,PASS,PASS,N/A,no type status,M. JACOBS,PASS,N/A,PASS,PASS,PASS,PASS
sonnet-3.5_gpt-4o-cropped_gpt-4o-collage,N/A,P. J. M. Maas,Brazil,Espírito Santo,"High forest, on brown sand; vegetation with many Palmae and terrestrial and epiphytic Bromeliaceae",P. J. M. Maas,PASS,PASS,N/A,1999-02-16,PASS,Typed,B 10 0030420,8833,Santa Teresa,PASS,Isotype,"P. J. M. & H. Maas, L. Kollmann",19°58'S 40°32'W,PASS,800 m,16 Feb 1999,PASS,PASS
sonnet-3.5_gpt-4o-cropped_gpt-4o-collage,N/A,PASS,PASS,PASS,N/A,H. Manitz,PASS,PASS,N/A,PASS,N/A,PASS,PASS,PASS,PASS,PASS,PASS,PASS,PASS,2007,PASS,PASS,PASS,PASS
