Image,verbatimCollectors,collectedBy,secondaryCollectors,recordNumber,verbatimEventDate,minimumEventDate,maximumEventDate,verbatimIdentification,latestScientificName,identifiedBy,verbatimDateIdentified,associatedTaxa,country,firstPoliticalUnit,secondPoliticalUnit,municipality,verbatimLocality,locality,habitat,verbatimElevation,verbatimCoordinates,otherCatalogNumbers,originalMethod,typeStatus
0000_C0268502F_p.jpg,Leg. M. Fleischer,M. Fleischer,N/A,B 2574,25.V.1903,1903-05-25,N/A,Macromitrium,Macromitrium,N/A,N/A,N/A,Australia,Queensland,N/A,Eumundi,"Eumundi (ca. 100 km nördlich Brisbane), Urwald","Eumundi, approximately 100 kilometers north of Brisbane",Urwald,N/A,N/A,1076713 | 1046581,Typed,no type status
0001_C0268508F_p.jpg,Leg. M. Fleischer,M. Fleischer,N/A,B. 2692,25.3.1903,1903-03-25,N/A,Macrotritium,Macrotritium,N/A,N/A,N/A,Australia,Queensland,N/A,Eumundi,"ca. 100 km nördlich Brisbane, Urwald.","approximately 100 kilometers north of Brisbane, virgin forest",virgin forest,N/A,N/A,1076699,Typed,no type status
0002_C0268514F_p.jpg,M. Fleischer,M. Fleischer,N/A,B 2552,6.4.1903,1903-04-06,N/A,Macromitrium,Macromitrium,N/A,N/A,N/A,Australia,New South Wales,N/A,Wentworth Falls,"Blue Mountains bei Sydney, Wentworth Falls","Blue Mountains near Sydney, Wentworth Falls",N/A,N/A,N/A,1076824,Typed,no type status
0003_C0268520F_p.jpg,Leg. M. Fleischer nr. b 2697,M. Fleischer,N/A,b 2697,20.3.1903,1903-03-20,N/A,Macromitrium,Macromitrium,N/A,N/A,N/A,Australia,Queensland,N/A,N/A,"Australien: Queensland, bei Brisbane",near Brisbane,N/A,N/A,N/A,1076705,Typed,no type status
0004_C0268544F.jpg,N. Nakajima,N. Nakajima,N/A,1229,"Mar. 27, 1971",1971-03-27,N/A,Macrothamnium syntrichodontum (Sull. et Lesq.) O. Ktze.,Macrothamnium syntrichodontum,N. Nakajima,N/A,N/A,Japan,Wakayama Prefecture,N/A,N/A,"Oto-mura, Nishimuro-gun",Oto-mura,On vertical face of rock,330 m alt.,N/A,N/A,Typed,no type status
0005_C0268545F.jpg,T. Nakajima,T. Nakajima,N/A,714,"May 4, 1956",1956-05-04,N/A,Macrothamnium pumilostomum Sull. et Lesq.,Macrothamnium pumilostomum,A. Noguchi,"May 4, 1956",N/A,Japan,Nara,N/A,Ohtako,"On trunks of Fagus crenata, ca. 1200 m. alt., Mt. Ohtako, Nara Prefecture","On trunks of Fagus crenata, at approximately 1200 meters altitude, Mount Ohtako",On trunks of Fagus crenata,ca. 1200 m. alt.,N/A,1043492,Typed,no type status
0006_C0268546F.jpg,T. Nakajima,T. Nakajima,N/A,1129,"March 28, 1967",1967-03-28,N/A,Macrothamnium japonomontanum Sull. & Lesq. cf. fr.,Macrothamnium japonomontanum,T. Nakajima,"March 28, 1967",N/A,Japan,Wakayama,N/A,Shirahama-cho,"On rocks, ca. 100 m alt., Syogawa, Shirahama-cho, Nishimuro-gun, Wakayama Prefecture","On rocks, approximately 100 meters altitude, Syogawa, Shirahama-cho",N/A,ca. 100 m alt.,N/A,1043491,Typed,no type status
0007_C0268548F.jpg,S. Hattori,S. Hattori,N/A,s.n.,IX. 1946,1946-09-00,N/A,Macromitrium gymnostomum Sull. et Lesq.,Macromitrium gymnostomum,A. Noguchi,Ser. I (1947),N/A,Japan,Miyazaki,N/A,Minamiata,"KIUSHIU, Miyazaki, Minamiata, Sakatani, ad arborum truncos, ca 500 m.",Sakatani,ad arborum truncos,ca 500 m.,N/A,1253073,Typed,no type status
0008_C0268549F.jpg,R.P. J.B. Faurie,J. B. Faurie,N/A,s.n.,20-4-1898,1898-04-20,N/A,Macrothamnium gymnostomum S. I.,Macrothamnium gymnostomum,Thériot,N/A,N/A,Japan,N/A,N/A,N/A,Japon: iles Liu-Kiu - Centre de l'ile,Centre of the island,N/A,N/A,N/A,1000415,Typed,no type status
0009_C0268550F.jpg,R.P. J. B. Faurie,R. P. J. B. Faurie,N/A,s.n.,oct-nov.1898,1898-10-00,1898-11-00,Macromitrium syntrichum S. I.,Macromitrium syntrichum,Thér.,N/A,N/A,Japan,N/A,N/A,Yaku-Shima,Japon : Yaku-Sima,Yaku-Shima,N/A,N/A,N/A,1000416,Typed,no type status
0010_C0268554F.jpg,A. Touw,A. Touw,N/A,14660,9-3-1975,1975-03-09,N/A,Macromitrium incurvifolium (Hook. & Grev.) Schwagr.,Macromitrium incurvifolium,D. H. Vitt,s.d.,N/A,Papua New Guinea,Morobe,N/A,Lae,"Papua New Guinea, Morobe Distr., Lae. In fork of Plumeria tree in garden.",In fork of Plumeria tree in garden.,[precise locality unknown],Alt. c. 20 m.,N/A,1142151,Typed,no type status
0011_C0268557F.jpg,A. Touw,A. Touw,N/A,18543,20.V.1975,1975-05-20,N/A,Macromitrium longicaule C. Müll.,Macromitrium longicaule,D. H. Vitt,N/A,N/A,Papua New Guinea,West Sepik,N/A,Busilmin,"c. 5°11'S/141°07'E Busilmin Dist., Star Mts. on slope above Ok Din river W of Busilmin; on trees along Ok Din River.",Star Mountains on slope above Ok Din River west of Busilmin; on trees along Ok Din River,N/A,1500 - 1550 m.,c. 5°11'S/141°07'E,No: 1141855,Typed,no type status
0012_C0268558F.jpg,A. Town,A. Town,N/A,17369,8.5.1975,1975-05-08,N/A,Macromitrium macrosporum Broth.,Macromitrium macrosporum,D. H. Vitt,N/A,N/A,Papua New Guinea,West Sepik,N/A,N/A,"c. 5°14' N/141°E, New Guinea, West Sepik Distr., Star Mts., Papua New Guinea. Summit of Mt. Capella; on stems and branches of trees and shrubs in summit scrub.",Summit of Mt. Capella; on stems and branches of trees and shrubs,Summit scrub,3900 m.,c. 5°14' N/141°E,1142194,Typed,no type status
0013_C0268559F.jpg,A. Touw,A. Touw,N/A,16376,17.4.1975,1975-04-17,N/A,Macromitrium macrosporum Broth.,Macromitrium macrosporum,D. H. Vitt,N/A,N/A,Papua New Guinea,East Sepik,N/A,N/A,"c. 5 mi NE Weimea, WeWiak Bilbil, Star Mts., Limestone ridge near camp; c. 4-5 m. high stunted forest on ridge. On trees and shrubs.","approximately 5 miles northeast Weimea, WeWiak Bilbil, Star Mountains, Limestone ridge near camp",On trees and shrubs in high stunted forest on ridge,Alt. c. 3600 m.,N/A,1142178,Typed,no type status
0014_C0268560F.jpg,A. Tow,A. Tow,N/A,7312,8.5.,s.d.,N/A,Macromitrium macrosporum Broth.,Macromitrium macrosporum,D.H. Vitt,8.5.,N/A,Papua New Guinea,Northeast New Guinea,N/A,N/A,NE Summit Dist. Star Mts. Summit of ridge between Mt. Capella Base Camp and Mt. Capella ridge; on isolated tree.,Summit of ridge between Mount Capella Base Camp and Mount Capella ridge; on an isolated tree.,N/A,3650 m.,"c. S 5°11'05"" E 141°31'02""",1142156,Typed,no type status
0015_C0268561F.jpg,A. Town,A. Town,N/A,16420,19.4,1975-04-19,N/A,Macromitrium macrosporum Broth.,Macromitrium macrosporum,D. H. Vitt,19.4,N/A,Papua New Guinea,Western Highlands,N/A,N/A,"Mt. Hagen Dist., nr. Mendi, forest remnant in deep chasm near the summit on soaking wet bark of trees.","Mt. Hagen District, near Mendi, forest remnant in deep chasm near the summit on soaking wet bark of trees",Forest remnant in deep chasm near the summit on soaking wet bark of trees,c. 3900 m.,"c. 5° 41' 90.5"" E",No 1142175,Typed,no type status
0016_C0268562F.jpg,A. Town No. 17205,A. Town,N/A,17205,5.5.1975,1975-05-05,N/A,Macromitrium macrosporum Broth.,Macromitrium macrosporum,D. H. Vitt,N/A,N/A,New Guinea,N/A,N/A,N/A,"New Guinea, West Sepik Dist., Star Mts., c. 5°45'N 141°05'E, Near Mt. Capella Base Camp, along trail to Tamamagabi","Near Mt. Capella Base Camp, along trail to Tamamagabi",open sub-alpine scrub. At base of limestone rock.,3450 m,c. 5°45'N 141°05'E,1141880,Typed,no type status
0017_C0268563F.jpg,A. Tow,A. Tow,N/A,18046,14.5.1975,1975-05-14,N/A,Macromitrium megalocladon Fleisch.,Macromitrium megalocladon,D. H. Vitt,N/A,N/A,Papua New Guinea,West Sepik,N/A,N/A,"c. 5°54'S/141°08'E, upper montane forests, between Fologi and Arfaks' Camp.","upper montane forests, between Fologi and Arfak's Camp",Pendulous from heavy tree branches and slanting trunks,alt. c 2500 – 2600 m.,c. 5°54'S/141°08'E,N° 1142187,Typed,no type status
0018_C0268564F.jpg,A. Town No. 16555,A. Town,N/A,16555,21.4.1975,1975-04-21,N/A,Macromitrium megalocladon Fleisch.,Macromitrium megalocladon,D. H. Vitt,N/A,N/A,Papua New Guinea,West Sepik,N/A,N/A,c.5 mi SW Green Hill (grassfield) SW of Mt. Capella Base Camp,"approximately 5 miles southwest of Green Hill, southwest of Mount Capella Base Camp",on vertical face of moss covered limestone boulder at edge of kunai,3400 m,N/A,1142432,Typed,no type status
0019_C0268565F.jpg,A. Touw,A. Touw,N/A,15768,7-4-1975,1975-04-07,N/A,Macromitrium megalocladon Fleisch.,Macromitrium megalocladon,D. H. Vitt,7-4-1975,N/A,Papua New Guinea,West Sepik,N/A,N/A,"Capas Suklimestone, Star Mts., c. 5 mi NW Telefomin. Ridge above Camp 2","Capas Suklimestone, Star Mountains, approximately 5 miles northwest of Telefomin, Ridge above Camp 2","Terrestrial in open shrubbery on ridge, Dense moss vegetation covering soil, rocks and the lower portion of shrubs, Dominant",3350 m,N/A,1142300,Typed,no type status
0020_C0268566F.jpg,S. Hattori,S. Hattori,N/A,s.n.,VIII. 1946,1946-08-00,N/A,20. Macrotritium incurvum (Limb.) Par.,Macrotritium incurvum,A. Noguchi,1947,N/A,Japan,Kyushu,Miyazaki,Mimata-mura,"Miyazaki, Minamimata, Obi","Mimata-mura, Obi","rupicola, photophila, ca. 50 m",ca. 50 m,N/A,1285066,Typed,no type status
0021_C0268569F.jpg,K. Miyabe,K. Miyabe,N/A,s.n.,"December 25, 1951",1951-12-25,N/A,Macromitrium incurvum (Lindb.) Par.,Macromitrium incurvum,A. Noguchi,N/A,N/A,Japan,Kumamoto,N/A,Yoshiho,"On exposed rocks, 60 m. above sea, Yoshiho, Kumamoto Prefecture","On exposed rocks, 60 meters above sea",On exposed rocks,60 m. above sea,N/A,1043529,Typed,no type status
0022_C0268571F.jpg,K. Miyazaki,K. Miyazaki,N/A,s.n.,"February 11, 1952",1952-02-11,N/A,Macromitrium gymnostomum Sull. et Lesq.,Macromitrium gymnostomum,A. Noguchi,s.d.,N/A,Japan,Kumamoto,N/A,Konose,"ca. 100 m. above sea, Konose, Kumamoto Prefecture","approximately 100 meters above sea level, Konose",On rocks,ca. 100 m.,N/A,1043490,Typed,no type status
0023_C0268572F.jpg,K. Mayamora,K. Mayamora,N/A,s.n.,March 1932,1932-03-00,N/A,Macrotrichum erythrostomum Sull. et Lesq.,Macrotrichum erythrostomum,A. Noguchi,N/A,N/A,Japan,Kumamoto,N/A,Hitoyoshi,"ca. 100m. alt. Hitoyoshi, Kumamoto County",approximately 100 meters altitude Hitoyoshi,On rocks,ca. 100m. alt.,N/A,1043493,Typed,no type status
0024_C0268574F.jpg,H. H. Chung,H. H. Chung,N/A,B.206,"August, 1925",1925-08-00,N/A,Macrothylacia gymnostomum S. Lac.,Macrothylacia gymnostomum,Thériot,N/A,N/A,China,Fujian,N/A,Kushan near Foochow,"On rocks, hillside gum kushan, Kushan near Foochow","On rocks, hillside gum Kushan",[precise locality unknown],N/A,N/A,1122631,Typed,no type status
0025_C0268575F.jpg,H. R. Chung,H. R. Chung,N/A,20,"May 2, 1933",1933-05-02,N/A,Macromitrium gymnostomum Sull.,Macromitrium gymnostomum,Thériot,N/A,N/A,China,Fujian,N/A,N/A,On rock in bamboo forest,On rock in bamboo forest,bamboo forest,N/A,N/A,1137021,Typed,no type status
0026_C0268579F.jpg,Timo Koponen,T. Koponen,N/A,#33590,23 July 1981,1981-07-23,N/A,Macromitrium longicaule C. Müll.,Macromitrium longicaule,D. H. Vitt,1989,N/A,Papua New Guinea,Morobe,N/A,N/A,"Wamoba 5 km S of TepTep airstrip, open montane forest with dominating Pandanus trees 1 km S of Lake","Wamoba 5 kilometers south of Tep Tep airstrip, open montane forest with dominating Pandanus trees 1 kilometer south of Lake",Open montane forest with dominating Pandanus trees,2400 m,"06°01'S, 146°33'E",#1142665,Typed,no type status
0027_C0268581F.jpg,H. H. Carter,H. H. Carter,N/A,B-4,"March, 1925",1925-03-00,N/A,Macrothamnium japonicum (Doz. & Mol.) J.-C. Syn. Tourovum,Macrothamnium japonicum,N/A,N/A,N/A,China,Fukien,N/A,N/A,"On shady rocks or bark, Namptao, Azow","Namptao, Azow",On shady rocks or bark,N/A,N/A,N/A,Handwritten,no type status
0028_C0268585F.jpg,Timo Koponen,T. Koponen,N/A,3571,9 July 1981,1981-07-09,N/A,Macromitrium macrocarpum Broth.,Macromitrium macrocarpum,Dale H. Vitt,1989,N/A,Papua New Guinea,Morobe,N/A,N/A,"Mt. Gwamuwat Southern Range 2.5 km S of L. Gwam, Open alpine grassland and ""subalpine"" forest at L., Kenzamohf E of Mt. Enggum","Mt. Gwamuwat Southern Range 2.5 kilometers south of Lake Gwam, open alpine grassland and ""subalpine"" forest at Lake Kenzamohf east of Mt. Enggum","Open alpine grassland and ""subalpine"" forest",3550 m,"06°21'S, 147°07'E",N/A,Typed,no type status
0029_C0268587F.jpg,T. Mizutani and T. Yoshimura,T. Mizutani,T. Yoshimura,s.n.,"Jan. 23, 1975",1975-01-23,N/A,Macrothamnium amoenum Sull. et Lesq.,Macrothamnium amoenum,Z. Iwatsuki,N/A,N/A,Japan,Ryukyu Islands,N/A,N/A,"Ryukyu: Isl. Iriomote, Sonai, 1-10 m alt., on tree trunk","Iriomote Island, Sonai, 1 to 10 meters altitude, on tree trunk",N/A,1-10 m alt.,N/A,1049018,Typed,no type status
0030_C0268588F.jpg,K. Kurokawa,K. Kurokawa,N/A,s.n.,s.d.,1932-07-00,N/A,Macromitrium incurveum (Lindb.) Paris,Macromitrium incurveum,N/A,1932,N/A,Japan,Honshu,N/A,Musashi,"Hodosu, Musashi",Hodosu,Cryptogamic Herbarium,N/A,N/A,1356480,Typed,no type status
0031_C0268589F.jpg,K. Sato,K. Sato,N/A,639,"April 3, 1930",1930-04-03,N/A,"Macrotritium gymnostomum Sull. & Lesq., Proc. Am. Ac. Arts. Sci. 4:278 (1895)",Macrotritium gymnostomum,A. Noguchi,s.d.,N/A,Japan,Kagoshima,N/A,Sumiyoshi-ura,Iriomote-jima,Iriomote-jima,On rock,elevation about 120 m.,N/A,1051109,Typed,no type status
0032_C0268725F.jpg,BRYOPHYTA AZORICA MOUSSES ET HEPATIQUES RECUEILLES EN 1937 par M. le Dr. V. ALLORGE,V. Allorge,N/A,s.n.,14.VI.1937,1937-06-14,N/A,"Porotrichum uniclorum (Hedw.),B. et talus dacoverte Salto do Cavalo vers 700 m. S.MIGUEL",Porotrichum uniclorum,N/A,N/A,N/A,Portugal,Azores,N/A,N/A,Salto do Cavalo vers 700 m. S.MIGUEL,"Salto do Cavalo, approximately 700 meters",talus dacoverte (precise habitat details are missing or not provided),vers 700 m.,N/A,1181624,Typed,no type status
0033_C0341037F.jpg,Marko Lewis s.n.,M. Lewis,N/A,s.n.,20 Jan 1983,1983-01-20,N/A,Philonotis,Philonotis,N/A,N/A,N/A,Bolivia,La Paz,Larecaja,N/A,"DEPTO. LA PAZ PROV. LARECAJA: Tacacoma 3! Between 5-6 km S of Tacacoma along road to Quiabaya, 68-17 W N. of Sorata.","Between 5-6 kilometers South of Tacacoma along road to Quiabaya, North of Sorata",Super humid Ceja de Monte forests following ravines. In small rill in dripping area of small waterfall.,3550m,N/A,1100485,Typed,no type status
0034_C0341038F.jpg,Marko Lewis,M. Lewis,N/A,79-1314,29 March 1979,1979-03-29,N/A,Philonotis fide Crum,Philonotis,N/A,N/A,N/A,Bolivia,La Paz,Larecaja,N/A,"DEPTO. LA PAZ, PROV. LARECAJA: Along road 1 mi. from Sorata towards Achacachi",Along road 1 mile from Sorata towards Achacachi,Eroding bank,2740 m.,"15° 45' S, 68° 42' W.",N/A,Typed,no type status
0035_C0341040F.jpg,Marko Lewis,M. Lewis,N/A,79-2315,1 June 1979,1979-06-01,N/A,Philonotis,Philonotis,N/A,N/A,N/A,Bolivia,Cochabamba,Chapare,N/A,"Cerro Khasiri, N. of Corani, 3030 m","Slope of Cerro Khasiri, north of Corani","Banks of seepy creek in cloud forest ravine, with tree ferns.",3030 m,"17° 11' S, 65° 54' W",187363,Typed,no type status
0036_C0341047F.jpg,M. A. Rumreich,M. A. Rumreich,N/A,s.n.,Oct 1950,1950-10-00,N/A,N/A,N/A,N/A,N/A,N/A,Bolivia,N/A,N/A,Unduavi,Unduavi,[precise locality unknown],N/A,10000 ft.,N/A,6867,Typed,no type status
0037_C0341048F.jpg,Miss M. A. Béguelin,M. A. Béguelin,N/A,6865,13 Oct. 1950,1950-10-13,N/A,Plantae,Plantae,N/A,N/A,N/A,Bolivia,N/A,N/A,N/A,UNDIAVI 1000 ft.,Undiavi,N/A,1000 ft.,N/A,9288,Typed,no type status
0038_C0341051F.jpg,Marko Lewis,M. Lewis,N/A,79-2315,1 June 1979,1979-06-01,N/A,PHILONOTIS,Philonotis,N/A,N/A,N/A,Bolivia,Cochabamba,Chapare,N/A,"Slope of Cerro Khachi, N. of Corani, 3030 m.","Slope of Cerro Khachi, north of Corani","Dense Andean banks of seepy creek in cloud forest ravine, with tree ferns",3030 m,"17° 11' S, 65° 54' W",N/A,Typed,no type status
0039_C0341117F.jpg,P. E. Hegewald,P. E. Hegewald,N/A,6969,31.8.1973,1973-08-31,N/A,Philonotis spherocarpa (Hedw.) Brid.,Philonotis spherocarpa,Dana Griffin III,N/A,N/A,Peru,Amazonas,N/A,N/A,Las Palmas zw. Balzas u. Leimebamba,Las Palmas between Balzas and Leimebamba,"Fels, Erde, Mauer, Baum, Strauch, Holz, See, Bach",Höhe 3000 m,N/A,N/A,Typed,no type status
0040_C0341152F.jpg,"Frank D. Bowers, Paul Sørensen, Claudio Delgadillo M.",F. D. Bowers,P. Sørensen | C. Delgadillo M.,5166,25 December 1970,1970-12-25,N/A,Brauna secunda (Hook.) B.S.G.,Braunia andrieuxii,E. De Luna,1992,N/A,Mexico,Baja California Sur,N/A,Todos Santos,"On boulders, meson valley, at Sierra de Laguna, 15 miles east of Todos Santos.","On boulders, Meson Valley, at Sierra de Laguna, 15 miles east of Todos Santos",Oak-pine and grass-land with dry arroyo along stream,ca. 6300 ft.,N/A,1045263,Typed,no type status
0041_C0341164F.jpg,"A.J. Sharp, E.B. Bartram, K.E. Thorough",A. J. Sharp,E. B. Bartram | K. E. Thorough,2281,"June 23, 1973",1973-06-23,N/A,Braunia andrieuxii Lor.,Braunia andrieuxii,E. B. Luna,1992,N/A,Mexico,Oaxaca,N/A,N/A,"Near El Punto on Hwy. 175, Oaxaca, México",Near El Punto on Highway 175,"Partial shade, moist, road side",+1625 m,N/A,1045248,Typed,no type status
0042_C0341169F.jpg,"A. J. and E. B. Sharp, E. C. Cloebach, K. R. Hornbrough",A. J. Sharp,E. B. Sharp | E. C. Cloebach | K. R. Hornbrough,2736,"July 11, 1973",1973-07-11,N/A,Braunea secunda (Hook.) B.S.O.,Braunea secunda,A. Sharp,N/A,N/A,Mexico,Jalisco,N/A,San Martín de Hidalgo,"El Mirador on Hwy. 80, 9 mi. S. San Martín de Hidalgo, Jalisco; Mexico.","El Mirador on Highway 80, 9 miles south of San Martín de Hidalgo","Partial shade, moist, vertical surface of boulder.",1750 m,N/A,1045251,Typed,no type status
0043_C0341179F.jpg,C. G. Pringle,C. G. Pringle,N/A,10619,"Sept., 1906",1906-09-00,N/A,Braunia andrieuxii Lorentz,Braunia andrieuxii,E. De Luna,1992,N/A,Mexico,Jalisco,N/A,N/A,"On rocks near Guadalajara, 6,000 ft.",On rocks near Guadalajara,N/A,"6,000 ft.",N/A,1772142,Typed,no type status
0044_C0341180F.jpg,C. G. Pringle,C. G. Pringle,N/A,10627,"17 Sept., 1894",1894-09-17,N/A,"Braunia andrieuxii Lor. | Braunia plicata, Mitt., var. canescens, Card. n. var.",Braunia andrieuxii,F. Dünne | Duke University Herbarium,"June, 1992",N/A,Mexico,Hidalgo,N/A,N/A,Cayagatos.,Cayagatos,N/A,N/A,N/A,1045265,Typed,no type status
0045_C0341205F.jpg,E. Matuda,E. Matuda,N/A,552,"Febr. 27, 1939",1939-02-27,N/A,Braunsia secunda (Hook.) Bruch & Schimp.,Braunsia secunda,E. D. Rudolph,"June, 1972",N/A,Mexico,Veracruz,N/A,Perote,"Edo. Veracruz, Sierra Madre and Oriz., 1/2m Perote a Jalapa, Kiefern-Lichtung","Sierra Madre and Orizaba, half a mile from Perote to Jalapa, pine grove",[precise locality unknown],2300m,N/A,1031423,Typed,no type status
0046_C0341207F.jpg,"Frank D. Bowers, Claudio Delgadillo M., Paul Sotero",F. D. Bowers,C. Delgadillo M. | P. Sotero,5067,30 December 1979,1979-12-30,N/A,Braunia secunda (Hook.) Bruch & Schimp.,Braunia secunda,E. De Luna,"June, 1992",N/A,Mexico,Durango,N/A,N/A,"Ca 28 km E of El Salto, on Hwy 40, about 9 miles west of La Ciudad","Approximately 28 kilometers east of El Salto, on Highway 40, about 9 miles west of La Ciudad","On boulder, partial shade, moist, elfin cloud forest",2350 m,N/A,s.n.,Typed,no type status
0047_C0341213F.jpg,A. J. Sharp,A. J. Sharp,N/A,1164,"July 23, 1941",1941-07-23,N/A,Braunia secunda (Hook.) Bruch & Schimp.,Braunia secunda,E. G. Britton,N/A,N/A,Mexico,Distrito Federal,N/A,N/A,"Siliceous boulder in Rio above Contreras, D.F., Mexico",Siliceous boulder in Rio above Contreras,N/A,N/A,N/A,1045239,Typed,no type status
0048_C0341223F.jpg,"A.J. Sharp, E.D. Boowers, D.K. Smith, R.A. Pursell, Paul Boowers, J.R.",A. J. Sharp,E. D. Bowers | D. K. Smith | R. A. Pursell | Paul Bowers | J. R.,2717,"Dec. 19, 1972",1972-12-19,N/A,Braunia squarrosa (Hamp.) C. Muell.,Braunia squarrosa,F. Bowers,N/A,N/A,Mexico,Puebla,N/A,Yerba Buena,"partial shade, moist, trail side bank Yerba Buena, Pueblo, Mexico (about 55 mi. northeast of Tuxtla-Gutierrez), Chiapas, 6800 ft.",trail side bank Yerba Buena,"partial shade, moist",6800 ft.,N/A,1045274,Typed,no type status
0049_C0341228F.jpg,F.J. Hermann,F.J. Hermann,N/A,26429,"Feb. 9, 1975",1975-02-09,N/A,Braunia squarrosa (Hampe) Broth.,Braunia squarrosa,Efrain De Luna,1992,N/A,Mexico,Chiapas,N/A,San Cristóbal de las Casas,"On oak trunk in oak-pine woods, alt. 6800 ft., 15 mi. S.E. of San Cristóbal de las Casas, Chiapas, Mexico.","On oak trunk in oak-pine woods, 15 miles southeast of San Cristobal de las Casas",On oak trunk in oak-pine woods,alt. 6800 ft.,N/A,N/A,Typed,no type status
0050_C0341231F.jpg,"A.J. Sharp, R.D. Poulsen, R.A. Hatheway, D.K. Smith",A. J. Sharp,R. D. Poulsen | R. A. Hatheway | D. K. Smith,2980,"Dec. 23, 1972",1972-12-23,N/A,Braunia squarrosa (Hampe) C. Mull.,Braunia squarrosa,A. J. Sharp,1982,N/A,Mexico,Oaxaca,N/A,Santo Domingo Ixcatlán,"Roadside near San Pablo Ayutla, east of Oaxaca, Oaxaca",Roadside near San Pablo Ayutla,"Dry, full shade, oak branch, oak-pine woods",about 7000 to about 8000 ft,N/A,1045269,Typed,no type status
0051_C0341234F.jpg,Howard A. Crum,H. A. Crum,N/A,917,23|24 July 1949,1949-07-23,1949-07-24,Braunia squarrosa (Hamp.) C. Muell.,Braunia squarrosa,E. De Luna,1992,N/A,Mexico,Jalisco,N/A,Manantlán,"Slopes of La Ferreria, above Manantlán","Slopes of La Ferreria, above Manantlán",Oak forest,7300 feet,N/A,N/A,Typed,no type status
0052_C0341237F.jpg,C. G. Pringle,C. G. Pringle,N/A,10550,"11 July, 1905",1905-07-11,N/A,Braunia squarrosa (Hpe.) Broth. Det. Cand.,Braunia squarrosa,Efraín De Luna,1992,N/A,Mexico,Federal District,N/A,N/A,"Federal District - Base of tree, Cima, 10,000 ft.","Federal District, base of tree, Cima",Base of tree,"10,000 ft.",N/A,I 172249,Typed,no type status
0053_C0341238F.jpg,E.G. Heggens and R.Hahm,E. G. Heggens,R. Hahm,s.n.,15.I.29,1929-01-15,N/A,Braunia squarrosula (Hamp.) C. Muell.,Braunia squarrosula,Erwin De Luna,1992,N/A,Mexico,Chiapas,N/A,N/A,Km 100 an der Str. Tuxtla-Gutierrez - San Cristobal Ecke Kieferwald 2500 msh.,"Km 100 on the road from Tuxtla-Gutierrez to San Cristobal, near a pine forest",N/A,2500 msh.,N/A,1031467,Typed,no type status
0054_C0341239F.jpg,EGGERS & Fr. A. H. FRAHM,EGGERS,Fr. A. H. Frahm,s.n.,10.3.79(29),1979-03-10,N/A,Braunia squarrosum (Hampe) Broth.,Braunia squarrosula,Efrain De Luna,1992,N/A,Mexico,Chiapas,N/A,San Cristobal,KM 100 ANDER STR. C. SAN CRISTOBAL,KM 100 along the road to San Cristobal,[precise locality unknown],2250 m,N/A,1031495,Typed,no type status
0055_C0341242F.jpg,F. J. Hermann,F. J. Hermann,N/A,26429,"February 9, 1975",1975-02-09,N/A,Braunia squarrosa (Hampe) C. Muell.,Braunia squarrosa,Efrain De Luna,1992,N/A,Mexico,Chiapas,N/A,N/A,"On oak trunk in oak-pine woods along Route 190, alt. ~6800 ft., 15 miles SE. SAN CRISTOBAL DE LAS CASAS","On oak trunk in oak-pine woods along Route 190, approximately 6800 feet, 15 miles southeast of San Cristobal de las Casas",On oak trunk in oak-pine woods,alt. ~6800 ft.,N/A,1045277,Typed,no type status
0056_C0341246F.jpg,Dana Griffin III y Maria Isabel Morales,D. Griffin III,M. I. Morales,s.n.,28 diciembre 1979,1979-12-28,N/A,Braunia squarrulosa (Hampe) C. Muell.,Braunia squarrulosa,N/A,1992,N/A,Costa Rica,San Jose,N/A,N/A,"Valle de Copey, ca. 30 kms al sur de Cartago. Alt. 2000 m. faldamento bajo muy humedo y porroso","Valle de Copey, approximately 30 kilometers south of Cartago","En roca seca, a pleno sol",Alt. 2000 m.,N/A,1029423,Typed,no type status
0057_C0341248F.jpg,S. Churchill,S. Churchill,N/A,20792,4 Ago 2001,2001-08-04,N/A,Braunia excelsa C. Müller,Braunia excelsa,S. Churchill,2001,N/A,Bolivia,Tarija,Burnet O'Connor,Serranía Huacaya,"Serranía Huacaya. Ca. 35 km oeste de Entre Ríos (carretera Tarija). Bosque montano Tucumano-Boliviano, remanente.","Serranía Huacaya, approximately 35 kilometers west of Entre Ríos on the road to Tarija, remnant Tucumano-Bolivian mountain forest","Bosque montano Tucumano-Boliviano, remanente. Musgo sobre ramas.",2300 m,21°25'S 64°19'W,1183435,Typed,no type status
0058_C0341251F.jpg,B. Sparre,B. Sparre,N/A,s.n.,27 November 1966,1966-11-27,N/A,Braunia chiliorrhila (Mitt.) Jaeg.,Braunia chiliorrhila,W. R. Buck,N/A,N/A,Argentina,Tucuman,N/A,Chicligasta,"Rio Cochuna, 1000 m a.s.l.",Rio Cochuna,"Subtropical rainforest, epiphyte",1000 m a.s.l.,N/A,B11750,Typed,no type status
0059_C0341253F.jpg,Marko Lewis,M. Lewis,N/A,no. 79-1625,6 April 1979,1979-04-06,N/A,Braunia cirrhifolia (Mitt.) Wils. ex Jaeg.,Braunia cirrhifolia,E. De Luna,1992,N/A,Bolivia,La Paz,Larecaja,N/A,"Canyon 1 km. E. of Cachipata, SE of Sorata","Canyon 1 kilometer east of Cachipata, southeast of Sorata",In ravine with waterfall,3250 m.,"15° 48' S, 68° 36' W",1032380,Typed,no type status
0060_C0341254F.jpg,Marko Lewis 82-303,M. Lewis,N/A,82-303,9 Dec 1982,1982-12-09,N/A,Braunia plicata (Mitt.) Jaeg.,Braunia plicata,D. Griffin III,1990,N/A,Bolivia,La Paz,N/A,N/A,"PROV. LARECAJA: 'Río Chalasuyo'. Along the Río Challusuyu, a branch of the Río San Cristóbal, 8-3 KM NW of Sorata. 15°40'S, 68°41'W ca. 2450 m.","Along the Río Challusuyu, a branch of the Río San Cristóbal, 8-3 km northwest of Sorata","At base of cliffs near river amongst a boulder pile in a deep canyon. Small trees, tree cacti and shrubs in shady, protected area.",ca. 2450 m,"15°40'S, 68°41'W",1091412,Typed,no type status
0061_C0341255F.jpg,Marko Lewis,M. Lewis,N/A,79-1230,22 March 1979,1979-03-22,N/A,Braunia pilcata (Mitt.) Jaeg.,Braunia pilcata,E. Lina Luna,1992,N/A,Bolivia,La Paz,N/A,Sorata,"DEPTO. LA PAZ, PROV. LARECAJA: Near large red outcrop 2 mi. From Sorata down Rio Consata ",Near large red outcrop 2 miles from Sorata down Rio Consata,Abundant on exposed rock face,ca. 2600 m,"15° 41' S, 68° 43' W ",1032384,Typed,no type status
0062_C0341257F.jpg,"Marko Lewis, no. 79-947",M. Lewis,N/A,79-947,5 March 1979,1979-03-05,N/A,Braunia pilicata (Mitt.) Jaeg.,Braunia pilicata,E. De Luna,1982,N/A,Bolivia,La Paz,Saavedra,N/A,"Banks of trail, 3200-3240 m. DEPTO. LA PAZ, PROV. SAAVEDRA. Trail between Charasani and Mito Kanire, NNW of Chuma, 15° 11' S., 69° 04' W.",Banks of trail,N/A,3200-3240 m.,"15° 11' S., 69° 04' W.",1032341,Typed,no type status
0063_C0341258F.jpg,Marko Lewis,M. Lewis,N/A,79-940,5 March 1979,1979-03-05,N/A,Braunia pilcata (Mitt.) Jaeg.,Braunia pilcata,E. Lina,1992,N/A,Bolivia,La Paz,Saavedra,s.n.,"Trail between Charasani and Nino Karine, NW of Chuma","Trail between Charasani and Nino Karine, northwest of Chuma",Banks of trail,3200 m.,"15°11' S., 69°04' W.",N/A,Typed,no type status
0064_C0341263F.jpg,Marko Lewis,M. Lewis,N/A,79-935,5 March 1979,1979-03-05,N/A,Hedwigium integrifolium (P. Beauv.) Dix.,Hedwigium integrifolium,Efrain De Luna,Nov. 1991,N/A,Bolivia,La Paz,N/A,N/A,"DEPTO. LA PAZ, PROV. SAAVEDRA: Trail between Charasani and Nito Karine, NNW of Chuma","trail between Charasani and Nito Karine, NNW of Chuma",Along bank of trail,3200 m.,"15° 11' S, 69° 04' W",0.1032366,Typed,no type status
0065_C0341264F.jpg,Marko Lewis,M. Lewis,N/A,79-G15,10 February 1979,1979-02-10,N/A,Bryophyta of Bolivia Hedwigia ciliata (P. Beauv.) Dix. Bryum rupestre (Mitt.),Bryum rupestre,E. De Luna,Nov. 1991,N/A,Bolivia,Tarija,N/A,N/A,"Depto. TARIJA, prov. Mendez 5 mi NE of Iscayachi, E. slope of mountains (hike from summit of road into canyon N. of Tarija-Iscayachi Hwy.)","5 miles northeast of Iscayachi, east slope of mountains, hike from summit of road into canyon north of Tarija-Iscayachi Highway",Dirt bank in Kheñuva forest,3350 m.,"21° 27' S, 64° 54' W",1032358,Typed,no type status
0066_C0341265F.jpg,"M. Dillon, O. Molau, & P. Matekaitis",M. Dillon,O. Molau | P. Matekaitis,31280,28 Jan. 1983,1983-01-28,N/A,Braunia secunda (Hook.) B.S.G. Moss,Braunia secunda,D. Griffin III,28 Jan. 1983,N/A,Peru,Ancash,N/A,Yungay,"Ca. 25 KM NE of Yungay, slopes below Laguna de Llanganuco.","approximately 25 kilometers northeast of Yungay, slopes below Laguna de Llanganuco",Growing on branches.,3380 m.,N/A,N/A,Typed,no type status
0067_C0341266F.jpg,J.A. Steyermark | B. Maguire | J. A. Steyermark,J. A. Steyermark,B. Maguire | J. A. Steyermark,PV-11143,31.X.1961,1961-10-31,N/A,Braunia secunda (Hook.) BSG,Braunia secunda,D. Lina,Jun 1992,Espeletia schultzii,Venezuela,Mérida,Libertador,N/A,"E.P. Mérida: Quebrada Grande, al sur de Mucuchíes, entre la posada La Virgen y Las González, camino real de pueblo de Candelaria. Pramo con Espeletia schultzii.","Quebrada Grande, south of Mucuchíes, between the inn La Virgen and Las González, via the royal road to the village of Candelaria",páramo,"alt. 3,100-3220 m ",N/A,N/A,Typed,no type status
0068_C0341268F.jpg,Marko Lewis,M. Lewis,N/A,7949-A98A,2 February 1979,1979-02-02,N/A,Braunia subincana Broth. | Braunia laxifolia Herz.,Braunia laxifolia,Det. Daniel Lun. 1992,1992,N/A,Bolivia,Tarija,O'Connor,N/A,"DEPTO. TARIJA, PROV. O'CONNOR: Cuesta, at summit of mountain above and W of Entre Ríos, along road to Tarija, 21° 28' S, 64° 12' W","Cuesta, at summit of mountain above and west of Entre Ríos, along road to Tarija",On rocks in dry deciduous forest,1750 m.,"21° 28' S, 64° 12' W",1032377,Typed,no type status
0069_C0341270F.jpg,F. J. Hermann,F. J. Hermann,N/A,25278,"December 24, 1972",1972-12-24,N/A,Braunia subunicana Broth.,Braunia subunicana,E. De Luna,1992,N/A,Bolivia,Cochabamba,N/A,Cochabamba,Prov. Chaparé,From the Province of Chaparé,Purchased in market,alt. ca. 9500 ft.,N/A,1045267,Typed,no type status
0070_C0341698F.jpg,S.R.Gradstein & M.Lewis,S. R. Gradstein,M. Lewis,7560,12 November 1989,1989-11-12,N/A,Racopilum intermedium Hampe det. B.O. van Zanten,Racopilum intermedium,B. O. van Zanten,N/A,N/A,Bolivia,Cochabamba,Chapare,Incachaca,"Prov. Chapare, Incachaca, 5 km S of road Cochabamba - Villa Tunari km 95, alt. 2300 m.",5 kilometers South of road Cochabamba - Villa Tunari at kilometer 95,On cliff under scrub in area of wet meadows and secondary woodlands,alt. 2300 m.,N/A,1091583,Typed,no type status
0071_C0341739F.jpg,Marko Lewis,M. Lewis,N/A,83-503,7 Feb 1983,1983-02-07,N/A,Racomitrium tomentosum (Hedw.) Brid.,Racomitrium tomentosum,N/A,N/A,N/A,Bolivia,La Paz,Nor Yungas,N/A,Coroico' 1 km S of Coroico along road between Coroico and Yolosa.,1 kilometer south of Coroico along road between Coroico and Yolosa,Fruit and coffee plantations. On rocks in shady fruit orchard.,ca. 1650 m.,"16°11'S, 67°43'W",1100456,Typed,no type status
0072_C0341763F.jpg,Ynes Mexia,Y. Mexia,N/A,5804,"Nov. 11, 1930",1930-11-11,N/A,Khaoptoeris tarmowskae (Hew.) C. Chr. det. Bartram,Khaoptoeris tarmowskae,E. Bartram,unsure and check,N/A,Brazil,Minas Gerais,N/A,N/A,Vicos; Fazenda de F. Lopez. Cut over woods. On rotting log.,Vicos; Fazenda de F. Lopez; cut over woods,Cut over woods. On rotting log.,Alt. 720 m.,N/A,N/A,Typed,no type status
0073_C0341787F.jpg,S. R. Gradstein,S. R. Gradstein,N/A,s.n.,24.IV.1976,1976-04-24,N/A,Rhaopilum tomentosum (Hedw.) Brid.,Rhaopilum tomentosum,W. A. Weber,24.IV.1976,N/A,Ecuador,Galapagos,N/A,N/A,"GALAPAGOS ISLANDS. Isla Floreana. Psidium guajava woodlands and pampa east of Cruz Farm, on rather dry shaded rocks.",GALAPAGOS ISLANDS. Isla Floreana. Psidium guajava woodlands and pampa east of Cruz Farm,Psidium guajava woodlands and pampa,250-350 m,N/A,1023912,Typed,no type status
0074_C0341789F.jpg,P. H. Hegewald,P. H. Hegewald,N/A,6726,31.8. 1973,1973-08-31,N/A,Racopilum tomentosum (Hedw.) Brid.,Racopilum tomentosum,E. Hegewald,N/A,N/A,Peru,Amazonas,Chachapoyas,N/A,Ort. Saulsamr zw. Balsas u. Leimebamba.,[precise locality unknown],"Fels, Erde, Mauer, Baum, Stumpf, Holz, See, Bach.",N/A,N/A,N/A,Typed,no type status
0075_C0341798F.jpg,J. & P.A. Florschütz,J. Florschütz,P. A. Florschütz,4715,18.XI.1975,1975-11-18,N/A,Racopilum tomentosum (Hedw.) Brid.,Racopilum tomentosum,P. A. Florschütz | J. Florschütz-de Waard,d.d. 18.XI.1975,N/A,Suriname,N/A,N/A,Brownsberg,"Brownsberg, trail to Leo fall","Brownsberg, trail to Leo fall",On decaying log,N/A,N/A,N/A,Typed,no type status
0076_C0341803F.jpg,"E. Linares, S. R. Gradstein and B. O. van Zanten",E. Linares,S. R. Gradstein | B. O. van Zanten,s.n.,26 Sept. 1984,1984-09-26,N/A,Racopilum tomentosum (Hedw.) Brid.,Racopilum tomentosum,N/A,N/A,N/A,Colombia,Meta,N/A,Villavicencio,forest of the Bavaria brewery near Rio Guaçiçiquia,forest of the Bavaria brewery near Rio Guaciquia,In forest,alt. 600 m.,N/A,1065598,Typed,no type status
0077_C0341804F.jpg,Marko Lewis,M. Lewis,N/A,83-511,7 Feb 1983,1983-02-07,N/A,Racopilum tomentosum (Hedw.) Brid.,Racopilum tomentosum,N/A,N/A,N/A,Bolivia,La Paz,Nor Yungas,Coroico,1 km S of Coroico along road between Coroico and Yolosa,1 kilometer south of Coroico along road between Coroico and Yolosa,Fruit and coffee plantations. Bark of fruit trees in orchard,ca. 1650 m.,6743'W,1100344,Typed,no type status
0078_C0341805F.jpg,Ynes Mexia,Y. Mexia,N/A,8190,"Sept. 15,1936",1936-09-15,N/A,Rhacopilum tomentosum (Sw.) Brid. det. Bartram,Rhacopilum tomentosum,N/A,N/A,N/A,Peru,Huanuco,N/A,Churubamba,Distrito Churubamba; Hacienda Mercedes; Poca Perga; old tree trunk in dense shade,Hacienda Mercedes; Poca Perga; on an old tree trunk in dense shade,Old tree trunk in dense shade,Alt. 1950 m,N/A,C0314805F,Typed,no type status
0079_C0341806F.jpg,Ynes Mexia,Y. Mexia,N/A,6165a,"Sept. 9,1936",1936-09-09,N/A,Rhaecophyllum tomentosum (Sw.) Britt.,Rhaecophyllum tomentosum,N/A,N/A,N/A,Peru,Huanuco,N/A,N/A,Dept Huanuco: Chinchao; on rocks; Bank of Rio Yumabamba; Hacienda Exito,"Bank of Rio Yumabamba, Hacienda Exito, Chinchao",On rock in wood,Alt. 1100 m.,N/A,1063809,Typed,no type status
0080_C0341807F.jpg,Ynes Mexia,Y. Mexia,N/A,8168b,"Sept. 9,1936",1936-09-09,N/A,Rhamnophylum tomentosum (L.) Epl.,Rhamnophylum tomentosum,N/A,N/A,N/A,Peru,Huanuco,N/A,N/A,"Departamento and Provincia Huanuco, Districto Churubamba; Hacienda Exito; the ford Ruena Yebeni; on rock in woods.","Departamento and Provincia Huanuco, Districto Churubamba, Hacienda Exito, the ford Ruena Yebeni, on rock in woods",on rock in woods,Alt. 1100 m.,N/A,1036248,Typed,no type status
0081_C0341828F.jpg,E. A. C. Alston,E. A. C. Alston,N/A,16553,"May 19, 1952",1952-05-19,N/A,"Leucoloma lindigii Spruce ex Mitt., L. columbicum Spruce ex Mitt., L. ligulare Mitt.",Leucoloma ligulare,E. H. A. Crum,1956,N/A,Colombia,Amazonas,N/A,N/A,Rio Miritiparana; Caño Guacaya,Caño Guacaya,On wet fallen logs,About 700 feet.,"Lat. 0°54´S, Long. 70°40´W",1055465,Typed,no type status
0082_C0341834F.jpg,"Dana Griffin III, Orlando Rangel y Guido van Reenen",D. G. Griffin III,O. Rangel | G. van Reenen,50.186,Julio-Agosto 1977,1977-07-00,1977-08-00,Leucoloma limicola Spr. ex Mitt.,Leucoloma limicola,D. G. Griffin III,N/A,N/A,Colombia,Magdalena,N/A,N/A,DEPARTAMENTO DE MAGDALENA: Parque Nacional de la Sierra Nevada de Santa Marta. Vertiente oriental del Alto Rara. Bosque nublado montano bajo.,"Parque Nacional de la Sierra Nevada de Santa Marta, Vertiente oriental del Alto Rara, [precise locality unknown]",Bosque nublado montano bajo,alt. 1600-1700 m.,N/A,1029476,Typed,no type status
0083_C0341890F.jpg,S.P. Churchill et al.,S.P. Churchill,N/A,15466,6 July 1987,1987-07-06,N/A,Trachyphyllum tenue (Mitt.) Buck ( = Hookeriopsis tenue Mitt.) det. S.P. Churchill,Trachyphyllum tenue,S.P. Churchill,N/A,N/A,Colombia,Antioquia,N/A,La Union,"Mun. de La Union, Cerro San Miguel S of San Miguel",Cerro San Miguel south of San Miguel,In secondary montane forest,alt. 2460-2620 m.,"5°55'N, 75°17'W",1139980,Typed,no type status
0084_C0341932F.jpg,"Dana Griffin III, María Isabel Morales y Dora Emilia de Retana",D. Griffin III,M. I. Morales | D. E. de Retana,215,s.d.,s.d.,N/A,Hypnella pilifera (Hook. et Wils.) Jaeg.,Hypnella pilifera,N/A,N/A,N/A,Costa Rica,Cartago,N/A,N/A,"Reserva Forestal Tapantí, vertiente oriental del Hito Macho. Bosque muy húmedo montano bajo","Reserva Forestal Tapantí, vertiente oriental del Hito Macho, Bosque muy húmedo montano bajo",Bosque muy húmedo montano bajo,"1,600 m.",N/A,s.n.,Typed,no type status
0085_C0342106F.jpg,John J. Wurdack,J. J. Wurdack,N/A,3656,"February 11, 1953",1953-02-11,N/A,Hypnella cymbifolia (Hpe.) Jaeg.,Hypnella cymbifolia,E. B. Bartram,N/A,N/A,Venezuela,Bolívar,N/A,N/A,"Frequent on fallen logs in forest between Camps 3 and 2, elev. 1250 - 1200 m.",between Camps 3 and 2,forest,1250 - 1200 m,N/A,1026297,Typed,no type status
0086_C0342107F.jpg,William R. Buck,W. R. Buck,N/A,2445,9-12 July 1979,1979-07-09,1979-07-12,Hookeriopsis parkeriana (Hook. & Grev.) Jaeg.,Hookeriopsis parkeriana,N/A,N/A,N/A,Brazil,Amazonas,N/A,N/A,"Slopes and summit of Serra Curicuriari, from Igarape Arabu of the Rio Curi-curiari to the summit, ca. 450 m at summit; 0°20'S, 66°50'W. On branches at the summit.","Slopes and summit of Serra Curicuriari, from Igarape Arabu of the Rio Curi-curiari to the summit",On branches at the summit,ca. 450 m at summit,"0°20'S, 66°50'W",N/A,Typed,no type status
0087_C0342117F.jpg,Robin B. Foster,R. B. Foster,N/A,4722,30 July 1981,1981-07-30,N/A,HYPNELLA PILIFERA (Hook. & Wils.) Jaeg.,Hypnella pilifera,W. C. Steere,N/A,N/A,Peru,Pasco,N/A,N/A,"E slope of Cordillera Yanachaga, on Tunoque-Chuchurras trail","East slope of Cordillera Yanachaga, on Tunoque-Chuchurras trail",In Weinmannia forest,1900 m,"10°30'S, 75°30'W",1059405,Typed,no type status
0088_C0342123F.jpg,J.M. Fitzpatrick & D.E. Millard,J. M. Fitzpatrick,D. E. Millard,s.n.,4 Dec. 1981,1981-12-04,N/A,HYPNELLA PILIFERA (Hook. & Wils.) Jaeg.,Hypnella pilifera,N/A,N/A,N/A,Peru,Cuzco,N/A,N/A,"DEPTO. CUZCO: Slopes above Pillahuata, near km. 826 on Cusipata Hwy., ""13°11'S, 71°22' W. Extreme mossy elfin cloud forest near shallow ravine.""","Slopes above Pillahuata, near kilometer 826 on Cusipata Highway ",Extreme mossy elfin cloud forest near shallow ravine,2850 m.,"""13°11'S, 71°22' W.",N°: 1059455,Typed,no type status
0089_C0342153F.jpg,S.P. Churchill et al.,S. P. Churchill,N/A,18335,11 July 1992,1992-07-11,N/A,Hypnella diversifolia (Mitt.) Jaeg.,Hypnella diversifolia,S. P. Churchill,s.d.,N/A,Colombia,Antioquia,N/A,N/A,"Mun. de Valdivia, road to Pueblo Nuevo, Ventanas","road to Pueblo Nuevo, Ventanas","On talud, in secondary montane forest",alt. 1950 m.,"7°5' N, 75°25' W",1139992,Typed,no type status
0090_C0342159F.jpg,John J. Wurdack,J. J. Wurdack,N/A,30506,"January 7, 1963",1963-01-07,N/A,Hypnella cymbifolia (Hpe.) Jaeg. Det: E. B. Bartram,Hypnella cymbifolia,E. B. Bartram,N/A,N/A,Venezuela,Bolivar,N/A,N/A,Occasional in rain-forest between Camps 2 and 3,between Camps 2 and 3,rain-forest,1200-1250 m.,N/A,1026299,Typed,no type status
0091_C0342164F.jpg,Robin B. Foster,R. B. Foster,N/A,4720,30 July 1981,1981-07-30,N/A,Hypnella pallescens (Hook.) Jaeg.,Hypnella pallescens,N/A,N/A,N/A,Peru,Pasco,N/A,N/A,"DEPTO. PASCO: E slope of Cordillera Yanachaga, on Tungue-Chucurras trail, 1900 m","East slope of Cordillera Yanachaga, on Tungue-Chucurras trail",In Weinmannia forest.,1900 m,"10°30'S, 75°30'W",1059403,Typed,no type status
0092_C0342165F.jpg,John J. Wurdack,J. J. Wurdack,N/A,365,"February 11, 1953",1953-02-11,N/A,Hypnella cymbifolia (Hpe.) Jaeg.,Hypnella cymbifolia,E. B. Bartram,N/A,N/A,Venezuela,Bolivar,N/A,N/A,"Slope forest Tramen-tepui, between Camps 3 and 2, elev. 1250 - 1200 m.","Slope forest Tramen-tepui, between Camps 3 and 2",Forest,1250 - 1200 m,N/A,1026300,Typed,no type status
0093_C0342515F.jpg,"T. Husnot, Cahan, par Abbé (Orne)",T. Husnot,,s.n.,s.d.,s.d.,N/A,Weissia compacta Brid. Recolte par Schleicher ex herb. de T. Husnot. Musci Galliae.,Weissia compacta,N/A,N/A,N/A,France,Orne,N/A,Cahan,"Cahan, par Abbé (Orne)",Cahan,[precise locality unknown],N/A,N/A,1084497,Typed,no type status
0094_C0398471F.jpg,H. Inoue,H. Inoue,N/A,s.n.,"Jan. 11, 1973",1973-01-11,N/A,Macrotritium japonicum Doz. et Molk.,Macrotritium japonicum,Z. Iwatsuki,1973,Pinus thunbergii,Japan,Ryukyu Islands,N/A,Ishigaki,"Around Shirahama, Iriomote Isl.",Around Shirahama,On bark of Pinus thunbergii,about 10 m.,N/A,1021837,Typed,no type status
0095_C0399126F.jpg,R. Reitz,R. Reitz,N/A,n. 2464,Data 17.12.1948,1948-12-17,N/A,Campylopus atrocarpus (Hornsch.) Mitt.,Campylopus atrocarpus,N/A,N/A,N/A,Brazil,Santa Catarina,N/A,N/A,"Campo dos Padres, Bom Retiro ","Campo dos Padres, Bom Retiro","""Turfos""",Altite. 2000 msnm,N/A,N/A,Typed,no type status
0096_C0399179F.jpg,Frahm,Frahm,N/A,s.n.,22.7.1977,1977-07-22,N/A,Campylopus arctocarpus (Hornsch.),Campylopus arctocarpus,Frahm,N/A,N/A,Brazil,Sao Paulo,N/A,Sao Jose dos Barreiros,"Sao Paulo, Serra do Bocaina, Laeseite, an der Straße Campos da Cunha - Sao José dos Barreiros","Serra do Bocaina, roadside between Campos da Cunha and Sao Jose dos Barreiros",epiphytisch in Podocarpus-Wald,1200 msn,N/A,1026026,Typed,no type status
0097_C0399191F.jpg,N/A,N/A,N/A,N/A,s.d.,1956-04-00,N/A,Campylopus savannarum (Hornsch.) Mitt,Campylopus savannarum,N/A,N/A,N/A,Brazil,Santa Catarina,N/A,N/A,"""Morro do Bau, Itajai""","Morro do Bau, Itajai",restinga,Alt. 600-900 m,N/A,N/A,Typed,no type status
0098_C0679833F.jpg,Schäfer-Verwimp,Schäfer-Verwimp,N/A,s.n.,5.1987 no. 0019,1987-05-00,N/A,Campylopus griseus (HORNCH.) JABG.,Campylopus griseus,Schäfer-Verwimp,N/A,N/A,Brazil,Sao Paulo,N/A,Pedra Grande de Atibaia,"Pedra Grande de Atibaia, Campo-Vegetation im Gipfelbereich, sickerfeuchter Felskang","Pedra Grande de Atibaia, Campo-Vegetation in summit area, moist dripping rock slope","Campo-Vegetation in summit area, moist dripping rock slope",1400 m.,N/A,1097651,Typed,no type status
0099_C0679841F.jpg,J.-P. Frahm,J.-P. Frahm,N/A,s.n.,6.9.1982,1982-09-06,N/A,Campylopus heterostachys (Hampe) Jaeg.,Campylopus heterostachys,N/A,N/A,N/A,Peru,Amazonas,N/A,N/A,"Straße Cajamarca - Chachapoyas km 417, oberhalb Leimebamba, auf überdeertem Steinböck in Nebelwald",[precise locality unknown],N/A,2600 m,N/A,1053590,Typed,no type status