catalogNumber,verbatimCollectors,collectedBy,secondaryCollectors,recordNumber,verbatimEventDate,minimumEventDate,maximumEventDate,verbatimIdentification,latestScientificName,identifiedBy,verbatimDateIdentified,associatedTaxa,country,firstPoliticalUnit,secondPoliticalUnit,municipality,verbatimLocality,locality,habitat,substrate,verbatimElevation,verbatimCoordinates,otherCatalogNumbers,originalMethod,typeStatus
B 10 0030420,"P.J.M. & H. Maas, L. Kollmann",P.J.M. Maas,"H. Maas, L. Kollmann",8833,2/16/99,1999-02-16,N/A,Pseodoxandra sp. nov.,Pseudoxandra spiritus-sancti Maas,P. J. M. Maas,2001,N/A,Brazil,Espírito Santo,N/A,Santa Teresa,"Municipio de Santa Teresa, Estaçao Biológica de Santa Lúcia",Estaçao Biológica de Santa Lúcia,"High forest, on brown sand; vegetation with many Palmae and terrestrial and epiphytic Bromeliaceae",soil,800 m,19° 58'S 40° 32'W,N/A,Typed,Isotype
B 10 0069251,Kessler,Kessler,N/A,283,21.12.1988,1988-12-21,N/A,Mallotus paniculatus,Mallotus paniculatus,P. J. A. Kessler,N/A,N/A,Malaysia,Sarawak,N/A,N/A,"1st Division, Base of Gunung Pueh","First Division, base of Gunung Pueh",Secondary vegetation along road,N/A,up to 200 m.,N/A,N/A,Typed,no type status
B 10 0375227,"X. Cornejo, C. Bonifaz",X. Cornejo,C. Bonifaz,5822,"Oct. 27, 1997",1997-10-27,N/A,Capparis sclerophylla Iltis nov.sp.,Capparis sclerophylla Iltis nov.sp.,N/A,N/A,N/A,Ecuador,Manabí,N/A,Bahía de Caráquez,Bahía de Caráquez a 8 Km.Alrededores de Universidad Católica,8 kilometros alrededores de Universidad Católica,"Bosque seco tropical deciduo, fuertemente intervenido",N/A,30 m,"latitud -00, longitud 45 -80.32",N/A,Typed,Isotype
BM000934757,Wilhelm Suksdorf,Wilhelm Suksdorf,N/A,12045,3. Aug. 1926,1926-08-03,N/A,Solanum triflorum Nutt.,Solanum triflorum Nutt.,T. Särkinen,2014,N/A,United States,Washington,Klickitat,Bingen,Bingen,[precise locality unknown],High sandy river bank,soil,N/A,N/A,N/A,Typed,no type status
C0000578F,"John J. Engel, Matt von Konrat & John E. Braggins",John J. Engel,Matt von Konrat & John E. Braggins,23773,12 February 2003,2003-02-12,N/A,Telarena lindenbergii var. papillata Engel & Merr.,Telarena lindenbergii var. papillata Engel & Merr.,N/A,N/A,N/A,New Zealand,Auckland,N/A,N/A,"North Island. Auckland Prov.: Whareorino Forest, start of track to Leitch's Hut","North Island, Whareorino Forest, start of track to Leitch's Hut","Clay banks with Blechnum novae-zealandiae overhang, Weinmannia and Dicksonia squarrosa dominant canopy and occasional Leptospermum scoparium.",soil,280 m,"38° 24.5' S., 174° 49.8' E",1173554,Typed,Holotype
C0004430F,Singer,Singer,N/A,M10517,23 II 1988,1988-02-23,N/A,Hygrocybe fuegiana Sing . ( = H. rosea sensu Horak),Hygrocybe fuegiana Sing . ( = H. rosea sensu Horak),N/A,N/A,N/A,Argentina,Tierra del Fuego,Ushuaia,N/A,"road Ushuaya-Lago Fagnano, SW of highest point","Road Ushuaia-Lago Fagnano, southwest of highest point",Gregarious in bog margin with Sphagnum spec. and Rubus geoides,N/A,N/A,N/A,1075922,Typed,Holotype
C0020034F,R. M. Schuster,R. M. Schuster,N/A,68-1644,Aug. 17 1968,1968-08-17,N/A,Anastrophyllum minutum,Anastrophyllum minutum,R. M. Schuster,Aug. 17 1968,Diplophyllum taxifolium + gemmae 68-1644a,Canada,Newfoundland and Labrador,N/A,N/A,"Newfoundland: Along Humber R., in Squires Memorial Park, near Rte 1A","Newfoundland, Squires Memorial Park, along Humber River, near route 1A",N/A,N/A,N/A,N/A,N/A,Typed,no type status
C0020052F,R. M. Schuster & K. Damsholt,R. M. Schuster,K. Damsholt,82-1049,July 3. 1982,1982-07-03,N/A,Anastrophyllum minutum (Schreb.) Schust. v.grandis (Gott.)Schust.,Anastrophyllum minutum (Schreb.) Schust. v.grandis (Gott.)Schust.,R. M. Schuster & K. Damsholt,N/A,Cephalozia bicuspidata (L.) Dum.,Greenland,N/A,N/A,N/A,Frederiksdal,Frederiksdal,N/A,N/A,N/A,"60°00'N lat., 44°40'W long.",N/A,Typed,no type status
C0025138F,R. M. Schuster,R. M. Schuster,N/A,19067,June 30 1951,1951-06-30,N/A,Frullania asagrayana Mont.,Frullania asagrayana Mont.,N/A,N/A,Plagiochila tridenticulata Dum.,U.S.A.,North Carolina,N/A,N/A,"Balsam Gap, N.C., ca. 25 mi. n. of Asheville, along Blue Ridge Parkway","Balsam Gap, approximately 25 miles north of Asheville, along Blue Ridge Parkway",N/A,bark,5220-5260 feet,N/A,N/A,Typed,no type status
C0025164F,R. M. Schuster,R. M. Schuster,N/A,79-488,April 14 1979,1979-04-14,N/A,Frullania asagrayana,Frullania asagrayana,R. M. Schuster,N/A,N/A,U.S.A.,Arkansas,Stone,N/A,"Arkansas: Stone Co.: Ozark Natl. Forest. Bark-shed Camp, ca. 10 mi E. of Big Flat","Ozark National Forest, Barkshed Camp, approximately 10 miles east of Big Flat",N/A,N/A,N/A,N/A,N/A,Typed,no type status
C0045536F,Thomas G. Lammers,Thomas G. Lammers,N/A,10674,9 May 1998,1998-05-09,N/A,Dryopteris carthusiana (Vill.) H.P. Fuchs,Dryopteris carthusiana (Vill.) H.P. Fuchs,N/A,N/A,N/A,U.S.A.,Illinois,Cook,N/A,"Palos Twp., Swallow Cliffs Woods Forest Preserve, SW of the jct. of US Hwy 45 and State Hwy 83","Palos Township, Swallow Cliffs Woods Forest Preserve, southwest of the junction of US Highway 45 and State Highway 83",Local in mesic maple-basswood forest on steep slopes of deep ravine south of toboggan run,N/A,N/A,N/A,2228497,Typed,no type status
C0052862F,G. Follmann,G. Follmann,N/A,s.n.,IV/1985,1985-04-00,N/A,Abrothallus parmeliarum (Somm.) Arn. (anam. Vouauxiomyces santessonii Hawksw.),Abrothallus parmeliarum (Somm.) Arn. (anam. Vouauxiomyces santessonii Hawksw.),G. Follmann,N/A,Hypogymnia physodes (L.) Nyl.,Germany,Rhineland-Palatinate,N/A,N/A,Heckengürtel am Südfuß des Schwirzheimer Kopfes zwischen Gerolstein und Prüm in der Hocheifel,Heckengürtel am Südfuß des Schwirzheimer Kopfes zwischen Gerolstein und Prüm in der Hocheifel,N/A,N/A,450 m,N/A,N/A,Typed,no type status
C0052873F,H.T. Lumbsch & E. Mietzsch,H.T. Lumbsch,E. Mietzsch,5135 b,24.5.1987,1987-05-24,N/A,Buellia punctata (Hoffm.) Massal.,Amandinea punctata (Hoffm.) Coppins & Scheid.,R. J. Salm,3 July 2019,N/A,Germany,Rhineland-Palatinate,N/A,Bingen,Ockenheimer Hörnchen,Ockenheimer Hörnchen ,An Populus,tree,N/A,TK 25: 6013 Bingen,N/A,Typed,no type status
C0052970F,Shirley Tucker,Shirley Tucker,N/A,16863,"March 17, 1977",1977-03-17,N/A,Buellia punctata (Hoffm.) Mass.,Amandinea punctata (Hoffm.) Coppins & Scheid.,R. J. Salm,3 July 2019,N/A,U.S.A.,Louisiana,St. Tammany,N/A,"Fontainebleau State Park, north shore of Lake Pontchartrain","Fontainebleau State Park, north shore of Lake Pontchartrain",Common on Taxodium,tree,N/A,"30°20' N,  90°30' W",N/A,Typed,no type status
C0053210F,H.T. Lumbsch & E. Mietzsch,H.T. Lumbsch,E. Mietzsch,5127 a,24.5.1987,1987-05-24,N/A,Aspicilia contorta,"Circinaria contorta (Hoffm.) A. Nordic, Savić & Tibell",R. J. Salm,3 July 2019,N/A,Germany,Rhineland-Palatinate,N/A,Bingen,Weg von Gau-Augesheim zum Ockenheimer Hörnchen  ,Weg von Gau-Augesheim zum Ockenheimer Hörnchen  ,An Mörtel,N/A,N/A,TK 25: 6014 Ingelheim am Rhein,N/A,Typed,no type status
C0053622F,Edward M. Wheeler,Edward M. Wheeler,N/A,s.n.,7 Jan 1989,1989-01-07,N/A,Buellia bahiana Malme,Haffelia bahiana (Malme) Sheard,R. J. Salm,20 August 2019,N/A,U.S.A.,Florida,Polk,N/A,"Tiger Creek Preserve, just to right of Wakeford Road Entrance","Tiger Creek Preserve, just to right of Wakeford Road Entrance",On Ilex glabra,tree,N/A,N/A,N/A,Typed,no type status
C0055249F,H. Mietzsch,H. Mietzsch,N/A,6246 c,27.8.1988,1988-08-27,N/A,Baeomyces fungoides Sw.,Baeomyces fungoides Sw.,N/A,N/A,N/A,Switzerland,Graubünden,N/A,N/A,"Unterengadin, Marangun, Sursass","Unterengadin, Marangun, Sursass",Auf Erde,soil,2150-2300 m,TK 25: 1218 Zernez,N/A,Typed,no type status
C0089982F,H. Mietzsch,H. Mietzsch,N/A,6983,26.8.1989,1989-08-26,N/A,Xanthoparmelia somloensis (Gyelnik) Hale,Xanthoparmelia somloensis (Gyelnik) Hale,N/A,N/A,N/A,Switzerland,Graubünden,N/A,N/A,"Albula-Tal, Straße von Latsch nach Stugl","Albula-Tal, Straße von Latsch nach Stugl",Locker an Gestein,rock,1600 m,TK 25: 1236 Savognin,N/A,Typed,no type status
C0090059F,Aino Henssen,Aino Henssen,N/A,21931a,29.8.1971,1971-08-29,N/A,Xanthoria elegans (Link) Th. Fr.,Xanthoria elegans (Link) Th. Fr.,N/A,N/A,N/A,Switzerland,Graubünden,N/A,N/A,Aubulapaß,Albulapaß,Auf Dolomit,rock,2000 m ü.M,N/A,N/A,Typed,no type status
C0090105F,H.T. Lumbsch,H.T. Lumbsch,N/A,12159,26.08.2001,2001-08-26,N/A,Arctoparmelia centrifuga,Arctoparmelia centrifuga,N/A,N/A,N/A,Norway,N/A,N/A,N/A,"Sogn og Fjordane. Jotunheimen, alpine Matten an der Straße 55 zwischen Turtegrö und Hervassbu","Sogn og Fjordane, Jotunheimen, an der Straße 55 zwischen Turtegrö und Hervassbu",Alpine Matten; auf Silikatgestein,rock,1400 m,N/A,N/A,Typed,no type status
C0090117F,H. T. Lumbsch,H. T. Lumbsch,N/A,10566 b,14.7.1994,1994-07-14,N/A,Acarospora,Acarospora,N/A,N/A,N/A,U.S.A.,Arizona,Gila,N/A,"San Carlos Lake, E exposed slopes above dam, just N of Coolidge","San Carlos Lake, eastern exposed slopes above dam, just north of Coolidge",On siliceous rocks,rock,N/A,"33°11' N,  110°32' W",N/A,Typed,no type status
C0090185F,"H.T. Lumbsch, E. Mietzsch & C.",H.T. Lumbsch,E. Mietzsch & C.,7103 f,19.11.1989,1989-11-19,N/A,Xanthoparmelia conspersa (Ach.) Hale,Xanthoparmelia conspersa (Ach.) Hale,N/A,N/A,N/A,Germany,Hessen,N/A,Wiesbaden,"Dotzheim, Felsen am Weilburger Bach","Dotzheim, Felsen am Weilburger Bach",An Silikatgestein,rock,N/A,TK 25: 5925 Wiesbaden,N/A,Typed,no type status
C0090341F,"T.Feuerer, H.Hertel & H.Kilias",T.Feuerer,H.Hertel & H.Kilias,s.n.,12.X.1977,1977-10-12,N/A,Buellia schaereri Dnot.,Buellia schaereri Dnot.,N/A,N/A,N/A,Italy,South Tyrol,N/A,N/A,"Dolomiten, Rosengarten-Gruppe Purgametsch-Tal (an der Autostrauße zwischen Nigerpaß und Tiers), nahe der Abzweigung des Sträßchens ins Tschamin-Tal bei Rungun","Dolomiten, Rosengarten-Gruppe Purgametsch-Tal (an der Autostrauße zwischen Nigerpaß und Tiers), nahe der Abzweigung des Sträßchens ins Tschamin-Tal bei Rungun",Lichter Lärchen-Bestand auf Almgelände. An der Stamrebasis und an leicht geneigten Stämmen von Lärchen (Larix decidua) in Menge,trunk,1220 m,N/A,N/A,Typed,no type status
C0090513F,Henry A. Imshaug & Frederick H. Imshaug,Henry A. Imshaug,Frederick H. Imshaug,31340,21 September 1963,1963-09-21,N/A,Bombyliospora chloritis (Nyl.) Zahlbr.,Bombyliospora chloritis (Nyl.) Zahlbr.,N/A,N/A,N/A,Trinidad And Tobago,N/A,N/A,N/A,"Tobago, Main ridge along ""Mt. St. George - Castara Track"" (near Castara)","Tobago, main ridge along ""Mount Saint George - Castara Track"", near Castara",Scattered cultivations in clearings of rain forest,N/A,ca. 1200 ft.,N/A,N/A,Typed,no type status
C0090526F,H.T. Lumbsch,H.T. Lumbsch,N/A,889 0,10.5.1983,1983-05-10,N/A,Bellemerrea,Bellemerrea,N/A,N/A,N/A,Italy,South Tyrol,N/A,N/A,"Vinschgau,  Gomagoi,  E des Ortes","Vinschgau, Gomagoi, E des Ortes",An Silikatgestein,rock,N/A,N/A,N/A,Typed,no type status
C0095075F,Henry A. Imshaug,Henry A. Imshaug,N/A,60155,3 October 1976,1976-10-03,N/A,Xanthoria fallax (Herp) Arn.,Xanthoria fallax (Herp) Arn.,N/A,N/A,N/A,U.S.A.,Michigan,Chippewa,N/A,(Drummond Island): Along road at Drummond airport,"Drummond Island, along road at Drummond airport",N/A,N/A,N/A,"TRS: T42N R5E sec 25 ; 46° 01' N,  83° 44' W",N/A,Typed,no type status
C0095081F,H. Imshaug & K. Ohlsson,H. Imshaug,K. Ohlsson,49793,9 October 1971,1971-10-09,N/A,Xanthoparmelia mougeotii (Schaer.) Hale,Xanthoparmelia mougeotii (Schaer.) Hale,N/A,N/A,N/A,Chile,Magallanes,N/A,N/A,near Primera Angostura,Near Primera Angostura,Scattered Anthobryum and Berberis on low hill,N/A,N/A,"52° 27' S., 69° 36' W",N/A,Typed,no type status
C0095120F,W. L. Culberson & R. Ornduff,W. L. Culberson,R. Ornduff,22493,"September 3, 1998",1998-09-03,N/A,Xanthoria parietina (L.) Th.Fr.,Xanthoria parietina (L.) Th.Fr.,W. L. Culberson,N/A,N/A,South Africa,Western Cape,N/A,N/A,"15 km SE of Oudtshoorn, on the road above Blossoms","15 kilometers southeast of Oudtshoorn, on the road above Blossoms",On twigs of Zygophyllum sp,twigs,N/A,N/A,N/A,Typed,no type status
C0095147F,William L. Culberson,William L. Culberson,N/A,22403,9.VIII.1996,1996-08-09,N/A,Xanthoria polycarpa (Ehrh.) Rieber,"Polycauliona polycarpa (Hoffm.) Frödén, Arup & Søchting",R. J. Salm,7 July 2019,N/A,U.S.A.,Washington,Spokane,N/A,"In urbe Spokane, loco Riverside State Park","In urbe Spokane, loco Riverside State Park",Ad ramunculos fruticis in Pineto (Pinus ponderosa),twigs,N/A,N/A,N/A,Typed,no type status
C0209265F,P. Ponce de Leon,P. Ponce de Leon,N/A,296,"September 21, 1978",1978-09-21,N/A,Amanita,Amanita,N/A,N/A,N/A,U.S.A.,Alaska,N/A,N/A,about 20-30 miles north of Mt. McKinley,About 20-30 miles north of Mount McKinley,"At or above timberline, windswept slopes of mountains with mosses, lichens, Vaccineum spp., and other Ericads",N/A,N/A,N/A,1075812,Typed,no type status
C0225578F,P. Ponce de Leon,P. Ponce de Leon,N/A,303,"September 21, 1978",1978-09-21,N/A,Lycoperdon,Lycoperdon,N/A,N/A,N/A,U.S.A.,Alaska,N/A,N/A,about 20-30 miles north of Mt. McKinley,About 20-30 miles north of Mount McKinley,"At or above timberline, windswept slopes of mountains with mosses, lichens, Vaccineum spp., and other Ericads",N/A,N/A,N/A,1074604,Typed,no type status
C0227005F,P. Ponce de Leon,P. Ponce de Leon,N/A,267,"September 20, 1978",1978-09-20,N/A,(Agaricaceae),Agaricaceae,N/A,N/A,N/A,U.S.A.,Alaska,N/A,N/A,"Boggy area south of Yukon, just below the Chatanika River, about 25 miles north of Fairbanks","Boggy area south of Yukon, just below the Chatanika River, about 25 miles north of Fairbanks","With grasses in very sandy soil, in disturbed openning in boggy forest. In hummocks composed of grasses, lichens, mosses and Ericads, under Albies, Prunus, Betula and Alnus species",soil,N/A,N/A,1075800,Typed,no type status
C0237407F,Chr. King,Chr. King,N/A,s.n.,1988,1988-00-00,N/A,Psilocybe muliercula Sing. & Smith,Psilocybe muliercula Sing. & Smith,Singer,N/A,N/A,New Zealand,N/A,N/A,N/A,South Island,South Island,N/A,N/A,N/A,N/A,1089947,Typed,no type status
C0264367F,W.G. Bramley,W.G. Bramley,N/A,s.n.,10 Jan. 1938,1938-01-10,N/A,Nectria cinnabarina (Tode ex Fr.),Nectria cinnabarina (Tode ex Fr.),T. Petch,N/A,Tubercularia vulgaris,England,Yorkshire,N/A,N/A,Bolton Percy,Bolton Percy,On Crataegus,tree,N/A,N/A,N/A,Typed,no type status
C0272218F,H. E. Parks and J. P. Tracy,H. E. Parks,J. P. Tracy,s.n.,"Sept. 15, 1930",1930-09-15,N/A,Exobasisium Vaccinii (Fckl.) Wor.,Exobasisium Vaccinii (Fckl.) Wor.,N/A,N/A,"Host, Arbutus Menziesii",U.S.A.,California,Humboldt,N/A,"Kneeland, Bald Hills, Humboldt County","Kneeland, Bald Hills",N/A,tree,N/A,N/A,N/A,Typed,no type status
C0272225F,Harold E. Parks and Joseph P. Tracy,Harold E. Parks,Joseph P. Tracy,13207,"June 3, 1934",1934-06-03,N/A,Exobasidium Vaccinii (Fckl.) Wor.,Exobasidium Vaccinii (Fckl.) Wor.,N/A,N/A,N/A,U.S.A.,California,Humboldt,Trinidad,Trinidad,[precise locality unknown],N/A,tree,N/A,N/A,N/A,Typed,no type status
C0272229F,Lee Bonar,Lee Bonar,N/A,s.n.,21 August 1954,1954-08-21,N/A,Exobasidium Vaccinii (Fckl.) Wor.,Exobasidium Vaccinii (Fckl.) Wor.,N/A,N/A,N/A,U.S.A.,California,Shasta,N/A,"Manzanita Lake, Lassen National Park, Shasta County","Manzanita Lake, Lassen National Park",On Arctostaphylos patula,tree,N/A,N/A,N/A,Typed,no type status
C0272257F,H. et P. Sydow,H. Sydow,P. Sydow,s.n.,14.8.1903,1903-08-14,N/A,Entyloma crastophilum Sacc.,Entyloma crastophilum Sacc.,N/A,N/A,N/A,Germany,Saxony,,N/A,"Am ""Grossen Winterberge"", Zwiesel bei Schmilka","Am ""Grossen Winterberge"", Zwiesel bei Schmilka",Auf Blättern von Holcus lanatus,leaves,N/A,N/A,N/A,Typed,no type status
C0272323F,O. Mattirolo,O. Mattirolo,N/A,s.n.,27/9 1895,1895-09-27,N/A,Neovossia Moliniae (Thüm.) Körn.,Neovossia Moliniae (Thüm.) Körn.,N/A,N/A,N/A,Italy,Lombardy,Como,Rodero,"Italia: Rodero, prov. Como",[precise locality unknown],In ovariis Moliniae coeruleae,N/A,N/A,N/A,N/A,Typed,no type status
C0272329F,"Richard W. Pohl, Gerrit Davidse",Richard W. Pohl,Gerrit Davidse,11146,25 September 1968,1968-09-25,N/A,Oplismenus setarius (Lam.) Roem. & Schult.,Oplismenus setarius (Lam.) Roem. & Schult.,N/A,N/A,N/A,Costa Rica,Puntarenas,N/A,N/A,5 km NW of the Carretera Interamericana in Boruca area ,5 kilometers northwest of the Carretera Interamericana in Boruca area,Carpeting the groune at the margin of forest and savanna,N/A,450 m.,N/A,N/A,Typed,no type status
C0272400F,E. W. D. Holway,E. W. D. Holway,N/A,s.n.,"Aug. 8, 1901.",1901-08-08,N/A,"Tuburcinia Clintoniae, Kom.","Tuburcinia Clintoniae, Kom.",N/A,N/A,N/A,Canada,British Columbia,N/A,N/A,Glacier,Glacier,On Streptopus rosens,leaves,N/A,N/A,N/A,Typed,no type status
C0272404F,F. Bubak,F. Bubak,N/A,s.n.,m. Majo,N/A,N/A,Tuburcinia anemones (Pers.) Liro.,Tuburcinia anemones (Pers.) Liro.,N/A,N/A,N/A,Czech Republic,Central Bohemia,N/A,Podebrady,Bohemia: ad Podĕbrad,[precise locality unknown],Ad folia vivia Anemones nemorosae,leaves,N/A,N/A,N/A,Typed,no type status
C0291873F,E. W. D. Holway,E. W. D. Holway,N/A,127,"Jan. 27, 1915",1915-01-27,N/A,Ravenelia appendiculata Diet.,Ravenelia appendiculata Diet.,E.B.Mains,N/A,N/A,Guatemala,Sololá,N/A,Sololá,Solola,[precise locality unknown],On Phyllanthus sp.,tree,N/A,N/A,N/A,Typed,no type status
C0356535F,H. St. John,H. St. John,N/A,16662,"Aug. 26, 1934",1934-08-26,N/A,Humata banksii Alston,Humata banksii Alston,E.B.Copeland,N/A,N/A,French Polynesia,Austral Islands,N/A,N/A,"Rurutu. Northwest slope of Teape, Teti woods","Rurutu, northwest slope of Teape, Teti woods",Woods,twigs,350 meters,N/A,1435764,Typed,no type status
C0358423F,C.J. Chamberlain,C.J. Chamberlain,N/A,s.n.,"Oct. 15, 1911",1911-10-15,N/A,Trichomanes reniforme,Trichomanes reniforme,N/A,N/A,N/A,New Zealand,N/A,N/A,Ohakune,Ohakune,[precise locality unknown],N/A,N/A,N/A,N/A,1407795,Typed,no type status
C0359489F,"M. Véliz con J. M. Véliz, J. Charco, H. Sains, J. Lopez y R. Esteban",M. Véliz,"J. M. Véliz, J. Charco, H. Sains, J. Lopez y R. Esteban",MV 16199,22/XI/2005,2005-11-22,N/A,Lophosoria quadripinnata (J.F. Gmel)C. Chr. var quadripinnata,Lophosoria quadripinnata (J.F. Gmel)C. Chr. var quadripinnata,M. Véliz,24/XI/2005,N/A,Guatemala,Jalapa,N/A,N/A,"Aldea San Raymundo, río Manzanillos","Aldea San Raymundo, Río Manzanillos",Bosque de Quercus sp.,N/A,2308 msmn,14° 33' 43.7 N; 90° 06' 19.7 O.,2298970,Typed,no type status
C0363828F,T. G. Yuncker,T. G. Yuncker,N/A,17429,"Nov. 17, 1957",1957-11-17,N/A,Lycopodium cernuum L.,Lycopodium cernuum L.,N/A,N/A,N/A,Jamaica,St. Andrew,N/A,N/A,along trail near Bellevue,Along trail near Bellevue,Scrambling over side of cut,N/A,3000-4000 ft.,N/A,1483756,Typed,no type status
C0363985F,Carvalho,Carvalho,N/A,2092,25-VII-1986,1986-07-25,N/A,Lycopodiella cernua (L.) Pic.-Serm.,Lycopodiella cernua (L.) Pic.-Serm.,J. Fernández Casas,1991,N/A,Equatorial Guinea,N/A,N/A,N/A,"Bioco: Malabo - Basilé, km 13, cerca de Basilé","Bioco: Malabo - Basilé, Kilometer 13, cerca de Basilé",Margenes de la carretera,N/A,390 m,32NMK7808,2201362,Typed,no type status
C0364207F,Father Morice Vanoverbergh,Father Morice Vanoverbergh,N/A,3591,April 1913,1913-04-00,N/A,Asplenium contiguum.Kaulf.,Asplenium contiguum.Kaulf.,N/A,N/A,N/A,Philippines,N/A,N/A,N/A,Bontoc Subprovince. Luzon,Bontoc Subprovince. Luzon,N/A,N/A,N/A,N/A,393439,Typed,no type status
C0364726F,W. Takeuchi & J. Wiakabu,W. Takeuchi,J. Wiakabu,9366,"February 5, 1994",1994-02-05,N/A,Blechnum ledermanni Brause,Blechnum ledermanni Brause,N/A,N/A,N/A,Papua New Guinea,N/A,N/A,N/A,New Ireland; Hans Meyer Range. Site 4 on the expedition report,"New Ireland, Hans Meyer Range, Site 4 on the expedition report",Pristine subcloud forest dominated by bryophytic and ferny growth,N/A,c. 1800 m,4°25'S X 152°59'E,2158436,Typed,no type status
C0366013F,Tagawa & Iwatsuki,Tagawa,Iwatsuki,888,"May 20, 1956",1956-05-20,N/A,Dryopteris crassirhizoma Nakai,Dryopteris crassirhizoma Nakai,N/A,N/A,N/A,Japan,N/A,N/A,N/A,N/A,[precise locality unknown],N/A,N/A,N/A,N/A,1479001,Typed,no type status
C0366453F,J. Ohwi,J. Ohwi,N/A,202,April 1951,1951-04-00,N/A,Polystichum tripteron Presl,Polystichum tripteron Presl,N/A,N/A,N/A,Japan,N/A,N/A,N/A,Honco: Jimmuji in Sagami,Honco: Jimmuji in Sagami,N/A,N/A,N/A,N/A,1464206,Typed,no type status
C0368029F,L. & A. Fay,L. Fay,A. Fay,1206,11 Apr 1985,1985-04-11,N/A,Drynaria laurentii (Christ.) Hieron.,Drynaria laurentii (Christ.) Hieron.,N/A,N/A,N/A,Liberia,N/A,N/A,N/A,Cuttington University College,Cuttington University College,Common in groves of rubber trees,bark,250 m,N/A,2111378,Typed,no type status
C0376117F,R.B. & A.J. Faden,R.B. Faden,A.J. Faden,77/53,5 Jan. 1977,1977-01-05,N/A,Pyrossia lanceolata (L.) Farw.,Pyrossia lanceolata (L.) Farw.,D.B. Lellinger,1979,N/A,Sri Lanka,North Western,Kurunegala,N/A,Doluwakanda Hill,Doluwakanda Hill,Forest,N/A,600 m,"ca. 7°37'N, 80°24'30""E",2014294,Typed,no type status
C0378283F,M. Tagawa & K. Iwatsuki,M. Tagawa,K. Iwatsuki,1150,"July 28, 1956.",1956-07-28,N/A,Diplazium amabile (Tag.) Tag.,Diplazium amabile (Tag.) Tag.,N/A,N/A,N/A,Japan,Kagoshima,N/A,N/A,"Kyushu. western slope of Mt. Hoyoshi, south of Kanoya City","Kyushu, western slope of Mount Hoyoshi, south of Kanoya",Wet rocky slope in densely wooded ravine,N/A,N/A,N/A,1479055,Typed,no type status
C0383180F,A. Carestia,A. Carestia,N/A,s.n.,1871,1871-00-00,N/A,Lycopodium complanatum L.,Lycopodium complanatum L.,J. H. Wilce,1962,N/A,Italy,N/A,N/A,N/A,Salita alla Boscarola presso Scopello in Valsesia,Salita alla Boscarola presso Scopello in Valsesia,N/A,N/A,N/A,N/A,1021302,Typed,no type status
C0383576F,T. G. Yuncker,T. G. Yuncker,N/A,18561,"Mar. 30, 1958",1958-03-30,N/A,Selaginella plana (Diev.) Hieron.,Selaginella plana (Diev.) Hieron.,N/A,N/A,N/A,Jamaica,Portland,N/A,N/A,"John Crow Mts., 1.5-2 miles south-west of Ecclesdown","John Crow Mountains, 1.5-2 miles southwest of Ecclesdown","On wet embankment along trail, rainforest",N/A,1500-2500 ft,N/A,1481965,Typed,no type status
C0616676F,J. Dorantes,J. Dorantes,N/A,455,01/01/1972,1972-01-01,N/A,Woodwardia spinulosa Mart. & Gal.,Woodwardia spinulosa Mart. & Gal.,Monica Palacios-Rios,"September, 2000",N/A,Mexico,Veracruz,N/A,Jalapa,Alto del Gato,Alto del Gato,"Bosque caducifolio, vegetación primaria, suelo rojo arcilloso",N/A,N/A,N/A,1730602,Typed,no type status
C0626158F,"Louis O. Williams, Antonio Molina R., Terua P. Williams, Dorothy N. Gibson, and Chester Laskowski ",Louis O. Williams,"Antonio Molina R., Terua P. Williams, Dorothy N. Gibson, and Chester Laskowski ",27621,"January 15, 1965",1965-01-15,N/A,Polypodium blepharodes Maxon,Grammitis blepharodes (Maxon) Seymour,Robert G. Stolze,1979,N/A,Nicaragua,Matagalpa,N/A,N/A,"Disparate de Potter, Sta. María de Ostuma, Cordillera Central de Nicaragua","Disparate de Potter, Santa María de Ostuma, Cordillera Central de Nicaragua",Montane rain forest or cloud forest,N/A,1600 m,N/A,1626179,Typed,no type status
C0627900F,"Antonio Molina R., Albertina R. Molina",Antonio Molina R.,Albertina R. Molina,12562,"Mayo 22, 1963",1963-05-22,N/A,Polypodium montigenum Maxon,Polypodium montigenum Maxon,AmolinaR.,N/A,N/A,El Salvador,Santa Ana,N/A,N/A,Montaña Montecristo,Montaña Montecristo,Bosque abierto,N/A,2000 m,N/A,1661895,Typed,no type status
C0636906F,Antonio Molina R.,Antonio Molina R.,N/A,1427,"Nov. 4, 1948",1948-11-04,N/A,Thelypteris piloso-hispida ( Hook) Morton,Thelypteris rudis (Kunze) Proctor,Alan R. Smith,1974,N/A,Honduras,Francisco Morazán,N/A,N/A,"Norte de la Mt. Uyuca, caminos Tatumbla, Labranza y Quebrada El Oranadillo, sobre la Mt. Uyuca. Drainage of the Río Yeguara","Drainage of the Río Yeguara, norte de la Montaña Uyuca, caminos Tatumbla, Labranza y Quebrada El Oranadillo, sobre la Montaña Uyuca",Bosque lluvioso,N/A,1800 m,about Longitude 87° W. and Latitude 14° N,1394536,Typed,no type status
C0637474F,J.I. Calzada,J.I. Calzada,N/A,5759,11-enero-1980,1980-01-11,N/A,Polypodiaceae,Diplazium franconis Liebm.,Robert G. Stolze,1983,N/A,Mexico,Veracruz,N/A,Xico,Ranchería de Coatititlán,Ranchería de Coatititlán,"Bosque caducifolio, primario; asociada con Liquidambar styrociflua, Quercus sp., Alnus sp.",N/A,1820 m.s.n.m,19° 29' N  97° 04' W,1894963,Typed,no type status
C0639123F,"Louis O. Williams, Antonio Molina R. and Terua P. Williams",Louis O. Williams,Antonio Molina R. and Terua P. Williams,23634,"January 8-15, 1963",1963-01-08,1963-01-15,N/A,Lycopodium clavatum L.,C. V. Morton & D. B. Lellinger,1964,N/A,Nicaragua,Matagalpa,N/A,N/A,"Sta. María de Ostuma, Cordillera Central de Nicaragua between Matagalpa and Jinotega","Santa María de Ostuma, Cordillera Central de Nicaragua, between Matagalpa and Jinotega",Cloud forest area,N/A,1300-1500 meters,N/A,1604338,Typed,no type status
C0644079F,"A. Monteagudo, C. Mateo, G. Ortiz",A. Monteagudo,"C. Mateo, G. Ortiz",4909,10 Abril 2003,2003-04-10,N/A,Blechnum occidentalis L.,Blechnum occidentalis L.,H. van der Werff,2005,N/A,Peru,Pasco,Oxapampa,N/A,"Distrito Puzuzo. Parque Nacional Yanachaga Chemillen Pozuzo Sector Pan de Azúcar, Zona de Recuperación","Distrito Puzuzo. Parque Nacional Yanachaga Chemillen Pozuzo Sector Pan de Azúcar, Zona de Recuperación",Bosque ribereño,rock,1100-1250 m,10°15'S 75°13'W,2287355,Typed,no type status
C0658238F,Ynes Mexia,Ynes Mexia,N/A,8066,"May 14, 1936",1936-05-14,N/A,Adiantum pulverulentum L.,Adiantum pulverulentum L.,Copeland,N/A,N/A,Peru,Cusco,La Convención,N/A,upper valley of Rio Sambray; western affluent of Vilcanota,"Upper valley of Rio Sambray, western affluent of Rio Vilcanota",Along stream in virgin forest,N/A,about 1800 m,N/A,1005396,Typed,no type status
C0662992F,"R. L. Wilbur E. L. Dunn, H. A. Hespenheide, D. R. Wiseman",R. L. Wilbur,"E. L. Dunn, H. A. Hespenheide, D. R. Wiseman",8185,2 August 1964,1964-08-02,N/A,Cnemidaria grandifolia (Willd.),Cnemidaria grandifolia (Willd.) Proctor var. grandifolia,R. G. Stolze,1971,N/A,Dominica,Saint Paul,N/A,N/A,Parish of St. Paul: Disturbed rainforest in the upper Layou Valley about 5 miles from Clark Hall towards Pont Cassé,Upper Layou Valley about 5 miles from Clark Hall towards Pont Cassé,Disturbed rainforest,N/A,N/A,N/A,1670026,Typed,no type status
C0665657F,Ken Young & Mark Eisenberg,Ken Young,Mark Eisenberg,265,20 April 1981,1981-04-20,N/A,N/A,Thelypteris cheilanthoides (Kunze) Proctor,A. R. Smith,1989,N/A,Peru,Cusco,La Convención,N/A,"Just east of Quillabamba, Finca Chichima","Just east of Quillabamba, Finca Chichima","Cocoa, coffe, yuca, mangoes, bananas, corn crops grown",N/A,1300-1400 m,N/A,2038794,Typed,no type status
C0665739F,"B.León,K.Young & N.Huapaya",B.León,K.Young & N.Huapaya,2911,10 setiembre 1991,1991-09-10,N/A,Thelypteridaceae,Thelypteris eucholora (Sod.) Reed,Robert G. Stolze,1992,N/A,Peru,Cusco,Paucartambo,N/A,"Bosque de Nubes,Río La Unión",Río La Unión,"Bosque de Nubes, en ladera",N/A,1700-1800 m,N/A,2112158,Typed,no type status
C0666112F,Rolla M. Tryon & Alice F. Tryon,Rolla M. Tryon,Alice F. Tryon,5202,"Aug. 13, 1956",1956-08-13,N/A,Thelypteris,Thelypteris opulenta (Kaulf.) Fosberg,Alan R. Smith,"1979, 1989",N/A,Peru,Loreto,Maynas,N/A,"Rio Itaya, 10 km. s. of Iquitos","Rio Itaya, 10 km south of Iquitos",In old banana planting,N/A,N/A,N/A,1587072,Typed,no type status
C0666202F,J. J. Wurdack,J. J. Wurdack,N/A,705,1 June 1962,1962-06-01,N/A,Thelypteris pavoniana (Klotsch),Thelypteris pavoniana (Klotzsch) Tryon,Alan R. Smith,"1979, 1989",N/A,Peru,Amazonas,Chachapoyas,N/A,Upper slopes of Puma-urcu east-southeast of Chachapoyas,"Upper slopes of Puma-urcu, east southeast of Chachapoyas",On banks,N/A,2700-3000 m.,N/A,1647265,Typed,no type status
C0666362F,Rolla M. & Alice F. Tryon,Rolla M. Tryon,Alice F. Tryon,6566,23 October 1965,1965-10-23,N/A,Thelypteris Lindigii (C.Chr.) Alston,Thelypteris rufa (Poir.) A. R. Smith,Alan R. Smith,"1979, 1989",N/A,Peru,Ancash,N/A,N/A,"Road from Huaras to Cusma, west valley","Road from Huaras to Cusma, west valley",N/A,rock,2800 m,N/A,1833066,Typed,no type status
C0675553F,"John T. Atwood, Jr.","John T. Atwood, Jr.",N/A,77105,8 Feb. 1977,1977-02-08,N/A,Adiantum trapeziforme L.,Adiantum exuberans McCarthy & Hickey,M. R. McCarthy,2012,N/A,Nicaragua,Granada,N/A,N/A,Volcan Mombacho. Lower cloud forest near finca Cutirre,"Volcan Mombacho, near finca Cutirre",Lower cloud forest,N/A,N/A,N/A,1868242,Typed,no type status
C0675619F,H. et al.,H. et al.,N/A,7644,4-21-35,1935-04-21,N/A,Adiantum trapeziforme L.,Adiantum exuberans McCarthy & Hickey,M. R. McCarthy,2012,N/A,Mexico,México,N/A,Temascaltepec,Pantoja,Pantoja,Dry barranca,N/A,N/A,N/A,954869,Typed,no type status
C1042257F,S. Churchill et al.,S. Churchill,N/A,22853,12 May 2004,2004-05-12,N/A,Neckera scabridens C. Müller,Neckera scabridens C. Müller,S. Churchill,Jun 2004,N. chilensis,Bolivia,Chuquisaca,N/A,Belisario Boeto,"Belisario Boeto, Monte Grande, ca. 32 km de Villa Serrano","Monte Grande, ca. 32 kilometros de Villa Serrano","Bosque montano de yungas con Prumnopitys exigua, Podocarpus, Mycianthes",twigs,2740 m,"18°43'43""S 64°29'07""W",1183467,Typed,no type status
C2000932F,C. Müller,C. Müller,N/A,s.n.,9. Sept. 1905,1905-09-09,N/A,Pogonatum urnigerum (L.) Pal. Beauv. c. fr.,Pogonatum urnigerum (L.) Pal. Beauv. c. fr.,N/A,N/A,N/A,Germany,Baden-Wurttemberg,N/A,N/A,Zwischen Rinken und Seebrück am Feldberge,Zwischen Rinken und Seebrück am Feldberge,Auf Erde in Felsritzen,rock,etwa 1250 m s. m.,N/A,N/A,Typed,no type status
C2000934F,Zd.Pilous,Zd.Pilous,N/A,s.n.,V.1946,1946-05-00,N/A,Pogonatum urnigerum PB.,Pogonatum urnigerum PB.,N/A,N/A,N/A,Czech Republic,Liberec,N/A,N/A,Bohemia.Montes Krkonoše prope pagum Hoření Vrchlabí,"Montes Krkonoše, prope pagum Hoření Vrchlabí",In declivis graminosis silvaticis,N/A,ca. 580 m,N/A,N/A,Typed,no type status
C2000943F,C. Jensen,C. Jensen,N/A,s.n.,25/1o 19o1,1901-10-25,N/A,Pogonatum urnigerum (Hedw.) PB.,Pogonatum urnigerum (Hedw.) PB.,C. Jensen,N/A,N/A,Denmark,Zealand,N/A,N/A,Magistratskoven by Hvalsø,Magistratskoven by Hvalsø,In a gravel-pit,rock,N/A,N/A,N/A,Typed,no type status
C2010620F,Jack,Jack,N/A,s.n.,25. August 1850,1850-08-25,N/A,Pogonatum urnigerum (L.) Pal. Beauv.,Pogonatum urnigerum (L.) Pal. Beauv.,N/A,N/A,N/A,Germany,Baden-Württemberg,N/A,N/A,An Waldgräben bei Salem,Bei Salem,An Waldgräben,N/A,N/A,N/A,N/A,Typed,no type status
C2010622F,Dr. Hepp,Dr. Hepp,N/A,s.n.,17. October 1862,1862-10-17,N/A,Pogonatum urnigerum (L.) Pal. Beauv.,Pogonatum urnigerum (L.) Pal. Beauv.,N/A,N/A,N/A,Germany,Baden-Württemberg,N/A,N/A,An einem Waldrande auf dem rothen Sandsteinbruche Oberlab Degerfelden,Auf dem rothen Sandsteinbruche Oberlab Degerfelden,An einem Waldrande,N/A,N/A,N/A,N/A,Typed,no type status
C2010624F,Schenk,Schenk,N/A,s.n.,September 1862,1862-09-00,N/A,Pogonatum urnigerum (L.) Pal. Beauv.,Pogonatum urnigerum (L.) Pal. Beauv.,N/A,N/A,N/A,Switzerland,Schaffhausen,N/A,N/A,Bei Schaffhausen,Bei Schaffhausen,In Hohlwegen,N/A,N/A,N/A,N/A,Typed,no type status
C2010626F,C. Jensen,C. Jensen,N/A,s.n.,"November 21, 1904",1904-11-21,N/A,Pogonatum urnigerum (Hedw.) PB. c. fr.,Pogonatum urnigerum (Hedw.) PB. c. fr.,C. Jensen,N/A,N/A,Denmark,Zealand,N/A,N/A,Magistratskoven south of Hvalsö,"Magistratskoven, south of Hvalsö",Sandy soil,soil,N/A,N/A,N/A,Typed,no type status
C2010974F,P. Allorge,P. Allorge,N/A,s.n.,22. VIII. 1927,1927-08-22,N/A,Pogonatum urnigerum,Pogonatum urnigerum,N/A,N/A,"Blasia pussila L., Peilia epiphylla (L.) Lindb., Alicularia scalaris (Schr.) Corda, Dichodontium pellucidum (L. pp.) Schimp. Rhyttidiadelphus loreus (Dill., L.) Warnst.",Spain,Navarra,N/A,N/A,Puerto de Ibañeta (Navarra),Puerto de Ibañeta,Talus argileux (schistes),talus,ca. 1.050 m,N/A,N/A,Typed,no type status
C2010976F,Zd.Pilous,Zd.Pilous,N/A,s.n.,VII.1949,1949-07-00,N/A,Pogonatum urnigerum Pal. var.humile Brid.,Pogonatum urnigerum Pal. var.humile Brid.,N/A,N/A,N/A,Slovakia,N/A,N/A,N/A,Montes Nízké Tatry:In terra montis Dumbier,"Montes Nízké Tatry, in terra montis Dumbier",N/A,N/A,ca 1840 m,N/A,N/A,Typed,no type status
C2077563F,R.Benoist,R.Benoist,N/A,4659 pp.,N/A,N/A,N/A,Hedwigia albicans (Web.)Lindb.,Hedwigia ciliata (Hedw.) P. Beauv.,Efrain De Luna,1992,N/A,Ecuador,Pichincha,N/A,N/A,Environs de Quito,Environs de Quito,N/A,N/A,N/A,N/A,1089453,Typed,no type status
C2077566F,Marko Lewis,Marko Lewis,N/A,79-1237A,22 March 1979,1979-03-22,N/A,Hedwigia ciliata (Hedw.) P. Beauv.,Hedwigia ciliata (Hedw.) P. Beauv.,Efrain De Luna,1992,N/A,Bolivia,La Paz,Larecaja,N/A,Near large red outcrop 2 mi. from Sorata down Río Consata,Near large red outcrop 2 miles from Sorata down Río Consata,Bromeliad habitat. Abundant on rock faces of exposed cliffs,rock,2630 m,"15° 41' S., 68° 43' W",1032221,Typed,no type status
C2077567F,Marko Lewis,Marko Lewis,N/A,79-1232,22 March 1979,1979-03-22,N/A,Hedwigia ciliata (Hedw.) P. Beauv.,Hedwigia ciliata (Hedw.) P. Beauv.,Efrain De Luna,1992,N/A,Bolivia,La Paz,Larecaja,N/A,Near large red outcrop 2 mi. from Sorata down Río Consata,Near large red outcrop 2 miles from Sorata down Río Consata,Bromeliad-grass habitat on exposed cliffs,rock,2630 m,"15° 41' S., 68° 43' W",1032219,Typed,no type status
C2077568F,Marko Lewis,Marko Lewis,N/A,79-1114,6 March 1979,1979-03-06,N/A,Hedwigia ciliata (Hedw.) P. Beauv.,Hedwigia ciliata (Hedw.) P. Beauv.,Efrain De Luna,1992,N/A,Bolivia,La Paz,Bautista Saavedra,N/A,"On mountain side directly N. of river, beneath Niño Karine, NNW of Chuma","On mountain side directly north of river, beneath Niño Karine, north northwest of Chuma",Humid cliffs and steep slopes,rock,3320 m,"15° 08' S., 69° 03' W",1032220,Typed,no type status
C2077569F,F. J. Hermann,F. J. Hermann,N/A,25152,"December 27, 1972",1972-12-27,N/A,Hedwigia ciliata (Hedw.) Beauv.,Hedwigia ciliata (Hedw.) P. Beauv.,Efrain De Luna,1992,N/A,Bolivia,Cochabamba,N/A,N/A,"NW slope of Mt. Tunari, near Liriuni Aguas Termales Hotel, 28 km. NW Cochabamba","Northwestern slope of Mount Tunari, near Liriuni Aguas Termales Hotel, 28 kilometers northwest of Cochabamba",On conglomerate boulder on shrubby slope,boulder,ca. 2700 m.,N/A,1040675,Typed,no type status
C2077570F,Ynes Mexia,Ynes Mexia,N/A,6204,"Dec. 2, 1931",1931-12-02,N/A,Pilosium subchlorophyllosum C.M.,Pilosium subchlorophyllosum C.M.,Bartram,N/A,N/A,Peru,Loreto,N/A,N/A,Above Pongo de Manseriche. Streamlet near mouth of Rio Santiago,"Above Pongo de Manseriche, streamlet near mouth of Rio Santiago",On fallen log,log,400 m,N/A,1057692,Typed,no type status
C2077571F,Ynes Mexia,Ynes Mexia,N/A,6204,"Dec. 2, 1931",1931-12-02,N/A,Pilosium subchlorophyllosum C.M.,Pilosium subchlorophyllosum C.M.,Bartram,N/A,N/A,Peru,Loreto,N/A,N/A,Above Pongo de Manseriche. Streamlet near mouth of Rio Santiago,"Above Pongo de Manseriche, streamlet near mouth of Rio Santiago",On fallen log,log,400 m,N/A,N/A,Typed,no type status
C2077573F,J.Florschütz-de Ward & R.Zielman,J.Florschütz-de Ward,R.Zielman,5315,5 - 11 - 1981,1981-11-05,N/A,Pilosium chlorophyllum (Hornsch.)C.Müll.,Pilosium chlorophyllum (Hornsch.)C.Müll.,Rudi Zielman,N/A,N/A,Suriname,N/A,N/A,N/A,"Area of Kabalebo Dam project, distr. Nickerie, line NW from road km 39.5","Area of Kabalebo Dam project, Nickerie district, line northwest from road Kilometer 39.5",Secondary woods with Cecropia (bospapaja). On rotting log,N/A,0 - 50 m,p. 5N 58W qu. SE,1073523,Typed,no type status
C2077574F,J.Florschütz-de Ward & R.Zielman,J.Florschütz-de Ward,R.Zielman,5254,3-11-1981,1981-11-03,N/A,Pilosium chlorophyllum(Hornsch.)C.Müll.,Pilosium chlorophyllum(Hornsch.)C.Müll.,R.Zielman,N/A,N/A,Suriname,N/A,N/A,N/A,"Area of Kabalebo Dam project, distr. Nickerie, line NW from road km 39.5","Area of Kabalebo Dam project, Nickerie district, line northwest from road Kilometer 39.5","Savanna forest, on rotting log",log,0 - 50 m,p. 5N 58W qu. SE,1073529,Typed,no type status
C2077575F,J.Florschütz-de Ward & R.Zielman,J.Florschütz-de Ward,R.Zielman,5098,30-10-1981,1981-10-30,N/A,Pilosium chlorophyllum(Hornsch.)C.Müll.,Pilosium chlorophyllum(Hornsch.)C.Müll.,R.Zielman,N/A,N/A,Suriname,N/A,N/A,N/A,"Area of Kabalebo Dam project, distr. Nickerie, line W from road 34 km","Area of Kabalebo Dam project, Nickerie district, line west from road 34 kilometers",Rainforest,log,0 - 50 m,p. 5N 58W qu. SE,1073528,Typed,no type status
C2077576F,"J.C.Lindeman,A.R.A.Görts-van Rijn,M.J.Jansen-Jacobs & A.M.C.Hetterscheid-Hollants",J.C.Lindeman,"A.R.A.Görts-van Rijn,M.J.Jansen-Jacobs & A.M.C.Hetterscheid-Hollants",243A,3-IX-1980,1980-09-03,N/A,Pilosium chlorophyllum (Hornsch.) C.Müll.,Pilosium chlorophyllum (Hornsch.) C.Müll.,H.R.Zielman,N/A,N/A,Suriname,N/A,N/A,N/A,"Area of Kabalebo Dam project, distr.Nickerie, S of km 28.7","Area of Kabalebo Dam project, Nickerie district, south of Kilometer 28.7",Forest. Epiphyte on tree trunk,bark,30 - 130 m,"4° 5°NB, 57° 30' 58° WL",1073527,Typed,no type status
C2077577F,J.Florschütz-de Ward and R.Zielman,J. Florschütz-de Ward,R. Zielman,5141,31 October 1981,1981-10-31,N/A,Pilosium chlorophyllum (Hornsch.) C. Müll.,Pilosium chlorophyllum (Hornsch.) C. Müll.,R. Zielman,N/A,N/A,Suriname,N/A,N/A,N/A,"Distr. Nickerie, Kabalebo river area, line W. from road km 34","Nickerie district, Kabalebo river area, line west from road Kilometer 34",On decaying log in marsh forest with Astrocaryum,log,0-50 m,"5°N., 58°W",1079833,Typed,no type status
C2077578F,J. & P.A. Florschütz,J. Florschütz,P.A. Florschütz,4690,18 December 1975,1975-12-18,N/A,Pilosium chlorophyllum (Hornsch.) C. Muell.,Pilosium chlorophyllum (Hornsch.) C. Muell.,R. Zielman and J. Florschütz-de Ward,N/A,N/A,Suriname,N/A,N/A,N/A,"Brownsberg, trail to Leo Val","Brownsberg, trail to Leo Val",Rainforest,log,ca. 500 m,N/A,1065613,Typed,no type status
C2077579F,H.Cornelissen & S.R.Gradstein,H.Cornelissen,S.R.Gradstein,C076,8 March 1977,1977-03-08,N/A,Pilosium chlorophyllum (Hornsch.) C. Müll.,Pilosium chlorophyllum (Hornsch.) C. Müll.,J. Florschütz-de Ward,N/A,N/A,Guyana,N/A,N/A,N/A,"Mabura Hill, 180 km S of Georgetown","Mabura Hill, 180 kilometers south of Georgetown",On rotting tree in mixed rain forest,tree,0-50 m,5°20'N 58°40'W,1091586,Typed,no type status
C2077582F,Richard Evans Schultes et Isidoro Cabrera,Richard Evans Schultes,Isidoro Cabrera,14294,"October 4-6, 1951",1951-10-04,1951-10-06,Pilosium chlorophyllum (Hornsch.) C.M.,Pilosium chlorophyllum (Hornsch.) C.M.,H. A. Crum,1956,N/A,Colombia,Vaupés,N/A,N/A,"Río Kuduyarí (affluent of Río Vaupés), Yapobodá","Río Kuduyarí (affluent of Río Vaupés), Yapobodá",Quartzitic savannah. On rotten logs,log,N/A,N/A,1055491,Typed,no type status
C2077584F,Richard Evans Schultes,Richard Evans Schultes,N/A,11128,Dec. 1950,1950-12-00,N/A,Pilosium chlorophyllum (Hsch.) C.M. in Broth.,Pilosium chlorophyllum (Hsch.) C.M. in Broth.,Dana Griffin III,N/A,N/A,Colombia,Guaviare,N/A,San Jose del Guaviare,San Jose del Guaviare,[precise locality unknown],N/A,N/A,N/A,N/A,1055489,Typed,no type status
C2077585F,Ynes Mexia,Ynes Mexia,N/A,6014a,"Aug. 31, 1931",1931-08-31,N/A,Pilosum chlorophyllum (Hsch.) C.M.,Pilosum chlorophyllum (Hsch.) C.M.,Bartram,N/A,N/A,Brazil,Pará,N/A,Tomé-Açu,Districto Acará. Thomé Assú; down Rio Acará 3 km,Down Rio Acará 3 kilometers,On fallen log,log,35 m,N/A,N/A,Typed,no type status
C2077586F,Ynes Mexia,Ynes Mexia,N/A,5914,"July 16, 1931",1931-07-16,N/A,Pilosium Chlorophyllosum (Hsch.) C.M.,Pilosium Chlorophyllosum (Hsch.) C.M.,Bartram,N/A,N/A,Brazil,Pará,N/A,Tomé-Açu,Districto Acará. Thomé Assú. Japanese Colony,[precise locality unknown],On rotting log in woods,log,about 30 m,N/A,870829,Typed,no type status
C2078862F,"Dana Griffin, III, Manuel López F.","Dana Griffin, III",Manuel López F.,PV-1525,14 marzo 1985,1985-03-14,N/A,Brachythecium plumosum (Hedw.) BSG,Brachythecium plumosum (Hedw.) BSG,Dana Griffin III,N/A,N/A,Venezuela,Trujillo,N/A,N/A,"Páramo de Guirigay, arriba del pueblo de Las Piedras. Entre el río Burate y Peñas Blancas","Páramo de Guirigay, arriba del pueblo de Las Piedras, entre el río Burate y Peñas Blancas","Páramo con Espeletia schultzii. Sobre roca húmeda, lecho de riachuelo, a sol",rock,3.200 m,N/A,1064449,Typed,no type status
C2078913F,P. Dusén,P. Dusén,N/A,5872,22 February 1897,1897-02-22,N/A,Brachythecium albicans (Hedw.) Schimp.,Brachythecium albicans (Hedw.) Schimp.,W. R. Buck,N/A,N/A,Chile,N/A,N/A,N/A,"Patagonia occident., Cerra Colorado","Patagonia occidental, Cerro Colorado",N/A,N/A,N/A,N/A,1136354,Typed,no type status
C2078924F,Ynes Mexia,Ynes Mexia,N/A,8001,"April 10, 1936",1936-04-10,N/A,Brachythecium subpilosum (H.f.& W.) Jaeg.,Brachythecium austroglareosum (Muell. Hal.) Kindb.,Kenneth D. McFarland,Sept 1987,N/A,Chile,N/A,N/A,N/A,Territorio Magellanes. Last Hope Inlet; Peninsula Antonio Varas,"Territorio Magellanes, Last Hope Inlet, Peninsula Antonio Varas",Openings in Nothofagus wood in moist earth,soil,25 m,N/A,1036758,Typed,no type status
C2078925F,Marko Lewis,Marko Lewis,N/A,79-2108,25 May 1979,1979-05-25,N/A,Brachythecium calliergonoides Broth. in Herz.,Brachythecium cf. calliergonoides Broth. in Herz.,R. Ochyra,1982,N/A,Bolivia,Oruro,Sajama,N/A,"Río Junthuma Khuchu, 2 mi. down river from Aguas termales de Río Junthuma Khuchu",2 miles down river from Aguas termales de Río Junthuma Khuchu,In warmish creek,N/A,4350 m,"18° 07' S., 69° 00' W",1049405,Typed,no type status
C2078926F,Marko Lewis,Marko Lewis,N/A,79-2109,25 May 1979,1979-05-25,N/A,Brachythecium calliergonoides Broth. in Herz.,Brachythecium calliergonoides Broth. in Herz.,R. Ochyra,1982,N/A,Bolivia,Oruro,Sajama,N/A,"Río Junthuma Khuchu, 2 mi. down river from Aguas termales de Río Junthuma Khuchu",2 miles down river from Aguas termales de Río Junthuma Khuchu,In warmish creek,N/A,4350 m,"18° 07' S., 69° 00' W",1049406,Typed,no type status
C2078927F,Marko Lewis,Marko Lewis,N/A,79-2112,25 May 1979,1979-05-25,N/A,Brachythecium calliergonoides Broth. in Herz.,Brachythecium calliergonoides Broth. in Herz.,R. Ochyra,1982,N/A,Bolivia,Oruro,Sajama,N/A,"Río Junthuma Khuchu, 2 mi. down river from Aguas termales de Río Junthuma Khuchu",2 miles down river from Aguas termales de Río Junthuma Khuchu,In warmish creek,N/A,4350 m,"18° 07' S., 69° 00' W",1049407,Typed,no type status
C2078928F,Marko Lewis,Marko Lewis,N/A,79-2115,25 May 1979,1979-05-25,N/A,Brachythecium calliergonoides Broth. in Herz.,Brachythecium calliergonoides Broth. in Herz.,R. Ochyra,1982,N/A,Bolivia,Oruro,Sajama,N/A,"Río Junthuma Khuchu, 2 mi. down river from Aguas termales de Río Junthuma Khuchu",2 miles down river from Aguas termales de Río Junthuma Khuchu,In warmish creek,N/A,4350 m,"18° 07' S., 69° 00' W",1049409,Typed,no type status
C2078929F,Marko Lewis,Marko Lewis,N/A,79-2117,25 May 1979,1979-05-25,N/A,Brachythecium calliergonoides Broth. in Herz.,Brachythecium calliergonoides Broth. in Herz.,R. Ochyra,1982,N/A,Bolivia,Oruro,Sajama,N/A,"Río Junthuma Khuchu, 2 mi. down river from Aguas termales de Río Junthuma Khuchu",2 miles down river from Aguas termales de Río Junthuma Khuchu,In warmish creek,N/A,4350 m,"18° 07' S., 69° 00' W",1049410,Typed,no type status
C2078930F,Marko Lewis,Marko Lewis,N/A,79-2118,25 May 1979,1979-05-25,N/A,Brachythecium calliergonoides Broth. in Herz.,Brachythecium calliergonoides Broth. in Herz.,R. Ochyra,1982,N/A,Bolivia,Oruro,Sajama,N/A,"Río Junthuma Khuchu, 2 mi. down river from Aguas termales de Río Junthuma Khuchu",2 miles down river from Aguas termales de Río Junthuma Khuchu,In warmish creek,N/A,4350 m,"18° 07' S., 69° 00' W",1049411,Typed,no type status
C2078931F,Marko Lewis,Marko Lewis,N/A,79-2107,25 May 1979,1979-05-25,N/A,Brachythecium calliergonoides Broth. in Herz.,Brachythecium calliergonoides Broth. in Herz.,R. Ochyra,1982,N/A,Bolivia,Oruro,Sajama,N/A,"Río Junthuma Khuchu, 2 mi. down river from Aguas termales de Río Junthuma Khuchu",2 miles down river from Aguas termales de Río Junthuma Khuchu,In warmish creek,N/A,4350 m,"18° 07' S., 69° 00' W",1049404,Typed,no type status
C2078932F,Marko Lewis,Marko Lewis,N/A,79-2119,25 May 1979,1979-05-25,N/A,Brachythecium calliergonoides Broth. in Herz.,Brachythecium calliergonoides Broth. in Herz.,R. Ochyra,1982,N/A,Bolivia,Oruro,Sajama,N/A,"Río Junthuma Khuchu, 2 mi. down river from Aguas termales de Río Junthuma Khuchu",2 miles down river from Aguas termales de Río Junthuma Khuchu,In warmish creek,N/A,4350 m,"18° 07' S., 69° 00' W",1049412,Typed,no type status
C2079350F,Ynes Mexia,Ynes Mexia,N/A,6149,"Nov. 23, 1931",1931-11-23,N/A,Vesicularia amphibola (Spr.) Broth.,Vesicularia amphibola (Spr.) Broth.,Bartram,N/A,N/A,Peru,Loreto,N/A,N/A,Above Pongo de Manseriche. Left bank of Rio Santiago,"Above Pongo de Manseriche, left bank of Rio Santiago",On stone in overflow forest,stone,200 m,N/A,873368,Typed,no type status
C2079351F,Ynes Mexia,Ynes Mexia,N/A,6160a,"Nov. 25, 1931",1931-11-25,N/A,Vesicularia amphibola (Spr.) Broth.,Vesicularia amphibola (Spr.) Broth.,Bartram,N/A,N/A,Peru,Loreto,N/A,N/A,Above Pongo de Manseriche. Right bank of Rio Santiago,"Above Pongo de Manseriche, right bank of Rio Santiago",Dense forest on log,log,200 m,N/A,873367,Typed,no type status
C2079352F,Ynes Mexia,Ynes Mexia,N/A,6217a,"Dec. 4, 1931",1931-12-04,N/A,Vesicularia amphibola (Spr.) Broth.,Vesicularia amphibola (Spr.) Broth.,Bartram,N/A,N/A,Peru,Loreto,N/A,N/A,Above Pongo de Manseriche. Streamlet on right bank of Rio Santiago,"Above Pongo de Manseriche, streamlet on right bank of Rio Santiago",On rocks wet by spray,rock,250 m,N/A,870879,Typed,no type status
C2079353F,Ynes Mexia,Ynes Mexia,N/A,6259a,"Dec. 12, 1931",1931-12-12,N/A,Vesicularia amphibola (Spr.) Broth.,Vesicularia amphibola (Spr.) Broth.,Bartram,N/A,N/A,Peru,Loreto,N/A,N/A,Above Pongo de Manseriche. Creek Carapisa,"Above Pongo de Manseriche, Creek Carapisa",Log in forest,log,215 m,N/A,870867,Typed,no type status
C2079354F,Ynes Mexia,Ynes Mexia,N/A,6354a,"Jan. 3, 1932",1932-01-03,N/A,Vesicularia amphibola (Spr.) Broth.,Vesicularia amphibola (Spr.) Broth.,Bartram,N/A,N/A,Peru,Loreto,N/A,N/A,Above Pongo de Manseriche. Creek Inche,"Above Pongo de Manseriche, Creek Inche",On earth collected on inclined tree trunk,soil,215 m,N/A,873369,Typed,no type status
C2079355F,Ynes Mexia,Ynes Mexia,N/A,6375a,"Jan. 3, 1932",1932-01-03,N/A,Vesicularia amphibola (Spr.) Broth.,Vesicularia amphibola (Spr.) Broth.,Bartram,N/A,Taxithelium planum (Brid.) Mitt.,Peru,Loreto,N/A,N/A,Above Pongo de Manseriche. Creek Inche,"Above Pongo de Manseriche, Creek Inche",On rotten log,log,215 m,N/A,1039121,Typed,no type status
C2079356F,Ynes Mexia,Ynes Mexia,N/A,6375a,"Jan. 3, 1932",1932-01-03,N/A,Vesicularia amphibola (Spr.) Broth.,Vesicularia amphibola (Spr.) Broth.,Bartram,N/A,Taxithelium planum (Brid.) Mitt.,Peru,Loreto,N/A,N/A,Above Pongo de Manseriche. Creek Inche,"Above Pongo de Manseriche, Creek Inche",On rotten log,log,215 m,N/A,870880,Typed,no type status
C2079357F,Ynes Mexia,Ynes Mexia,N/A,6377,"Jan. 3, 1932",1932-01-03,N/A,Vesicularia amphibola (Spr.) Broth.,Vesicularia amphibola (Spr.) Broth.,Bartram,N/A,N/A,Peru,Loreto,N/A,N/A,Above Pongo de Manseriche. Creek Inche,"Above Pongo de Manseriche, Creek Inche",On rotten log,log,215 m,N/A,870873,Typed,no type status
C2079358F,Ynes Mexia,Ynes Mexia,N/A,8070,"May 14,1936",1936-05-14,N/A,Vesicularia amphibola (Spr.) Broth.,Vesicularia amphibola (Spr.) Broth.,Bartram,N/A,N/A,Peru,Cusco,La Convencion,N/A,upper valley of the Sambray; affluent of the Vilcanota,"Upper valley of Sambray River, affluent of Vilcanota River",On rotten logs in virgin forest,log,1800 m,N/A,1036318,Typed,no type status
C2079359F,Ynes Mexia,Ynes Mexia,N/A,8070,"May 14,1936",1936-05-14,N/A,Vesicularia amphibola (Spr.) Broth.,Vesicularia amphibola (Spr.) Broth.,Bartram,N/A,N/A,Peru,Cusco,La Convencion,N/A,upper valley of the Sambray; affluent of the Vilcanota,"Upper valley of Sambray River, affluent of Vilcanota River",On rotten logs in virgin forest,log,1800 m,N/A,1039122,Typed,no type status
C2079360F,P. R. Reitz,P. R. Reitz,N/A,2222,20.9.1949,1949-09-20,N/A,Vesicularia vesicularis (Schwaegr.) Broth.,Vesicularia vesicularis (Schwaegr.) Broth.,E. B. Bartram,1949,N/A,Brazil,Santa Catarina,N/A,Brusque,"Azambuja, Brusque",Azambuja,"Epífito, da mata virgem",N/A,50 msm,N/A,N/A,Typed,no type status
C2079362F,Richard Evans Schultes,Richard Evans Schultes,N/A,11107,"Dec., 1950",1950-12-00,N/A,Vesicularia vesicularis (Schwgr.) Brot,Vesicularia vesicularis (Schwgr.) Brot,Dana Griffin III,N/A,N/A,Colombia,Meta,N/A,N/A,Intendencia del Meta: alrededores de Villavicencio,Alrededores de Villavicencio,N/A,N/A,500 m,N/A,1055509,Typed,no type status
C2079595F,H. Roivainen,H. Roivainen,N/A,2095,25.1.1970,1970-01-25,N/A,Isopterygium pulchellum (Hedw.) Jaeg.,Isopterygium pulchellum (Hedw.) Jaeg.,R. Ochyra,1996,N/A,Argentina,Tierra del Fuego,Ushuaia,Ushuaia,"Tierra del Fuego australis, Ushuaia, Arroyo Grande","Tierra del Fuego australis, Arroyo Grande","En fisuras de roca y en raizes humoso-arcillosos de Nothofagus pumilio, en orilla de la cascada",rocks and roots,150 m s.m.,"54°47'S,68°17'W",1182417,Typed,no type status
C2079596F,H. Roivainen,H. Roivainen,N/A,1352,24.12.1969,1969-12-24,N/A,Isopterygium pulchellum (Brid.) Jaeg.,Isopterygium pulchellum (Brid.) Jaeg.,R. Ochyra,1996,N/A,Argentina,Tierra del Fuego,Ushuaia,Ushuaia,"Tierra de Fuego australis, Ushuaia, Valle del Río Pipo","Tierra del Fuego australis, Valle del Río Pipo",Suelo humoso húmedo en el pendiente del río,soil,300 m s.m.,"54°46'S,68°20'W",1182415,Typed,no type status
C2079597F,E. P. Killip & A. C. Smith,E. P. Killip,A. C. Smith,14871,"November 29, 1926",1926-11-29,N/A,Isopterygium stigmocarpum (C.M.) Par.,Isopterygium tenerum (Sw.) Mitt.,R.R. Ireland,1988,N/A,Colombia,Santander,N/A,N/A,between Puerto Wilches and Puerto Santos,Between Puerto Wilches and Puerto Santos,N/A,N/A,110-115 m,N/A,1040009,Typed,no type status
C2079598F,Richard Evans Schultes,Richard Evans Schultes,N/A,11110,"Dec., 1950",1950-12-00,N/A,Isopterygium tenerum (Sw.) Mitt.,Isopterygium tenerum (Sw.) Mitt.,R.R. Ireland,1988,N/A,Colombia,Meta,N/A,N/A,Intendencia del Meta: alrededores de Villavicencio,Alrededores de Villavicencio,N/A,N/A,500 m,N/A,1055473,Typed,no type status
C2079599F,D.C.Geijskes,D.C.Geijskes,N/A,s.n.,29 - 9 - 1952,1952-09-29,N/A,Isopterygium tenerum(Sw.)Mitt.,Isopterygium tenerum(Sw.)Mitt.,H.R. Zielman,N/A,N/A,Suriname,N/A,N/A,N/A,Marowijne River; Armina falls,"Marowijne River, Armina Falls","Rainforest. On roots and rocks on bank of river, shade",roots and rocks,N/A,N/A,1073518,Typed,no type status
C2079600F,Ynes Mexia,Ynes Mexia,N/A,4841,"July 6, 1930",1930-07-06,N/A,Isopterygium bracyneuron (C.M.)Mitt. ex P.,Isopterygium tenerum (Sw.) Mitt.,R.R. Ireland,1988,N/A,Brazil,Minas Gerais,N/A,Viçosa,Viçosa. Agricultural College lands. Horticultural Hill,"Agricultural College lands, Horticultural Hill",Cut over woods near base. On rotting log,log,670 m,N/A,1039979,Typed,no type status
C2079601F,Ynes Mexia,Ynes Mexia,N/A,4888,"July 21, 1930",1930-07-21,N/A,Isopterygium laxum (Hpe.) Broth.,Isopterygium tenerum (Sw.) Mitt.,R.R. Ireland,1988,N/A,Brazil,Minas Gerais,N/A,Viçosa,Viçosa. Agricultural College lands. Corrriga Riberró,"Agricultural College lands, córrego Ribeiro",Shady stream bank. On rotten wood,log,675 m,N/A,873365,Typed,no type status
C2079602F,Ynes Mexia,Ynes Mexia,N/A,5386,"Dec. 6, 1930",1930-12-06,N/A,Isopterygium brachyneuron (C.M. ) Mitt.,Isopterygium tenerum (Sw.) Mitt.,R.R. Ireland,1988,N/A,Brazil,Minas Gerais,N/A,Viçosa,Viçosa. Road to São Miguel. About km. 41/2,"Road to São Miguel, ca. Km 4.5",Dense forest. On rotten log,log,710 m,N/A,870841,Typed,no type status
C2079603F,Ynes Mexia,Ynes Mexia,N/A,5441,"Dec. 23, 1930",1930-12-23,N/A,Isopterygium laxum (Hpe.) Broth.,Isopterygium tenerum (Sw.) Mitt.,R.R. Ireland,1988,N/A,Brazil,Minas Gerais,N/A,Viçosa,Viçosa. Agricultural College lands. Base of Horticultural Hill,"Agricultural College lands, base of Horticultural Hill","On rotting log, in woods",log,670 m,N/A,870823,Typed,no type status
C2079604F,"H. S. Irwin, R. M. Harley, G. L. Smith",H. S. Irwin,"R. M. Harley, G. L. Smith",31332,2 March 1971,1971-03-02,N/A,Isopterygium tenerum (Sw.) Mitt.,Isopterygium tenerum (Sw.) Mitt.,R.R. Ireland,1988,N/A,Brazil,Bahia,N/A,N/A,"Valley of the Rio das Ondas, ca. 10km W. of Barreiras","Valley of the Rio das Ondas, ca. 10 kilometers west of Barreiras","On the bark and exposed roots of Coccoloba sp., and on adjacent soil, at river bank. Cut-over gallery forest and adjacent cerrado",bark,ca. 500m,N/A,1059328,Typed,no type status
C2079606F,Ynes Mexia,Ynes Mexia,N/A,4884,"July 21, 1930",1930-07-21,N/A,Isopterygium curvicollum (C.M. ) Mitt. ,Isopterygium tenerum (Sw.) Mitt.,R.R. Ireland,1988,N/A,Brazil,Minas Gerais,N/A,Viçosa,Viçosa. Agricultural College lands. Corrrigo Riberro,"Agricultural College lands, córrego Ribeiro","Shady stream bank, on rotten log",log,675 m,N/A,870845,Typed,no type status
C2079607F,Ynes Mexia,Ynes Mexia,N/A,4698,"May 14, 1930",1930-05-14,N/A,Isopterygium curvicollum (C.M. ) Mitt. ex P.,Isopterygium tenerum (Sw.) Mitt.,R.R. Ireland,1988,N/A,Brazil,Minas Gerais,N/A,Viçosa,Viçosa. Fazenda de Cresiuma,Fazenda de Criciúma,Wood on slope. On rotten log,log,700 m,N/A,870839,Typed,no type status
C2079608F,Ynes Mexia,Ynes Mexia,N/A,4884,"July 21, 1930",1930-07-21,N/A,Isopterygium curvicollum (C.M. ) Mitt. ,Isopterygium tenerum (Sw.) Mitt.,R.R. Ireland,1988,N/A,Brazil,Minas Gerais,N/A,Viçosa,Viçosa. Agricultural College lands. Corrrigo Riberro,"Agricultural College lands, córrego Ribeiro","Shady stream bank, on rotten log",log,675 m,N/A,1039977,Typed,no type status
C2079609F,Ynes Mexia,Ynes Mexia,N/A,4545,"March 31, 1930",1930-03-31,N/A,Isopterygium curvicollum (C.M. ) Mitt. ,Isopterygium tenerum (Sw.) Mitt.,R.R. Ireland,1988,N/A,Brazil,Mians Gerais,N/A,Viçosa,"Viçosa. Road to São Miguel. Near stream ""Turba.""","Road to São Miguel, near stream Turba",Cut over woods on slope. On rotting tree trunk,bark,710 m,N/A,1039978,Typed,no type status
C2079611F,V. Schiffner,V. Schiffner,N/A,s.n.,m. Jul. fr.,N/A,N/A,Isopterygium aurantiacum (C. M.) Broth.,Isopterygium tenerum (Sw.) Mitt.,R.R. Ireland,1988,N/A,Brazil,São Paulo,N/A,São Paulo,Prope urbem Cerqueria-Cesar,Cerqueira Cesar,In palude,N/A,c. 500 m.s.m,N/A,1012776,Typed,no type status
C2079715F,"J.-P. Frahm, P. Geissler, S.R. Gradstein, G. Phillippi, W. Schultze-Motel",J.-P. Frahm,"P. Geissler, S.R. Gradstein, G. Phillippi, W. Schultze-Motel",875,4.9.1982,1982-09-04,N/A,Entodon jamesonii (Tayl.) Mitt.,Entodon jamesonii (Tayl.) Mitt.,W. Schultze-Motel,N/A,N/A,Peru,Amazonas,Chachapoyas,N/A,Straße Chachapoyas-Cajamarca oberhalb Leimebamba km 417,Straße Chachapoyas-Cajamarca oberhalb Leimebamba Kilometer 417,"S-exponierter Hang, hochandiner Regenwald auf Kalkstein",stone,2800 msm,N/A,1076822,Typed,no type status
C2079716F,Paul C. Hutchison J. Kenneth Wright,Paul C. Hutchison,J. Kenneth Wright,4806,1 April 1964,1964-04-01,N/A,Entodon jamesoni (Tayl.) Mitt.,Entodon jamesoni (Tayl.) Mitt.,H. Robinson,1966,N/A,Peru,Amazonas,Chachapoyas,N/A,"Cerros Calla Calla, east side, 5 km. above Leimebamba on the road to Balsas, at San Miguel (no buildings at this locality)","Cerros Calla Calla, east side, 5 kilometers above Leimebamba on the road to Balsas, at San Miguel",N/A,N/A,2400 m,N/A,1012181,Typed,no type status
C2079717F,Dana Griffin III,Dana Griffin III,N/A,PV-966,20 febr. 1985,1985-02-20,N/A,Entodon jamesoni (tayl.) Broth.,Entodon jamesoni (tayl.) Broth.,Dana Griffin III,N/A,N/A,Venezuela,Merida,N/A,N/A,"Páramo de Los Granates, finca de Los Granates, a lo largo del río de Los Granates","Páramo de Los Granates, finca de Los Granates, a lo largo del río de Los Granates","Páramo, a lo largo del río y en las lomas cercanas",N/A,3.000-3.100 m,N/A,1064416,Typed,no type status
C2079718F,Ynes Mexia,Ynes Mexia,N/A,5687,"April 21, 1931",1931-04-21,N/A,Entodon Lindbergii Hpe.,Entodon Lindbergii Hpe.,Bartram,N/A,N/A,Brazil,Minas Gerais,N/A,Corinto,Corinto. Fazenda do Diamante. Campo Tiririca,"Fazenda do Diamante, Campo Tiririca",Base of living tree in shade,tree,590 m,N/A,870818,Typed,no type status
C2079720F,Marko Lewis,Marko Lewis,N/A,79-590,8 February 1979,1979-02-08,N/A,Entodon cf. nano-climacium C.M. (= E. micans Herz.),Entodon micans Herz.,W. Buck,1980,N/A,Bolivia,Tarija,N/A,N/A,"Prov. Méndez/Prov. Cercado/Prov. Avilés: Canyon 5 mi. SW of Tablada, SW of Tarija","Méndez, Cercado and Avilés provinces, canyon 5 miles southwest of Tablada, southwest of Tarija",Bank of creek,N/A,2160 m,"21° 36' S, 64° 48' W",1078788,Typed,no type status
C2079721F,Marko Lewis,Marko Lewis,N/A,79-1220,22 March 1979,1979-03-22,N/A,Entodon nano-climacium C.M. (= E. micans Herz.),Entodon micans Herz.,W. Buck,1980,N/A,Bolivia,La Paz,Larecaja,N/A,Near large red outcrop 2 mi. from Sorata down Río Consata,Near large red outcrop 2 miles from Sorata down Río Consata,Very shady ground along creek in humid shrubs,soil,2600 m,"15° 41' S, 68° 43' W",1078789,Typed,no type status
C2079723F,Marko Lewis,Marko Lewis,N/A,79-1346,1 April 1979,1979-04-01,N/A,cf. Entodon polycarpus,Entodon polycarpus,W. Buck,1980,N/A,Bolivia,La Paz,Larecaja,N/A,Between Abra Huallata and waterfall at Millipaya,Between Abra Huallata and waterfall at Millipaya,"Waterfall ravine, highest extension of shrubs",N/A,3780 m,"15° 51' S, 68° 39' W",1078787,Typed,no type status
C2079856F,Ynes Mexia,Ynes Mexia,N/A,4841,"July 6, 1930",1930-07-06,N/A,Isopterygium brachyneuron (C.M.) Mitt. ex P.,Isopterygium tenerum (Sw.) Mitt.,R.R. Ireland,1988,N/A,Brazil,Minas Gerais,N/A,Viçosa,Viçosa. Agricultural College lands. Horticultural Hill,"Agricultural College lands, Horticultural Hill",Cut over woods near base. On rotting log,log,670 m,N/A,870837,Typed,no type status
E00570050,"Vallejo-Marin, M., Lye, G., Barragán, D., Vallejo, M.A., Marin, C., Vallejo, I.","Vallejo-Marin, M.","Lye, G., Barragán, D., Vallejo, M.A., Marin, C., Vallejo, I.",11-LED-seed,27 August 2011,2011-08-27,N/A,Mimulus peregrinus sp. nov.,Mimulus peregrinus Vall.-Marin,N/A,N/A,N/A,Scotland,South Lanarkshire,N/A,N/A,"British Isles, v.c. 77, Shortcleuch Water, Leadhills","British Isles, v.c. 77, Shortcleuch Water, Leadhills",Occuring on the banks of a stream on substrate of sand and shingle,rock,360 m,"OS Grid reference: NS 9029 1578. WGS84 coordinates: N 55.4237°, W 3.7349°",N/A,Typed,Holotype
K000263710,"J. J. de Wilde,Sosef & van Nek",J. J. de Wilde,Sosef & van Nek,10130,22-1-1991,1991-01-22,N/A,Rhynchosia gabonensis Jongkind,Rhynchosia gabonensis Jongkind,N/A,N/A,N/A,Gabon,N/A,N/A,N/A,About 10 km. on the road from Tchimbélé to Assok,About 10 kilometers on the road from Tchimbélé to Assok,In tree in roadside,tree,± 580 m,"0 04 N., 10 23 E.",N/A,Typed,Isotype
K000964719,W. Hoehne,W. Hoehne,N/A,s.n.,13/9/33,1933-09-13,N/A,Cestrum corymbosum Schlecht.,Cestrum corymbosum Schlecht.,M.Kuhlmann,N/A,N/A,Brazil,São Paulo,N/A,São Paulo,Cantareiras. São Paulo,Cantareiras São Paulo,N/A,N/A,N/A,N/A,10228,Typed,no type status
K001046329,G.Pabst,G.Pabst,N/A,5421,7.9.60,1960-09-07,N/A,Avicennia tomentosa,Avicennia tomentosa,A.P.Duarte,23.9.60,N/A,Brazil,Rio de Janeiro,N/A,N/A,"Guanabara, próximo ao Jóquei Club da Ilha do Governador","Guanabara, próximo ao Jóquei Clube, Ilha do Governador",Mangue,N/A,N/A,N/A,N/A,Typed,no type status
K001207911,"G. Hatschbach, O. Guimaraes",G. Hatschbach,O. Guimaraes,20590,9/XII/968,1968-12-09,N/A,Pfaffia glabratoides Ssgth.,Pfaffia glabratoides Ssgth.,T.M.Pedersen,971,N/A,Brazil,Paraná,N/A,Laranjeiras do Sul,"Rio Iguaçu,prox.a barra do Perdido(mun. Laranjeiras do Sul)Paraná","Rio Iguaçu, próximo a barra do Perdido","Terreno arenoso, margens de rio",soil,N/A,N/A,N/A,Typed,no type status
V0075820F,T. R. Dudley,T. R. Dudley,N/A,10783,4 July 1968,1968-07-04,N/A,N/A,Thelypteris dudleyi A. R. Smith,Alan R. Smith,1989,N/A,Peru,Cusco,La Convención,N/A,between camp 4&5; almost to Camp 5,"Cordillera Vilcabamba, between camp 4 and 5, almost to camp 5","In full sun on old open landslide, just above cloud forest",rock,c. 2825 m,12° 37'; 73° 32',1719861,Typed,Isotype
V0075836F,S.Knapp,S.Knapp,N/A,5881,4 July 1982,1982-07-04,N/A,N/A,Trichipteris pinnata Stolze,Robert G. Stolze,1984,N/A,Panama,Colón,N/A,N/A,"Santa Rita Ridge road, 21-26 km from Transisthmian Highway","Santa Rita Ridge road, 21-26 kilometers from Transisthmian Highway",Tropical wet forest,N/A,500-550 m.,"9°25'N, 79°37' W",1932768,Typed,Isotype
V0078059F,Ruiz et Pavón,Ruiz,Pavón,s.n.,1778-1788,1778-00-00,1788-00-00,Nolana spathulata R & P,Nolana spathulata Ruiz & Pav.,A. Mesa,N/A,N/A,Peru,N/A,N/A,N/A,vice-regno Peruviano et Chilensi,Vice-regno Peruviano et Chilensi,N/A,N/A,N/A,N/A,845155,Typed,Isolectotype
V0081497F,M. O. Dillon & D. Dillon,M. O. Dillon,D. Dillon,3776,1 Nov 1983,1983-11-01,N/A,Galvezia fruticosa Gmel.,Galvezia elisensii M.O. Dillon & Quipuscoa,N/A,N/A,N/A,Peru,Arequipa,Caravelí,N/A,"Lomas of Atiquipa, ca. 10.5 km N of turn-off to Atiquipa. Km 584 S of Lima","Lomas of Atiquipa, approximately 10.5 kilometers north of turn-off to Atiquipa, Kilometer 584 south of Lima",Loma,N/A,ca. 150-200 m,N/A,1940835,Typed,Holotype
V0082645F,M. O. Dillon,M. O. Dillon,N/A,5376,21 Dec 1987,1987-12-21,N/A,Notholaena mollis Kunze,Cheilanthes mollis (Kunze) C. Presl,N/A,N/A,N/A,Chile,Antofagasta,Antofagasta,N/A,"Cerro Perales, ca. 5 km E of Taltal","Cerro Perales, approximately 5 kilometers east of Taltal",N/A,rock,600-850 m,"25° 25' S, 7° 25' W",2010984,Typed,no type status
V0092855F,Jóse Campos y O. Díaz,Jóse Campos,O. Díaz,2490,9 Febrero 1996,1996-02-09,N/A,Malpighiaceae,Amorina camporum W. R. Anderson,W. R. Anderson,2006,N/A,Peru,Cajamarca,San Ignacio,N/A,Distrito Chirinos: Entre La Catagua y Tablón,Distrito Chirinos: Entre La Catagua y Tablón,N/A,N/A,550 - 650 m,05°19'S 078°47'W,2296033,Typed,Isotype
V0092864F,Camilo Díaz y Antonio Peña,Camilo Díaz,Antonio Peña,8808,4 Diciembre 1996,1996-12-04,N/A,Ericaceae,Symplocos ovata Ståhl,B. Ståhl,2010,N/A,Peru,Amazonas,Luya,N/A,"Camporedonde, Tullanaya, Pascana ""Pajaro Tigre""","Camporedonde, Tullanaya, Pascana ""Pajaro Tigre""",N/A,N/A,2250-2360 m,N/A,2296023,Typed,Isotype
V0092900F,R & P,R,P,9/58,1778-1788,1778-00-00,1788-00-00,Bonarea purpurea ( R & P) Herb.,Alstroemeria purpurea Ruiz & Pav.,N/A,N/A,N/A,Peru,N/A,N/A,N/A,Pillao,Pillao,N/A,N/A,N/A,N/A,916119,Typed,Isotype
V0092906F,"V. Quipuscoa S., A. Ságastegui A., S. Leiva G. & M. Bejarano C.",V. Quipuscoa S.,"A. Ságastegui A., S. Leiva G. & M. Bejarano C.",1378,20 agosto 1998,1998-08-20,N/A,Lithospermum cinerascens (A.DC.) Johnst.,Lithospermum leymebambense Weigend & Nork,M. Weigend,September 2006,N/A,Peru,Amazonas,Chachapoyas,N/A,"Distrito Leymebamba. Carretera a Celendín, entre Ishpingo - Pomacocha","Distrito Leymebamba. Carretera a Celendín, entre Ishpingo - Pomacocha",Bosque montano fragmentado,N/A,2800-3000 m,N/A,2211679,Typed,Isotype
V0152152F,Manuel Rimachi Y.,Manuel Rimachi Y.,N/A,4268,"February 8, 1979",1979-02-08,N/A,Nectandra krukovii (A.C. Smith) Kosterm.,Endlicheria anomala (Nees) Mez,A. Chanderbali,2001,N/A,Peru,Loreto,Requena,N/A,"Dtto. Saquena. Río Ucayali, Quebrada de Aucayacu, above Genaro Herrera","Distrito Saquena. Río Ucayali, Quebrada de Aucayacu, above Genaro Herrera",Marginal forest,N/A,N/A,N/A,2058606,Typed,no type status
V0190732F,Robin B. Foster,Robin B. Foster,N/A,8752,13 Sept. 1982,1982-09-13,N/A,Acidoton venezolanus (Pax.& Hoffm.) Webster,Acidoton venezolanus (Pax.& Hoffm.) Webster,M. J. Huft,1983,N/A,Peru,Huánuco,N/A,N/A,Pachitea; Puerto Inca to Sungaro. Foot trail between Río Pachitea and Río Sungaro,Pachitea; Puerto Inca to Sungaro. Foot trail between Río Pachitea and Río Sungaro,Forested low hills and ravines,N/A,250-300 m,"75°00'W, 9°18'S",1921102,Typed,no type status
V0195906F,Percy Núñez & S. Walsh,Percy Núñez,S. Walsh,6330,29 October 1986,1986-10-29,N/A,Euphorbia heterophylla L.,Euphorbia heterophylla L.,M. H. Mayfield,Oct. 1995,N/A,Peru,Cuzco,La Convención,N/A,"La Convención, Quillabamba, Salaspampa","Quillabamba, Salaspampa",N/A,N/A,1110 m,N/A,1982606,Typed,no type status
V0201636F,"G. Moore,L.Luna,J.Ruiz",G. Moore,"L.Luna,J.Ruiz",138,18-8-81,1981-08-18,N/A,Ficus,Ficus maxima P. Miller,W. C. Burger,1982,N/A,Peru,Loreto,N/A,N/A,"Quistococha, 14km north of Iquitos","Quistococha, 14 kilometers north of Iquitos",N/A,N/A,600m,N/A,1923146,Typed,no type status
V0239614F,Magda Chanco with Michelle McMahon and Larry Hufford,Magda Chanco,Michelle McMahon and Larry Hufford,s.n.,14 April 2003,2003-04-14,N/A,Abutilon sp.,Abutilon sp.,N/A,N/A,N/A,Peru,Cajamarca,N/A,N/A,Chilete-San Pablo road about 15 km from Chilete,Chilete-San Pablo road about 15 kilometers from Chilete,N/A,N/A,3614 feet,S7° 10.554' W78° 49.665',2253555,Typed,no type status
V0290180F,Jose Schunke,Jose Schunke,N/A,9560,30 Mayo 1977,1977-05-30,N/A,Hamelia patens Jacq.,Hamelia patens Jacq.,J. Dwyer,1980,N/A,Peru,San Martín,Lamas,N/A,"Distrito: Alonso de Alvarado. San Juan de Pacaizapa, km. 72 carretera Tarapoto-Moyobamba","Distrito: Alonso de Alvarado. San Juan de Pacaizapa, Kilometer 72 carretera Tarapoto-Moyobamba","En bosque secundario, con abundante luz solar",N/A,1000-1050 m,N/A,1872133,Typed,no type status
V0414961F,"Marcos Ríos, Tony Mori, Nigel Pitman, Luis Torres, Corine Vriesendorp",Marcos Ríos,"Tony Mori, Nigel Pitman, Luis Torres, Corine Vriesendorp",4399,13 octubre 2014,2014-10-13,N/A,Andira macrothyrsa Ducke,Andira macrothyrsa Ducke,N/A,N/A,N/A,Peru,Loreto,Requena,N/A,"Dtto. de Soplín. Quebrada Yanayacu-Río Blanco. Campamento Wiswincho del inventario rápido #27, de la region Tapiche-Blanco","Distrito de Soplín, Quebrada Yanayacu-Río Blanco. Campamento Wiswincho del inventario rápido 27, de la region Tapiche-Blanco",Bosque de planicie inundable de aguas blancas,N/A,90-110 msnm,"05°48'33.5""S 73°51'53.8""W",2318558,Typed,no type status
V0414962F,"Marcos Ríos, Tony Mori, Nigel Pitman, Luis Torres, Corine Vriesendorp",Marcos Ríos,"Tony Mori, Nigel Pitman, Luis Torres, Corine Vriesendorp",4399,13 octubre 2014,2014-10-13,N/A,Andira macrothyrsa Ducke,Andira macrothyrsa Ducke,N/A,N/A,N/A,Peru,Loreto,Requena,N/A,"Dtto. de Soplín. Quebrada Yanayacu-Río Blanco. Campamento Wiswincho del inventario rápido #27, de la region Tapiche-Blanco","Distrito de Soplín, Quebrada Yanayacu-Río Blanco. Campamento Wiswincho del inventario rápido 27, de la region Tapiche-Blanco",Bosque de planicie inundable de aguas blancas,N/A,90-110 msnm,"05°48'33.5""S 73°51'53.8""W",2318557,Typed,no type status
V0441679F,Donald R. Simpson & José Schunke V.,Donald R. Simpson,José Schunke V.,565,"January 4, 1968",1968-01-04,N/A,Ipomea carnea Jacq.,Ipomea carnea Jacq.,D. Simpson,Jan. 1969,N/A,Peru,Tumbes,Tumbes,N/A,"Dtto. Pampas de Hospital. Along the road about 10 km. northwest of El Caucho. Bosque Nacional de Tumbes: Región de ""bosque muy seco tropical"" (sensu Tosi, 1960) cerca de El Caucho o entre El Caucho y Pampas de Hospital","Distrito Pampas de Hospital, along the road about 10 kilometers northwest of El Caucho. Bosque Nacional de Tumbes, región de ""bosque muy seco tropical"" (sensu Tosi, 1960) cerca de El Caucho o entre El Caucho y Pampas de Hospital","From the dry, deciduous forest zone, downward into the very dry thorn-scrub",N/A,N/A,N/A,1897948,Typed,no type status
V0460617F,"J. Farfán, L. Valenzuela, I. Huamantupa, A. Carazas, W. Argandoña",J. Farfán,"L. Valenzuela, I. Huamantupa, A. Carazas, W. Argandoña",1262,23 Octubre 2006,2006-10-23,N/A,Anthurium clavigerum Poepp.,Anthurium clavigerum Poepp.,T. B. Croat,2008,N/A,Peru,Cusco,La Convención,N/A,"Dist. Vilcabamba, Chuanquiri camino a Riobamba","Distrito Vilcabamba, Chuanquiri camino a Riobamba",Bosque secundario,N/A,1009 m,"12°47'15""S 073°10'10""W",2315782,Typed,no type status
V0462893F,Ynes Mexia,Ynes Mexia,N/A,8265,"Oct. 9, 1936",1936-10-09,N/A,Piper callosum Ruiz & Pavon,Piper callosum Ruiz & Pavon,W. Trelease,N/A,N/A,Peru,Huánuco,Huánuco,N/A,Near confluence Rio Cayumba with Huallaga,Near confluence Rio Cayumba with Huallaga,Forested slope above road,N/A,805 m,N/A,1066996,Typed,no type status
V0462895F,Ynes Mexia,Ynes Mexia,N/A,6157,"Nov. 24, 1931",1931-11-24,N/A,Piper callosum Ruiz & Pavon,Piper callosum Ruiz & Pavon,W. Trelease,N/A,N/A,Peru,Loreto,N/A,N/A,Above Pongo de Manseriche. Right bank of mouth of Rio Santiago,Above Pongo de Manseriche. Right bank of mouth of Rio Santiago,Dense forest,N/A,200 m,N/A,872277,Typed,no type status
V0469643F,Thomas B. Croat,Thomas B. Croat,N/A,18210,"July 18, 1972",1972-07-18,N/A,Agave americana L.,Agave americana L.,N/A,N/A,N/A,Peru,Loreto,N/A,N/A,12.5 km. SW of Iquitos on road to Lago Quisto-cocha,12.5 kilometers southwest of Iquitos on road to Lago Quisto-cocha,Sandy area,N/A,N/A,N/A,N/A,Typed,no type status
V0566108F,Eman Addo,Eman Addo,N/A,1026,1999,1999-00-00,N/A,Uvaria versicolor Pierre,Uvaria versicolor Pierre,N/A,N/A,N/A,Ghana,N/A,N/A,N/A,N/A,[precise locality unknown],N/A,N/A,N/A,N/A,2325285,Typed,no type status
V0567164F,A.A.Enti,A.A.Enti,N/A,398,22/11/1971,1971-11-22,N/A,Pergularia daemia,Pergularia daemia,A.A.Enti,1971,N/A,Ghana,N/A,N/A,N/A,Awatu - Winneba road,Awutu-Winneba road,N/A,N/A,N/A,N/A,1753348,Typed,no type status
V0567306F,Sue A. Thompson,Sue A. Thompson,N/A,1522,9 July 1984,1984-07-09,N/A,Impatiens macroptera Hook.f.,Impatiens macroptera Hook.f.,N/A,N/A,N/A,Cameroon,Fako,N/A,N/A,Prov. Sud-Ouest: Bakingili. Trail up Mt. Cameroon,Prov. Sud-Ouest: Bakingili. Trail up Mount Cameroon,N/A,rock,50-250 m,"04°04'N, 09°02'E",2086046,Typed,no type status
V0570110F,J. M. Fay,J. M. Fay,N/A,8271,28 February 1988,1988-02-28,N/A,Combretum,Combretum smeathmannii G. Don,Ake Assi,1988,"Irvingia smithii, Guiboutia demensii, Berlinia sp.",Cameroon,Southeast,N/A,N/A,Along the Sangha River adjacent to the island of Kiloua,Along the Sangha River adjacent to the island of Kiloua,In riparian forest adjacent to seasonally flooded forest,N/A,385 m,02°21'N 16°09'E,2041248,Typed,no type status
V0572217F,J.Deaw,J. Deaw,N/A,Sp 283,4/10/1971,1971-10-04,N/A,Eugenia coronata,Eugenia coronata,A.A.Enti,1971,N/A,Ghana,N/A,N/A,Accra,Accra,[precise locality unknown],N/A,N/A,N/A,N/A,1753421,Typed,no type status
V0574226F,J. M. Fay,J. M. Fay,N/A,8294,4 March 1988,1988-03-04,N/A,Millettia,Millettia zechiana Harms,Ake Assi,1988,"Guibourtia demeusei, Berlinia sp., Bombax sp.",Cameroon,N/A,N/A,N/A,On the Sangha River across from Ndakan gorilla study area,On the Sangha River across from Ndakan gorilla study area,Seasonally flooded forest,N/A,385 m,02°20'N 16°08'E,2041244,Typed,no type status
V0574490F,Gordon McPherson,Gordon McPherson,N/A,13781,20 Mars 1989,1989-03-06,N/A,Corynanthe mayumbensis (R. Good) N. Halle,Corynanthe mayumbensis (R. Good) N. Halle,Wilks & McPherson,1989,N/A,Gabon,Ogooue-Ivindo,N/A,N/A,"Réserve de la Lopé, au sud d'Ayem; chantier SOFORGA","Réserve de la Lopé, au sud d'Ayem, chantier Soforga",N/A,N/A,c. 200 m,0°25'S 11°30'E,2040859,Typed,no type status
V0577013F,J. M. et B. Reitsma,J. M. Reitsma,B. Reitsma,2013,3-3-36,1986-03-03,N/A,Bulbophyllum scaberulum (Rolfe) Bolus var. scaberulum,Bulbophyllum scaberulum (Rolfe) Bolus var. scaberulum,O. Kosovsky,2011,N/A,Gabon,N/A,N/A,N/A,"Ca. 6 km NW of Oveng, chantier Rougier Océan ","Ca. 6 kilometers northwest of Oveng, chantier Rougier Océan",Primary rain forest,N/A,N/A,0 41 N x 11 07 E,2310219,Typed,no type status
V0577681F,C.J.P. Seegeler,C.J.P. Seegeler,N/A,2806,23 October 1972,1972-10-23,N/A,Vernonia abyssinica Sch.Bip.,Vernonia abyssinica Sch.Bip.,G.J.H. Amshoff,1982,N/A,Ethiopia,N/A,N/A,N/A,"Shewa, c. 3 km from Metahara, on road to Nazareth ","Shewa, ca. 3 kilometers from Metahara, on road to Nazareth",N/A,rock,925m,c. 08° 56' N 39° 55' E,2302805,Typed,no type status
V0577892F,Carvalho,Carvalho,N/A,2102,26-VII-1986,1986-07-26,N/A,Mariscus alternifolius Vahl,Mariscus alternifolius Vahl,C. Cebolla & Ma A. Rivas Ponce,1995,N/A,Equatorial Guinea,N/A,N/A,Malabo,"Bioco: Malabo, finca las Carboneras","Bioco: Malabo, finca las Carboneras",Bosque secundario y terrenos incultos,N/A,8 m,32NMK7415,220108,Typed,no type status
V0578553F,Fernandez Casas,Fernandez Casas,N/A,11206,5-II-1989,1989-02-05,N/A,Agrostis manii (Hooker fil.) Stapf,Agrostis manii (Hooker fil.) Stapf,N/A,N/A,N/A,Equatorial Guinea,N/A,N/A,N/A,Bioco: cumbre del pico Basilé,Bioco: cumbre del pico Basilé,Márgenes de la pista,N/A,2870 m,32NMJ7396,2200806,Typed,no type status
V0578764F,"R. L. Piemeisel, L. W. Kephart",R. L. Piemeisel,L. W. Kephart,2,"June 28, 1927",1927-06-27,N/A,N/A,N/A,N/A,N/A,N/A,Kenya,N/A,N/A,N/A,"Muthaiga, near Nairobi","Muthaiga, near Nairobi",N/A,N/A,"1,700 meters",N/A,2074762,Typed,no type status
V0580026F,H. Callens,H. Callens,N/A,s.n.,Juillet 1958,1958-07-00,N/A,Gaertnera paniculata,Gaertnera paniculata,H. Callens,1/9/58,N/A,"Congo, the Democratic Republic of the",N/A,N/A,Kisantu,Kisantu,[precise locality unknown],Foret secondaire,N/A,N/A,N/A,1584065,Typed,no type status
V0580516F,G. Troupin,G. Troupin,N/A,6333,I0/2/I958,1958-02-10,N/A,Mikania cordata (Burm.f.) B.L.Robins,Mikania cordata (Burm.f.) B.L.Robins,N/A,N/A,N/A,"Congo, the Democratic Republic of the",N/A,N/A,N/A,"Kivu, Kalehe, vers km 110,route Kavumu-Walikale;Irangi,réserve IRSAC","Kivu, Kalehe, vers Kilometer 110, Kavumu-Walikale route, Irangi, IRSAC Réserve",Forêt ombrophile,N/A,I.540 m,N/A,1543353,Typed,no type status
V0580728F,F.A.Melville,F.A.Melville,N/A,199,29.vii.1959,1959-07-29,N/A,Phaseolus lunatus L.,Phaseolus lunatus L.,N/A,N/A,N/A,Equatorial Guinea,N/A,N/A,N/A,"Annobon, South West of Crater Lake","Annobon, southwest of Crater Lake","Clearing in wood, scrambling over herbage",N/A,"1,500ft.",N/A,1624518,Typed,no type status
V0591661F,D.W. Thomas,D.W. Thomas,N/A,6850,1987,1987-00-00,N/A,Cola flavovelutinia K. Schum,Cola flavovelutinia K. Schum,D.W. Thomas,1987,N/A,Cameroon,Southwest,N/A,N/A,Korup National Park,Korup National Park,Primary rain forest,N/A,N/A,05°02'N 08°50'E,2041255,Typed,no type status
V0594158F,A. Léonard,A. Léonard,N/A,3149,I9/2 I959,1959-02-19,N/A,Oxyanthus speciosus DC. subsp. indet.,Oxyanthus speciosus DC. subsp. indet.,B.Sonké,1989,N/A,"Congo, the Democratic Republic of the",N/A,N/A,Masisi,Masisi,[precise locality unknown],Vieille forêt secondaire,N/A,I900m,N/A,2086095,Typed,no type status
V0594376F,J.M. Fay,J.M. Fay,N/A,8017,25 May 1987,1987-05-25,N/A,Burkea africana Hook.,Burkea africana Hook.,J.M. Fay,N/A,N/A,Central African Republic,N/A,N/A,N/A,Park Manovo-Gounda-St. Floris. Vicinity of Camp Koumbala,Park Manovo-Gounda-Saint Floris. Vicinity of Camp Koumbala,N/A,N/A,600 m,08°29'N 21°12'E,1999188,Typed,no type status
V0597275F,P.C.M. Jansen,P.C.M. Jansen,N/A,5996,14 April 1976,1976-04-14,N/A,Circium vulgare (Savi) Ten.,Circium vulgare (Savi) Ten.,C.H.H. Jongkind,1987,N/A,Ethiopia,N/A,N/A,N/A,"Harege, around Damata Village, near Alemaya ","Harege, around Damata Village, near Alemaya ",Between chat and Sorgum fields,N/A,2000m,c. 9°24' N 42°01' E,2302849,Typed,no type status
V0597626F,"Amanda Koch, Wilson Sakuda",Amanda Koch,Wilson Sakuda,AK61,"October 22, 2003",2003-10-22,N/A,Acacia reficiens misera (Vatke) Brenan,Acacia reficiens misera (Vatke) Brenan,Patrick Mutiso,"November 02, 2003",N/A,Kenya,N/A,N/A,N/A,Kajiado District:Oloishobor,Kajiado District:Oloishobor,Dry bushland,N/A,N/A,N/A,2309478,Typed,no type status
V0601010F,James T. Allen,James T. Allen,N/A,41,"September 23, 1996",1996-09-23,N/A,Dissotis rotundifolia (Sm.) Triana,Dissotis rotundifolia (Sm.) Triana,N/A,N/A,N/A,Ghana,N/A,N/A,N/A,Larteh; Center for Scientific Research into Plant Medicine (CSRPM) farm,"Larteh, Center for Scientific Research into Plant Medicine (CSRPM) farm",N/A,N/A,N/A,N/A,2200652,Typed,no type status
V0601406F,T.C.Wrigley and F.A.Melville,T.C.Wrigley,F.A.Melville,52,18 July 1959.,1959-07-18,N/A,N/A,Cassipourea annobonensis Midbr. ex Alston. ,A.W.Exell,1961,N/A,Equatorial Guinea,N/A,N/A,N/A,Annobon: Ridge west of Crater Lake,Annobon: Ridge west of Crater Lake,Open woodland,N/A,1200ft.,N/A,1624568,Typed,no type status
V0602418F,J.E.Andoh,J.E.Andoh,N/A,5632,March 1952.,1952-03-00,N/A,Chyrsophyllum perpulchrum Mildbr.,Chyrsophyllum perpulchrum Mildbr.,N/A,N/A,N/A,Ghana,Ashanti,N/A,N/A,Kumasi District. Kumasi Township Forest Reserve,"Kumasi District, Kumasi Township Forest Reserve",N/A,N/A,N/A,N/A,1601919,Typed,no type status
V0603038F,F. Szafranski,F. Szafranski,N/A,1378,5.2.1988,1988-02-05,N/A,Floscopa glomerata (Roem. et Schult.) Hassk.,Floscopa glomerata (Roem. et Schult.) Hassk.,N/A,N/A,N/A,"Congo, the Democratic Republic of the",Haut-Uele,N/A,Isiro,"Haaut-Zaïre, S-Rég.Haut-Uele, Isiro, prés de la route aux environs de l'usine SOCODIA","Haaut-Zaïre, Isiro, prés de la route aux environs de l'usine Socodia",Bas fond marécageux,N/A,N/A,N/A,2084694,Typed,no type status
V0604513F,J. Nemba & D.W. Thomas,J. Nemba,D.W. Thomas,520,15 June 1987,1987-06-15,N/A,Donella welwitschii Pierre ex Engl.,Donella welwitschii Pierre ex Engl.,D.W. Thomas,1987,N/A,Cameroon,Southwest,N/A,N/A,Along Kumba-Mamfe road at mile 14 Lkiliwindi,Along Kumba-Mamfe road at Mile 14 Lkiliwindi,Secondary growth and old growth forest,N/A,200 m,04°44'N 09°29'E,2041320,Typed,no type status
V0605928F,Sue A. Thompson & John E. Rawlins,Sue A. Thompson,John E. Rawlins,1333,3 June 1984,1984-06-03,N/A,Avicennia africana P. Beauv.,Avicennia africana P. Beauv.,N/A,N/A,N/A,Cameroon,Fako,N/A,N/A,Prov. Sud-Ouest: Dept. Fako: Bakingili,Prov. Sud-Ouest: Bakingili,Seaside,N/A,0 m.,"4°04'N, 09°02'E",2088074,Typed,no type status
V0606178F,R.B. & A.J. Faden,R.B. Faden,A.J. Faden,77/711,7 March 1977,1977-03-07,N/A,Toddaliopsis sansibarensis (Engl.) Engl.,Toddaliopsis sansibarensis (Engl.) Engl.,J.O. Kokwaro,N/A,Combretum schumannii,Kenya,N/A,N/A,N/A,"K7, Kwale District, Chale Peninsula","K7, Kwale District, Chale Peninsula",Coral rag dry forest,N/A,0-5 m,"ca. 4°26'S, 39°32'30""E",21535,Typed,no type status
V0607965F,D.W. Thomas & M. Etuge,D.W. Thomas,M. Etuge,6988,18 May 1987,1987-05-18,N/A,Tapura africana Oliv.,Tapura africana Oliv.,D.W. Thomas,1987,N/A,Cameroon,Southwest,N/A,Kumba,"Prov. Southwest: Barombi Kang, Kumba",Barombi Kang,Degraded forest,N/A,150 m,4°36'N 09°27'E,2040825,Typed,no type status