Dataset Source,accessURI,modifiedBy,verifiedBy,catalogNumber,verbatimCollectors,collectedBy,secondaryCollectors,recordNumber,verbatimEventDate,minimumEventDate,maximumEventDate,verbatimIdentification,latestScientificName,identifiedBy,verbatimDateIdentified,associatedTaxa,country,firstPoliticalUnit,secondPoliticalUnit,municipality,verbatimLocality,locality,habitat,substrate,verbatimElevation,verbatimCoordinates,otherCatalogNumbers,originalMethod,typeStatus
EMu Field Museum | Bryophytes Portal,https://fm-digital-assets.fieldmuseum.org/444/531/C0020034F.jpg,lk,yr,C0020034F,R. M. Schuster,R. M. Schuster,N/A,68-1644,Aug. 17 1968,1968-08-17,N/A,Anastrophyllum minutum,Anastrophyllum minutum,R. M. Schuster,Aug. 17 1968,Diplophyllum taxifolium,Canada,Newfoundland and Labrador,N/A,N/A,"Newfoundland: Along Humber R., in Squires Memorial Park, near Rte 1A","Newfoundland, Squires Memorial Park, along Humber River, near route 1A",N/A,N/A,N/A,N/A,N/A,Typed,no type status
EMu Field Museum | Bryophytes Portal,https://fm-digital-assets.fieldmuseum.org/444/535/C0020052F.jpg,yr,lk,C0020052F,R. M. Schuster & K. Damsholt,R. M. Schuster,K. Damsholt,82-1049,July 3. 1982,1982-07-03,N/A,Anastrophyllum minutum (Schreb.) Schust. v.grandis (Gott.)Schust.,Anastrophyllum minutum v. grandis,R. M. Schuster & K. Damsholt,N/A,Cephalozia bicuspidata,Greenland,N/A,N/A,N/A,Frederiksdal,Frederiksdal,N/A,N/A,N/A,"60°00'N lat., 44°40'W long.",N/A,Typed,no type status
EMu Field Museum | Bryophytes Portal,https://fm-digital-assets.fieldmuseum.org/445/656/C0025138F.jpg,yr,lk,C0025138F,R. M. Schuster,R. M. Schuster,N/A,19067,June 30 1951,1951-06-30,N/A,Frullania asagrayana Mont.,Frullania asagrayana,N/A,N/A,Plagiochila tridenticulata,U.S.A.,North Carolina,N/A,N/A,"Balsam Gap, N.C., ca. 25 mi. n. of Asheville, along Blue Ridge Parkway","Balsam Gap, approximately 25 miles north of Asheville, along Blue Ridge Parkway",N/A,bark,5220-5260 feet,N/A,N/A,Typed,no type status
EMu Field Museum | Bryophytes Portal,https://fm-digital-assets.fieldmuseum.org/409/473/C0025164F.jpg,yr,lk,C0025164F,R. M. Schuster,R. M. Schuster,N/A,79-488,April 14 1979,1979-04-14,N/A,Frullania asagrayana,Frullania asagrayana,R. M. Schuster,N/A,N/A,U.S.A.,Arkansas,Stone,N/A,"Arkansas: Stone Co.: Ozark Natl. Forest. Bark-shed Camp, ca. 10 mi E. of Big Flat","Ozark National Forest, Barkshed Camp, approximately 10 miles east of Big Flat",N/A,N/A,N/A,N/A,N/A,Typed,no type status
EMu Field Museum | Bryophytes Portal,https://fm-digital-assets.fieldmuseum.org/276/684/C0000578F.jpg,yr,lk,C0000578F,"John J. Engel, Matt von Konrat & John E. Braggins",J. J. Engel,M. von Konrat | J. E. Braggins,23773,12 February 2003,2003-02-12,N/A,Telarena lindenbergii var. papillata Engel & Merr.,Telarena lindenbergii var. papillata,N/A,N/A,N/A,New Zealand,Auckland,N/A,N/A,"North Island. Auckland Prov.: Whareorino Forest, start of track to Leitch's Hut","North Island, Whareorino Forest, start of track to Leitch's Hut","Clay banks with Blechnum novae-zealandiae overhang, Weinmannia and Dicksonia squarrosa dominant canopy and occasional Leptospermum scoparium.",soil,280 m,"38° 24.5' S., 174° 49.8' E",1173554,Typed,Holotype
EMu Field Museum | Bryophytes Portal,https://fm-digital-assets.fieldmuseum.org/2537/883/C2077563F.jpg,lk,yr,C2077563F,R.Benoist,R. Benoist,N/A,4659 pp.,s.d.,s.d.,N/A,Hedwigia albicans (Web.)Lindb.,Hedwigia ciliata,E. De Luna,1992,N/A,Ecuador,Pichincha,N/A,N/A,Environs de Quito,Environs de Quito,N/A,N/A,N/A,N/A,1089453,Typed,no type status
EMu Field Museum | Bryophytes Portal,https://fm-digital-assets.fieldmuseum.org/2537/895/C2077566F.jpg,lk,yr,C2077566F,Marko Lewis,M. Lewis,N/A,79-1237A,22 March 1979,1979-03-22,N/A,Hedwigia ciliata (Hedw.) P. Beauv.,Hedwigia ciliata,E. De Luna,1992,N/A,Bolivia,La Paz,Larecaja,N/A,Near large red outcrop 2 mi. from Sorata down Río Consata,Near large red outcrop 2 miles from Sorata down Río Consata,Bromeliad habitat. Abundant on rock faces of exposed cliffs,rock,2630 m,"15° 41' S., 68° 43' W",1032221,Typed,no type status
EMu Field Museum | Bryophytes Portal,https://fm-digital-assets.fieldmuseum.org/2537/899/C2077567F.jpg,lk,yr,C2077567F,Marko Lewis,M. Lewis,N/A,79-1232,22 March 1979,1979-03-22,N/A,Hedwigia ciliata (Hedw.) P. Beauv.,Hedwigia ciliata,E. De Luna,1992,N/A,Bolivia,La Paz,Larecaja,N/A,Near large red outcrop 2 mi. from Sorata down Río Consata,Near large red outcrop 2 miles from Sorata down Río Consata,Bromeliad-grass habitat on exposed cliffs,rock,2630 m,"15° 41' S., 68° 43' W",1032219,Typed,no type status
EMu Field Museum | Bryophytes Portal,https://fm-digital-assets.fieldmuseum.org/2537/903/C2077568F.jpg,lk,yr,C2077568F,Marko Lewis,M. Lewis,N/A,79-1114,6 March 1979,1979-03-06,N/A,Hedwigia ciliata (Hedw.) P. Beauv.,Hedwigia ciliata,E. De Luna,1992,N/A,Bolivia,La Paz,Bautista Saavedra,N/A,"On mountain side directly N. of river, beneath Niño Karine, NNW of Chuma","On mountain side directly north of river, beneath Niño Karine, north northwest of Chuma",Humid cliffs and steep slopes,rock,3320 m,"15° 08' S., 69° 03' W",1032220,Typed,no type status
EMu Field Museum | Bryophytes Portal,https://fm-digital-assets.fieldmuseum.org/2537/908/C2077569F.jpg,lk,yr,C2077569F,F. J. Hermann,F. J. Hermann,N/A,25152,"December 27, 1972",1972-12-27,N/A,Hedwigia ciliata (Hedw.) Beauv.,Hedwigia ciliata,E. De Luna,1992,N/A,Bolivia,Cochabamba,N/A,N/A,"NW slope of Mt. Tunari, near Liriuni Aguas Termales Hotel, 28 km. NW Cochabamba","Northwestern slope of Mount Tunari, near Liriuni Aguas Termales Hotel, 28 kilometers northwest of Cochabamba",On conglomerate boulder on shrubby slope,boulder,ca. 2700 m.,N/A,1040675,Typed,no type status
EMu Field Museum | Bryophytes Portal,https://fm-digital-assets.fieldmuseum.org/2537/555/C2077570F.jpg,lk,yr,C2077570F,Ynes Mexia,Y. Mexia,N/A,6204,"Dec. 2, 1931",1931-12-02,N/A,Pilosium subchlorophyllosum C.M.,Pilosium subchlorophyllosum,Bartram,N/A,N/A,Peru,Loreto,N/A,N/A,Above Pongo de Manseriche. Streamlet near mouth of Rio Santiago,"Above Pongo de Manseriche, streamlet near mouth of Rio Santiago",On fallen log,log,400 m,N/A,1057692,Typed,no type status
EMu Field Museum | Bryophytes Portal,https://fm-digital-assets.fieldmuseum.org/2537/556/C2077571F.jpg,lk,yr,C2077571F,Ynes Mexia,Y. Mexia,N/A,6204,"Dec. 2, 1931",1931-12-02,N/A,Pilosium subchlorophyllosum C.M.,Pilosium subchlorophyllosum,Bartram,N/A,N/A,Peru,Loreto,N/A,N/A,Above Pongo de Manseriche. Streamlet near mouth of Rio Santiago,"Above Pongo de Manseriche, streamlet near mouth of Rio Santiago",On fallen log,log,400 m,N/A,N/A,Typed,no type status
EMu Field Museum | Bryophytes Portal,https://fm-digital-assets.fieldmuseum.org/2537/558/C2077573F.jpg,lk,yr,C2077573F,J.Florschütz-de Ward & R.Zielman,J. Florschütz-de Ward,R. Zielman,5315,5 - 11 - 1981,1981-11-05,N/A,Pilosium chlorophyllum (Hornsch.)C.Müll.,Pilosium chlorophyllum,R. Zielman,N/A,N/A,Suriname,N/A,N/A,N/A,"Area of Kabalebo Dam project, distr. Nickerie, line NW from road km 39.5","Area of Kabalebo Dam project, Nickerie district, line northwest from road Kilometer 39.5",Secondary woods with Cecropia (bospapaja). On rotting log,N/A,0 - 50 m,p. 5N 58W qu. SE,1073523,Typed,no type status
EMu Field Museum | Bryophytes Portal,https://fm-digital-assets.fieldmuseum.org/2537/559/C2077574F.jpg,lk,yr,C2077574F,J.Florschütz-de Ward & R.Zielman,J. Florschütz-de Ward,R. Zielman,5254,3-11-1981,1981-11-03,N/A,Pilosium chlorophyllum(Hornsch.)C.Müll.,Pilosium chlorophyllum,R. Zielman,N/A,N/A,Suriname,N/A,N/A,N/A,"Area of Kabalebo Dam project, distr. Nickerie, line NW from road km 39.5","Area of Kabalebo Dam project, Nickerie district, line northwest from road Kilometer 39.5","Savanna forest, on rotting log",log,0 - 50 m,p. 5N 58W qu. SE,1073529,Typed,no type status
EMu Field Museum | Bryophytes Portal,https://fm-digital-assets.fieldmuseum.org/2537/560/C2077575F.jpg,lk,yr,C2077575F,J.Florschütz-de Ward & R.Zielman,J. Florschütz-de Ward,R. Zielman,5098,30-10-1981,1981-10-30,N/A,Pilosium chlorophyllum(Hornsch.)C.Müll.,Pilosium chlorophyllum,R. Zielman,N/A,N/A,Suriname,N/A,N/A,N/A,"Area of Kabalebo Dam project, distr. Nickerie, line W from road 34 km","Area of Kabalebo Dam project, Nickerie district, line west from road 34 kilometers",Rainforest,log,0 - 50 m,p. 5N 58W qu. SE,1073528,Typed,no type status
EMu Field Museum | Bryophytes Portal,https://fm-digital-assets.fieldmuseum.org/2537/561/C2077576F.jpg,lk,yr,C2077576F,"J.C.Lindeman,A.R.A.Görts-van Rijn,M.J.Jansen-Jacobs & A.M.C.Hetterscheid-Hollants",J. C. Lindeman,A. R. A. Görts-van Rijn | M. J. Jansen-Jacobs | A. M. C. Hetterscheid-Hollants,243A,3-IX-1980,1980-09-03,N/A,Pilosium chlorophyllum (Hornsch.) C.Müll.,Pilosium chlorophyllum,H. R. Zielman,N/A,N/A,Suriname,N/A,N/A,N/A,"Area of Kabalebo Dam project, distr.Nickerie, S of km 28.7","Area of Kabalebo Dam project, Nickerie district, south of Kilometer 28.7",Forest. Epiphyte on tree trunk,bark,30 - 130 m,"4° 5°NB, 57° 30' 58° WL",1073527,Typed,no type status
EMu Field Museum | Bryophytes Portal,https://fm-digital-assets.fieldmuseum.org/2537/562/C2077577F.jpg,lk,yr,C2077577F,J.Florschütz-de Ward and R.Zielman,J. Florschütz-de Ward,R. Zielman,5141,31 October 1981,1981-10-31,N/A,Pilosium chlorophyllum (Hornsch.) C. Müll.,Pilosium chlorophyllum,R. Zielman,N/A,N/A,Suriname,N/A,N/A,N/A,"Distr. Nickerie, Kabalebo river area, line W. from road km 34","Nickerie district, Kabalebo river area, line west from road Kilometer 34",On decaying log in marsh forest with Astrocaryum,log,0-50 m,"5°N., 58°W",1079833,Typed,no type status
EMu Field Museum | Bryophytes Portal,https://fm-digital-assets.fieldmuseum.org/2537/563/C2077578F.jpg,lk,yr,C2077578F,J. & P.A. Florschütz,J. Florschütz-de Ward,P. A. Florschütz,4690,18 December 1975,1975-12-18,N/A,Pilosium chlorophyllum (Hornsch.) C. Muell.,Pilosium chlorophyllum,R. Zielman and J. Florschütz-de Ward,N/A,N/A,Suriname,N/A,N/A,N/A,"Brownsberg, trail to Leo Val","Brownsberg, trail to Leo Val",Rainforest,log,ca. 500 m,N/A,1065613,Typed,no type status
EMu Field Museum | Bryophytes Portal,https://fm-digital-assets.fieldmuseum.org/2537/564/C2077579F.jpg,lk,yr,C2077579F,H.Cornelissen & S.R.Gradstein,H. Cornelissen,S. R. Gradstein,C076,8 March 1977,1977-03-08,N/A,Pilosium chlorophyllum (Hornsch.) C. Müll.,Pilosium chlorophyllum,J. Florschütz-de Ward,N/A,N/A,Guyana,N/A,N/A,N/A,"Mabura Hill, 180 km S of Georgetown","Mabura Hill, 180 kilometers south of Georgetown",On rotting tree in mixed rain forest,tree,0-50 m,5°20'N 58°40'W,1091586,Typed,no type status
EMu Field Museum | Bryophytes Portal,https://fm-digital-assets.fieldmuseum.org/2537/567/C2077582F.jpg,lk,yr,C2077582F,Richard Evans Schultes et Isidoro Cabrera,R. E. Schultes,I. Cabrera,14294,"October 4-6, 1951",1951-10-04,1951-10-06,Pilosium chlorophyllum (Hornsch.) C.M.,Pilosium chlorophyllum,H. A. Crum,1956,N/A,Colombia,Vaupés,N/A,N/A,"Río Kuduyarí (affluent of Río Vaupés), Yapobodá","Río Kuduyarí (affluent of Río Vaupés), Yapobodá",Quartzitic savannah. On rotten logs,log,N/A,N/A,1055491,Typed,no type status
EMu Field Museum | Bryophytes Portal,https://fm-digital-assets.fieldmuseum.org/2537/569/C2077584F.jpg,lk,yr,C2077584F,Richard Evans Schultes,R. E. Schultes,N/A,11128,Dec. 1950,1950-12-00,N/A,Pilosium chlorophyllum (Hsch.) C.M. in Broth.,Pilosium chlorophyllum,D. Griffin III,N/A,N/A,Colombia,Guaviare,N/A,San Jose del Guaviare,San Jose del Guaviare,[precise locality unknown],N/A,N/A,N/A,N/A,1055489,Typed,no type status
EMu Field Museum | Bryophytes Portal,https://fm-digital-assets.fieldmuseum.org/2537/570/C2077585F.jpg,lk,yr,C2077585F,Ynes Mexia,Y. Mexia,N/A,6014a,"Aug. 31, 1931",1931-08-31,N/A,Pilosum chlorophyllum (Hsch.) C.M.,Pilosium chlorophyllum,Bartram,N/A,N/A,Brazil,Pará,N/A,Tomé-Açu,Districto Acará. Thomé Assú; down Rio Acará 3 km,Down Rio Acará 3 kilometers,On fallen log,log,35 m,N/A,N/A,Typed,no type status
EMu Field Museum | Bryophytes Portal,https://fm-digital-assets.fieldmuseum.org/2537/571/C2077586F.jpg,lk,yr,C2077586F,Ynes Mexia,Y. Mexia,N/A,5914,"July 16, 1931",1931-07-16,N/A,Pilosium Chlorophyllosum (Hsch.) C.M.,Pilosium chlorophyllosum,Bartram,N/A,N/A,Brazil,Pará,N/A,Tomé-Açu,Districto Acará. Thomé Assú. Japanese Colony,[precise locality unknown],On rotting log in woods,log,about 30 m,N/A,870829,Typed,no type status
EMu Field Museum | Bryophytes Portal,https://fm-digital-assets.fieldmuseum.org/2539/518/C2078862F.jpg,lk,yr,C2078862F,"Dana Griffin, III, Manuel López F.",D. Griffin III,M. López F.,PV-1525,14 marzo 1985,1985-03-14,N/A,Brachythecium plumosum (Hedw.) BSG,Brachythecium plumosum,D. Griffin III,N/A,N/A,Venezuela,Trujillo,N/A,N/A,"Páramo de Guirigay, arriba del pueblo de Las Piedras. Entre el río Burate y Peñas Blancas","Páramo de Guirigay, arriba del pueblo de Las Piedras, entre el río Burate y Peñas Blancas","Páramo con Espeletia schultzii. Sobre roca húmeda, lecho de riachuelo, a sol",rock,3.200 m,N/A,1064449,Typed,no type status
EMu Field Museum | Bryophytes Portal,https://fm-digital-assets.fieldmuseum.org/2539/519/C2078913F.jpg,lk,yr,C2078913F,P. Dusén,P. Dusén,N/A,5872,22 February 1897,1897-02-22,N/A,Brachythecium albicans (Hedw.) Schimp.,Brachythecium albicans,W. R. Buck,N/A,N/A,Chile,N/A,N/A,N/A,"Patagonia occident., Cerra Colorado","Patagonia occidental, Cerro Colorado",N/A,N/A,N/A,N/A,1136354,Typed,no type status
EMu Field Museum | Bryophytes Portal,https://fm-digital-assets.fieldmuseum.org/2539/520/C2078924F.jpg,lk,yr,C2078924F,Ynes Mexia,Y. Mexia,N/A,8001,"April 10, 1936",1936-04-10,N/A,Brachythecium subpilosum (H.f.& W.) Jaeg.,Brachythecium austroglareosum,K. D. McFarland,Sept 1987,N/A,Chile,Magellanes,N/A,N/A,Territorio Magellanes. Last Hope Inlet; Peninsula Antonio Varas,"Last Hope Inlet, Peninsula Antonio Varas",Openings in Nothofagus wood in moist earth,soil,25 m,N/A,1036758,Typed,no type status
EMu Field Museum | Bryophytes Portal,https://fm-digital-assets.fieldmuseum.org/2539/521/C2078925F.jpg,lk,yr,C2078925F,Marko Lewis,M. Lewis,N/A,79-2108,25 May 1979,1979-05-25,N/A,Brachythecium calliergonoides Broth. in Herz.,Brachythecium cf. calliergonoides,R. Ochyra,1982,N/A,Bolivia,Oruro,Sajama,N/A,"Río Junthuma Khuchu, 2 mi. down river from Aguas termales de Río Junthuma Khuchu",2 miles down river from Aguas termales de Río Junthuma Khuchu,In warmish creek,N/A,4350 m,"18° 07' S., 69° 00' W",1049405,Typed,no type status
EMu Field Museum | Bryophytes Portal,https://fm-digital-assets.fieldmuseum.org/2539/522/C2078926F.jpg,lk,yr,C2078926F,Marko Lewis,M. Lewis,N/A,79-2109,25 May 1979,1979-05-25,N/A,Brachythecium calliergonoides Broth. in Herz.,Brachythecium calliergonoides,R. Ochyra,1982,N/A,Bolivia,Oruro,Sajama,N/A,"Río Junthuma Khuchu, 2 mi. down river from Aguas termales de Río Junthuma Khuchu",2 miles down river from Aguas termales de Río Junthuma Khuchu,In warmish creek,N/A,4350 m,"18° 07' S., 69° 00' W",1049406,Typed,no type status
EMu Field Museum | Bryophytes Portal,https://fm-digital-assets.fieldmuseum.org/2539/523/C2078927F.jpg,lk,yr,C2078927F,Marko Lewis,M. Lewis,N/A,79-2112,25 May 1979,1979-05-25,N/A,Brachythecium calliergonoides Broth. in Herz.,Pilosium chlorophyllum,R. Ochyra,1982,N/A,Bolivia,Oruro,Sajama,N/A,"Río Junthuma Khuchu, 2 mi. down river from Aguas termales de Río Junthuma Khuchu",2 miles down river from Aguas termales de Río Junthuma Khuchu,In warmish creek,N/A,4350 m,"18° 07' S., 69° 00' W",1049407,Typed,no type status
EMu Field Museum | Bryophytes Portal,https://fm-digital-assets.fieldmuseum.org/2539/524/C2078928F.jpg,lk,yr,C2078928F,Marko Lewis,M. Lewis,N/A,79-2115,25 May 1979,1979-05-25,N/A,Brachythecium calliergonoides Broth. in Herz.,Pilosium chlorophyllum,R. Ochyra,1982,N/A,Bolivia,Oruro,Sajama,N/A,"Río Junthuma Khuchu, 2 mi. down river from Aguas termales de Río Junthuma Khuchu",2 miles down river from Aguas termales de Río Junthuma Khuchu,In warmish creek,N/A,4350 m,"18° 07' S., 69° 00' W",1049409,Typed,no type status
EMu Field Museum | Bryophytes Portal,https://fm-digital-assets.fieldmuseum.org/2539/525/C2078929F.jpg,lk,yr,C2078929F,Marko Lewis,M. Lewis,N/A,79-2117,25 May 1979,1979-05-25,N/A,Brachythecium calliergonoides Broth. in Herz.,Pilosium chlorophyllum,R. Ochyra,1982,N/A,Bolivia,Oruro,Sajama,N/A,"Río Junthuma Khuchu, 2 mi. down river from Aguas termales de Río Junthuma Khuchu",2 miles down river from Aguas termales de Río Junthuma Khuchu,In warmish creek,N/A,4350 m,"18° 07' S., 69° 00' W",1049410,Typed,no type status
EMu Field Museum | Bryophytes Portal,https://fm-digital-assets.fieldmuseum.org/2539/526/C2078930F.jpg,lk,yr,C2078930F,Marko Lewis,M. Lewis,N/A,79-2118,25 May 1979,1979-05-25,N/A,Brachythecium calliergonoides Broth. in Herz.,Pilosium chlorophyllum,R. Ochyra,1982,N/A,Bolivia,Oruro,Sajama,N/A,"Río Junthuma Khuchu, 2 mi. down river from Aguas termales de Río Junthuma Khuchu",2 miles down river from Aguas termales de Río Junthuma Khuchu,In warmish creek,N/A,4350 m,"18° 07' S., 69° 00' W",1049411,Typed,no type status
EMu Field Museum | Bryophytes Portal,https://fm-digital-assets.fieldmuseum.org/2539/527/C2078931F.jpg,lk,yr,C2078931F,Marko Lewis,M. Lewis,N/A,79-2107,25 May 1979,1979-05-25,N/A,Brachythecium calliergonoides Broth. in Herz.,Pilosium chlorophyllum,R. Ochyra,1982,N/A,Bolivia,Oruro,Sajama,N/A,"Río Junthuma Khuchu, 2 mi. down river from Aguas termales de Río Junthuma Khuchu",2 miles down river from Aguas termales de Río Junthuma Khuchu,In warmish creek,N/A,4350 m,"18° 07' S., 69° 00' W",1049404,Typed,no type status
EMu Field Museum | Bryophytes Portal,https://fm-digital-assets.fieldmuseum.org/2539/529/C2078932F.jpg,lk,yr,C2078932F,Marko Lewis,M. Lewis,N/A,79-2119,25 May 1979,1979-05-25,N/A,Brachythecium calliergonoides Broth. in Herz.,Pilosium chlorophyllum,R. Ochyra,1982,N/A,Bolivia,Oruro,Sajama,N/A,"Río Junthuma Khuchu, 2 mi. down river from Aguas termales de Río Junthuma Khuchu",2 miles down river from Aguas termales de Río Junthuma Khuchu,In warmish creek,N/A,4350 m,"18° 07' S., 69° 00' W",1049412,Typed,no type status
EMu Field Museum | Bryophytes Portal,https://fm-digital-assets.fieldmuseum.org/2539/889/C2079350F.jpg,lk,yr,C2079350F,Ynes Mexia,Y. Mexia,N/A,6149,"Nov. 23, 1931",1931-11-23,N/A,Vesicularia amphibola (Spr.) Broth.,Vesicularia amphibola,Bartram,N/A,N/A,Peru,Loreto,N/A,N/A,Above Pongo de Manseriche. Left bank of Rio Santiago,"Above Pongo de Manseriche, left bank of Rio Santiago",On stone in overflow forest,stone,200 m,N/A,873368,Typed,no type status
EMu Field Museum | Bryophytes Portal,https://fm-digital-assets.fieldmuseum.org/2539/890/C2079351F.jpg,lk,yr,C2079351F,Ynes Mexia,Y. Mexia,N/A,6160a,"Nov. 25, 1931",1931-11-25,N/A,Vesicularia amphibola (Spr.) Broth.,Pilosium chlorophyllum,Bartram,N/A,N/A,Peru,Loreto,N/A,N/A,Above Pongo de Manseriche. Right bank of Rio Santiago,"Above Pongo de Manseriche, right bank of Rio Santiago",Dense forest on log,log,200 m,N/A,873367,Typed,no type status
EMu Field Museum | Bryophytes Portal,https://fm-digital-assets.fieldmuseum.org/2539/892/C2079352F.jpg,lk,yr,C2079352F,Ynes Mexia,Y. Mexia,N/A,6217a,"Dec. 4, 1931",1931-12-04,N/A,Vesicularia amphibola (Spr.) Broth.,Pilosium chlorophyllum,Bartram,N/A,N/A,Peru,Loreto,N/A,N/A,Above Pongo de Manseriche. Streamlet on right bank of Rio Santiago,"Above Pongo de Manseriche, streamlet on right bank of Rio Santiago",On rocks wet by spray,rock,250 m,N/A,870879,Typed,no type status
EMu Field Museum | Bryophytes Portal,https://fm-digital-assets.fieldmuseum.org/2539/893/C2079353F.jpg,lk,yr,C2079353F,Ynes Mexia,Y. Mexia,N/A,6259a,"Dec. 12, 1931",1931-12-12,N/A,Vesicularia amphibola (Spr.) Broth.,Pilosium chlorophyllum,Bartram,N/A,N/A,Peru,Loreto,N/A,N/A,Above Pongo de Manseriche. Creek Carapisa,"Above Pongo de Manseriche, Creek Carapisa",Log in forest,log,215 m,N/A,870867,Typed,no type status
EMu Field Museum | Bryophytes Portal,https://fm-digital-assets.fieldmuseum.org/2539/894/C2079354F.jpg,lk,yr,C2079354F,Ynes Mexia,Y. Mexia,N/A,6354a,"Jan. 3, 1932",1932-01-03,N/A,Vesicularia amphibola (Spr.) Broth.,Pilosium chlorophyllum,Bartram,N/A,N/A,Peru,Loreto,N/A,N/A,Above Pongo de Manseriche. Creek Inche,"Above Pongo de Manseriche, Creek Inche",On earth collected on inclined tree trunk,soil,215 m,N/A,873369,Typed,no type status
EMu Field Museum | Bryophytes Portal,https://fm-digital-assets.fieldmuseum.org/2539/895/C2079355F.jpg,lk,yr,C2079355F,Ynes Mexia,Y. Mexia,N/A,6375a,"Jan. 3, 1932",1932-01-03,N/A,Vesicularia amphibola (Spr.) Broth.,Pilosium chlorophyllum,Bartram,N/A,Taxithelium planum,Peru,Loreto,N/A,N/A,Above Pongo de Manseriche. Creek Inche,"Above Pongo de Manseriche, Creek Inche",On rotten log,log,215 m,N/A,1039121,Typed,no type status
EMu Field Museum | Bryophytes Portal,https://fm-digital-assets.fieldmuseum.org/2539/896/C2079356F.jpg,lk,yr,C2079356F,Ynes Mexia,Y. Mexia,N/A,6375a,"Jan. 3, 1932",1932-01-03,N/A,Vesicularia amphibola (Spr.) Broth.,Pilosium chlorophyllum,Bartram,N/A,Taxithelium planum,Peru,Loreto,N/A,N/A,Above Pongo de Manseriche. Creek Inche,"Above Pongo de Manseriche, Creek Inche",On rotten log,log,215 m,N/A,870880,Typed,no type status
EMu Field Museum | Bryophytes Portal,https://fm-digital-assets.fieldmuseum.org/2539/897/C2079357F.jpg,lk,yr,C2079357F,Ynes Mexia,Y. Mexia,N/A,6377,"Jan. 3, 1932",1932-01-03,N/A,Vesicularia amphibola (Spr.) Broth.,Pilosium chlorophyllum,Bartram,N/A,N/A,Peru,Loreto,N/A,N/A,Above Pongo de Manseriche. Creek Inche,"Above Pongo de Manseriche, Creek Inche",On rotten log,log,215 m,N/A,870873,Typed,no type status
EMu Field Museum | Bryophytes Portal,https://fm-digital-assets.fieldmuseum.org/2539/898/C2079358F.jpg,lk,yr,C2079358F,Ynes Mexia,Y. Mexia,N/A,8070,"May 14,1936",1936-05-14,N/A,Vesicularia amphibola (Spr.) Broth.,Pilosium chlorophyllum,Bartram,N/A,N/A,Peru,Cusco,La Convencion,N/A,upper valley of the Sambray; affluent of the Vilcanota,"Upper valley of Sambray River, affluent of Vilcanota River",On rotten logs in virgin forest,log,1800 m,N/A,1036318,Typed,no type status
EMu Field Museum | Bryophytes Portal,https://fm-digital-assets.fieldmuseum.org/2539/900/C2079359F.jpg,lk,yr,C2079359F,Ynes Mexia,Y. Mexia,N/A,8070,"May 14,1936",1936-05-14,N/A,Vesicularia amphibola (Spr.) Broth.,Pilosium chlorophyllum,Bartram,N/A,N/A,Peru,Cusco,La Convencion,N/A,upper valley of the Sambray; affluent of the Vilcanota,"Upper valley of Sambray River, affluent of Vilcanota River",On rotten logs in virgin forest,log,1800 m,N/A,1039122,Typed,no type status
EMu Field Museum | Bryophytes Portal,https://fm-digital-assets.fieldmuseum.org/2539/901/C2079360F.jpg,lk,yr,C2079360F,P. R. Reitz,P. R. Reitz,N/A,2222,20.9.1949,1949-09-20,N/A,Vesicularia vesicularis (Schwaegr.) Broth.,Vesicularia vesicularis,E. B. Bartram,1949,N/A,Brazil,Santa Catarina,N/A,Brusque,"Azambuja, Brusque",Azambuja,"Epífito, da mata virgem",N/A,50 msm,N/A,N/A,Typed,no type status
EMu Field Museum | Bryophytes Portal,https://fm-digital-assets.fieldmuseum.org/2539/903/C2079362F.jpg,lk,yr,C2079362F,Richard Evans Schultes,R. E. Schultes,N/A,11107,"Dec., 1950",1950-12-00,N/A,Vesicularia vesicularis (Schwgr.) Brot,Vesicularia vesicularis,D. Griffin III,N/A,N/A,Colombia,Meta,N/A,N/A,Intendencia del Meta: alrededores de Villavicencio,Alrededores de Villavicencio,N/A,N/A,500 m,N/A,1055509,Typed,no type status
EMu Field Museum | Bryophytes Portal,https://fm-digital-assets.fieldmuseum.org/2542/815/C2079715F.jpg,lk,yr,C2079715F,"J.-P. Frahm, P. Geissler, S.R. Gradstein, G. Phillippi, W. Schultze-Motel",J.-P. Frahm,P. Geissler | S. R. Gradstein | G. Phillippi | W. Schultze-Motel,875,4.9.1982,1982-09-04,N/A,Entodon jamesonii (Tayl.) Mitt.,Entodon jamesonii,W. Schultze-Motel,N/A,N/A,Peru,Amazonas,Chachapoyas,N/A,Straße Chachapoyas-Cajamarca oberhalb Leimebamba km 417,Straße Chachapoyas-Cajamarca oberhalb Leimebamba Kilometer 417,"S-exponierter Hang, hochandiner Regenwald auf Kalkstein",stone,2800 msm,N/A,1076822,Typed,no type status
EMu Field Museum | Bryophytes Portal,https://fm-digital-assets.fieldmuseum.org/2542/817/C2079716F.jpg,lk,yr,C2079716F,Paul C. Hutchison J. Kenneth Wright,P. C. Hutchison,J. Kenneth Wright,4806,1 April 1964,1964-04-01,N/A,Entodon jamesoni (Tayl.) Mitt.,Entodon jamesoni,H. Robinson,1966,N/A,Peru,Amazonas,Chachapoyas,N/A,"Cerros Calla Calla, east side, 5 km. above Leimebamba on the road to Balsas, at San Miguel (no buildings at this locality)","Cerros Calla Calla, east side, 5 kilometers above Leimebamba on the road to Balsas, at San Miguel",N/A,N/A,2400 m,N/A,1012181,Typed,no type status
EMu Field Museum | Bryophytes Portal,https://fm-digital-assets.fieldmuseum.org/2542/820/C2079717F.jpg,lk,yr,C2079717F,Dana Griffin III,D. Griffin III,N/A,PV-966,20 febr. 1985,1985-02-20,N/A,Entodon jamesoni (tayl.) Broth.,Entodon jamesoni,D. Griffin III,N/A,N/A,Venezuela,Merida,N/A,N/A,"Páramo de Los Granates, finca de Los Granates, a lo largo del río de Los Granates","Páramo de Los Granates, finca de Los Granates, a lo largo del río de Los Granates","Páramo, a lo largo del río y en las lomas cercanas",N/A,3.000-3.100 m,N/A,1064416,Typed,no type status
EMu Field Museum | Bryophytes Portal,https://fm-digital-assets.fieldmuseum.org/2542/822/C2079718F.jpg,lk,yr,C2079718F,Ynes Mexia,Y. Mexia,N/A,5687,"April 21, 1931",1931-04-21,N/A,Entodon Lindbergii Hpe.,Entodon Lindbergii,Bartram,N/A,N/A,Brazil,Minas Gerais,N/A,Corinto,Corinto. Fazenda do Diamante. Campo Tiririca,"Fazenda do Diamante, Campo Tiririca",Base of living tree in shade,tree,590 m,N/A,870818,Typed,no type status
EMu Field Museum | Bryophytes Portal,https://fm-digital-assets.fieldmuseum.org/2542/827/C2079720F.jpg,lk,yr,C2079720F,Marko Lewis,M. Lewis,N/A,79-590,8 February 1979,1979-02-08,N/A,Entodon cf. nano-climacium C.M. (= E. micans Herz.),Entodon micans,W. Buck,1980,N/A,Bolivia,Tarija,N/A,N/A,"Prov. Méndez/Prov. Cercado/Prov. Avilés: Canyon 5 mi. SW of Tablada, SW of Tarija","Méndez, Cercado and Avilés provinces, canyon 5 miles southwest of Tablada, southwest of Tarija",Bank of creek,N/A,2160 m,"21° 36' S, 64° 48' W",1078788,Typed,no type status
EMu Field Museum | Bryophytes Portal,https://fm-digital-assets.fieldmuseum.org/2542/829/C2079721F.jpg,lk,yr,C2079721F,Marko Lewis,M. Lewis,N/A,79-1220,22 March 1979,1979-03-22,N/A,Entodon nano-climacium C.M. (= E. micans Herz.),Entodon micans,W. Buck,1980,N/A,Bolivia,La Paz,Larecaja,N/A,Near large red outcrop 2 mi. from Sorata down Río Consata,Near large red outcrop 2 miles from Sorata down Río Consata,Very shady ground along creek in humid shrubs,soil,2600 m,"15° 41' S, 68° 43' W",1078789,Typed,no type status
EMu Field Museum | Bryophytes Portal,https://fm-digital-assets.fieldmuseum.org/2542/835/C2079723F.jpg,lk,yr,C2079723F,Marko Lewis,M. Lewis,N/A,79-1346,1 April 1979,1979-04-01,N/A,cf. Entodon polycarpus,Entodon polycarpus,W. Buck,1980,N/A,Bolivia,La Paz,Larecaja,N/A,Between Abra Huallata and waterfall at Millipaya,Between Abra Huallata and waterfall at Millipaya,"Waterfall ravine, highest extension of shrubs",N/A,3780 m,"15° 51' S, 68° 39' W",1078787,Typed,no type status
EMu Field Museum | Bryophytes Portal,https://fm-digital-assets.fieldmuseum.org/2542/837/C2079595F.jpg,lk,yr,C2079595F,H. Roivainen,H. Roivainen,N/A,2095,25.1.1970,1970-01-25,N/A,Isopterygium pulchellum (Hedw.) Jaeg.,Isopterygium pulchellum,R. Ochyra,1996,N/A,Argentina,Tierra del Fuego,Ushuaia,N/A,"Tierra del Fuego australis, Ushuaia, Arroyo Grande","Tierra del Fuego australis, Arroyo Grande","En fisuras de roca y en raizes humoso-arcillosos de Nothofagus pumilio, en orilla de la cascada",rocks and roots,150 m s.m.,"54°47'S,68°17'W",1182417,Typed,no type status
EMu Field Museum | Bryophytes Portal,https://fm-digital-assets.fieldmuseum.org/2542/839/C2079596F.jpg,lk,yr,C2079596F,H. Roivainen,H. Roivainen,N/A,1352,24.12.1969,1969-12-24,N/A,Isopterygium pulchellum (Brid.) Jaeg.,Isopterygium pulchellum,R. Ochyra,1996,N/A,Argentina,Tierra del Fuego,Ushuaia,Ushuaia,"Tierra de Fuego australis, Ushuaia, Valle del Río Pipo","Tierra del Fuego australis, Valle del Río Pipo",Suelo humoso húmedo en el pendiente del río,soil,300 m s.m.,"54°46'S,68°20'W",1182415,Typed,no type status
EMu Field Museum | Bryophytes Portal,https://fm-digital-assets.fieldmuseum.org/2542/842/C2079597F.jpg,lk,yr,C2079597F,E. P. Killip & A. C. Smith,E. P. Killip,A. C. Smith,14871,"November 29, 1926",1926-11-29,N/A,Isopterygium stigmocarpum (C.M.) Par.,Isopterygium tenerum,R. R. Ireland,1988,N/A,Colombia,Santander,N/A,N/A,between Puerto Wilches and Puerto Santos,Between Puerto Wilches and Puerto Santos,N/A,N/A,110-115 m,N/A,1040009,Typed,no type status
EMu Field Museum | Bryophytes Portal,https://fm-digital-assets.fieldmuseum.org/2542/844/C2079598F.jpg,lk,yr,C2079598F,Richard Evans Schultes,R. E. Schultes,N/A,11110,"Dec., 1950",1950-12-00,N/A,Isopterygium tenerum (Sw.) Mitt.,Isopterygium tenerum,R. R. Ireland ,1988,N/A,Colombia,Meta,N/A,N/A,Intendencia del Meta: alrededores de Villavicencio,Alrededores de Villavicencio,N/A,N/A,500 m,N/A,1055473,Typed,no type status
EMu Field Museum | Bryophytes Portal,https://fm-digital-assets.fieldmuseum.org/2542/846/C2079599F.jpg,lk,yr,C2079599F,D.C.Geijskes,D. C. Geijskes,N/A,s.n.,29 - 9 - 1952,1952-09-29,N/A,Isopterygium tenerum(Sw.)Mitt.,Isopterygium tenerum,H. R. Zielman,N/A,N/A,Suriname,N/A,N/A,N/A,Marowijne River; Armina falls,"Marowijne River, Armina Falls","Rainforest. On roots and rocks on bank of river, shade",roots and rocks,N/A,N/A,1073518,Typed,no type status
EMu Field Museum | Bryophytes Portal,https://fm-digital-assets.fieldmuseum.org/2542/848/C2079600F.jpg,lk,yr,C2079600F,Ynes Mexia,Y. Mexia,N/A,4841,"July 6, 1930",1930-07-06,N/A,Isopterygium bracyneuron (C.M.)Mitt. ex P.,Isopterygium tenerum,R. R. Ireland,1988,N/A,Brazil,Minas Gerais,N/A,Viçosa,Viçosa. Agricultural College lands. Horticultural Hill,"Agricultural College lands, Horticultural Hill",Cut over woods near base. On rotting log,log,670 m,N/A,1039979,Typed,no type status
EMu Field Museum | Bryophytes Portal,https://fm-digital-assets.fieldmuseum.org/2542/851/C2079601F.jpg,lk,yr,C2079601F,Ynes Mexia,Y. Mexia,N/A,4888,"July 21, 1930",1930-07-21,N/A,Isopterygium laxum (Hpe.) Broth.,Isopterygium tenerum,R. R. Ireland,1988,N/A,Brazil,Minas Gerais,N/A,Viçosa,Viçosa. Agricultural College lands. Corrriga Riberró,"Agricultural College lands, córrego Ribeiro",Shady stream bank. On rotten wood,log,675 m,N/A,873365,Typed,no type status
EMu Field Museum | Bryophytes Portal,https://fm-digital-assets.fieldmuseum.org/2542/853/C2079602F.jpg,lk,yr,C2079602F,Ynes Mexia,Y. Mexia,N/A,5386,"Dec. 6, 1930",1930-12-06,N/A,Isopterygium brachyneuron (C.M. ) Mitt.,Isopterygium tenerum,R .R. Ireland,1988,N/A,Brazil,Minas Gerais,N/A,Viçosa,Viçosa. Road to São Miguel. About km. 41/2,"Road to São Miguel, ca. Km 4.5",Dense forest. On rotten log,log,710 m,N/A,870841,Typed,no type status
EMu Field Museum | Bryophytes Portal,https://fm-digital-assets.fieldmuseum.org/2542/855/C2079603F.jpg,lk,yr,C2079603F,Ynes Mexia,Y. Mexia,N/A,5441,"Dec. 23, 1930",1930-12-23,N/A,Isopterygium laxum (Hpe.) Broth.,Isopterygium tenerum,R. R. Ireland,1988,N/A,Brazil,Minas Gerais,N/A,Viçosa,Viçosa. Agricultural College lands. Base of Horticultural Hill,"Agricultural College lands, base of Horticultural Hill","On rotting log, in woods",log,670 m,N/A,870823,Typed,no type status
EMu Field Museum | Bryophytes Portal,https://fm-digital-assets.fieldmuseum.org/2542/857/C2079604F.jpg,lk,yr,C2079604F,"H. S. Irwin, R. M. Harley, G. L. Smith",H. S. Irwin,R. M. Harley | G. L. Smith,31332,2 March 1971,1971-03-02,N/A,Isopterygium tenerum (Sw.) Mitt.,Isopterygium tenerum,R. R. Ireland,1988,N/A,Brazil,Bahia,N/A,N/A,"Valley of the Rio das Ondas, ca. 10km W. of Barreiras","Valley of the Rio das Ondas, ca. 10 kilometers west of Barreiras","On the bark and exposed roots of Coccoloba sp., and on adjacent soil, at river bank. Cut-over gallery forest and adjacent cerrado",bark,ca. 500m,N/A,1059328,Typed,no type status
EMu Field Museum | Bryophytes Portal,https://fm-digital-assets.fieldmuseum.org/2542/863/C2079606F.jpg,lk,yr,C2079606F,Ynes Mexia,Y. Mexia,N/A,4884,"July 21, 1930",1930-07-21,N/A,Isopterygium curvicollum (C.M. ) Mitt. ,Isopterygium tenerum,R. R. Ireland,1988,N/A,Brazil,Minas Gerais,N/A,Viçosa,Viçosa. Agricultural College lands. Corrrigo Riberro,"Agricultural College lands, córrego Ribeiro","Shady stream bank, on rotten log",log,675 m,N/A,870845,Typed,no type status
EMu Field Museum | Bryophytes Portal,https://fm-digital-assets.fieldmuseum.org/2542/865/C2079607F.jpg,lk,yr,C2079607F,Ynes Mexia,Y. Mexia,N/A,4698,"May 14, 1930",1930-05-14,N/A,Isopterygium curvicollum (C.M. ) Mitt. ex P.,Isopterygium tenerum,R. R. Ireland,1988,N/A,Brazil,Minas Gerais,N/A,Viçosa,Viçosa. Fazenda de Cresiuma,Fazenda de Criciúma,Wood on slope. On rotten log,log,700 m,N/A,870839,Typed,no type status
EMu Field Museum | Bryophytes Portal,https://fm-digital-assets.fieldmuseum.org/2542/868/C2079608F.jpg,lk,yr,C2079608F,Ynes Mexia,Y. Mexia,N/A,4884,"July 21, 1930",1930-07-21,N/A,Isopterygium curvicollum (C.M. ) Mitt. ,Isopterygium tenerum,R. R. Ireland,1988,N/A,Brazil,Minas Gerais,N/A,Viçosa,Viçosa. Agricultural College lands. Corrrigo Riberro,"Agricultural College lands, córrego Ribeiro","Shady stream bank, on rotten log",log,675 m,N/A,1039977,Typed,no type status
EMu Field Museum | Bryophytes Portal,https://fm-digital-assets.fieldmuseum.org/2542/870/C2079609F.jpg,lk,yr,C2079609F,Ynes Mexia,Y. Mexia,N/A,4545,"March 31, 1930",1930-03-31,N/A,Isopterygium curvicollum (C.M. ) Mitt. ,Isopterygium tenerum,R. R. Ireland,1988,N/A,Brazil,Mians Gerais,N/A,Viçosa,"Viçosa. Road to São Miguel. Near stream ""Turba.""","Road to São Miguel, near stream Turba",Cut over woods on slope. On rotting tree trunk,bark,710 m,N/A,1039978,Typed,no type status
EMu Field Museum | Bryophytes Portal,https://fm-digital-assets.fieldmuseum.org/2542/875/C2079611F.jpg,lk,yr,C2079611F,V. Schiffner,V. Schiffner,N/A,s.n.,m. Jul. fr.,N/A,N/A,Isopterygium aurantiacum (C. M.) Broth.,Isopterygium tenerum,R. R. Ireland,1988,N/A,Brazil,São Paulo,N/A,São Paulo,Prope urbem Cerqueria-Cesar,Cerqueira Cesar,In palude,N/A,c. 500 m.s.m,N/A,1012776,Typed,no type status
EMu Field Museum | Bryophytes Portal,https://fm-digital-assets.fieldmuseum.org/2542/877/C2079856F.jpg,lk,yr,C2079856F,Ynes Mexia,Y. Mexia,N/A,4841,"July 6, 1930",1930-07-06,N/A,Isopterygium brachyneuron (C.M.) Mitt. ex P.,Isopterygium tenerum,R. R. Ireland,1988,N/A,Brazil,Minas Gerais,N/A,Viçosa,Viçosa. Agricultural College lands. Horticultural Hill,"Agricultural College lands, Horticultural Hill",Cut over woods near base. On rotting log,log,670 m,N/A,870837,Typed,no type status
EMu Field Museum | Bryophytes Portal,https://fm-digital-assets.fieldmuseum.org/2550/935/C2000932F.jpg,lk,yr,C2000932F,C. Müller,C. Müller,N/A,s.n.,9. Sept. 1905,1905-09-09,N/A,Pogonatum urnigerum (L.) Pal. Beauv. c. fr.,Pogonatum urnigerum,N/A,N/A,N/A,Germany,Baden-Wurttemberg,N/A,N/A,Zwischen Rinken und Seebrück am Feldberge,Zwischen Rinken und Seebrück am Feldberge,Auf Erde in Felsritzen,rock,etwa 1250 m s. m.,N/A,N/A,Typed,no type status
EMu Field Museum | Bryophytes Portal,https://fm-digital-assets.fieldmuseum.org/2550/937/C2000934F.jpg,lk,yr,C2000934F,Zd.Pilous,Z. Pilous,N/A,s.n.,V.1946,1946-05-00,N/A,Pogonatum urnigerum PB.,Pogonatum urnigerum,N/A,N/A,N/A,Czech Republic,Liberec,N/A,N/A,Bohemia.Montes Krkonoše prope pagum Hoření Vrchlabí,"Montes Krkonoše, prope pagum Hoření Vrchlabí",In declivis graminosis silvaticis,N/A,ca. 580 m,N/A,N/A,Typed,no type status
EMu Field Museum | Bryophytes Portal,https://fm-digital-assets.fieldmuseum.org/2550/946/C2000943F.jpg,lk,yr,C2000943F,C. Jensen,C. Jensen,N/A,s.n.,25/1o 19o1,1901-10-25,N/A,Pogonatum urnigerum (Hedw.) PB.,Pogonatum urnigerum,C. Jensen,N/A,N/A,Denmark,Sjælland ,N/A,N/A,Magistratskoven by Hvalsø,Magistratskoven by Hvalsø,In a gravel-pit,rock,N/A,N/A,N/A,Typed,no type status
EMu Field Museum | Bryophytes Portal,https://fm-digital-assets.fieldmuseum.org/2550/960/C2010620F.jpg,lk,yr,C2010620F,Jack,Jack,N/A,s.n.,25. August 1850,1850-08-25,N/A,Pogonatum urnigerum (L.) Pal. Beauv.,Pogonatum urnigerum,N/A,N/A,N/A,Germany,Baden-Württemberg,N/A,N/A,An Waldgräben bei Salem,Bei Salem,An Waldgräben,N/A,N/A,N/A,N/A,Typed,no type status
EMu Field Museum | Bryophytes Portal,https://fm-digital-assets.fieldmuseum.org/2550/962/C2010622F.jpg,lk,yr,C2010622F,Dr. Hepp,Hepp,N/A,s.n.,17. October 1862,1862-10-17,N/A,Pogonatum urnigerum (L.) Pal. Beauv.,Pogonatum urnigerum,N/A,N/A,N/A,Germany,Baden-Württemberg,N/A,N/A,An einem Waldrande auf dem rothen Sandsteinbruche Oberlab Degerfelden,Auf dem rothen Sandsteinbruche Oberlab Degerfelden,An einem Waldrande,N/A,N/A,N/A,N/A,Typed,no type status
EMu Field Museum | Bryophytes Portal,https://fm-digital-assets.fieldmuseum.org/2550/964/C2010624F.jpg,lk,yr,C2010624F,Schenk,Schenk,N/A,s.n.,September 1862,1862-09-00,N/A,Pogonatum urnigerum (L.) Pal. Beauv.,Pogonatum urnigerum,N/A,N/A,N/A,Switzerland,Schaffhausen,N/A,N/A,Bei Schaffhausen,Bei Schaffhausen,In Hohlwegen,N/A,N/A,N/A,N/A,Typed,no type status
EMu Field Museum | Bryophytes Portal,https://fm-digital-assets.fieldmuseum.org/2550/966/C2010626F.jpg,lk,yr,C2010626F,C. Jensen,C. Jensen,N/A,s.n.,"November 21, 1904",1904-11-21,N/A,Pogonatum urnigerum (Hedw.) PB. c. fr.,Pogonatum urnigerum,C. Jensen,N/A,N/A,Denmark,Sjælland ,N/A,N/A,Magistratskoven south of Hvalsö,"Magistratskoven, south of Hvalsö",Sandy soil,soil,N/A,N/A,N/A,Typed,no type status
EMu Field Museum | Bryophytes Portal,https://fm-digital-assets.fieldmuseum.org/2550/968/C2010974F.jpg,lk,yr,C2010974F,P. Allorge,P. Allorge,N/A,s.n.,22. VIII. 1927,1927-08-22,N/A,Pogonatum urnigerum,Pogonatum urnigerum,N/A,N/A,"Blasia pussila, Peilia epiphylla, Alicularia scalaris, Dichodontium pellucidum, Rhyttidiadelphus loreus",Spain,Navarra,N/A,N/A,Puerto de Ibañeta (Navarra),Puerto de Ibañeta,Talus argileux (schistes),talus,ca. 1.050 m,N/A,N/A,Typed,no type status
EMu Field Museum | Bryophytes Portal,https://fm-digital-assets.fieldmuseum.org/2550/970/C2010976F.jpg,lk,yr,C2010976F,Zd.Pilous,Z. Pilous,N/A,s.n.,VII.1949,1949-07-00,N/A,Pogonatum urnigerum Pal. var.humile Brid.,Pogonatum urnigerum var. humile,N/A,N/A,N/A,Slovakia,N/A,N/A,N/A,Montes Nízké Tatry:In terra montis Dumbier,"Montes Nízké Tatry, in terra montis Dumbier",N/A,N/A,ca 1840 m,N/A,N/A,Typed,no type status