Image,verbatimCollectors,collectedBy,secondaryCollectors,recordNumber,verbatimEventDate,minimumEventDate,maximumEventDate,verbatimIdentification,latestScientificName,identifiedBy,verbatimDateIdentified,associatedTaxa,country,firstPoliticalUnit,secondPoliticalUnit,municipality,verbatimLocality,locality,habitat,verbatimElevation,verbatimCoordinates,otherCatalogNumbers,originalMethod,typeStatus
C0268502F_p.jpg,leg. M. Fleischer,M. Fleischer,N/A,B 2734,25.3.1903,1903-03-25,N/A,Macromitrium,Macromitrium,N/A,N/A,N/A,Australia,Queensland,N/A,Eumundi,"ca. 100 km nördlich Brisbane, Urwald.","approximately 100 kilometers north of Brisbane, rainforest",rainforest,N/A,N/A,C0268502F,Typed,no type status
C0268508F_p.jpg,M. Fleischer,M. Fleischer,N/A,B 2692,25.3.1903,1903-03-25,N/A,Macromitrium,Macromitrium,N/A,N/A,N/A,Australia,Queensland,N/A,Eumundi,"Australien: Queensland, Eumundi (ca. 100 km nördlich Brisbane), Urwald.",[precise locality unknown],Urwald,N/A,N/A,N/A,Typed,no type status
C0268514F_p.jpg,leg. M. Fleischer,M. Fleischer,N/A,B 2552,6.4.1903,1903-04-06,N/A,Macromitrium,Macromitrium,N/A,N/A,N/A,Australia,New South Wales,N/A,Wentworth Falls,"Blue Mountains bei Sydney, Wentworth Falls.","Blue Mountains near Sydney, Wentworth Falls",[precise locality unknown],N/A,N/A,N/A,Typed,no type status
C0268520F_p.jpg,,,,,,,,,,,,,,,,,,,,,,,,
C0268544F.jpg,T. Nakajima,T. Nakajima,N/A,1229,"Mar. 27, 1971",1971-03-27,N/A,Macromitrium gymnostonum Sull. et Lesq. c. fr.,Macromitrium gymnostonum,T. Nakajima,"Mar. 27, 1971",N/A,Japan,Wakayama Prefecture,Nishimuro-gun,Oto-mura,"On vertical face of rock, Ohara, Yuya, Oto-mura, Nishimuro-gun","On vertical face of rock, Ohara, Yuya",N/A,330 m alt.,N/A,C0268544F,Typed,no type status
C0268545F.jpg,T. Nakajima,T. Nakajima,N/A,s.n.,"May 4, 1958",1958-05-04,N/A,Macrotritium gymnostomum Sull. et Lesq.,Macrotritium gymnostomum,T. Nakajima,N/A,Fagus crenata,Japan,Nara,N/A,N/A,"Mt. Obako, Nara Prefecture","On trunks of Fagus crenata, ca. 1200 m. alt., Mt. Obako",On trunks of Fagus crenata,ca. 1200 m. alt.,N/A,C0268545F,Typed,no type status
C0268546F.jpg,T. Nakajima,T. Nakajima,N/A,1129,"March 28, 1967",1967-03-28,N/A,Macromitrium gymnostomum Sull. & Lesq. c. fr.,Macromitrium gymnostomum,T. Nakajima,"March 28, 1967",N/A,Japan,Wakayama,Nishimuro,Shirahama-chō,"On rocks, ca. 100 m alt., Syōgawa, Shirahama-chō, Nishimuro-gun","On rocks, approximately 100 meters altitude, Syōgawa, Shirahama-chō",N/A,ca. 100 m alt.,N/A,C0268546F,Typed,no type status
C0268548F.jpg,S. Hattori,S. Hattori,N/A,s.n.,X. 1946,1946-10-00,N/A,Macromitrium gymnostomum Sull. et Lesq.,Macromitrium gymnostomum,A. Noguchi,Ser. I (1947),N/A,Japan,Miyazaki,N/A,"Minaminaka, Sakatani","KIUSHIU, Miyazaki, Minaminaka, Sakatani, ad arborum truncos, ca 500 m",near tree trunks,on tree trunks,ca 500 m,N/A,C0268548F,Typed,no type status
C0268549F.jpg,R.P. J.B. Ferrié,J.B. Ferrié,N/A,s.n.,20.4.1898,1898-04-20,N/A,Macromitrium gymnostomum S. L.,Macromitrium gymnostomum,Thériot,unsure and check,N/A,Japan,N/A,N/A,N/A,Iles Liou-Kiou – Centre de l'ile,Centre de l'ile,[precise habitat description not provided on label],N/A,N/A,C0268549F,Typed,no type status
C0268550F.jpg,R.P. J.B. Ferrié,J.B. Ferrié,N/A,s.n.,oct.nov.1898,1898-10-00,1898-11-00,Macromitrium gymnostonum S. L.  = m. rupestre Mitt. Sull. Card.,Macromitrium gymnostonum,Thériot,N/A,N/A,Japan,N/A,N/A,N/A,Yaku-Sima,Yaku-Sima,N/A,N/A,N/A,C0268550F,Typed,no type status
C0268554F.jpg,A. Touw,A. Touw,N/A,14660,9-3-1975,1975-03-09,N/A,Macromitrium incurvifolium (Hook. & Grev.) Schwaegr.,Macromitrium incurvifolium,D. H. Vitt,N/A,Plumeria,Papua New Guinea,Morobe,N/A,Lae,"Morobe Distr., Lae. In fork of Plumeria tree in garden.",In fork of Plumeria tree in garden,In garden,c. 20 m.,N/A,C0268554F,Typed,no type status
C0268557F.jpg,A. Touw No. 18543,A. Touw,N/A,18543,20.5.1975,1975-05-20,N/A,Macromitrium longicaule C. Müll.,Macromitrium longicaule,D. H. Vitt,20.5.1975,N/A,Papua New Guinea,West Sepik,N/A,Busilmin,"Papua New Guinea, West Sepik Distr., Star Mts., c. 5°S 141°05'E Busilmin",Wet forest on slope above Ok Din river west of Busilmin; on trees along Ok Din River,Wet forest on slope,c. 1500 - 1550 m,c. 5°S 141°05'E,C0268557F,Typed,no type status
C0268558F.jpg,A. Touw No.,A. Touw,N/A,17369,8.5. 1975,1975-05-08,N/A,Macromitrium macrosporum Broth.,Macromitrium macrosporum,D. H. Vitt,Dat: 8.5. 1975,N/A,Papua New Guinea,West Sepik,N/A,N/A,"West Sepik Distr., Star Mts., c. 5° S141°05’E NE summit of Mt. Capella;",Northeast summit of Mount Capella,on stems and branches of trees and shrubs in summit scrub,Alt: c. 3900 m,c. 5° S141°05’E,C0268558F,Typed,no type status
C0268559F.jpg,A. Touw No. 16376,A. Touw,N/A,16376,17.4.1975,1975-04-17,N/A,Macromitrium macrosporum Broth.,Macromitrium macrosporum,D. H. Vitt,17.4.1975,N/A,Papua New Guinea,West Sepik,N/A,N/A,"West Sepik Distr., Star Mts., c. 5°S 141°05’E Mt. Capella Base Camp.","Star Mountains, near Mount Capella Base Camp",Limestone ridge near camp; high stunted forest on ridge,c. 3600 m.,5°S 141°05’E,C0268559F,Typed,no type status
C0268560F.jpg,A. Touw No. 17312,A. Touw,N/A,17312,8.5. 1975,1975-05-08,N/A,Macromitrium macrosporum Broth.,Macromitrium macrosporum,D. H. Vitt,8.5. 1975,N/A,Papua New Guinea,West Sepik,N/A,N/A,"West Sepik Distr., Star Mts., c. 5°S 141°05'E NE Summit of Mt. Capella. Summit of ridge between Mt. Capella Base Camp and Mt. Capella ridge; on isolated tree.",NE Summit of Mt. Capella. Summit of ridge between Mt. Capella Base Camp and Mt. Capella ridge; on isolated tree.,N/A,c. 3650 m,c. 5°S 141°05'E,C0268560F,Typed,no type status
C0268561F.jpg,A. Touw No. 16420,A. Touw,N/A,16420,19.4.1975,1975-04-19,N/A,Macromitrium macrosporum Broth.,Macromitrium macrosporum,D. H. Vitt,19.4.1975,N/A,Papua New Guinea,West Sepik,N/A,N/A,"West Sepik Distr., Star Mts., c. 5°S 141° 05'E Mt. Capella NE summit","Star Mountains, Mount Capella Northeast summit",Forest remnant in deep chasm near the summit on soaking wet bark of trees,Alt. c. 3900 m.,c. 5°S 141° 05'E,C0268561F,Typed,no type status
C0268562F.jpg,A. Touw,A. Touw,N/A,17205,5.5. 1975,1975-05-05,N/A,Macromitrium macrosporum Broth.,Macromitrium macrosporum,D. H. Vitt,N/A,N/A,Papua New Guinea,West Sepik,N/A,N/A,"Near Mt. Capella Base Camp, along trail to Tamanagabip","Near Mount Capella Base Camp, along trail to Tamanagabip",Open subalpine scrub. At base of limestone rock faces,Alt. c. 3450 m,c. 5° S 141°05'E,C0268562F,Typed,no type status
C0268563F.jpg,A. Touw,A. Touw,N/A,18046,14.5.1975,1975-05-14,N/A,Macrotrilium megalocladon Fleisch.,Macrotrilium megalocladon,D. H. Vitt,N/A,N/A,Papua New Guinea,West Sepik,N/A,N/A,Upper montane forest between Folongonom and Artis' Camp.,Upper montane forest between Folongonom and Artis' Camp,Upper montane forest between Folongonom and Artis' Camp. Pendulous from heavy tree branches and slanting trunks,c. 2500 - 2600 m.,"c. 5°14'05""E",C0268563F,Typed,no type status
C0268564F.jpg,A. Touw,A. Touw,N/A,No. 16555,21.4. 1975,1975-04-21,N/A,Macromitrium megalocladon Fleisch.,Macromitrium megalocladon,D. H. Vitt,N/A,N/A,Papua New Guinea,West Sepik,N/A,N/A,"West Sepik Distr., Star Mts., c. 5° S 141°05’E Small kuni (grassfield) SW of Mt. Capella Base Camp","Star Mountains, small kuni (grassfield) southwest of Mount Capella Base Camp",On vertical face of moss covered limestone boulder at edge of kuni,c. 3400 m,c. 5° S 141°05’E,C0268564F,Typed,no type status
C0268565F.jpg,A. Touw,A. Touw,N/A,15768,7.4. 1975,1975-04-07,N/A,Macromitrium megalocladon Fleisch.,Macromitrium megalocladon,D. H. Vitt,7.4. 1975,N/A,Papua New Guinea,West Sepik,N/A,N/A,"West Sepik Distr., Star Mts., c. 5° S 141°05'E Tel Basin; Ridge above Camp 2. ",Tel Basin; Ridge above Camp 2,"Terrestrial in open shrubbery on ridge. Dense moss vegetation covering soil, rocks and the lower portion of shrubs. Dominant.",c. 3350 m.,c. 5° S 141°05'E,C0268565F,Typed,no type status
C0268566F.jpg,S. Hattori,S. Hattori,N/A,s.n.,VIII. 1946,1946-08-00,N/A,Macromitrium incurvum (Lindb.) Par.,Macromitrium incurvum,A. Noguchi,Ser. I (1947),N/A,Japan,Miyazaki,N/A,Minaminaka,"Kiushiu, Miyazaki, Minaminaka, Obi","Kiushiu, Obi","rupicola, photophila",ca 50 m,N/A,C0268566F,Typed,no type status
C0268569F.jpg,K. Mayebara,K. Mayebara,N/A,s.n.,"December 25, 1951",1951-12-25,N/A,Macromitrium incurvum (Lindb.) Par.,Macromitrium incurvum,A. Noguchi,N/A,N/A,Japan,Kumamoto,N/A,Yoshio,"On exposed rocks, 60 m. above sea, Yoshio, Kumamoto Prefecture","On exposed rocks, 60 meters above sea",On exposed rocks,60 m. above sea,N/A,C0268569F,Typed,no type status
C0268571F.jpg,K. Mayebara,K. Mayebara,N/A,s.n.,"February 11, 1952",1952-02-11,N/A,Macromitrium gymnostomum Sull. et Lesq.,Macromitrium gymnostomum,A. Noguchi,N/A,N/A,Japan,Kumamoto,N/A,Koonose,"ca. 100 m. above sea, Koonose, Kumamoto Prefecture","approximately 100 meters above sea level, Koonose",On rocks,ca. 100 m. above sea,N/A,C0268571F,Typed,no type status
C0268572F.jpg,K. Mayebara,K. Mayebara,N/A,s.n.,March 1952,1952-03-00,N/A,Macromitrium gymnostomum Sull. et Lesq.,Macromitrium gymnostomum,A. Noguchi,N/A,N/A,Japan,Kumamoto,N/A,Hitoyoshi,"On rocks, ca. 100m. alt., Hitoyoshi, Kumamoto County","On rocks, approximately 100 meters altitude, Hitoyoshi",On rocks,ca. 100m. alt.,N/A,C0268572F,Typed,no type status
C0268574F.jpg,H. H. Chung,H. H. Chung,N/A,B.206,"August, 1925",1925-08-00,N/A,Macromitrium gymnostonum S.& L.,Macromitrium gymnostonum,Theriot,N/A,N/A,China,Fujian,N/A,N/A,Kushan near Foochow,Kushan near Foochow,On rock,altitude 500 m.,N/A,C0268574F,Typed,no type status
C0268575F.jpg,H. H. Chung,H. H. Chung,N/A,B.20,"May 2, 1925",1925-05-02,N/A,Macromitrium gymnostonum Sull.,Macromitrium gymnostonum,Theriot,N/A,N/A,China,Fujian,N/A,Chuanchow,On rock in bamboo forest. CHUANCHOW,On rock in bamboo forest,bamboo forest,N/A,N/A,N/A,Typed,no type status
C0268579F.jpg,Timo Koponen,T. Koponen,N/A,#33590,23 July 1981,1981-07-23,N/A,Macromitrium longicaule C. Müll.,Macromitrium longicaule,D. H. Vitt,1989,N/A,Papua New Guinea,Morobe,N/A,N/A,Lake Wamba 5 km S of Teptep airstrip,Lake Wamba 5 kilometers south of Teptep airstrip,Rather open montane forest with dominating Pandanus trees 1 km S of lake,alt. 2400 m,"6°01'S, 146°33'E",C0268579F,Typed,no type status
C0268581F.jpg,H. H. Chung,H. H. Chung,N/A,B. 4,"March, 1925",1925-03-00,N/A,"Macromitrium japonicum (Dz. & M.) C. M. Syn. "" "" incurvum",Macromitrium japonicum,N/A,N/A,N/A,China,Fujian,N/A,N/A,"Namputo, Amoy","Namputo, Amoy",On shady rocks or bark.,N/A,N/A,CO268581F,Typed,no type status
C0268585F.jpg,Timo Koponen,T. Koponen,N/A,#32571,9 July 1981,1981-07-09,N/A,Macromitrium macrosporum Broth.,Macromitrium macrosporum,D. H. Vitt,1989,N/A,Papua New Guinea,Morobe,N/A,N/A,Mt. Sarawaket Southern Range 2.5 km S of L. Gwam,Mt. Sarawaket Southern Range 2.5 kilometers south of Lake Gwam,"Open alpine grassland and ""subalpine"" forest at Lake Kenzorgh East of Mt. Enggum, on bush",alt. 3550 m,"6°21'S, 147°07'E",C0268585F,Typed,no type status
C0268587F.jpg,M. Mizutani and I. Yoshimura,M. Mizutani,I. Yoshimura,1379,"Jan. 23,1975",1975-01-23,N/A,Macrotritium gymnostomum Sull. et Lesq.,Macrotritium gymnostomum,Z. I.,"Jan. 23,1975",N/A,Japan,Ryukyu Islands,Sonai,Isl. Iriomote,"Ryukyu: Isl. Iriomote, Sonai, 1-10 m alt., on tree trunk.","Ryukyu Islands, Iriomote Island, Sonai, on tree trunk",[precise habitat unknown],1-10 m alt.,N/A,CO268587F,Typed,no type status
C0268588F.jpg,K. Sakurai,K. Sakurai,N/A,s.n.,X. 1932,1932-10-00,N/A,Macromitrium incurvum (Lindb.) Paris,Macromitrium incurvum,K. Sakurai,N/A,N/A,Japan,Honshu,Musashi,N/A,"JAPONIA, Honshiu, Musashi, prope fauces d. Kobotoke",near Kobotoke,"rupestris, photophila",N/A,N/A,C0268588F,Typed,no type status
C0268589F.jpg,K. SAITO,K. Saito,N/A,s.n.,"April 3, 1970",1970-04-03,N/A,Macromitrium gymnostomum Sull. & Lesq.,Macromitrium gymnostomum,A. Noguchi,N/A,N/A,Japan,Kagoshima,N/A,Sumiyo-mura,"Sumiyo-mura, Isl. Amami-oshima, Kagoshima Pref.",Isl. Amami-oshima,On rock;,elevation about 120 m.,N/A,C0268589F,Typed,no type status
C0268725F.jpg,V. et P. Allorge,V. Allorge,P. Allorge,133,14.VI.1937,1937-06-14,N/A,Pogonatum urnigerum (Hedw.) P. B.,Pogonatum urnigerum,N/A,N/A,N/A,Portugal,Azores,N/A,São Miguel,talus découvert Salto do Cavalo vers 700 m. S. MIGUEL,talus at Salto do Cavalo around 700 meters,talus découvert,vers 700 m.,N/A,N/A,Typed,no type status
C0341037F.jpg,Marko Lewis,M. Lewis,N/A,83-224,20 Jan 1983,1983-01-20,N/A,Philonotis,Philonotis,N/A,N/A,N/A,Bolivia,La Paz,Larecaja,Sorata,"Tacacoma 3' Between 5-6 km S of Tacacoma along road to Quiabaya, 16-17 km N of Sorata.","Tacacoma 3' between 5 to 6 kilometers south of Tacacoma along the road to Quiabaya, 16 to 17 kilometers north of Sorata",Super humid Ceja de Montaña forests following ravines. In small rill in dripping area of small waterfall.,ca. 3550 m.,"15°36'S, 68°39'W",C0341037F,Typed,no type status
C0341038F.jpg,"Marko Lewis, no. 79-1314",M. Lewis,N/A,79-1314,29 March 1979,1979-03-29,N/A,Philonotis fide Crum,Philonotis,N/A,N/A,N/A,Bolivia,La Paz,Larecaja,N/A,"DEPTO. LA PAZ, PROV. LARECAJA: Along road 1 mi. from Sorata towards Achacachi",Along road 1 mile from Sorata towards Achacachi,Eroding bank,2740 m.,"15° 45' S., 68° 42' W.",C0341038F,Typed,no type status
C0341040F.jpg,Marko Lewis,M. Lewis,N/A,79-2315,1 June 1979,1979-06-01,N/A,Philonotis,Philonotis,N/A,N/A,N/A,Bolivia,Cochabamba,Chapare,N/A,"DEPTO. COCHABAMBA, PROV. CHAPARÉ: Slope of Cerro Khachi, N. of Corani","Slope of Cerro Khachi, north of Corani","On stones and banks of seepy creek in cloud forest ravine, with tree ferns",3030 m.,"17° 11' S., 65° 54' W.",C0341040F,Typed,no type status
C0341047F.jpg,Miss W. M. A. Brooke,W. M. A. Brooke,N/A,6867,15 Oct. 1950,1950-10-15,N/A,N/A,N/A,N/A,N/A,N/A,Bolivia,N/A,N/A,N/A,UNDUAVI,Unduavi,N/A,10000 ft.,N/A,C0341047F,Typed,no type status
C0341048F.jpg,Miss W. M. A. Brooke,W. M. A. Brooke,N/A,6865,13 Oct. 1950,1950-10-13,N/A,N/A,N/A,N/A,N/A,N/A,Bolivia,N/A,N/A,N/A,UNDUAVI,Unduavi,N/A,10000 ft.,N/A,C0341048F,Typed,no type status
C0341051F.jpg,Marko Lewis,M. Lewis,N/A,79-2315,1 June 1979,1979-06-01,N/A,PHILODOTIS,Philodotis,N/A,N/A,N/A,Bolivia,Cochabamba,Chapare,N/A,"DEPTO. COCHABAMBA, PROV. CHAPARÉ: Slope of Cerro Khachi, N. of Corani","Slope of Cerro Khachi, north of Corani","On stones and banks of seepy creek in cloud forest ravine, with tree ferns",3030 m.,"17°11' S, 65°54' W.",C0341051F,Typed,no type status
C0341117F.jpg,P+E. Hegewald,P. E. Hegewald,N/A,6989,31.8.1973,1973-08-31,N/A,Philonotis sphaerocarpa (Hedw.) Brid.,Philonotis sphaerocarpa,E. Hegewald,N/A,N/A,Peru,Amazonas,Chachapoyas,N/A,Las Palmas zw. Balsas u. Leimebamba.,Las Palmas between Balsas and Leimebamba,"Fels, Erde, Mauer, Baum, Strauch, Holz, See, Bach.",3000 m,N/A,N/A,Typed,no type status
C0341152F.jpg,"Frank D. Bowers, Claudio Delgadillo M. & Paul Somers, Jr.",F. D. Bowers,C. Delgadillo M. | P. Somers Jr.,5166,25 December 1973,1973-12-25,N/A,Braunia andrieuxii Braunia secunda (Hook.) B.S.G,Braunia secunda,A. J. Sharp,N/A,N/A,Mexico,Baja California Sur,N/A,N/A,"TERR.BAJA CALIFORNIA SUR; at Sierra de la Laguna. 15 miles east of Todos Santos. On boulder, meso, open valley.","Sierra de la Laguna, 15 miles east of Todos Santos, on a boulder in a meso, open valley",Oak-pine and grassland with dry and flowing streams,Alt. ca. 6300 ft,N/A,N/A,Typed,no type status
C0341164F.jpg,"A.J. and E.B. Sharp, E.C. Clebsch, K.F. Thornsburh",A. J. Sharp,E. B. Sharp | E. C. Clebsch | K. F. Thornburgh,2281,"June 23, 1973",1973-06-23,N/A,Braunia andrieuxii Lor.,Braunia andrieuxii,A. J. Sharp,N/A,N/A,Mexico,Oaxaca,N/A,N/A,"Near El Punto on Hwy. 175, Oaxaca; Mexico",Near El Punto on Highway 175,"Partial shade, moist, road side cliff.",+1625 m.,N/A,C0341164F,Typed,no type status
C0341169F.jpg,"A.J. and E.B. Sharp, E.C. Clebsch, K.R. Thorneburgh",A. J. Sharp,E. B. Sharp | E. C. Clebsch | K. R. Thorneburgh,2736,"July 4, 1973",1973-07-04,N/A,Brauna secunda (Hook.) B.S.G.,Braunia andrieuxii,Efrain De Luna,1992,N/A,Mexico,Jalisco,N/A,San Martín Hidalgo,"El Mirador on hwy. 80, 9 mi. above San Martín Hidalgo, Jalisco; Mexico.","El Mirador on highway 80, 9 miles above San Martín Hidalgo","Partial shade, moist, vertical surface of boulder",~1750 m.,N/A,N/A,Typed,no type status
C0341179F.jpg,C. G. PRINGLE,C. G. Pringle,N/A,10619,"30, Sept., 1908.",1908-09-30,N/A,"Brauina Andrieuxii, Lorentz.",Brauina andrieuxii,E. De Luna,1992,N/A,Mexico,Jalisco,N/A,N/A,On rocks near Guadalajara,On rocks near Guadalajara,N/A,"5,000 ft.",N/A,N/A,Typed,no type status
C0341180F.jpg,C. G. PRINGLE,C. G. Pringle,N/A,10627,"17, Sept., 1908.",1908-09-17,N/A,"Braunia andrieuxii Lor. | Braunia plicata, Mitt., var. canescens, Card. n. var.",Braunia andrieuxii,Efrain De Luna,1992,N/A,Mexico,Hidalgo,N/A,N/A,Cuyamaloya,Cuyamaloya,N/A,N/A,N/A,N/A,Typed,no type status
C0341205F.jpg,LEG. EGGERS & FRAHM,Eggers,Frahm,s.n.,23.2.79(1),1979-02-23,N/A,Braunia secunda (Hook.) Bruch & Schimp.,Braunia secunda,Efrain De Luna,1992,N/A,Mexico,Veracruz,N/A,N/A,"SIERRA MADRE AN DER STR.F55 ZW.PEROTE + JALAPA, KIEFERN=EICHENW.",[precise locality unknown],KIEFERN=EICHENW.,2300m,N/A,N/A,Typed,no type status
C0341207F.jpg,Frank D. Bowers; Claudio Delgadillo M.; Paul Sorensen,F. D. Bowers,C. Delgadillo M. | P. Sorensen,5067,30 December 1973,1973-12-30,N/A,Braunia secunda (Hook.) B.S.G.,Braunia secunda,A. J. Sharp,1992,N/A,Mexico,Durango,N/A,N/A,"DURANGO: Oak-pine forest with Madrono along Highway 10 about 9 miles west of La Ciudad. On boulder, partial shade, meso, ridge.",Oak-pine forest with Madrono along Highway 10 about 9 miles west of La Ciudad,Oak-pine forest with Madrono,Alt. 6650 ft.,N/A,C0341207F,Typed,no type status
C0341213F.jpg,A. J. SHARP,A. J. Sharp,N/A,1145,"July 23, 1941",1941-07-23,N/A,Braunia secunda (Hook.) BSG,Braunia secunda,H. A. Crum,N/A,N/A,Mexico,Distrito Federal,N/A,N/A,"Siliceous boulder in Rio, above Contreras, D.F., MEXICO.","Siliceous boulder in Rio, above Contreras",N/A,N/A,N/A,C0341213F,Typed,no type status
C0341223F.jpg,"A.J. Sharp, F.D. Bowers, D.K. Smith, R.A. Hattaway, Paul Somers, Jr.",A. J. Sharp,F. D. Bowers | D. K. Smith | R. A. Hattaway | P. Somers Jr.,4247,"Dec. 19, 1972",1972-12-19,N/A,Braunia squarrosa (Hampe) Broth.,Braunia squarrosa,F. Bowers,N/A,N/A,Mexico,Chiapas,N/A,Pueblo Nuevo,"Yerba Buena, Pueblo Nuevo, (about 55 km. northeast of Tuxtla--Gutiérrez), Chiapas","Yerba Buena, trail side bank","Partial shade, moist",+ 6800 ft.,N/A,N/A,Typed,no type status
C0341228F.jpg,F.J. Hermann,F. J. Hermann,N/A,26429,"Feb.9,1975",1975-02-09,N/A,Braunia squarrulosa (Hampe) Broth.,Braunia squarrulosa,Efrain de Luna,1992,N/A,Mexico,Chiapas,N/A,San Cristobal de las Casas,"15 mi. S.E. of San Cristobal de las Casas, Chiapas, Mexico.",15 miles southeast of San Cristobal de las Casas,On oak trunk in oak-pine woods,alt. 6800 ft.,N/A,C0341228F,Typed,no type status
C0341231F.jpg,"A.J. Sharp, F.D. Bowers, D.K. Smith, R.A. Hattaway, Paul Somers, Jr.",A. J. Sharp,F. D. Bowers | D. K. Smith | R. A. Hattaway | P. Somers Jr.,2980-a,"Dec. 23, 1972",1972-12-23,N/A,Braunia squarrosa (Hampe) Broth.,Braunia squarrosa,A. J. Sharp,"Unsure, check",N/A,Mexico,Oaxaca,N/A,San Pablo Ayutla,"Roadside near San Pablo Ayutla, (about 70 km. east of Oaxaca) Oaxaca.","Roadside near San Pablo Ayutla, about 70 kilometers east of Oaxaca","Dry, full shade, oak branch. Oak-pine woods.",+6000 ft.,N/A,N/A,Typed,no type status
C0341234F.jpg,Howard A. Crum,H. A. Crum,N/A,917,23 July 1949,1949-07-23,N/A,Braunia squarrosa (Hampe) Broth.,Braunia squarrosa,Efrain de Luna,1992,N/A,Mexico,Jalisco,N/A,N/A,"Slopes of La Ferrería, above Manantlán.","Slopes of La Ferreria, above Manantlan","On dead limb, fallen. Oak forest.",7300 feet,N/A,C0341234F,Typed,no type status
C0341237F.jpg,C. G. PRINGLE,C. G. Pringle,N/A,10550,"17, July, 1908.",1908-07-17,N/A,"Braunsia squarrulosa, (Hpe.) Broth.",Braunsia squarrulosa,Cardot | Efrain De Luna,1992,N/A,Mexico,Federal District,N/A,N/A,"Base of trees, Cima, 10,000 ft.","Base of trees, Cima",Base of trees,"10,000 ft.",N/A,N/A,Typed,no type status
C0341238F.jpg,EGGERS & FRAHM,Eggers,Frahm,s.n.,10.5.79(29),1979-05-10,N/A,Braunia squarrosula (Hampe) Broth.,Braunia squarrosula,Efrain De Luna,1992,N/A,Mexico,Chiapas,N/A,N/A,KM 100 AN DER STR.OCOSINGO-SAN CRISTUBAL EICHEN-KIEFERNWALD 2250 MSm.,KM 100 on the Ocosingo-San Cristobal oak-pine forest,oak-pine forest,2250 MSm.,N/A,N/A,Typed,no type status
C0341239F.jpg,EGGERS & FRAHM,Eggers,Frahm,10.3.79(29),10.3.79(29),1979-03-10,N/A,Braunia squarrulosa (Hampe) Broth.,Braunia squarrulosa,Efrain De Luna,1992,N/A,Mexico,Chiapas,N/A,N/A,"EDO.CHIAPAS, KM 100 AN DER STR.OCOSINGO-SAN CRISTOBAL EICHEN-KIEFERNWALD",KM 100 on the road from Ocosingo to San Cristobal,Eichen-Kiefernwald,2250 MSM.,N/A,N/A,Typed,no type status
C0341242F.jpg,F. J. Hermann,F. J. Hermann,N/A,26429,"February 9, 1975",1975-02-09,N/A,Braunia squarrulosa (Hampe) Broth. c.fr.,Braunia squarrulosa,Efrain De Luna,1992,N/A,Mexico,Chiapas,N/A,San Cristobal de las Casas,"along Route 190, 15 miles SE. SAN CRISTOBAL DE LAS CASAS","along Route 190, 15 miles southeast of San Cristobal de las Casas",On oak trunk in oak-pine woods,alt. 6800 ft.,N/A,N/A,Typed,no type status
C0341246F.jpg,"Dana Griffin, III y María Isabel Morales",D. Griffin,M. I. Morales,B 97,4 Feb. 1979,1979-02-04,N/A,Braunia squarrulosa (Hampe) C. Müll.,Braunia squarrulosa,E. De Luna,1992,N/A,Costa Rica,San Jose,N/A,N/A,"Valle de Copey, ca. 30 kms al sur de Cartago.","Valle de Copey, approximately 30 kilometers south of Cartago",Bosque primario montano bajo muy húmedo y potreros.,Alt. 2000 m.,N/A,C0341246F,Typed,no type status
C0341248F.jpg,S. Churchill,S. Churchill,N/A,20792,4 Ago 2001,2001-08-04,N/A,"Hedwigia ciliata var. leucophaea, Encoded in TROPICOS",Hedwigia ciliata var. leucophaea,S. Churchill,2001,N/A,Bolivia,Tarija,Burnet O'Connor,N/A,"Serrania Huacayoj. Ca. 35 km oeste de Entre Rios (carretera a Tarija). Bosque montano Tucumano-Boliviano, remanente.",Serrania Huacayoj approximately 35 kilometers west of Entre Rios (road to Tarija),Musgo sobre ramas. c.fr.,2300 m,21°25'S 64°19'W,<20792-20809>,Typed,no type status
C0341251F.jpg,B. Sparre,B. Sparre,N/A,s.n.,27 November 1946,1946-11-27,N/A,Braunia cirrhiifolia (Mitt.) Jaeg.,Braunia cirrhiifolia,W. R. Buck,N/A,N/A,Argentina,Tucuman,Chicligasta,Rio Cochuna,"Argentina, Prov. Tucuman, Chicligasta, Rio Cochuna, 1000 m a.s.l.",Rio Cochuna,"Subtropical rainforest, epiphyte",1000 m a.s.l.,N/A,B11750,Typed,no type status
C0341253F.jpg,"Marko Lewis, no. 79-1625",M. Lewis,N/A,79-1625,6 April 1979,1979-04-06,N/A,Braunia cirrhifolia (Mitt.) Wils. ex Jaeg.,Braunia cirrhifolia,E. De Luna,1992,N/A,Bolivia,La Paz,Larecaja,N/A,"DEPTO. LA PAZ, PROV. LARECAJA: Canyon 1 km. E. of Cachipata, SE of Sorata, 3250 m., 15° 48' S., 68° 36' W.","Canyon 1 kilometer east of Cachipata, southeast of Sorata",In ravine with waterfall,3250 m.,"15° 48' S., 68° 36' W.",C0341253F,Typed,no type status
C0341254F.jpg,Marko Lewis,M. Lewis,N/A,82-303,9 Dec 1982,1982-12-09,N/A,Braunia pilcata (Mitt.) Jaeg.,Braunia pilcata,D. Griffin III,1990,N/A,Bolivia,La Paz,Larecaja,Sorata,"Along the Río Chalusuyu, a branch of the Río San Cristóbal, 3 km NW of Sorata.","Along the Río Chalusuyu, near a branch of the Río San Cristóbal, 3 kilometers northwest of Sorata","Arid woodland and cliff area, at base of cliffs near river amongst a boulder pile in a deep canyon. Small trees, tree cacti and shrubs in shady, protected area.",ca. 2450 m.,"16°44'S, 68°41'W",C0341254F,Typed,no type status
C0341255F.jpg,"Marko Lewis, no.",M. Lewis,N/A,79-1230,22 March 1979,1979-03-22,N/A,Braunia plicata (Mitt.) Jaeg.,Braunia plicata,E. De Luna,1992,N/A,Bolivia,La Paz,Larecaja,N/A,"DEPTO. LA PAZ, PROV. LARECAJA: Near large red outcrop 2 mi. from Sorata down Río Consata, 15° 41' S., 68° 43' W.",Near large red outcrop 2 miles from Sorata down Río Consata,Abundant on exposed rock face,2600 m.,"15° 41' S., 68° 43' W.",CO341255F,Typed,no type status
C0341257F.jpg,"Marko Lewis, no.",M. Lewis,N/A,79-947,5 March 1979,1979-03-05,N/A,Braunia pilcata (Mitt.) Jaeg.,Braunia pilcata,E. De Luna,N/A,N/A,Bolivia,La Paz,Saavedra,N/A,"DEPTO. LA PAZ, PROV. SAAVEDRA: Trail between Charasani and Niño Karine, NNW of Chuma, 15°11' S., 69°04' W.","Trail between Charasani and Niño Karine, north-northwest of Chuma",Banks of trail,3200-3240 m.,"15°11' S., 69°04' W.",C0341257F,Typed,no type status
C0341258F.jpg,"Marko Lewis, no.",M. Lewis,N/A,79-940,5 March 1979,1979-03-05,N/A,Braunia pilcata (Mitt.) Jaeg.,Braunia pilcata,E. De Luna,1992,N/A,Bolivia,La Paz,Saavedra,N/A,"DEPTO. LA PAZ, PROV. SAAVEDRA: Trail between Charasani and Niño Karine, NNW of Chuma",Banks of trail,N/A,3200 m.,"15°11' S., 69°04' W.",C0341258F,Typed,no type status
C0341263F.jpg,"Marko Lewis, no. 79-935",M. Lewis,N/A,79-935,5 March 1979,1979-03-05,N/A,Hedwigium integrifolium (P. Beauv.) Dix.,Hedwigium integrifolium,E. De Luna,Nov. 1991,N/A,Bolivia,La Paz,Saavedra,N/A,"DEPTO. LA PAZ, PROV. SAAVEDRA: Trail between Charasani and Niño Karine, NNW of Chuma","Trail between Charasani and Niño Karine, NNW of Chuma",Along bank of trail,3200 m.,"15°11' S., 69°04' W.",C0341263F,Typed,no type status
C0341264F.jpg,"Marko Lewis, no.",M. Lewis,N/A,79-615,10 February 1979,1979-02-10,N/A,Hedwigidium integrifolium (P. Beauv.) Dix.,Hedwigidium integrifolium,N/A,N/A,N/A,Bolivia,Tarija,Méndez,N/A,"DEPTO. TARIJA, PROV. MÉNDEZ: 5 mi. NE of Iscayachi, E. slope of mountains (hike from summit of road into canyon N. of Tarija-Iscayachi Hwy.)","5 miles Northeast of Iscayachi, East slope of mountains, hike from summit of road into canyon North of Tarija-Iscayachi Highway",Dirt bank in Khënwá forest,3350 m,"21° 27' S., 64° 54' W.",C0341264F,Typed,no type status
C0341265F.jpg,"M. Dillon, U. Molau, & P. Matekaitis",M. Dillon,U. Molau | P. Matekaitis,3128D,s.d.,s.d.,N/A,Braunia secunda (Hook.) B.S.G. Moss,Braunia secunda,D. Griffin iii,28 Jan. 1983,N/A,Peru,Ancash,Yungay,N/A,"Ca. 25 km NE of Yungay, slopes below Laguna de Llanganuco.","Approximately 25 kilometers northeast of Yungay, slopes below Laguna de Llanganuco",Growing on branches.,+ 3380 m.,N/A,N/A,Typed,no type status
C0341266F.jpg,"Dana Griffin, III y Jesús Dugarte",D. Griffin III,J. Dugarte,PV-11243,1 marzo 1985,1985-03-01,N/A,Braunia secunda (Hook.) BSG,Braunia secunda,E. De Luna,1992,Espeletia schultzii,Venezuela,Mérida,N/A,N/A,"Quebrada Gavidia, al sur de Mucuchíes, entre la peña La Virgen y el puente de El Potrerito, cerca del pueblo de Gavidia","Quebrada Gavidia, south of Mucuchíes, between La Virgen rock and El Potrerito bridge, near the town of Gavidia",Páramo con Espeletia schultzii,Alt. 3.100-3.200 m.,N/A,N/A,Typed,no type status
C0341268F.jpg,"Marko Lewis, no.",M. Lewis,N/A,79-489A,2 February 1979,1979-02-02,N/A,Braunia laxifolia Herz.,Braunia laxifolia,Efrain De Luna,1992,Braunia subincana,Bolivia,Tarija,O'Connor,N/A,"DEPTO. TARIJA, PROV. O'CONNOR: Casteon, at summit of mountain above and W. of Entre Rios, along road to Tarija, 21° 28’ S., 64° 12’ W.","Casteon, at summit of mountain above and west of Entre Rios, along road to Tarija",On rocks in dry deciduous forest,1750 m.,"21° 28’ S., 64° 12’ W.",C0341268F,Typed,no type status
C0341270F.jpg,F. J. Hermann,F. J. Hermann,N/A,25278,"December 24, 1972",1972-12-24,N/A,Braunia subplicata E.G.Britt.,Braunia subplicata,Efrain De Luna,1992,N/A,Bolivia,Cochabamba,N/A,Chapare,"From the Province of Chaparé, Purchased in market at COCHABAMBA",Chapare,[precise locality unknown],alt. ca. 9500 ft.,N/A,N/A,Typed,no type status
C0341698F.jpg,S.R.Gradstein & M.Lewis,S. R. Gradstein,M. Lewis,7560,12 November 1989,1989-11-12,N/A,Racopilum intermedium Hampe det. B.O. van Zanten,Racopilum intermedium,B. O. van Zanten,s.d.,N/A,Bolivia,Cochabamba,Chapare,Incacorral,"Prov. Chapare, Incacorral, 5 km S of road Cochabamba - Villa Tunari km 95",5 kilometers south of road Cochabamba - Villa Tunari kilometer 95,On cliff under scrub in area of wet meadows and secondary woodlands,alt. 2300 m.,N/A,C0341698F,Typed,no type status
C0341739F.jpg,Marko Lewis,M. Lewis,N/A,83-503,7 Feb 1983,1983-02-07,N/A,Racopilum tomentosum (Hedw.) Brid.,Racopilum tomentosum,N/A,N/A,N/A,Bolivia,La Paz,Nor Yungas,Coroico,DEPTO. LA PAZ PROV. NOR YUNGAS: 'Coroico' 1 km S of Coroico along road between Coroico and Yolosa.,1 kilometer South of Coroico along road between Coroico and Yolosa,Fruit and coffee plantations. On rocks in shady fruit orchard.,ca. 1650 m.,"16°11'S, 67°43'W",C0341739F,Typed,no type status
C0341763F.jpg,Ynes Mexia,Y. Mexia,N/A,5281-a,"Nov. 11, 1930",1930-11-11,N/A,Rhaecopilum tomentosum (Hedw.) Brid.,Rhaecopilum tomentosum,det. Bartram,N/A,N/A,Brazil,Minas Gerais,N/A,Viçosa,Fazenda de F. Lopez.,Fazenda de F. Lopez,Cut over woods. On rotting logs.,Alt. 720 m.,N/A,C0341763F,Typed,no type status
C0341787F.jpg,"S. R. Gradstein, ✱✱✱✱✱✱✱✱✱ & W. A. Weber",S. R. Gradstein,W. A. Weber,M-58,24.IV.1976,1976-04-24,N/A,Rhaacopilum tomentosum (Hedw.) Brid.,Rhacopilum tomentosum,W. A. Weber,N/A,N/A,Ecuador,Galápagos,N/A,N/A,"GALAPAGOS ISLANDS. Isla Floreana. Psidium guajava woodlands and pampas east of Cruz Farm, on rather dry shaded rocks.","Isla Floreana, Psidium guajava woodlands and pampas east of Cruz Farm",woodlands and pampas on rather dry shaded rocks,alt. 250-350 m,N/A,C0341787F,Typed,no type status
C0341789F.jpg,P.+E. Hegewald,P. E. Hegewald,N/A,6726,31.8. 1973,1973-08-31,N/A,Racopilum tomentosum (Brid.) Brid.,Racopilum tomentosum,E. Hegewald,N/A,N/A,Peru,Amazonas,Chachapoyas,N/A,Ort. Saullamur zw. Balsas u. Leimebamba.,Saullamur between Balsas and Leimebamba,"Moosflora - Fels, Erde, Mauer, Baum, Strauch, Holz, See, Bach.",N/A,N/A,C0341789F,Typed,no type status
C0341798F.jpg,J. & P. A. Florschütz,J. Florschütz,P. A. Florschütz,4715,18.XII.1975,1975-12-18,N/A,Racopilum tomentosum (Hedw.) Brid.,Racopilum tomentosum,P. A. Florschütz | J. Florschütz-de Waard,s.d.,N/A,Suriname,N/A,N/A,N/A,"Brownsberg, trail to Leo fall. On decaying log.","Brownsberg, trail to Leo fall. On decaying log.",On decaying log.,N/A,N/A,C0341798F,Typed,no type status
C0341803F.jpg,"E. Linares, S.R. Gradstein and B.O. van Zanten 1543",E. Linares,S. R. Gradstein | B. O. van Zanten,1543,26 Sept. 1984,1984-09-26,N/A,RACOPILUM TOMENTOSUM (Hedw.) Brid.,Racopilum tomentosum,N/A,N/A,N/A,Colombia,Meta,N/A,Villavicencio,"Dept. Meta, Villavicencio, forest of the Bavaria brewery near rio Guatiquia, alt. 600 m. On log in forest.",Forest of the Bavaria brewery near Rio Guatiquia,On log in forest,alt. 600 m.,N/A,C0341803F,Typed,no type status
C0341804F.jpg,Marko Lewis,M. Lewis,N/A,83-511,7 Feb 1983,1983-02-07,N/A,Racopilum tomentosum (Hedw.) Brid.,Racopilum tomentosum,N/A,s.d.,N/A,Bolivia,La Paz,Nor Yungas,Coroico,Coroico' 1 km S of Coroico along road between Coroico and Yolosa.,1 kilometer south of Coroico along road between Coroico and Yolosa,Fruit and coffee plantations. Bark of fruit trees in orchard.,ca. 1650 m.,"16°11'S, 67°43'W",C0341804F,Typed,no type status
C0341805F.jpg,Ynes Mexia,Y. Mexia,N/A,8190a,"Sept. 15,1936",1936-09-15,N/A,Rhacopilum tomentosum (Sw.) Brid. det. Bartram,Rhacopilum tomentosum,N/A,N/A,N/A,Peru,Huanuco,N/A,Churubamba,Distrito Churubamba; Hacienda Mercedes; Poca Perga; old tree trunk in dense shade,Hacienda Mercedes; Poca Perga; old tree trunk in dense shade,old tree trunk in dense shade,Alt. 1950 m.,N/A,C0341805F,Typed,no type status
C0341806F.jpg,Ynes Mexia,Y. Mexia,N/A,8165a,"Sept. 9,1936",1936-09-09,N/A,Rhacopilum tomentosum (Sw.) Brid. det. Bartram,Rhacopilum tomentosum,N/A,N/A,N/A,Peru,Huanuco,N/A,N/A,"Departamento and Provincia Huanuco, Distrito Churubamba; Hacienda Exito; bank of Rio Ysabel; on rock in wood",Distrito Churubamba; Hacienda Exito; bank of Rio Ysabel,on rock in wood,Alt. 1100 m,N/A,C0341806F,Typed,no type status
C0341807F.jpg,Ynes Mexia,Y. Mexia,N/A,8168a,"Sept. 9,1936",1936-09-09,N/A,Rhacopilum tomentosum (Sw.) Brid.,Rhacopilum tomentosum,Bartram,N/A,N/A,Peru,Huanuco,N/A,N/A,Departamento and Provincia Huanuco. Distrito Churubamba; Hacienda Exito; bank of Rio Ysabel; on rock in woods.,Distrito Churubamba; Hacienda Exito; bank of Rio Ysabel; on rock in woods.,on rock in woods,Alt. 1100 m.,N/A,C0341807F,Typed,no type status
C0341828F.jpg,Richard Evans Schultes et Isidoro Cabrera,R. E. Schultes,I. Cabrera,15653,"May 19, 1952",1952-05-19,N/A,Leucomium lignicola Spruce ex Mitt. & Callicostella aspera (Mitt.) Jaeg.,N/A,H. A. Crum,1956,N/A,Colombia,Amazonas,N/A,N/A,Rio Miritiparaná; Caño Guacayá.,Rio Miritiparaná; Caño Guacayá,"On wet, fallen log.",Altitude about 700 feet.,"Lat. 0° 00' S, Long. 70° 40' W",C0341828F,Typed,no type status
C0341834F.jpg,"Dana Griffin, III, Orlando Rangel y Guido van Reenen",D. Griffin III,O. Rangel | G. van Reenen,50.186,Julio-Agosto 1977,1977-07-00,1977-08-00,Leucoloma ligulcicola Spr. ex Mitt.,Leucoloma ligulicola,D. Griffin III,N/A,N/A,Colombia,Magdalena,N/A,N/A,Parque Nacional de la Sierra Nevada de Santa Marta. Vertiente oriental del Rio Buritaca.,"Parque Nacional de la Sierra Nevada de Santa Marta, near Rio Buritaca",Bosque nublado montano bajo,alt. 1600-1700 m,N/A,N/A,Typed,no type status
C0341890F.jpg,S.P. Churchill et al.,S. P. Churchill,N/A,15466,6 July 1987,1987-07-06,N/A,Trachyxypium tenuem (Mitt.) Buck (= Hookeriopsis tenuem Mitt.),Trachyxypium tenuem,S. P. Churchill,N/A,N/A,Colombia,Antioquia,N/A,Mun. de la Union,"Cerro San Miguel S of San Miguel, 5°55' N, 75°17' W, alt. 2460-2620 m.",Cerro San Miguel south of San Miguel,In secondary montane forest,alt. 2460-2620 m.,"5°55' N, 75°17' W",C0341890F,Typed,no type status
C0341932F.jpg,"Dana Griffin, III, María Isabel Morales y Dora Emilia de Retana,","D. Griffin, III",M. I. Morales | D. E. de Retana,215,"Julio 3-4, 1977",1977-07-03,1977-07-04,Hypnella pilifera (Hook. et Wils.) Jaeg.,Hypnella pilifera,N/A,N/A,N/A,Costa Rica,Cartago,N/A,N/A,"Reserva Forestal Tapantí, vertiente oriental del Rio Macho","On trunk of tree, Reserva Forestal Tapantí, oriental slope of Rio Macho",Bosque muy húmedo montano bajo,Alt. 1.340-1.600 m.,N/A,C0341932F,Typed,no type status
C0342106F.jpg,John J. Wurdack,J. J. Wurdack,N/A,34Ʒ65,"February 11, 1953",1953-02-11,N/A,Hypnella cymbifolia (Hpe.) Jaeg.,Hypnella cymbifolia,E. B. Bartram,N/A,N/A,Venezuela,Bolívar,N/A,N/A,Slope forest Tirpón-tepuí.,Slope forest Tirpón-tepuí,Frequent on fallen logs in forest between Camps 3 and 2.,elev. 1250 - 1200 m.,N/A,C0342106F,Typed,no type status
C0342107F.jpg,William R. Buck,W. R. Buck,N/A,2445,9-12 July 1979,1979-07-09,1979-07-12,Hookeropsis parkeriana (Hook. & Grev.) Jaeg.,Hookeropsis parkeriana,N/A,N/A,N/A,Brazil,Amazonas,N/A,N/A,"Slopes and summit of Serra Curicuriari, from Igarapé Arabú of the Rio Curicuriari to the summit","Slopes and summit of Serra Curicuriari, from Igarapé Arabú of the Rio Curicuriari to the summit, approximately 450 meters at summit",On branches at summit.,ca. 450 m,"00°20'S, 66°50'W.",N/A,Typed,no type status
C0342117F.jpg,Robin B. Foster,R. B. Foster,N/A,4722,30 July 1981,1981-07-30,N/A,Hypnella pilifera (Hook. & Wils.) Jaeg.,Hypnella pilifera,W. C. Steere,N/A,Weinmannia,Peru,Pasco,N/A,N/A,"DEPTO. PASCO: E slope of Cordillera Yanachaga, on Tunque--Chuchurras trail","East slope of Cordillera Yanachaga, on Tunque-Chuchurras trail",In Weinmannia forest,1900 m.,"10°30'S, 75°30'W.",C0342117F,Typed,no type status
C0342123F.jpg,J.W. Fitzpatrick & D.E. Willard,J. W. Fitzpatrick,D. E. Willard,s.n.,4 Dec. 1981,1981-12-04,N/A,HYPNELLA PILIFERA (Hook. & Wils.) Jaeg.,Hypnella pilifera,W. C. Steere,N/A,N/A,Peru,Cuzco,N/A,N/A,"DEPTO. CUZCO: Slopes above Pillahuata, near km. #126 on Cósñipata Hwy.","Slopes above Pillahuata, near kilometer 126 on Cosñipata Highway",Extremely mossy elfin cloud forest near shallow ravine,2850 m.,"13°11'S, 71°22'W.",C0342123F,Typed,no type status
C0342153F.jpg,S.P. Churchill et al.,S. P. Churchill,N/A,18335,11 July 1992,1992-07-11,N/A,Hypnella diversifolia (Mitt.) Jaeg.,Hypnella diversifolia,S. P. Churchill,N/A,N/A,Colombia,Antioquia,N/A,Municipio de Valdivia,"Mun. de Valdivia, road to Pueblo Nuevo, Ventanas","road to Pueblo Nuevo, Ventanas","On talud, in secondary montane forest.",alt. 1950 m.,"7°5' N, 75°25' W",C0342153F,Typed,no type status
C0342159F.jpg,John J. Wurdack,J. J. Wurdack,N/A,34056,"January 7, 1953",1953-01-07,N/A,Hypnella cymbifolia (Hpe.) Jaeg.,Hypnella cymbifolia,E. B. Bartram,N/A,N/A,Venezuela,Bolívar,N/A,N/A,Slope forest Tirepón-tepuí,Slope forest Tirepón-tepuí,Fruiting scantily on logs. Occasional in rain-forest between Camps 2 and 3,elev. 1200-1250 m.,N/A,N/A,Typed,no type status
C0342164F.jpg,Robin B. Foster,R. B. Foster,N/A,4720,30 July 1981,1981-07-30,N/A,Hypnella pallescens (Hook.) Jaeg.,Hypnella pallescens,V. C. Steere,N/A,Weinmannia,Peru,Pasco,N/A,N/A,"E slope of Cordillera Yanachaga, on Tunque-Chuchurras trail, 1900 m.","East slope of Cordillera Yanachaga, on Tunque-Chuchurras trail",Weinmannia forest,1900 m.,"10°30'S, 75°30'W",N/A,Typed,no type status
C0342165F.jpg,John J. Wurdack,J. J. Wurdack,N/A,"34,365","February 11, 1953",1953-02-11,N/A,Hypnella cymbifolia (Hpe.) Jaeg.,Hypnella cymbifolia,E. B. Bartram,N/A,N/A,Venezuela,Bolívar,N/A,N/A,Frequent on fallen logs in forest between Camps 3 and 2.,between Camps 3 and 2,Slope forest Tirepón-tepuí.,elev. 1250 - 1200 m.,N/A,C0342165F,Typed,no type status
C0342515F.jpg,T. Husnot,T. Husnot,N/A,s.n.,Août.,0000-08-00,N/A,Weissia compacta Brid.,Weissia compacta,N/A,N/A,N/A,France,Orne,N/A,Cahan,"à Cahan, par Athis (Orne)",[precise locality unknown],N/A,N/A,N/A,C0342515F,Typed,no type status
C0398471F.jpg,H. INOUE,H. Inoue,N/A,N/A,"Jan. 11, 1973",1973-01-11,N/A,"Macromitrium japonicum Doz. et Molk. Ann. Sci. Nat. Bot. ser. 3, 2: 311 (1844)",Macromitrium japonicum,Z. Iwatsuki,N/A,Pinus thunbergii,Japan,N/A,N/A,Shirahama,"Around Shirahama, Iriomote Isl., the Ryukyu Isls. On bark of Pinus thunbergii; elevation about 10 m.","Around Shirahama, Iriomote Island, Ryukyu Islands",On bark of Pinus thunbergii,elevation about 10 m.,N/A,C0398471F,Typed,no type status
C0399126F.jpg,P. R. Reitz,P. R. Reitz,N/A,2.464,17.12.1948,1948-12-17,N/A,Campyloneurum arctocarum (Hornsch.) Ht.,Campyloneurum arctocarum,P. R. Reitz,1949,N/A,Brazil,Santa Catarina,N/A,Bom Retiro,"Campo dos Padres, Bom Retiro",Campo dos Padres,Rupestre,Alt. 2000 msm,N/A,HB 512,Typed,no type status
C0399179F.jpg,Frahm,Frahm,N/A,s.n.,22.7.1977,1977-07-22,N/A,Campylopus arctocarpus (Hornsch.) Mitt.,Campylopus arctocarpus,Frahm,s.d.,N/A,Brazil,Sao Paulo,N/A,Sao José dos Bareiros,"Sao Paulo, Serra do Bocaina, Leeseite, an der Straße Campos da Cunha – Sao José dos Bareiros","Serra do Bocaina, on the mountain's leeward side, along the road from Campos da Cunha to Sao José dos Bareiros",epiphytisch im Podocarpus-Wald,1200 msm,N/A,26,Typed,no type status
C0399191F.jpg,N/A,N/A,N/A,s.n.,s.d.,N/A,N/A,Campylocentrum pachyrrhizum (Rchb. f.) Rolfe,Campylocentrum pachyrrhizum,N/A,19-8-43,N/A,Brazil,Santa Catarina,N/A,Corupá,"Corupá, ""Barra"", [unsure and check]","""Barra"", [precise locality unknown]",Epífita,[unsure and check],N/A,N/A,Typed,no type status
C0679833F.jpg,Schäfer-Verwimp,Schäfer-Verwimp,N/A,9019,5.9.1987,1987-09-05,N/A,Campylopus griseus (HORNSCH.) JAEG.,Campylopus griseus,Schäfer-Verwimp,N/A,N/A,Brazil,São Paulo,N/A,Atibaia,Pedra Grande bei Atibaia,Pedra Grande near Atibaia,"Campo-Vegetation im Gipfelbereich, sickerefeuchter Felschang",1400 msm.,N/A,C0679833F,Typed,no type status
C0679841F.jpg,J.-P.Frahm,J.-P. Frahm,N/A,11,6.9.1982,1982-09-06,N/A,Campylopus heterostachys (Hamp.) Jaeg.,Campylopus heterostachys,N/A,N/A,N/A,Peru,Amazonas,N/A,N/A,"Dep. Amazonas, Straße Cajamarca - Chachapoyas km 417,5 oberhalb Leimebamba",[precise locality unknown],auf übererdetem Steinblock im Nebelwald,2600 m.,N/A,N/A,Typed,no type status