Dataset Source,accessURI,modifiedBy,verifiedBy,catalogNumber,verbatimCollectors,collectedBy,secondaryCollectors,recordNumber,verbatimEventDate,minimumEventDate,maximumEventDate,verbatimIdentification,latestScientificName,identifiedBy,verbatimDateIdentified,associatedTaxa,country,firstPoliticalUnit,secondPoliticalUnit,municipality,verbatimLocality,locality,habitat,substrate,verbatimElevation,verbatimCoordinates,otherCatalogNumbers,originalMethod,typeStatus
EMu Field Museum | African Plants Portal,https://fm-digital-assets.fieldmuseum.org/2433/459/V0573776F.jpg,,,0000_V0573776F.jpg,E. Heller & Mearns,E. Heller,Mearns,8752,"Jan. 16 to Feb. 2, 1909",1909-01-16,1909-02-02,Cyperus maculatus Boeck.,Cyperus maculatus Boeck.,N/A,19.10.1912,N/A,Congo Free State,N/A,N/A,N/A,"""Rhino Camp"", Bahr el Jebel, Lado Enclave, Congo Free State","""Rhino Camp"", Bahr el Jebel, Lado Enclave",N/A,N/A,N/A,N/A,463860,Typed,no type status
EMu Field Museum | African Plants Portal,https://fm-digital-assets.fieldmuseum.org/2437/184/V0576008F.jpg,,,0001_V0576008F.jpg,F. G. Overlaet,F. G. Overlaet,N/A,1923-4,1923-4,1923-04-00,1923-04-00,Habenaria,Habenaria,Borge Petterson,52,N/A,Belgian Congo,N/A,N/A,N/A,N/A,[precise locality unknown],N/A,N/A,N/A,N/A,752356,Typed,no type status
EMu Field Museum | African Plants Portal,https://fm-digital-assets.fieldmuseum.org/2433/678/V0576279F.jpg,,,0002_V0576279F.jpg,R. A. Maas Geesteranus,R. A. Maas Geesteranus,N/A,4924,d.d. 14-VI-1919,1919-06-14,N/A,Pycreus sanguinolentus (Vahl) C.B.Cl.,Pycreus sanguinolentus (Vahl) C.B.Cl.,N/A,N/A,"Dombeya mastersii, Olea hochstetteri",Kenya,Nyanza Province,Londiani Distr.,N/A,"Londiani Distr., Tinderet Forest Reserve, Camp I","Londiani District, Tinderet Forest Reserve, Camp I","Glade surrounded by rather open, tall forest",soil,2260 m.s.m.,"lat. 0° 5' S., long. 35° 27' E.",1447352,Typed,no type status
EMu Field Museum | African Plants Portal,https://fm-digital-assets.fieldmuseum.org/2437/413/V0577013F.jpg,,,0003_V0577013F.jpg,J.M. Reitsma & B. Reitsma,J.M. Reitsma,B. Reitsma,20123,d.d. 3-3-86,1986-03-03,N/A,Bulbophyllum scaberulum (Rolfe) Bolus var. scaberulum,Bulbophyllum scaberulum (Rolfe) Bolus var. scaberulum,Olga Kosenkovsky,2011,N/A,Gabon,Ogooué,N/A,N/A,"ca 6 km NW of Oveny, chantier Rougier & Cie","ca 6 km northwest of Oveny, chantier Rougier & Cie",Primary rain forests,N/A,N/A,N/A,N/A,Typed,no type status
EMu Field Museum | African Plants Portal,https://fm-digital-assets.fieldmuseum.org/2434/201/V0577892F.jpg,,,0004_V0577892F.jpg,Carvalho,Carvalho,N/A,2102,26-VII-1980,1980-07-26,N/A,Mariscus alternifolius Vahl,Mariscus alternifolius Vahl,C. Cebolla & M.A. Rivas Ponce (UAM),1995,N/A,Equatorial Guinea,Bioco,N/A,Malabo,"""Malabo, finca las Carboneras, 32NMK7415, m Bosque secundario y terrenos incultos""","""Malabo, finca las Carboneras""",Bosque secundario y terrenos incultos,soil,N/A,32NMK7415,2201108,Typed,no type status
EMu Field Museum | African Plants Portal,https://fm-digital-assets.fieldmuseum.org/2437/617/V0578553F.jpg,,,0005_V0578553F.jpg,C. Aedo & al.,C. Aedo,et al.,11206,5-III-1989,1989-03-05,N/A,Agrostis mannii (Hooker fil.) Stapf,Agrostis mannii (Hooker fil.) Stapf,C. Cebolla & M.A. Rivas Ponce,V-1993,N/A,Guinée Équatorialis,Bioco,N/A,N/A,"cumbre del pico Basile, 32NMJ7396, 2370 m. margenes de la pista, Fernández Casas 11206, 5-III-1989.","cumbre del pico Basile, 32NMJ7396, margenes de la pista, Fernández Casas",N/A,soil,2370 m,32NMJ7396,2200806,Typed,no type status
EMu Field Museum | African Plants Portal,https://fm-digital-assets.fieldmuseum.org/2441/863/V0574052F.jpg,,,0006_V0574052F.jpg,L. F. Overlaet,L. F. Overlaet,N/A,18324,1932-4,1932-04-00,N/A,Scleria sp.,Scleria sp.,N/A,N/A,N/A,Belgian Congo,N/A,N/A,N/A,N/A,[precise locality unknown],N/A,N/A,N/A,N/A,752378,Typed,no type status
EMu Field Museum | African Plants Portal,https://fm-digital-assets.fieldmuseum.org/2446/122/V0577681F.jpg,,,0007_V0577681F.jpg,C.J.P. Seegeler,C.J.P. Seegeler,N/A,2806,d.d.: 23 October 1972,1972-10-23,1972-10-23,Vernonia amygdalina Del.,Vernonia amygdalina Del.,G.J.H. Amshoff,1982,N/A,Ethiopia,N/A,N/A,N/A,"On a rocky mountain, on road to Nazareth. 11 km SSW from Metahara.","On a rocky mountain, 11 kilometers south-southwest from Metahara, on road to Nazareth",N/A,rock,ca 925m,"8° 56' N, 39° 55' E",2302805,Typed,no type status
EMu Field Museum | African Plants Portal,https://fm-digital-assets.fieldmuseum.org/2442/190/V0597557F.jpg,,,0008_V0597557F.jpg,N/A,N/A,N/A,L8,05/02/2008,2008-02-05,N/A,Cirsium heptacanthum Fres.,Cirsium heptacanthum Fres.,N/A,N/A,N/A,Pays: [The country is not specified on the label],Province: Sud-Kivu,N/A,N/A,Localite: Musisi Hab: [excluded],Musisi,"[The full habitat description is not given beyond the abbreviation ""Hab:"" which refers to habitat. Since there is no specific description provided, this cannot be determined from the provided information.]",N/A,Altitude: [excluded],Coordonnées géographiques: [not provided],Nº: 2257689,Typed,no type status
EMu Field Museum | African Plants Portal,https://fm-digital-assets.fieldmuseum.org/2452/643/V0594376F.jpg,,,0009_V0594376F.jpg,J.M. Fay 8017,J.m. fay,N/A,8017,25 May 1987,1987-05-25,N/A,"Caesalpiniaceae, Burkea africana Hook.",Burkea africana Hook.,J.M. Fay,N/A,N/A,Central African Republic,N/A,N/A,N/A,Parc Manovo-Gounda-St. Floris. Vicinity of Camp Kounbala.,Park Manovo-Gounda-St. Floris. Vicinity of Camp Kounbala,N/A,N/A,elev: 600 m,08°29'N 21°12'E,"NCI# Wood Q678D065, Bark Q678D066, Root Q678D067, Leaves Q678D068",Typed,no type status
EMu Field Museum | African Plants Portal,https://fm-digital-assets.fieldmuseum.org/2453/856/V0597275F.jpg,,,0010_V0597275F.jpg,P.C.M. Jansen,P.C.M. Jansen,N/A,9096,no date,N/A,N/A,Cirsium vulgare (Savi) Ten.,Cirsium vulgare (Savi) Ten.,C.C.H. Jongkind,14 April 1976,N/A,Ethiopia,Harerge,N/A,N/A,"around Damota Village, near Alemaya, between chat and sorghum fields","around Damota Village, near Alemaya, between chat and sorghum fields",Ground roots are drunk against gonorrhoea,N/A,1920m,N/A,N° 2302849,Typed,no type status
EMu Field Museum | African Plants Portal,https://fm-digital-assets.fieldmuseum.org/2454/013/V0597626F.jpg,,,0011_V0597626F.jpg,"Amanda Koch, Wilson Nasion Sakuda, AK61",Amanda Koch,Wilson Nasion Sakuda,AK61,"October 22, 2003",2003-10-22,N/A,Acacia reficiens meruensis (Vatke) Brenan,Acacia reficiens meruensis (Vatke) Brenan,Patrick Muthoka,"November 02, 2003",N/A,Kenya,Kajiado District,N/A,Ololosihor,Kenya: Kajiado District: Ololosihor,[precise locality unknown],Dry bushland,N/A,N/A,N/A,2309478,Typed,no type status
EMu Field Museum | African Plants Portal,https://fm-digital-assets.fieldmuseum.org/2454/080/V0597688F.jpg,,,0012_V0597688F.jpg,J. Lebrun,J. Lebrun,N/A,21409,about 1935,1935-00-00,1935-00-00,Albizia gummifera (J.F.Gmel.) C.A.Sm.,Albizia gummifera (J.F.Gmel.) C.A.Sm.,N/A,N/A,N/A,Congo Belge,Isangi,N/A,N/A,Isangi,[precise locality unknown],N/A,N/A,N/A,N/A,867368,Typed,no type status
EMu Field Museum | African Plants Portal,https://fm-digital-assets.fieldmuseum.org/2460/308/V0588237F.jpg,,,0013_V0588237F.jpg,N/A,N/A,N/A,207,25/12/1957,1957-12-25,N/A,Digitaria perrottetii (Steud.) Henrard,Digitaria perrottetii (Steud.) Henrard,N/A,N/A,N/A,Kenya,N/A,N/A,Tsavo-Taita Andei,N/A,[precise locality unknown],N/A,soil,N/A,N/A,1559644,Typed,no type status
EMu Field Museum | African Plants Portal,https://fm-digital-assets.fieldmuseum.org/2460/430/V0580026F.jpg,,,0014_V0580026F.jpg,H. Callens,H. Callens,N/A,1584065,Juillet 1958,1958-07-00,1958-07-00,Rubiaceae Tarenna paniculata,Tarenna paniculata,H. Callens,1/9/58,N/A,Congo Belge,N/A,N/A,Kisantu,Kisantu,Kisantu,N/A,N/A,N/A,N/A,N/A,Typed,no type status
EMu Field Museum | African Plants Portal,https://fm-digital-assets.fieldmuseum.org/2464/177/V0580516F.jpg,,,0015_V0580516F.jpg,Herrier G. Troupin,Herrier G. Troupin,N/A,6333,17/02/1958,1958-02-17,1958-02-17,Crotalaria acervata (Steud.) P. Llang,Crotalaria acervata (Steud.) P. Llang.,P. Llang,N/A,N/A,Zaire,Kivu,Rutshuru,N/A,"Territ. Rutshuru, Vers 1100 route Kavumu-KiwanjaMiandjale par riviere Tshuic",Vers 1100 route Kavumu-Kiwanja near Miandjale by the Tshuic river,Forêt ombrophile; terrain humide,N/A,Alt. 1950 à 900 m,N/A,N/A,Typed,no type status
EMu Field Museum | African Plants Portal,https://fm-digital-assets.fieldmuseum.org/2466/373/V0574490F.jpg,,,0016_V0574490F.jpg,Gordon McPherson,Gordon McPherson,N/A,13781,20 Mars 1989,1989-03-20,N/A,Corynanthe mayumbensis (R. Good) N. Halle,Corynanthe mayumbensis (R. Good) N. Halle,Wilks & McPherson,1989,N/A,Gabon,Ogooué-Ivindo,N/A,N/A,"Réserve de Lopé, au sud de Ayem; Chanter: SORINCO.","Réserve de Lopé, au sud de Ayem; Chanter: SORINCO.",Arbre 15 m; fruit brun; voucher de NCI.,N/A,c. 200 m,0°25' S 11°30' E,"LP:4665-0223-B, RG:4665-0224-H; WD:4665-0225-I.",Typed,no type status
EMu Field Museum | African Plants Portal,https://fm-digital-assets.fieldmuseum.org/2472/873/V0574226F.jpg,,,0017_V0574226F.jpg,J. M. Fay,J. M. Fay,N/A,8294,4 March 1988,1988-03-04,1988-03-04,Millettia zechiana Harms,Millettia zechiana Harms,Alex Alesi,1998,N/A,Cameroon,N/A,N/A,N/A,"On the Sangha River across from Makana gorilla study area. In seasonally flooded forest with Gubourtia demeusei, Berlinia spp., Pericopsis elata, Pombax sp.",On the Sangha River across from Makana gorilla study area,In seasonally flooded forest,Bark,385 m,02°20'N 016°08'E,2014124,Typed,no type status
EMu Field Museum | African Plants Portal,https://fm-digital-assets.fieldmuseum.org/2473/141/V0580728F.jpg,,,0018_V0580728F.jpg,E.J.H. Corner,E.J.H. Corner,N/A,199,29-vii-1959,1959-07-29,N/A,Phaseolus lunatus L.,Phaseolus lunatus L.,N/A,N/A,N/A,Indonesia,N/A,N/A,N/A,"South West of Crater Lake. Clearing in wood, scrambling over herbage.",South West of Crater Lake,"Clearing in wood, scrambling over herbage",N/A,"5,000ft",N/A,1624518,Typed,no type status
EMu Field Museum | African Plants Portal,https://fm-digital-assets.fieldmuseum.org/2473/209/V0578764F.jpg,,,0019_V0578764F.jpg,E. M. Pérard,E. M. Pérard,N/A,2,"June 10-30, 1947",1947-06-10,1947-06-30,N/A,N/A,N/A,N/A,N/A,Kenya,N/A,N/A,Mathiga,"Mathiga, near Nairobi","Mathiga, near Nairobi",N/A,soil,"Alt. 1,700 meters",N/A,N^o 2074762,Typed,no type status
EMu Field Museum | African Plants Portal,https://fm-digital-assets.fieldmuseum.org/2474/564/V0594158F.jpg,,,0020_V0594158F.jpg,A. Leonard,A. Leonard,N/A,3149,29/9/1959,1959-09-29,1959-09-29,Oxyanthus speciosus DC.,Oxyanthus speciosus DC.,Bamps,30/IX/1969,N/A,Zaire,Haut Katanga,N/A,N/A,Haut Katanga,[precise locality unknown],Vieille forêt secondaire,N/A,1900m,N/A,2086095,Typed,no type status
EMu Field Museum | African Plants Portal,https://fm-digital-assets.fieldmuseum.org/2477/449/V0573054F.jpg,,,0021_V0573054F.jpg,Herbier des serivces forestiers Indo-Chine. Récolté par le R.P. JulesM. G. Poilane,Jules M. G. Poilane,N/A,8400,June 1927. 27-6,1927-06-00,1927-06-27,Helianthostemon yabrense (Pierre ex Dop) Steenis,Helianthostemon yabrense (Pierre ex Dop) Steenis,N/A,N/A,N/A,Indo-Chine,N/A,N/A,N/A,Annam Yabre,[precise locality unknown],N/A,N/A,N/A,N/A,HERB. MUS. PARIS,Typed,no type status
EMu Field Museum | African Plants Portal,https://fm-digital-assets.fieldmuseum.org/2478/115/V0601010F.jpg,,,0022_V0601010F.jpg,James T. Allen,James T. Allen,N/A,41,"September 23, 1996",1996-09-23,N/A,Dissotis rotundifolia (Sm.) Triana,Dissotis rotundifolia (Sm.) Triana,N/A,N/A,N/A,Ghana,Volta Region,N/A,N/A,Latexo; Center for Scientific Research into Plant Medicine (CSRPM) farm.,Latexo; Center for Scientific Research into Plant Medicine (CSRPM) farm.,N/A,N/A,N/A,N/A,2200652,Typed,no type status
EMu Field Museum | African Plants Portal,https://fm-digital-assets.fieldmuseum.org/2478/233/V0602418F.jpg,,,0023_V0602418F.jpg,J. E. Amoah,J. E. Amoah,N/A,5632,March 1952.,1952-03-00,1952-03-00,Chaesyphyllum perpulchrum Mildbr.,Chaesyphyllum perpulchrum Mildbr.,N/A,N/A,N/A,Ghana,Ashanti Region,Kumasi District,N/A,Kumasi Township Forest Reserve,Kumasi Township Forest Reserve,N/A,N/A,N/A,N/A,1601919,Typed,no type status
EMu Field Museum | African Plants Portal,https://fm-digital-assets.fieldmuseum.org/2478/305/V0604513F.jpg,,,0024_V0604513F.jpg,J. Nemba & D.W. Thomas,J. Nemba,D. W. Thomas,0660/0052-L,15 June 1987,1987-06-15,1987-06-15,Donella welwitschii Pierre ex Engl.,Donella welwitschii Pierre ex Engl.,D.W. Thomas,1987,N/A,Cameroon,Southwest,N/A,N/A,Old growth forest at and near Mamfe road at the Ekla Likingi.,Old growth forest at and near Mamfe road at the Ekla Likingi,Secondary growth and old growth forest along road,N/A,200 m,04°44'N 09°29'E,2041320,Typed,no type status
EMu Field Museum | African Plants Portal,https://fm-digital-assets.fieldmuseum.org/2479/474/V0572217F.jpg,,,0025_V0572217F.jpg,J. Deaw,J. Deaw,N/A,283,"4, 1970",1970-04-00,N/A,Eugenia coronata,Eugenia coronata,N/A,N/A,N/A,Ghana,N/A,N/A,Accra,Accra,Accra,N/A,N/A,N/A,N/A,N/A,Typed,no type status
EMu Field Museum | African Plants Portal,https://fm-digital-assets.fieldmuseum.org/2487/523/V0602609F.jpg,,,0026_V0602609F.jpg,Schimper,Schimper,N/A,1418,6 January - 4 February 1839,1839-01-06,1839-02-04,Rumex nervosus Vahl.,Rumex nervosus Vahl.,N/A,N/A,N/A,Eritrea,N/A,N/A,N/A,Dschäartschollo; Kante des Flusses auf demselben Waldboden Tancá,Dschäartschollo; Kante des Flusses,Waldboden,soil,1500-2100 m,N/A,N/A,Typed,no type status
EMu Field Museum | African Plants Portal,https://fm-digital-assets.fieldmuseum.org/2487/806/V0606178F.jpg,,,0027_V0606178F.jpg,R.B. & A.J. Faden,R.B. Faden,A.J. Faden,77/11,7 March 1977,1977-03-07,N/A,Toddaliopsis bremekampii (Engl.) Engl.,Toddaliopsis bremekampii (Engl.) Engl.,J.O. Kokwaro,confirmed J.O. Kokwaro,N/A,Kenya,Kwale District,N/A,Chale Peninsula,"ca. 20 km S. Mwazaro, Olt E.S. dominant, dry forest with Combretum-Commiphora rag.",ca. 20 km south of Mwazaro,Dry forest with Combretum-Commiphora,N/A,40-50 m,"4°26'S, 39°32'E",2153520,Typed,no type status
EMu Field Museum | African Plants Portal,https://fm-digital-assets.fieldmuseum.org/2487/920/V0603038F.jpg,,,0028_V0603038F.jpg,F. Szafranski,F. Szafranski,N/A,1378,5.2.1988,1988-02-05,1988-02-05,Commelinaceae Floscopa glomerata (Roem. et Schult.) Hassk.,Floscopa glomerata (Roem. et Schult.) Hassk.,N/A,N/A,N/A,Zaire,Haut-Zaire,N/A,N/A,bas fond marécageux près de la route aux environs de l'usine SOCODIA,marshy lowland near the road in the vicinity of SOCODIA factory,marshy lowland,soil,N/A,N/A,2048694,Typed,no type status
EMu Field Museum | African Plants Portal,https://fm-digital-assets.fieldmuseum.org/2491/969/V0606676F.jpg,,,0029_V0606676F.jpg,F.W.H. Migeod,F. W. H. Migeod,N/A,394,25. 1.28,1928-01-25,N/A,Solanum sp.,Solanum aculeatissimum Jacq.,M. Nee,"Dec. 3, 1977",N/A,"Africa, Bameda, British Cameroon.",N/A,N/A,N/A,"Africa, Bameda, British Cameroon.",[precise locality unknown],Shrub very thorny and spiny.,N/A,4150-5500 ft,N/A,1441275,Typed,no type status
EMu Field Museum | African Plants Portal,https://fm-digital-assets.fieldmuseum.org/2491/991/V0601406F.jpg,,,0030_V0601406F.jpg,T.C. Wrigley & M. Hulleyville,T.c. Wrigley,M. Hulleyville,52,18 July 1959,1959-07-18,N/A,Canarina abyssinica J.H. Knox ex Alston,Canarina abyssinica J.H. Knox ex Alston,A. W. Exell,1961,N/A,Cameroon,N/A,N/A,N/A,"ARTHNOOR: Ridge west of crater lake, open woodland",Ridge west of crater lake,Open woodland,N/A,12000ft,N/A,1624568,Mix of Handwritten and Typed,no type status
EMu Field Museum | African Plants Portal,https://fm-digital-assets.fieldmuseum.org/2493/436/V0604673F.jpg,,,0031_V0604673F.jpg,Collector William Burger,William Burger,N/A,1290,27 May 1963,1963-05-27,1963-05-27,Rubus apetalus Poir,Rubus apetalus Poir,W.J. Kress,8/1982,N/A,Ethiopia,Harar Prov.,N/A,N/A,Near Gara Ades 1 1/2 Km. E. of Haro along escarpment,Near Gara Ades 1 1/2 kilometers east of Haro along escarpment,Steep slopes with remnant forest,soil,1920 meters,N/A,1825230,Typed,no type status
EMu Field Museum | African Plants Portal,https://fm-digital-assets.fieldmuseum.org/2499/501/V0565514F.jpg,,,0032_V0565514F.jpg,J.D. Sauer,J.D. Sauer,N/A,3914,15 June 1963,1963-06-15,1963-06-15,Aerva lanata (L) Juss.,Aerva lanata (L.) Juss.,N/A,N/A,N/A,Kenya,Coast Province,Kwale District,N/A,"Beach ridge, shallow open coast. Bumburi Beach, N of Mombasa.","Bumburi Beach, north of Mombasa","Beach ridge, shallow open coast.",soil,N/A,N/A,595547,Typed,no type status
EMu Field Museum | African Plants Portal,https://fm-digital-assets.fieldmuseum.org/2499/556/V0565977F.jpg,,,0033_V0565977F.jpg,C. Vigne,C. Vigne,N/A,N/A,N/A,N/A,N/A,Exostema parviflorum Swartz,Exostema parviflorum Swartz,N/A,N/A,N/A,N/A,N/A,N/A,N/A,N/A,[precise locality unknown],N/A,N/A,N/A,N/A,839434,Typed,no type status
EMu Field Museum | African Plants Portal,https://fm-digital-assets.fieldmuseum.org/2499/686/V0566108F.jpg,,,0034_V0566108F.jpg,Erna Abdo,Erna Abdo,N/A,1026,Collected in 1999,1999-00-00,1999-00-00,Uvariopsis versicolor Pierre,Uvariopsis versicolor Pierre,N/A,N/A,N/A,Ghana,N/A,N/A,N/A,N/A,[precise locality unknown],N/A,N/A,N/A,N/A,2325285,Typed,no type status
EMu Field Museum | African Plants Portal,https://fm-digital-assets.fieldmuseum.org/2500/629/V0567164F.jpg,,,0035_V0567164F.jpg,A. Akinluyi,A. Akinluyi,N/A,398,22 11 79,1979-11-22,1979-11-22,Peperomia dindygulensis Miq.,Peperomia dindygulensis Miq.,A. Akinluyi,19 71.,N/A,Ghana,N/A,N/A,Awhia,Awhia — Winneba Road.,Awhia — Winneba Road,A climber among grasses.,N/A,Altitude:,N/A,1753348,Typed,no type status
EMu Field Museum | African Plants Portal,https://fm-digital-assets.fieldmuseum.org/2501/420/V0591661F.jpg,,,0036_V0591661F.jpg,D.W. Thomas 6850,D.W. Thomas,N/A,6850,1987,1987-00-00,1987-00-00,Cola flavovelutina K. Schum,Cola flavovelutina K. Schum,D.W. Thomas,1987,N/A,Cameroon,Southwest,N/A,N/A,"PRCV, Southwest: Korup National Park. Primary rain forest 05°02'N 08°50'E",Korup National Park,Primary rain forest,N/A,600 m,05°02'N 08°50'E,2041255,Typed,no type status
EMu Field Museum | African Plants Portal,https://fm-digital-assets.fieldmuseum.org/2504/891/V0567306F.jpg,,,0037_V0567306F.jpg,Sue A. Thompson,Sue A. Thompson,N/A,1522,9 July 1984,1984-07-09,N/A,Impatiens macroptera Hook. f.,Impatiens macroptera Hook. f.,N/A,N/A,N/A,Cameroon,Prov. Sud-Ouest,Dept. Fako,N/A,"Bakingili, Trail up Mt. Cameroon","Bakingili, Trail up Mt. Cameroon","Erect herb up to 70 cm tall, growing on wet rocks",rock,Alt. 50-250 m.,"4°04'N, 9°02'E.",N° 2086046,Typed,no type status
EMu Field Museum | African Plants Portal,https://fm-digital-assets.fieldmuseum.org/2505/266/V0606921F.jpg,,,0038_V0606921F.jpg,D. Waterson,D. Waterson,N/A,948,9.9.64,1964-09-09,N/A,Englertia tenuifolia (Engl.) Gilg,Englertia tenuifolia (Engl.) Gilg,N/A,N/A,N/A,Kenya,Kitui,N/A,N/A,4 km n.e. of Kangondi on road to Embu.,4 kilometers northeast of Kangondi on road to Embu,Thicket,soil,c. 4500 ft,N/A,1864166,Typed,no type status
EMu Field Museum | African Plants Portal,https://fm-digital-assets.fieldmuseum.org/2506/309/V0605928F.jpg,,,0039_V0605928F.jpg,Sue A. Thompson & John E. Rawlins,Sue A. Thompson,John E. Rawlins,1333,3 June 1981,1981-06-03,1981-06-03,Avicennia africana P. Beauv.,Avicennia africana P. Beauv.,N/A,N/A,N/A,Cameroon,Prov. Sud-Ouest,Dept. Fako,Bakingili,Bakingili,[precise locality unknown],Tree,soil,Alt. 0 m.,"4°04'N, 9°02'E",2088074,Typed,no type status
EMu Field Museum | African Plants Portal,https://fm-digital-assets.fieldmuseum.org/2511/134/V0605675F.jpg,,,0040_V0605675F.jpg,N/A,N/A,N/A,6077,3.12.1958,1958-12-03,1958-12-03,Tricalysia Okuyamae (Brai. greens) Robbrs Montanien.,Tricalysia Okuyamae (Brai. greens) Robbrs Montanien,N/A,N/A,N/A,N/A,Kivu,Kalehe,N/A,3 km 750 m de Katana vers Kalehe Territoire D’Idjwi.,"3 km 750 meters from Katana towards Kalehe, Territoire D’Idjwi","Forêt ombrophile. Ombum, 11.500 ft",N/A,950 – 900 m.,N/A,1548374,Typed,no type status
EMu Field Museum | African Plants Portal,https://fm-digital-assets.fieldmuseum.org/2511/772/V0571550F.jpg,,,0041_V0571550F.jpg,A. Pappi,A. Pappi,N/A,2624,14-V-1912,1912-05-14,N/A,Lavandula pubescens Decaisne,Lavandula pubescens Decaisne,T.M. Upson,2/4/1996,N/A,Eritrea,Assaorta,N/A,N/A,Eritrea-Assaorta - Lungo il torrente Haboas,Along the stream in Haboas,N/A,N/A,N/A,N/A,N/A,Typed,no type status
EMu Field Museum | African Plants Portal,https://fm-digital-assets.fieldmuseum.org/2512/575/V0607392F.jpg,,,0042_V0607392F.jpg,William Burger,William Burger,N/A,1523,14 Feb. 1962,1962-02-14,1962-02-14,Juniperus procera Hochst. ex Endl.,Juniperus procera Hochst. ex Endl.,W.B.,14 Feb. 1962,N/A,Ethiopia,Harar Prov.,N/A,N/A,N.W. from Gara Mulata Mt. ca. 50 km. due N. of Harar. 916'N + 41'36'E,N.W. from Gara Mulata Mountain approximately 50 kilometers due north of Harar,Hiller on steep slopes with mixed forest,N/A,8500 - 9800 feet,916'N + 41'36'E,1632855,Typed,no type status
EMu Field Museum | African Plants Portal,https://fm-digital-assets.fieldmuseum.org/2513/815/V0570163F.jpg,,,0043_V0570163F.jpg,G.D. Ameka,G.d. Ameka,N/A,GC,1/10/1992,1992-10-01,N/A,Terminalia glaucescens,Terminalia glaucescens,N/A,N/A,N/A,Ghana,Volta Region,N/A,Ho,"HO, VOLTA REGION, GHANA","Ho, Volta Region",At edge; ground yellow-brownish redland,soil,N/A,N/A,2007210,Typed,no type status
EMu Field Museum | African Plants Portal,https://fm-digital-assets.fieldmuseum.org/2514/094/V0570543F.jpg,,,0044_V0570543F.jpg,Schimper,Schimper,N/A,1146,not visible,unsure and check,unsure and check,Ipomoea quamoclit L.,Ipomoea quamoclit L.,N/A,N/A,N/A,Abyssinia,N/A,N/A,N/A,not visible,[precise locality unknown],N/A,N/A,not visible,not visible,373793,Typed,no type status
EMu Field Museum | African Plants Portal,https://fm-digital-assets.fieldmuseum.org/2514/378/V0607965F.jpg,,,0045_V0607965F.jpg,D.W. Thomas & E. Luge,D.w. Thomas,E. Luge,6988,18 May 1987,1987-05-18,N/A,Dichapetalaceae Tapura africana Oliv.,Tapura africana Oliv.,D.W. Thomas,1987,N/A,Cameroon,Southwest,N/A,N/A,"Degraded forest at Barombi Kang, Kumba","Barombi Kang, Kumba",Degraded forest,N/A,150 m,04°36'N 009°27'E,Field Museum of Natural History number 2040825,Mix of Handwritten and Typed,no type status
EMu Field Museum | African Plants Portal,https://fm-digital-assets.fieldmuseum.org/2514/765/V0570471F.jpg,,,0046_V0570471F.jpg,E. A. Mearns,E. A. Mearns,N/A,1114,"September 6-7, 1909",1909-09-06,1909-09-07,Euryops ellipticus Klatt.,Euryops ellipticus Klatt.,N/A,N/A,N/A,British East Africa,N/A,N/A,Vicinity of Thika,"Vicinity of Thika, British East Africa; altitude about 1320 meters",Vicinity of Thika,N/A,N/A,about 1320 meters,N/A,463287,Mix of Handwritten and Typed,no type status
EMu Field Museum | African Plants Portal,https://fm-digital-assets.fieldmuseum.org/2514/997/V0570108F.jpg,,,0047_V0570108F.jpg,G. Jackson,G. Jackson,N/A,580,2/6/36,1936-06-02,1936-06-02,Combretum schumannii Engl.,Combretum schumannii Engl.,N/A,N/A,N/A,Kenya,Kenya,N/A,N/A,N/A,[precise locality unknown],N/A,N/A,N/A,N/A,856357,Handwritten,no type status
EMu Field Museum | African Plants Portal,https://fm-digital-assets.fieldmuseum.org/2515/000/V0570110F.jpg,,,0048_V0570110F.jpg,J. M. Fay,J. M. Fay,N/A,8271,28 February 1988,1988-02-28,N/A,Combretum smeathmannii G. Don,Combretum smeathmannii G. Don,Ake Assi 1988,1988,N/A,Cameroon,N/A,N/A,N/A,"Along the Sangha River adjacent to the island of Kilon, in riparian forest adjacent to seasonally flooded forest with Irvingia gabonensis L., Combretum and Terminalia spp., Prec. 1400 m",Along the Sangha River adjacent to the island of Kilona,In riparian forest adjacent to seasonally flooded forest,soil,Prec. 1400 m,02°21'N 16°09'E 385 m,N/A,Typed,no type status
EMu Field Museum | African Plants Portal,https://fm-digital-assets.fieldmuseum.org/2522/077/V0590787F.jpg,,,0049_V0590787F.jpg,D.D. Soejarto,D.D. Soejarto,N/A,4793,"April 1, 1978",1978-04-01,N/A,Diospyros tricolor Hiern.,Diospyros tricolor Hiern.,N/A,N/A,Thespesia populnea and Sophora accidentalus,Ghana,Greater Accra Province,N/A,Botianor village,"20 km. west of Accra, sea coast.","20 kilometers west of Accra, sea coast",sandy soil,soil,N/A,N/A,1842606,Typed,no type status
EMu Field Museum | Neotropical Flora Portal,https://fm-digital-assets.fieldmuseum.org/39/558/V0040586F.jpg,,,0050_V0040586F.jpg,Narciso Reyna B.,Narciso Reyna,N/A,49,15 diciembre 1967,1967-12-15,1967-12-15,"""Carahuasca amarilla"" - arbol, bosque húmedo tropical",Gustavia scalarinervia,D.R. Simpson,1975,N/A,Peru,Loreto,N/A,Santa María de Nanay,"Santa María - Río Nanay, distr. Alto Nanay, dept. Loreto, prov. Maynas.","Santa María - Río Nanay, district Alto Nanay",Bosque húmedo tropical,soil,150 m,N/A,1734105,Typed,Holotype
EMu Field Museum | Neotropical Flora Portal,https://fm-digital-assets.fieldmuseum.org/613/620/V0081497F.jpg,,,0051_V0081497F.jpg,M. O. Dillon & D. Dillon,M. O. Dillon,D. Dillon,3776,1 Nov 1983,1983-11-01,N/A,Galvezia fruticosa Gmel.,Galvezia eisensonii M.O. Dillon & Quipuscoa,M. O. Dillon & Quipuscoa,N/A,N/A,Peru,Arequipa,Caraveli,N/A,"Lomas of Atiquipa, ca. 105 km N of turn-off to Atiquipa, km 584 S of Lima","Lomas of Atiquipa, 105 kilometers north of turn-off to Atiquipa, kilometer 584 south of Lima",N/A,N/A,ca. 150-200 m.,N/A,1940835,Typed,holotype
EMu Field Museum | Neotropical Flora Portal,https://fm-digital-assets.fieldmuseum.org/40/414/V0042484F.jpg,,,0052_V0042484F.jpg,N/A,Ernest Friedrich Gilg,N/A,N/A,1876,1876-00-00,N/A,Tetractinium rubrivernium Miq. var. genuinum Miq. det. F. Pax,Tetractinium rubrivernium var. genuinum Miq.,F. Pax,N/A,N/A,N/A,N/A,N/A,N/A,Andes s. Amer. austr.,[precise locality unknown],N/A,N/A,N/A,N/A,875422,Handwritten,Isosyntype
EMu Field Museum | Neotropical Flora Portal,https://fm-digital-assets.fieldmuseum.org/281/725/V0092855F.jpg,,,0053_V0092855F.jpg,José Campos & O. Díaz,José Campos,O. Díaz,2490,9 Febrero 1996,1996-02-09,N/A,Amorimia camporum W.R. Anderson,Amorimia camporum W.R. Anderson,W. R. Anderson,17 Sep. 2006,N/A,Peru,Cajamarca,San Ignacio Province,N/A,Distrito Chirinos: Entre La Catacua y Tablón.,Entre La Catacua y Tablón,Trepadora; flor amarilla.,N/A,550 - 650,05°19'S - 078°47'W,2296033,Typed,ISOTYPE
EMu Field Museum | Neotropical Flora Portal,https://fm-digital-assets.fieldmuseum.org/155/067/V0078059F.jpg,,,0054_V0078059F.jpg,Ruiz & Pavón,Ruiz,Pavón,N/A,(1777-1788),1777-00-00,1788-00-00,Nolana spathulata Ruiz & Pav.,Nolana spathulata Ruiz & Pav.,M. A. M.,Fl. Neotrop. 26: 136 1981,N/A,Peru,N/A,N/A,N/A,Plantae a Ruiz et Pavón in vice-regno Peruvianno et Chilensi lectae.,[precise locality unknown],N/A,N/A,N/A,N/A,845155,Typed,Isolectotype
EMu Field Museum | Neotropical Flora Portal,https://fm-digital-assets.fieldmuseum.org/281/732/V0092864F.jpg,,,0055_V0092864F.jpg,Camilo Díaz & Antonio Peña B000,Camilo Díaz,Antonio Peña,B000,4 Diciembre 1996,1996-12-04,N/A,Symplocos ovata Stahl,Symplocos ovata Stahl,B. Stahl (GB:G-DEL:S.U.),"Novon 20(1): 91, fig. 4A-B. 2010",N/A,Peru,Amazonas,Luya Province,N/A,"Camporredondo, Tullanya, Pascana ""Pájaro Tigre""","Camporredondo, Tullanya, Pascana ""Pájaro Tigre""",N/A,N/A,2850–2360 m,N/A,2296023,Typed,Isotype
EMu Field Museum | Neotropical Flora Portal,https://fm-digital-assets.fieldmuseum.org/283/142/V0092900F.jpg,,,0056_V0092900F.jpg,Ruiz et Pavón,Ruiz,Pavón,N/A,1775-1788,1775-00-00,1788-00-00,Bomarea purpurea (Ruiz & Pavón) Herb.,Bomarea purpurea (Ruiz & Pavón) Herb.,Hofreiter,N/A,N/A,Peru,N/A,N/A,Pillao,Pillao,Pillao,N/A,N/A,N/A,N/A,"916119, 290201",Typed,Isotype
EMu Field Museum | Neotropical Flora Portal,https://fm-digital-assets.fieldmuseum.org/283/147/V0092906F.jpg,,,0057_V0092906F.jpg,"V. Quipuscoa S., A. Sagástegui A., S. Leiva G. & M. Bejarano C.",V. Quipuscoa S.,"A. Sagástegui A., S. Leiva G., M. Bejarano C.",13778,20 agostos 1998,1998-08-20,1998-08-20,Lithospermum cinerascens (A.DC.) Johnst.,Lithospermum leymebambense Weigend & Nürk. sp. nov. ined.,Weigend M. & Nürk,"Taxon <> (s/n), acc. s.type 2006",N/A,Peru,Amazonas,Leymebamba,N/A,"Carretera a Celendín, entre Ishpingo - Pomacocha. Bosque montano fragmentado.","Carretera a Celendín, entre Ishpingo - Pomacocha",Bosque montano fragmentado,soil,2800-3000 m,N/A,2211679,Mix of Handwritten and Typed,Isotype
EMu Field Museum | Neotropical Flora Portal,https://fm-digital-assets.fieldmuseum.org/283/156/V0092915F.jpg,,,0058_V0092915F.jpg,Llewellyn Williams,Llewellyn Williams,N/A,6999,"Jan.-Feb., 1929",1929-01-00,1929-02-00,Maranta arundinacea L.,Maranta arundinacea L.,N/A,N/A,N/A,Peru,San Martin,N/A,N/A,N/A,[precise locality unknown],"forest, roque",soil,1000-1800 m.,N/A,624474,Mix of Handwritten and Typed,no type status
EMu Field Museum | Neotropical Flora Portal,https://fm-digital-assets.fieldmuseum.org/283/160/V0092918F.jpg,,,0059_V0092918F.jpg,Plantae a Ruiz et Pavón in vice-regno Peruviano et Chilensi lectae.,Ruiz et Pavón,N/A,N/A,(1778-1788),1778-00-00,1788-00-00,Marcgravistrum obovatum (R & P) D. Don,Marcgraviastrum obovatum (G. Don) Bedell,G. Bedell,Utrecht VIII. 1982,N/A,N/A,N/A,N/A,N/A,N/A,[precise locality unknown],N/A,N/A,N/A,N/A,843295,Typed,Isotype
EMu Field Museum | Neotropical Flora Portal,https://fm-digital-assets.fieldmuseum.org/283/163/V0092921F.jpg,,,0060_V0092921F.jpg,Ruiz & Pavón,Ruiz,Pavón,N/A,in vice-regno Peruvianno ad Chilesin lectae (1777-1788),1777-00-00,1788-00-00,Marcgraviastrum obovatum (L.f.) Bedell = Marcgravia obovata L.,Marcgraviastrum obovatum (L.f.) Bedell,H. G. Bedell,Utrecht VIII 1982,N/A,Peru,N/A,N/A,N/A,in vice-regno Peruvianno ad Chilesin lectae,[precise locality unknown],N/A,N/A,N/A,N/A,842882,Typed,Isotype
EMu Field Museum | Neotropical Flora Portal,https://fm-digital-assets.fieldmuseum.org/679/934/V0190732F.jpg,,,0061_V0190732F.jpg,Robin B. Foster,Robin B. Foster,N/A,8752,13 Sept. 1982,1982-09-13,1982-09-13,Aciotis venezuelanus (Pax & K. Hoffm.) Webster,Aciotis venezuelanus (Pax & K. Hoffm.) Webster,M.J. Huft,1983,N/A,Peru,Huánuco,N/A,N/A,"Pachitea: Puerto Inca to Sungaro, Forest trail between Río Pachitea and Río Sungaro, Forested low hills and ravines, alt. 250-300m. 7°50'W, 9°18'S.","Puerto Inca to Sungaro, forest trail between Río Pachitea and Río Sungaro",Forested low hills and ravines,N/A,alt. 250-300m,"7°50'W, 9°18'S",No. 1921102,Mix of Handwritten and Typed,no type status
EMu Field Museum | Neotropical Flora Portal,https://fm-digital-assets.fieldmuseum.org/791/904/V0277652F.jpg,,,0062_V0277652F.jpg,José Schunke Vigo,José Schunke Vigo,N/A,6505,27 May 1964,1964-05-27,1964-05-27,"Tontelea chachapoyensis, Lardizabalaceae (border on Chachapoyas) formerly in Celastraceae family tree, with edible fruits, used for storing water",Tontelea chachapoyensis,A. M. W. Mennega,III 1972,N/A,Peru,San Martín,N/A,N/A,"San Martín: Quebrada Huicte (rio Huallaga), in tall forest",Quebrada Huicte,tall forest,N/A,529 alt.,N/A,1751666,Mix of Handwritten and Typed,no type status
EMu Field Museum | Neotropical Flora Portal,https://fm-digital-assets.fieldmuseum.org/586/997/V0152152F.jpg,,,0063_V0152152F.jpg,Manuel Rimachi Y.,Manuel Rimachi Y.,N/A,4268,"February 8, 1979",1979-02-08,N/A,Nectandra krukovii (A.C. Smith) Kosterm.,Endlicheria anomala (Nees) Mez,"A. C. Chanderbali (Triplaris), 2001",2001,N/A,Peru,Loreto,Requena,Saquena,"Dtto. Saquena. Rio Ucayali, Quebrada de Aucayacu, above Genaro Herrera, marginal forest, ""muena,"" 8 m tall, fr. green.","Quebrada de Aucayacu, above Genaro Herrera","marginal forest, ""muena""",N/A,N/A,N/A,2058606,Typed,no type status
EMu Field Museum | Neotropical Flora Portal,https://fm-digital-assets.fieldmuseum.org/802/677/V0277223F.jpg,,,0064_V0277223F.jpg,Salvador Flores P.,Salvador Flores P.,N/A,95 (P-2),Julio/82,1982-07-00,1982-07-00,Farquharia angulata Tul.,Farquharia angulata Tul.,T. Plowman 1985,N/A,N/A,Peru,Loreto,Maynas,N/A,Ampiyacu-Pevas,Ampiyacu-Pevas,Bosque secundario 35 años,N/A,100 m.s.n.m.,N/A,1968315,Typed,no type status
EMu Field Museum | Neotropical Flora Portal,https://fm-digital-assets.fieldmuseum.org/694/649/V0195906F.jpg,,,0065_V0195906F.jpg,Percy Nuñez V. & S. Walsh,Percy Nuñez V.,S. Walsh,6330,29 October 1986,1986-10-29,1986-10-29,Euphorbia heterophylla L.,Euphorbia heterophylla L.,M. J. Huft,1987,N/A,Peru,Cuzco,La Convención,Quillabamba,"Quillabamba, Salsipampa","Quillabamba, Salsipampa",N/A,soil,Alt. 1110 m.,N/A,N° 1982606,Typed,no type status
EMu Field Museum | Neotropical Flora Portal,https://fm-digital-assets.fieldmuseum.org/904/057/V0290180F.jpg,,,0066_V0290180F.jpg,Jose Schunke,Jose Schunke,N/A,9560,30 Mayo 1977,1977-05-30,1977-05-30,"""Palicourea"" ""Marco-Suqcha""",Palicourea sp.,J. Dyer,1980,N/A,Peru,San Martín,San Martín,N/A,"San Juan de Pacaiasapa, km. 72 carretera Tarapoto-Yoyobamba","San Juan de Pacaiasapa, 72 km on the road Tarapoto-Yoyobamba","En bosque secundario, con abundante luz solar.",soil,1000-1050 m,N/A,1872133,Typed,no type status
EMu Field Museum | Neotropical Flora Portal,https://fm-digital-assets.fieldmuseum.org/674/331/V0201636F.jpg,,,0067_V0201636F.jpg,"G. Tobar, J. Luna, J. Ruiz",G. Tobar,"J. Luna, J. Ruiz",138,18-8-81,1981-08-18,N/A,Ficus maxima P. Miller,Ficus maxima P. Miller,William O. Burger,1982,N/A,Peru,Loreto,N/A,N/A,"Quisto Cocha, 14 km north of Iquitos","Quisto Cocha, 14 kilometers north of Iquitos",[habitat information not visible on provided label image],[substrate information not visible on provided label image],600m elev,N/A,1923146,Typed,no type status
EMu Field Museum | Neotropical Flora Portal,https://fm-digital-assets.fieldmuseum.org/786/584/V0251887F.jpg,,,0068_V0251887F.jpg,E. P. Killip & A. C. Smith,E. P. Killip,A. C. Smith,16721,"July 23-27, 1929",1929-07-23,1929-07-27,Psychotria sarmentosa (Sw.) DC.,Psychotria sarmentosa (Sw.) DC.,N/A,N/A,N/A,Peru,Junín,Chanchamayo,N/A,"Dept. Junín: Chanchamayo, on Pichis Trail, above San Ramón.","Pichis Trail, above San Ramón",Dense forest,Soil,about 900 meters,N/A,607534,Typed,No type status
EMu Field Museum | Neotropical Flora Portal,https://fm-digital-assets.fieldmuseum.org/750/898/V0243915F.jpg,,,0069_V0243915F.jpg,M. O. Dillon and I. Sánchez V.,M. O. Dillon,I. Sánchez V.,6310,22 July 1983,1983-07-22,N/A,"Wissadula grandiflora Baker ex Rusby det. P. Fryxell, 1983",Wissadula grandiflora,P. Fryxell,1983,N/A,Peru,Piura,Huancabamba,N/A,"Dept. Piura. Prov. Huancabamba, ca. 2 km N of Canchaque.",ca. 2 km North of Canchaque,N/A,N/A,1450 m alt.,[precise coordinates not provided],2119563,Typed,no type status
EMu Field Museum | Neotropical Flora Portal,https://fm-digital-assets.fieldmuseum.org/678/428/V0187051F.jpg,,,0070_V0187051F.jpg,J. Francis Macbride,J. Francis Macbride,N/A,4980,"June 22, 1923",1923-06-22,N/A,Cnidoscolus aconitifolius (I. Mueller) I. M. Johnst.,Cnidoscolus aconitifolius (I. Mueller) I. M. Johnst.,N/A,N/A,N/A,Peru,Cueva Grande,N/A,N/A,Cueva Grande; Peru,Cueva Grande,N/A,Bark,about 3000 feet,N/A,535840,Typed,no type status
EMu Field Museum | Neotropical Flora Portal,https://fm-digital-assets.fieldmuseum.org/776/646/V0258426F.jpg,,,0071_V0258426F.jpg,Weberbauer,Weberbauer,N/A,2820,12.XII.1910,1910-12-12,1910-12-12,Geranium chilloense Kunth,Geranium chilloense Kunth,Bente Eriksen,N/A,N/A,Peru,Peru,N/A,N/A,"Quebrada San Cristobal, Prov. Cajamarca, Dep. Cajamarca",Quebrada San Cristobal,"Junto a casa habitada, entre matas y piedras",soil,2874 m.s.m.,N/A,1684365,Typed,no type status
EMu Field Museum | Neotropical Flora Portal,https://fm-digital-assets.fieldmuseum.org/686/796/V0193750F.jpg,,,0072_V0193750F.jpg,J. Mostacero L.; L. Serna C.; F. Peláez; J. Mejía C.; H. Guevara b.,J. Mostacero L.,L. Serna C.; F. Peláez; J. Mejía C.; H. Guevara b.,1040,12-XII-1986,1986-12-12,N/A,Jaegeria hirta (Lag.) Less.,Jaegeria hirta (Lag.) Less.,M. O. Dillon,11-VII-1991,N/A,Peru,Cajamarca,Cutervo,N/A,La Morilla (Socota-San Andrés),La Morilla (Socota-San Andrés),A lo largo de carretera,soil,2450 m.,N/A,N° 199382,Typed,no type status
EMu Field Museum | Neotropical Flora Portal,https://fm-digital-assets.fieldmuseum.org/738/306/V0228073F.jpg,,,0073_V0228073F.jpg,"Spichiger, R. & A.-P. Loizeau","Spichiger, R.",A.-P. Loizeau,3012,10-4-86,1986-04-10,1986-04-10,Pourouma guianensis subsp. guianensis,Ambaibun arborea,N/A,N/A,N/A,Pérou,Loreto,Jenaro Herrera,N/A,"Bosque de terraza alta, suelo arenoso.",Bosque de terraza alta,suelo arenoso,N/A,Alt. 125 m.,N/A,N° 2027582,Typed,no type status
EMu Field Museum | Neotropical Flora Portal,https://fm-digital-assets.fieldmuseum.org/494/920/V0100062F.jpg,,,0074_V0100062F.jpg,G. Klug,G. Klug,N/A,660,"December, 1929",1929-12-00,1929-12-00,Palicourea coriacea (Sw.) Schult. & Schult.f.,Palicourea coriacea (Sw.) Schult. & Schult.f.,N/A,N/A,N/A,Peru,Loreto,N/A,Maynas,"Mishuyacu, near Iquitos, alto ten montes; forest","Mishuyacu, near Iquitos",forest,N/A,100 m.,N/A,613565,Typed,no type status
EMu Field Museum | Neotropical Flora Portal,https://fm-digital-assets.fieldmuseum.org/655/199/V0198402F.jpg,,,0075_V0198402F.jpg,T. R. Dudley,T. R. Dudley,N/A,10635,24 Aug. 1968,1968-08-24,N/A,Dendrophthora membranaceifolia Urb. Loranthaceae,Dendrophthora sp.,Job Kuijt,18 Dec. 1984,N/A,Peru,Ayacucho,La Mar,N/A,"Prov. La Mar; Dept. Ayacucho, eastern Massif of the Cordillera Oriental on San Miguel, Ayacucho via bloodmeal between Tambo on the E side and Hacienda Luisiana, ","Eastern Massif of the Cordillera Oriental on San Miguel, via Bloodmeal between Tambo on the East side and Hacienda Luisiana",Dense cloud forest as timberline; high elfin montane forest,soil,3220 meters,73°53'W; 12°45'S,N/A,Typed,no type status
EMu Field Museum | Neotropical Flora Portal,https://fm-digital-assets.fieldmuseum.org/675/982/V0225274F.jpg,,,0076_V0225274F.jpg,G. Klug,G. Klug,N/A,1695,April 19 1929,1929-04-19,N/A,Ficus trigona L.f.,Ficus trigona L.f.,M. Vásquez Avila,Utrecht 1983,N/A,Peru,Loreto,Maynas,N/A,"Mishuyacu, near Iquitos","Mishuyacu, near Iquitos",Forest,N/A,100 meters,N/A,873381,Typed,no type status
EMu Field Museum | Neotropical Flora Portal,https://fm-digital-assets.fieldmuseum.org/736/767/V0224820F.jpg,,,0077_V0224820F.jpg,"Mildred E. Mathias, Dermot Taylor",Mildred E. Mathias,Dermot Taylor,5576,18 July to 19 61,1961-07-18,1961-07-19,Byrsonima crassifolia (L.) Kunth var. spicata (Cav.) Nied.,Malpighia,"William R. Anderson, University of Michigan Herbarium '83",N/A,N/A,Perú,Loreto,N/A,Vicinity of Requena,Loreto: vicinity of Requena,[$precise locality unknown],"""Barbasco silvestre""",N/A,N/A,N/A,1733057,Typed,no type status
EMu Field Museum | Neotropical Flora Portal,https://fm-digital-assets.fieldmuseum.org/939/013/V0304780F.jpg,,,0078_V0304780F.jpg,José Schunke Vigo,José Schunke Vigo,N/A,6677,Oct. 1970,1970-10-00,1970-10-00,Paulinia bracteosa Radlk.,Paulinia bracteosa Radlk.,Donald E. Stone & R.L. Dressler,1984,N/A,Peru,Loreto,Datem del Marañón,Quebrada de la Aguila,(Contamana) in tall forest,Quebrada de la Aguila,tall forest,N/A,220 m,N/A,1717601,Typed,no type status
EMu Field Museum | Neotropical Flora Portal,https://fm-digital-assets.fieldmuseum.org/785/493/V0238260F.jpg,,,0079_V0238260F.jpg,Llewelyn Williams,Llewelyn Williams,N/A,3363,"Sept.-Oct., 1929",1929-09-00,1929-10-00,Psychotria viridis Ruíz & Pav.,Psychotria viridis Ruíz & Pav.,N/A,N/A,N/A,Peru,Loreto,N/A,N/A,"Forest of Porvenir, Alto Río Itaya","Forest of Porvenir, Alto Río Itaya","Unclear, potentially forest",N/A,Alt. 145 m.,N/A,26,Handwritten,no type status
EMu Field Museum | Neotropical Flora Portal,https://fm-digital-assets.fieldmuseum.org/736/994/V0225047F.jpg,,,0080_V0225047F.jpg,"T. Plowman, A. Sagastegui A., J. Mostacero L., F. R. Mejía & F. Peláez",T. Plowman,"A. Sagastegui A., J. Mostacero L., F. R. Mejía, F. Peláez",14242,12 July 1986,1986-07-12,N/A,Abutilon mollissimum (Cav.) Sweet,Abutilon mollissimum (Cav.) Sweet,F. Fryxell,1987,N/A,Peru,Cajamarca,Jaén,N/A,"Road from Pucará to Chambaya, km 21 east of Pucará, along Río Huancabamba","Road from Pucará to Chambaya, 21 kilometers east of Pucará, along Río Huancabamba",Dry scrub forest on steep slopes,N/A,Alt. 700 m,N/A,1973380,Typed,no type status
EMu Field Museum | Neotropical Flora Portal,https://fm-digital-assets.fieldmuseum.org/738/506/V0239614F.jpg,,,0081_V0239614F.jpg,Magda Chanco with Michelle McMahon and Larry Hufford,Magda Chanco,"Michelle McMahon, Larry Hufford",2253555,14 April 2003,2003-04-14,N/A,Abutilon sp.,Abutilon sp.,N/A,N/A,N/A,Peru,Cajamarca,N/A,N/A,Chilet- San Pablo road about 15 km from Chilet,Chilet- San Pablo road about 15 kilometers from Chilet,N/A,N/A,3614 feet elevation,"07°55'54""W, 78°46'05""",N/A,Typed,no type status
EMu Field Museum | Neotropical Flora Portal,https://fm-digital-assets.fieldmuseum.org/1611/031/V0414961F.jpg,,,0082_V0414961F.jpg,Marcos Rios,Marcos Rios,"Tony Mori, Nigel Pitman, Luis Torres, Corine Vriesendorp",4399,13 octubre 2014,2014-10-13,N/A,Andira macrothyrsa Ducke,Andira macrothyrsa Ducke,N/A,N/A,N/A,Peru,Loreto,Requena,N/A,"Prov. Requena, Dtto. de Soplin, Quebrada Yanayacu-Rio Blanco, Campamento Wiseuyacu de inventario rapido #27, de la region Tapiche-Blanco","Prov. Requena, Dtto. de Soplin, Quebrada Yanayacu-Rio Blanco, Campamento Wiseuyacu",Bosque de Planicie Inundable aguas blancas.,soil,A. W. 90.,"05°33'S; 73°15'33""W",2818558,Typed,no type status
EMu Field Museum | Neotropical Flora Portal,https://fm-digital-assets.fieldmuseum.org/1611/032/V0414962F.jpg,,,0083_V0414962F.jpg,Marcos Rios,Marcos Rios,N/A,4399,13 octubre 2014,2014-10-13,2014-10-13,Andira macrothyrsa Ducke,Andira macrothyrsa Ducke,N/A,N/A,N/A,Peru,Loreto,Requena,N/A,"Dto. de Soplin Quebrada Yanayacu-Rio Blanco, Campamento Wishwincho del interviento r͟ípio 47, de la región Blanco","Dto. de Soplin Quebrada Yanayacu-Rio Blanco, Campamento Wishwincho del intervento ripio 47, de la region Blanco",Bosque de Plaine inundable de aguas blancas,N/A,Alt. 90,"05°43'35""S 75°13'35""W",N° 2318537,Typed,no type status
EMu Field Museum | Neotropical Flora Portal,https://fm-digital-assets.fieldmuseum.org/1743/655/V0462893F.jpg,,,0084_V0462893F.jpg,Ynes Mexia,Ynes Mexia,N/A,8265,"Oct. 9, 1936",1936-10-09,1936-10-09,Piper oblongulum Ruiz & Pav. ex DC.,Piper oblongulum Ruiz & Pavon ex De Candolle,N/A,N/A,N/A,Peru,Department of Huanuco,N/A,Huallaga,"Near confluence Rio Huallaga with Rio Monzon, forested slope above road",Near confluence of Rio Huallaga with Rio Monzon,Forested slope above road,soil,805 meters,N/A,10666956,Typed,no type status
EMu Field Museum | Neotropical Flora Portal,https://fm-digital-assets.fieldmuseum.org/1743/657/V0462895F.jpg,,,0085_V0462895F.jpg,Ynes Mexia,Ynes Mexia,N/A,6127,"Nov. 24, 1931",1931-11-24,N/A,Piper callosum Ruiz & Pav. det. Trelease,Piper callosum Ruiz & Pav.,Trelease,N/A,N/A,Peru,Departamento de Loreto,N/A,N/A,Above Pongo de Manseriche. Right bank of mouth of Rio Santiago; dense forest.,"Above Pongo de Manseriche, right bank of mouth of Rio Santiago",Dense forest,N/A,Alt. 200 meters,N/A,872227,Typed,no type status
EMu Field Museum | Neotropical Flora Portal,https://fm-digital-assets.fieldmuseum.org/1743/506/V0441679F.jpg,,,0086_V0441679F.jpg,D. R. Simpson & José Schunke V.,D. R. Simpson,José Schunke V.,565,"January 4, 1968",1968-01-04,N/A,"Ipomoea carnea Jacq. (det. D. R. Simpson, Jan. 1969)",Ipomoea carnea Jacq.,D. R. Simpson,Jan. 1969,N/A,Peru,Dpto. Tumbes,Prov. Tumbes,N/A,Desde Pampas de Hospital toma la trocha carrozable oblicuamente abajo hacia el arbustal muy seco de la Pampa de Hospital.,Desde Pampas de Hospital toma la trocha carrozable oblicuamente abajo hacia el arbustal muy seco de la Pampa de Hospital.,"Common from the dry, deciduous forest zone, downward into the very dry thorn-scrub. Along the road about 10 km. northwest of El Caucho",N/A,N/A,N/A,1897948,Typed,no type status
EMu Field Museum | Neotropical Flora Portal,https://fm-digital-assets.fieldmuseum.org/1743/504/V0441677F.jpg,,,0087_V0441677F.jpg,T. Plowman & P. M. Rury,T. Plowman,P. M. Rury,11105,6 December 1981,1981-12-06,N/A,Ipomoea cairica (L.) Sweet det. Al McDonald 1983,Ipomoea cairica (L.) Sweet,Al McDonald,1983,N/A,Peru,Huánuco,N/A,N/A,"Prov. Huánuco. 8 km. northeast of Huánuco on road to Tingo María. Approx. 9°52'S., 76°11'W.",Prov. Huánuco. 8 kilometers northeast of Huánuco on road to Tingo María,roadside near houses,N/A,alt. 1750 m.,"Approx. 9°52'S., 76°11'W.",1896900,Typed,no type status
EMu Field Museum | Neotropical Flora Portal,https://fm-digital-assets.fieldmuseum.org/1684/390/V0401892F.jpg,,,0088_V0401892F.jpg,Robin B. Foster,Robin B. Foster,N/A,4262,"Aug. 19, 1978",1978-08-19,1978-08-19,Aechmea corymbosa (Mart. ex Schult. & Schult.f.) Mez,Aechmea corymbosa (Mart. ex Schult. & Schult.f.) Mez,E.J. Gouda,2012-05-02,N/A,Peru,Loreto,Maynas,Iquitos,Caserio Muyuna 30km SW of Iquitos,"Caserio Muyuna, 30 kilometers southwest of Iquitos",Terrestrial in white sand scrub; Forested hills on white or brown sand soils.,soil,N/A,N/A,1852637,Typed,no type status
EMu Field Museum | Neotropical Flora Portal,https://fm-digital-assets.fieldmuseum.org/1766/135/V0460617F.jpg,,,0089_V0460617F.jpg,"J. Farfán, L. Valenzuela, I. Huamantupa, A. Carazas, L. Aragóna",J. Farfán,"L. Valenzuela, I. Huamantupa, A. Carazas, L. Aragóna",1262,23 Octubre 2006,2006-10-23,N/A,Anthurium clavigerum Poepp.,Anthurium clavigerum Poepp.,Thomas B. Croat,2008,N/A,Peru,Cusco,La Convención,N/A,"Dist. Vilcabamba, Chaunquiri camino a Ríoamba, Bosque secundario","Dist. Vilcabamba, Chaunquiri camino a Ríoamba",Bosque Secundario,N/A,1009 m,12°47'15''S 073°10'10''W,N/A,Typed,no type status
EMu Field Museum | Neotropical Flora Portal,https://fm-digital-assets.fieldmuseum.org/1826/292/V0469643F.jpg,,,0090_V0469643F.jpg,Thomas B. Croat,Thomas B. Croat,N/A,8210,"July 18, 1972",1972-07-18,N/A,Agave americana L.,Agave americana L.,N/A,N/A,N/A,Peru,Loreto,N/A,N/A,Sandy area 12-15 km. SW of Iquitos on road to Lago Quistococha,Sandy area 12-15 kilometers southwest of Iquitos on road to Lago Quistococha,Sandy area,soil,N/A,N/A,1759629,Typed,no type status
EMu Field Museum | Pteridophyte Portal,https://fm-digital-assets.fieldmuseum.org/227/821/V0075820F.jpg,,,0091_V0075820F.jpg,T. R. Dudley,T. R. Dudley,N/A,10783,4 July 1968,1968-07-04,1968-07-04,Thelypteris linkiana (Spreng.) Ching,Thelypteris dudleyi R. A. Smith,Alan R. Smith,1980,N/A,Peru,Cusco,La Convencion,N/A,"In full sun on old open landslide, just above the cloud forest, between camp 45&S; almost to Camp 5; at c. 2825 m; one of the commonest colonizers of landslide.","In full sun on old open landslide, just above the cloud forest, between camp 45&S, almost to Camp 5","On old open landslide, above cloud forest",soil,c. 2825 m,12° 53' / 73° 32',65658,Handwritten,Isotype
EMu Field Museum | Pteridophyte Portal,https://fm-digital-assets.fieldmuseum.org/227/835/V0075836F.jpg,,,0092_V0075836F.jpg,S. Knapp,S. Knapp,N/A,5881,4 July 1982,1982-07-04,N/A,Trichipteris pinnata Stolze,Trichipteris pinnata Stolze,Robert G. Stolze,1984,N/A,Panama,Province of Colón,N/A,N/A,"Santa Rita Ridge road, 21-26 km from Transisthmian Highway","Santa Rita Ridge road, 21-26 kilometers from Transisthmian Highway",Tropical wet forest,Soil,500-550 m.,"9°25'N, 79°37'W",1932768,Typed,Holotype
EMu Field Museum | Pteridophyte Portal,https://fm-digital-assets.fieldmuseum.org/1121/693/C0616676F.jpg,,,0093_C0616676F.jpg,J. Dorantes,J. Dorantes,N/A,455,01/01/1972,1972-01-01,1972-01-01,Woodwardia spinulosa Mart. & Gal.,Woodwardia spinulosa Mart. & Gal.,N/A,N/A,N/A,Mexico,Veracruz,Jalapa,Llano del Gato,"Llano del Gato, Edo. Veracruz Mun, Jalapa, Mapa 38.5 29.0","Llano del Gato, Edo. Veracruz Mun, Jalapa",Bosque caducifolio,soil,N/A,Mapa 38.5 29.0,P005051,Typed,no type status
EMu Field Museum | Pteridophyte Portal,https://fm-digital-assets.fieldmuseum.org/1086/214/C0644079F.jpg,,,0094_C0644079F.jpg,"A. Monteagudo, C. Mateo, G. Ortiz",A. Monteagudo,"C. Mateo, G. Ortiz",4909,10 Abril 2003,2003-04-10,N/A,Blechnum occidentale L.,Blechnum occidentale L.,H. van der Werff,2005,N/A,Peru,Pasco,Oxapampa,N/A,"Distrito Pozuzo, Parque Nacional Yanachaga Chemillen Pozuzo Sector Pan de Azúcar, Zona de Recuperación. Bosque ribereño.","Distrito Pozuzo, Parque Nacional Yanachaga Chemillen Pozuzo Sector Pan de Azúcar, Zona de Recuperación",Bosque ribereño,N/A,1100-1250m,10°15' 75°13'W,Nº 2287355,Typed,no type status
EMu Field Museum | Pteridophyte Portal,https://fm-digital-assets.fieldmuseum.org/1098/449/C0658238F.jpg,,,0095_C0658238F.jpg,Ynes Mexia,Ynes Mexia,N/A,8066,"May 14,1936",1936-05-14,1936-05-14,Adiantum pulverulentum L.,Adiantum pulverulentum L.,Copeland,N/A,N/A,Peru,Cuzco,La Convención,N/A,Departamento Cuzco. Provincia La Convención; upper valley of Rio Sanabry; western affluent of Vilcabamba; along steam in virgin forest.,Upper valley of Rio Sanabry; western affluent of Vilcabamba; along stream,Virgin forest,N/A,Alt. about 1800 m.,N/A,1005396,Typed,no type status
EMu Field Museum | Pteridophyte Portal,https://fm-digital-assets.fieldmuseum.org/1079/847/C0637474F.jpg,,,0096_C0637474F.jpg,J.I. Calzada,J.i. Calzada,N/A,5759,27-enero-1980,1980-01-27,N/A,Diplazium francoisii Lellinger,Diplazium francoisii Lellinger,Robert G. Stolze,1983,Liquidambar styraciflua; Quercus sp.; Alnus sp.,México,Veracruz,Xico,N/A,Ranchoita de Coateitlán.,Ranchoita de Coateitlán,Bosque Caducifolio muy húmedo,soil,1800-2000 m.s.n.m.,19°29' N 97°04' W,1894963,Typed,no type status
EMu Field Museum | Pteridophyte Portal,https://fm-digital-assets.fieldmuseum.org/1079/274/C0636906F.jpg,,,0097_C0636906F.jpg,Antonio Molina R.,Antonio Molina,N/A,1427,"Nov. 4, 1948",1948-11-04,N/A,Thelypteris piloso-hispida (Hook.) Morton,Thelypteris rudis (Kunze) Proctor,Alan R. Smith,1974,N/A,Honduras,N/A,N/A,N/A,"Helaecho arboreso. Bosque latifoliado. margen de la Quebrada, caminos flotables, Laberinto y Mts. Uyuca 8 Km. 114° Rumbo S.E. de Tegucigalpa on route to Danlí.","Helaecho arboreso, margen de la Quebrada, caminos flotables, Laberinto y Mts. Uyuca, 8 kilometers 114° southeast of Tegucigalpa on route to Danlí.",Bosque latifoliado,N/A,Alt. 1800 m.,Longitude 87° W. and Latitude 14° N.,1394536,Typed,no type status
EMu Field Museum | Pteridophyte Portal,https://fm-digital-assets.fieldmuseum.org/1072/569/C0665739F.jpg,,,0098_C0665739F.jpg,"Blomquist, H.J. & Aet.","Blomquist, H.J.",Aet.,2911,10 setiembre 1939,1939-09-10,N/A,Thelypteris euscleris (Sod.) R.M. Tryon,Thelypteris euscleris (Sod.) R.M. Tryon,R.G. Stolze,19 92,N/A,Peru,Cuzco,Paucartambo,N/A,"Bosque de Nubes, Rio la Union, Region de Saja","Bosque de Nubes, Rio la Union, Region de Saja",Helechos,soil,1700-1800 m,N/A,2112158,Typed,no type status
EMu Field Museum | Pteridophyte Portal,https://fm-digital-assets.fieldmuseum.org/1137/337/C0626158F.jpg,,,0099_C0626158F.jpg,"Louis O. Williams, Antonio Molina R., Terua P. Williams, D. Gibson, and Chester Laskowski",Louis O. Williams,"Antonio Molina R., Terua P. Williams, D. Gibson, Chester Laskowski",27621,"May 15, 1966",1966-05-15,N/A,Polypodium blepharodes Maxon,Grammitis blepharodes (Maxon) Seymour,R. Stolze,1965,N/A,Nicaragua,Matagalpa,N/A,N/A,"Montane rain-forest, or cloud forest, Dsipartio de Potter, Sta. María de Ostuma, Cordillera Central de Nicaragua, Departamento of Matagalpa, 1400 m","Dispartio de Potter, Sta. María de Ostuma, Cordillera Central de Nicaragua","Montane rain-forest, or cloud forest",bark,1400 m,N/A,1626179,Typed,no type status
EMu Field Museum | Pteridophyte Portal,https://fm-digital-assets.fieldmuseum.org/1072/487/C0665657F.jpg,,,0100_C0665657F.jpg,Ken Young & Mark Eisenberg 265,Ken Young,Mark Eisenberg,265,20 April 1981,1981-04-20,N/A,Thelypteris (subg. Amauropelta) thelypteroides (Kunze) R. M. Tryon & A. F. Tryon,Thelypteris thelypteroides (Kunze) R. M. Tryon & A. F. Tryon,A. R. Smith,N/A,N/A,Peru,Cuzco,La Convencion,N/A,"Dept. Cuzco, Prov. La Convencion. Just east of Quillabamba. Finca Chichina; cocoa; coffee; yuca; mango; bananas; corn crops 9CWM.","Just east of Quillabamba, Finca Chichina",N/A,N/A,Alt. 1300–1400 m.,N/A,2038794,Typed,no type status
EMu Field Museum | Pteridophyte Portal,https://fm-digital-assets.fieldmuseum.org/330/762/C0045536F.jpg,,,0101_C0045536F.jpg,Thomas G. Lammers,Thomas G. Lammers,N/A,10674,9 May 1998,1998-05-09,1998-05-09,Dryopteris carthusiana (Vill.) H.P. Fuchs,Dryopteris carthusiana (Vill.) H.P. Fuchs,N/A,N/A,N/A,United States of America,Illinois,Cook,N/A,"Cook Co.: Palos Twp. Swallow Cliff Woods Forest Preserve, southwest of the jct. of US Hwy 45 and State Hwy 83. Local in mesic maple-basswood forest on steep slopes of deep ravine south of toboggan run.","Swallow Cliff Woods Forest Preserve, southwest of the junction of US Highway 45 and State Highway 83, on steep slopes south of toboggan run.",Mesic maple-basswood forest on steep slopes of deep ravine,soil,N/A,N/A,2228497,Typed,no type status
EMu Field Museum | Pteridophyte Portal,https://fm-digital-assets.fieldmuseum.org/1139/892/C0627900F.jpg,,,0102_C0627900F.jpg,"Antonio Molina R, Albertina R. Molina",Antonio Molina R,Albertina R. Molina,121562,"Mayo 22, 1963",1963-05-22,1963-05-22,Polypodium montigenum Maxon,Polypodium montigenum Maxon,A. Molina R.,N/A,N/A,El Salvador,Santa Ana,N/A,N/A,"Bosque abierto de Montaña Montecristo, Department Santa Ana, 2000 m.",Bosque abierto de Montaña Montecristo,N/A,N/A,Alt. 2000 m.,N/A,1661895,Typed,no type status
EMu Field Museum | Pteridophyte Portal,https://fm-digital-assets.fieldmuseum.org/217/945/V0082645F.jpg,,,0103_V0082645F.jpg,M. O. Dillon,M. O. Dillon,N/A,5376,21 Dec 1987,1987-12-21,N/A,Notholaena mollis Kunze,Notholaena mollis Kunze,N/A,N/A,N/A,Chile,Antofagasta,N/A,N/A,"Cerro Perales, ca. 85 km E of Taltal, 600-850 m alt.","Cerro Perales, approximately 85 kilometers east of Taltal","Terrestrial, growing in rock crevices",rock,600-850 m alt.,"(25°25' S, 70°25' W)",N° 2010984,Typed,no type status
EMu Field Museum | Pteridophyte Portal,https://fm-digital-assets.fieldmuseum.org/1073/191/C0666362F.jpg,,,0104_C0666362F.jpg,Rolla M. & Alice F. Tryon,Rolla M. Tryon,Alice F. Tryon,6566,23 October 1965,1965-10-23,N/A,"Thelypteris rudis (Poir.) A.R. Smith, ined. sensu Spraguei",Thelypteris rudis (Poir.) A.R. Smith,Alan R. Smith,"1979, 1989",N/A,Peru,Ancash,N/A,N/A,"Road from Huaras to Cusma, west valley.","Road from Huaras to Cusma, west valley.",damp shaded rocks,rock,2800 m.,N/A,1833066,Typed,no type status
EMu Field Museum | Pteridophyte Portal,https://fm-digital-assets.fieldmuseum.org/1073/037/C0666207F.jpg,,,0105_C0666207F.jpg,E. P. Killip & A. C. Smith,Ellsworth P. Killip,Albert C. Smith,24714,"September 20-29, 1929",1929-09-20,1929-09-29,Thelypteris megalolepis (Schl.) C. Chr.,Thelypteris pentagona (Desv.) C.V. Morton,Alan R. Smith,1989,N/A,Peru,Loreto,N/A,Soledad,"Dept. Loreto: Soledad, on Rio Itaya; about 100 meters dense forest","Soledad, on Rio Itaya",Dense forest,Soil,N/A,N/A,1520628,Typed,No type status
EMu Field Museum | Pteridophyte Portal,https://fm-digital-assets.fieldmuseum.org/1073/036/C0666206F.jpg,,,0106_C0666206F.jpg,E. P. Killip & A. C. Smith,E. P. Killip,A. C. Smith,24747,"October 5, 1926",1926-10-05,N/A,Dryopteris pellucida (Schrk.) Urb.,Thelypteris pennata (Poir.) C. Morton,Alan R. Smith,August 1989,N/A,Peru,Loreto,N/A,Santa Antonio,"Dept. Loreto: Santa Antonio, on Rio Itaya; alt. about 100 meters; dense forest","Santa Antonio, on Rio Itaya",Dense forest,Soil,alt. about 100 meters,N/A,1526067,Typed,no type status
EMu Field Museum | Pteridophyte Portal,https://fm-digital-assets.fieldmuseum.org/1073/033/C0666203F.jpg,,,0107_C0666203F.jpg,Macbride & Featherstone,Macbride,Featherstone,1622,"July 8-12, 1922",1922-07-08,1922-07-12,Dryopteris Peruviana (Hk.) C.Chr.,Thelypteris pavoniana (Kl.) Tryon,Alan R. Smith,1979,N/A,Peru,N/A,N/A,N/A,Summit of ridge of the pass.,[precise locality unknown],about 9000 ft shrub formation,soil,about 9000 ft,N/A,518129,Typed,no type status
EMu Field Museum | Pteridophyte Portal,https://fm-digital-assets.fieldmuseum.org/1073/032/C0666202F.jpg,,,0108_C0666202F.jpg,J. J. Wurdack,J. J. Wurdack,N/A,705,June 1962,1962-06-00,1962-06-00,Thelypteris (Thelypteris) pavoniana (Klotzsch) det. D. B. Lellinger 1966,Thelypteris pavoniana (Klotzsch) Tryon,Alan R. Smith,"1979, 1989",N/A,Peru,Amazonas,Chachapoyas,N/A,"Upper slopes of Puma-urcu east-southeast of Chachapoyas, elev. 2700-3000 m.",Upper slopes of Puma-urcu east-southeast of Chachapoyas,On banks,soil,2700-3000 m.,N/A,1647265,Typed,no type status
EMu Field Museum | Pteridophyte Portal,https://fm-digital-assets.fieldmuseum.org/1072/942/C0666112F.jpg,,,0109_C0666112F.jpg,G. Tessmann,G. Tessmann,N/A,5202,"Aug. 13, 1956",1956-08-13,N/A,Thelypteris opulenta (Kaulf.) Fosberg,Thelypteris opulenta (Kaulf.) Fosberg,Alan R. Smith,"1979, 1990",N/A,Peru,Loreto,Maynas,N/A,"Rio Itaya, 10 km. S. of Iquitos. In old banana planting.","Rio Itaya, 10 kilometers south of Iquitos, in old banana planting","Fern juice leaf, sterile pinnae, fertile pinnae.",N/A,N/A,N/A,1587072,Typed,no type status
EMu Field Museum | Pteridophyte Portal,https://fm-digital-assets.fieldmuseum.org/1081/508/C0639123F.jpg,,,0110_C0639123F.jpg,"Louis O. Williams, Antonio Molina R., Terua P. Williams",Louis O. Williams,"Antonio Molina R., Terua P. Williams",23634,1-10 January 1968,1968-01-01,1968-01-10,Lycopodium clavatum L.,Lycopodium clavatum L.,"William C. Moran, D.B. Lellinger",1964,N/A,Nicaragua,Matagalpa,N/A,San María de Ostuma,"Cloud forest area, San María de Ostuma, Cordillera Central de Nicaragua, between Matagalpa & Jinotega, Department of Matagalpa","Cloud forest area, San María de Ostuma, Cordillera Central de Nicaragua",Terrestrial on open bank,soil,1300-1800 meters,N/A,1604388,Typed,no type status
EMu Field Museum | Pteridophyte Portal,https://fm-digital-assets.fieldmuseum.org/1748/926/C0675553F.jpg,,,0111_C0675553F.jpg,"John T. Atwood, Jr.",John T. Atwood,N/A,77105,"8 Feb, 1977",1977-02-08,1977-02-08,Adiantum trapeziforme L.,Adiantum sulphureum Kaulf.,R. C. Moran,2012,N/A,Nicaragua,Granada,N/A,N/A,"Volcan Mombacho, Lower cloud forest near Finca Cuirre.","Volcan Mombacho, near Finca Cuirre",Lower cloud forest,N/A,N/A,N/A,1868242,Typed,no type status
EMu Field Museum | Pteridophyte Portal,https://fm-digital-assets.fieldmuseum.org/1749/002/C0675619F.jpg,,,0112_C0675619F.jpg,George B. Hinton et al.,George B. Hinton,N/A,7644,24-31-35,1935-03-24,1935-03-31,Adiantum trapeziforme L.,Adiantum ebracteatum McCarthy & Hickey,M. McCarthy,2012,N/A,Mexico,Temascaltepec,N/A,N/A,Mina,[precise locality unknown],dry barranca,soil,N/A,N/A,954369,Typed,no type status
EMu Field Museum | Pteridophyte Portal,https://fm-digital-assets.fieldmuseum.org/1751/323/C0355438F.jpg,,,0113_C0355438F.jpg,R.A. Maas Geesteranus,R.A. Maas Geesteranus,N/A,5744,dd. 12-VIII-59,1959-08-12,1959-08-12,Asplenium sandersonii Hook.,Asplenium sandersonii Hook.,R. Faden,1976,N/A,Kenya,Nyanza Province,Kericho Distr.,N/A,"South Western Mau Forest Reserve, camp 6, lat. 0°36'30"" S., long. 35°10'20"" E.","South Western Mau Forest Reserve, camp 6","Riparian-woodland along the river Itare, among others with Conopodium holstii",soil,1920 m s.m.,"lat. 0°36'30"" S., long. 35°10'20"" E.",1445440,Typed,no type status
EMu Field Museum | Pteridophyte Portal,https://fm-digital-assets.fieldmuseum.org/1824/625/C0359489F.jpg,,,0114_C0359489F.jpg,S. López P. & E. Calderon Esteban,S. López P.,E. Calderon Esteban,N/A,19.VI.69,1969-06-19,N/A,Lophosoria quadripinnata (J.F. Gmel.) C. Chr. var quadripinnata,Lophosoria quadripinnata (J.F. Gmel.) C. Chr. var quadripinnata,M. Véliz & J.M. Véliz,22/IV/2005,N/A,Guatemala,Jalapa,N/A,Aldea San Raymundo,"Aldea San Raymundo, río de Manzanillos","Aldea San Raymundo, río de Manzanillos",Creciendo dentro de bosque de Quercus sp.,Soil,2800 msnm,"14°53' 47"" N; 90° 16' 07"" O",2298970,Typed,no type status
EMu Field Museum | Pteridophyte Portal,https://fm-digital-assets.fieldmuseum.org/1752/612/C0662895F.jpg,,,0115_C0662895F.jpg,"Chas. F. Millspaugh, W.C. Cowan",Chas. F. Millspaugh,W.C. Cowan,893,Jan. 20-Feb. 6.,1905-01-20,1905-02-06,Asplenium dentatum L.,Asplenium dentatum L.,N/A,N/A,N/A,Jamaica,N/A,N/A,Port Antonio,Port Antonio; Jan. 20-Feb. 6.,[precise locality unknown],N/A,N/A,N/A,N/A,1062a (handwritten number),Typed,no type status
EMu Field Museum | Pteridophyte Portal,https://fm-digital-assets.fieldmuseum.org/1847/286/C0363828F.jpg,,,0116_C0363828F.jpg,T. G. Yuncker,T. G. Yuncker,N/A,"No 17,429","Nov. 17, 1957",1957-11-17,1957-11-17,Lycopodium cernuum L.,Lycopodium cernuum L.,N/A,N/A,N/A,Jamaica,St. Andrew,N/A,N/A,"Scrambling over side of cut, along trail near Bellevue.",trail near Bellevue,Trail near Bellevue,Soil,Alt. 3000-4000 ft.,N/A,N/A,Typed,No type status
EMu Field Museum | Pteridophyte Portal,https://fm-digital-assets.fieldmuseum.org/1847/445/C0363985F.jpg,,,0117_C0363985F.jpg,Carvalho 2092,Carvalho,N/A,2092,25-IV-1986,1986-04-25,N/A,Lycopodiella cernua (L.) Pic. Serm.,Lycopodiella cernua (L.) Pic. Serm.,J. Fernández Casas,1991,N/A,Equatorial Guinea,Bioko,Basile,Malabo,"Malabo - Basile, km 13, cerca de Basile, 32NMK7780, 390 m, márgenes de la carretera","Malabo - Basile, km 13, near Basile",márgenes de la carretera,N/A,390 m,32NMK7780,N/A,Typed,no type status
EMu Field Museum | Pteridophyte Portal,https://fm-digital-assets.fieldmuseum.org/1847/568/C0363442F.jpg,,,0118_C0363442F.jpg,Henk van der Werff 11699,Henk van der Werff,N/A,11699,12 June 1990,1990-06-12,N/A,Diplazium assimile (C. Presl) Bedd.,Diplazium assimile (C. Presl) Bedd.,Henk van der Werff,1991 (MO),N/A,Australia,Queensland,N/A,N/A,"Boonjee logging area, at base of Mt. Bartle Frere. Rainforest.","Boonjee logging area, at base of Mount Bartle Frere",Rainforest,soil,N/A,145°43'E 17°25'S,N/A,Typed,no type status
EMu Field Museum | Pteridophyte Portal,https://fm-digital-assets.fieldmuseum.org/2128/136/C0378283F.jpg,,,0119_C0378283F.jpg,M. Togawa & K. Iwatsuki,M. Togawa,K. Iwatsuki,11550,"July 28, 1956",1956-07-28,N/A,Diplazium umbilicatum (Tag.) Tog.,Diplazium umbilicatum (Tag.) Tog.,N/A,N/A,N/A,Japan,Kyushu,Kagoshima,N/A,"Kyushu. Pref. Kagoshima: western slope of Mt. Koyachi, south of Kanoya City.","western slope of Mt. Koyachi, south of Kanoya City",Wet rocky slope in densely wooded ravine,N/A,N/A,N/A,1475055,Typed,no type status
EMu Field Museum | Pteridophyte Portal,https://fm-digital-assets.fieldmuseum.org/1862/027/C0364726F.jpg,,,0120_C0364726F.jpg,W. Takeuchi & J. Wiakabu,W. Takeuchi,J. Wiakabu,9366,"February 5, 1994",1994-02-05,N/A,Blechnum ledermannii Brause,Blechnum ledermannii Brause,N/A,N/A,N/A,Papua New Guinea,New Ireland,N/A,N/A,"On expedition road; Hans Meyer Range, Site 4 in the expedition report.","Hans Meyer Range, Site 4","Hygrophytic upland forest dominated by bryophyte, and fern growth",soil,c. 1800 m,4°25' S x 152°36' E,026-0268-A,Typed,no type status
EMu Field Museum | Pteridophyte Portal,https://fm-digital-assets.fieldmuseum.org/1864/937/C0366013F.jpg,,,0121_C0366013F.jpg,Tagawa & Iwatsuki 886,Tagawa,Iwatsuki,886,"May 20, 1956",1956-05-20,N/A,Dryopteris crassirhizoma Nakai,Dryopteris crassirhizoma Nakai,N/A,N/A,N/A,Japan,N/A,N/A,N/A,N/A,[precise locality unknown],N/A,N/A,N/A,N/A,N/A,Typed,no type status
EMu Field Museum | Pteridophyte Portal,https://fm-digital-assets.fieldmuseum.org/1863/394/C0366453F.jpg,,,0122_C0366453F.jpg,Coll. J. Ohwi,J. Ohwi,N/A,N/A,April 1951,1951-04-00,1951-04-00,Polystichum tripteron Presl,Polystichum tripteron Presl,N/A,N/A,N/A,Japan,Honshu,N/A,Jumoji in Sagami,Honcu: Jumoji in Sagami,Honcu: Jumoji in Sagami,N/A,N/A,N/A,N/A,1464206,Typed,no type status
EMu Field Museum | Pteridophyte Portal,https://fm-digital-assets.fieldmuseum.org/1862/882/C0364207F.jpg,,,0123_C0364207F.jpg,Father M. Vanoverbergh,Father M. Vanoverbergh,N/A,3591,April 13,"[Unsure about the year, use ""YYYY-04-13""]","[Unsure about the year, use ""YYYY-04-13""]",Asplenium uncinatum Kaulf.,Asplenium uncinatum Kaulf.,N/A,N/A,N/A,Philippines,Bontoc Subprovince,N/A,N/A,"Bontoc Subprovince, Luzon.","Bontoc Subprovince, Luzon.",[precise habitat unknown],[precise substrate unknown],N/A,N/A,393429,Typed,no type status
EMu Field Museum | Pteridophyte Portal,https://fm-digital-assets.fieldmuseum.org/1897/625/C0376117F.jpg,,,0124_C0376117F.jpg,R. B. & A. F. Faden,R. B. Faden,A. F. Faden,77/53,5 Jan. 1977,1977-01-05,N/A,Pyrossia lanceolata (L.) Farw.,Pyrossia lanceolata (L.) Farw.,D. B. Lellinger,N/A,N/A,Ceylon,N/A,N/A,N/A,"North Western Province, Kurunegala District, Dolukanda Hill, ca. 7'37"", 80°24'30""E.",Dolukanda Hill,Forest,N/A,Alt. 600 m,"ca. 7'37"", 80°24'30""E.",2014294,Typed,no type status
EMu Field Museum | Pteridophyte Portal,https://fm-digital-assets.fieldmuseum.org/1904/108/C0377881F.jpg,,,0125_C0377881F.jpg,"Albert N. Steward & C. Y. Chiao, collected by C. I. Chao",Albert N. Steward,"C. Y. Chiao, C. I. Chao",3444,"Sept, 6, 1931",1931-09-06,N/A,Dryopteris squamifolia (Brause) C. Chr.,Thelypteris squamigera (Coll. ex Hand.-Mazz.) Ching,N/A,N/A,N/A,China,Kweichow Province,N/A,N/A,"Mont Hwang Tze Tung to Ho Yen Shan, Via Lung Tsao","Mont Hwang Tze Tung to Ho Yen Shan, Via Lung Tsao","Moist brushy slopes, soil black",soil,alt. 880 m,N/A,779919,Typed,no type status
EMu Field Museum | Pteridophyte Portal,https://fm-digital-assets.fieldmuseum.org/1909/756/C0382365F.jpg,,,0126_C0382365F.jpg,J.F. Barcelona,J.f. Barcelona,N/A,48,Nov.-1989,1989-11-00,1989-11-00,Selaginella philippina Spring,Selaginella philippina,Julie F. Barcelona,Nov.-1989,N/A,Philippines,Visayas,N/A,Antique,Mt. Madja-as,Mt. Madja-as,"Egwa, shaded & moist areas",soil,N/A,N/A,PNH No. 19235,Mix of Handwritten and Typed,no type status
EMu Field Museum | Pteridophyte Portal,https://fm-digital-assets.fieldmuseum.org/1896/920/C0368029F.jpg,,,0127_C0368029F.jpg,L. & A. Fay,L. Fay,A. Fay,1206,11 Apr 1985,1985-04-11,N/A,Drynaria laurentii (Christ.) Hieron.,Drynaria laurentii (Christ.) Hieron.,N/A,N/A,N/A,Liberia,N/A,N/A,N/A,"Cuttington University College. On tree trunk about 10' from ground; common in groves of rubber trees, on trunks.",Cuttington University College,"On tree trunk about 10 feet from ground; common in groves of rubber trees, on trunks",bark,Alt. 250 m.,N/A,2111378,Typed,no type status
EMu Field Museum | Pteridophyte Portal,https://fm-digital-assets.fieldmuseum.org/1990/120/C0356535F.jpg,,,0128_C0356535F.jpg,H. St. John,H. St. John,N/A,16662,"Aug. 26, 1934",1934-08-26,1934-08-26,Hymenophyllum reinwardtii,Hymenophyllum reinwardtii,E.B. Copeland,N/A,N/A,Austral Islands,Raivavae,N/A,N/A,"Northwest slope of Teavaroa, Teti'aroa woods",Northwest slope of Teavaroa,"On mossy tree limb, epiphytic",bark,altitude 350 meters,N/A,1435764,Typed,no type status
EMu Field Museum | Pteridophyte Portal,https://fm-digital-assets.fieldmuseum.org/1995/841/C0383576F.jpg,,,0129_C0383576F.jpg,T. G. Yuncker,T. G. Yuncker,N/A,"18,561","Mar. 30, 1958",1958-03-30,1958-03-30,Selaginella plana (Divers) Hieron.,Selaginella plana (Divers) Hieron.,N/A,N/A,N/A,Jamaica,Portland,N/A,N/A,"On wet embankment along trail, rain forest, John Crow Mts., 1.5-2 miles southwest of Ecclesdown.","On wet embankment along trail, John Crow Mountains, 1.5-2 miles southwest of Ecclesdown",rain forest,soil,Alt. 1500-2500 ft.,N/A,1481955,Typed,no type status
EMu Field Museum | Pteridophyte Portal,https://fm-digital-assets.fieldmuseum.org/1982/572/C0383180F.jpg,,,0130_C0383180F.jpg,Salita alla Boschetta presso Sospello in Valdesia 1871. A. Castelli,A. Castelli,N/A,N/A,1871,1871-00-00,1871-00-00,Lycopodium complanatum L.,Lycopodium complanatum L.,Joan H. Wicke,1962,N/A,Italy,N/A,N/A,N/A,Salita alla Boschetta presso Sospello in Valdesia,Salita alla Boschetta near Sospello in Valdesia,N/A,N/A,N/A,N/A,823402,Typed,no type status
EMu Field Museum | Pteridophyte Portal,https://fm-digital-assets.fieldmuseum.org/1991/498/C0358423F.jpg,,,0131_C0358423F.jpg,G.J. Chamberlain,G.J. Chamberlain,N/A,N/A,"Oct. 15, 1911",1911-10-15,1911-10-15,Trichomanes reniforme,Trichomanes reniforme,N/A,N/A,N/A,New Zealand,N/A,N/A,Ohakune,Ohakune,Ohakune,N/A,N/A,N/A,N/A,1407795,Typed,no type status
EMu Field Museum | Pteridophyte Portal,https://fm-digital-assets.fieldmuseum.org/2116/918/C0662992F.jpg,,,0132_C0662992F.jpg,"R. L. Dunn, H. A. Hespenheide, D. R. Wiseman",R. L. Dunn,"H. A. Hespenheide, D. R. Wiseman",18105,2 August 1964,1964-08-02,N/A,Cnemidaria grandifolia (Willd.) Proctor var. grandifolia.,Cnemidaria grandifolia (Willd.) Proctor var. grandifolia,Robert G. Stolze,1971,N/A,"Dominica, West Indies",Saint Paul,N/A,N/A,Disturbed rainforest in the upper Layou Valley about 2 miles from Clarke Hall towards Pont Cassé.,"Upper Layou Valley, 2 miles from Clarke Hall towards Pont Cassé.",Disturbed rainforest,N/A,N/A,N/A,1670026,Typed,no type status
EMu Field Museum | Pteridophyte Portal,https://fm-digital-assets.fieldmuseum.org/2128/029/C0377971F.jpg,,,0133_C0377971F.jpg,R.B. A.J.Garden,R.B.,A.J.Garden,N/A,2 Jan 1977,1977-01-02,N/A,Trichoneura weissii Stendel.,Thelypteris,N/A,N/A,N/A,Ceylon,Central Province,Nuwara Eliya District,N/A,"between mile posts 45/3 and 45/4 on Nuwara Eliya-Kandy road, 6°59'50"" 80°45'E.",between mile posts 45/3 and 45/4 on Nuwara Eliya-Kandy road,Shady moist bank near stream,soil,ca. 1950 m,"6°59'50"" 80°45'E",N° 2089703,Typed,no type status
EMu Field Museum | Mycology Collections Portal,https://fm-digital-assets.fieldmuseum.org/2161/729/C0272257F.jpg,,,0134_C0272257F.jpg,leg. H. et P. Sydow,H. Sydow,P. Sydow,67,14. 8. 1903,1903-08-14,1903-08-14,"Entyloma crastophilum Sacc. Michelia I, p. 540; Sacc. Syll. VII, p. 491",Entyloma crastophilum Sacc.,N/A,N/A,N/A,Germany,Sachsen,N/A,Zwiesel bei Schmilka,"am ""Grossen Winterberge“ Zwiesel bei Schmilka","Grossen Winterberge, Zwiesel bei Schmilka",Auf Blättern von Holcus lanatus,leaves,N/A,N/A,C0272257F,Typed,no type status
EMu Field Museum | Mycology Collections Portal,https://fm-digital-assets.fieldmuseum.org/2161/795/C0272323F.jpg,,,0135_C0272323F.jpg,"O. Mattirolo, comm. G. Lagerheim",O. Mattirolo,G. Lagerheim,876,27/9 1895,1895-09-27,N/A,Neovossia Moliniae (Thüm.) Körn.,Neovossia Moliniae (Thüm.) Körn.,N/A,N/A,Moliniae coeruleae,Italia,Como,N/A,Rodero,"Rodero, prov. Como in ovarii Moliniae coeruleae",ovarii Moliniae coeruleae,N/A,N/A,N/A,N/A,C0272323F,Typed,no type status
EMu Field Museum | Mycology Collections Portal,https://fm-digital-assets.fieldmuseum.org/2161/800/C0272329F.jpg,,,0136_C0272329F.jpg,"Richard W. Pohl, Gerrit Davidse",Richard W. Pohl,Gerrit Davidse,11146,25 September 1968,1968-09-25,N/A,Oplismenus setarius (Lam.) Roem. & Schult.,Oplismenus setarius (Lam.) Roem. & Schult.,N/A,N/A,N/A,Costa Rica,Puntarenas,N/A,N/A,5 KM NW of the Carretera Interamericana in Boruca area,5 kilometers northwest of the Carretera Interamericana in Boruca area,Carpeting the ground at the margin of forest and savanna,soil,elev. 450 m.,N/A,C0272329F,Typed,no type status
EMu Field Museum | Mycology Collections Portal,https://fm-digital-assets.fieldmuseum.org/2161/871/C0272400F.jpg,,,0137_C0272400F.jpg,E. W. D. Holway,E. W. D. Holway,N/A,1789,"Aug. 8, 1901.",1901-08-08,N/A,"Tuburcinia Clintoniae, Kom. 1899: Fungi Rossiae, p. 260. On Streptopus rosens.",Tuburcinia Clintoniae,N/A,N/A,Streptopus rosens,Canada,British Columbia,N/A,N/A,"Glacier, Brit. Columbia,",Glacier,N/A,N/A,N/A,N/A,The Field Museum (F) C0272400F,Typed,no type status
EMu Field Museum | Mycology Collections Portal,https://fm-digital-assets.fieldmuseum.org/2161/875/C0272404F.jpg,,,0138_C0272404F.jpg,leg. F. Bubak,F. Bubak,N/A,3239,Majo,0000-05-00,N/A,Tuburcinia anemones (Pers.) Liro,Tuburcinia anemones (Pers.) Liro,N/A,N/A,Anemones nemorosae,Bohemia,N/A,N/A,Poděbrad,"ad folia viva Anemones nemorosae ad Poděbrad, m. Majo.",ad folia viva Anemones nemorosae ad Poděbrad,N/A,leaves,N/A,N/A,C0272404F,Typed,no type status
EMu Field Museum | Mycology Collections Portal,https://fm-digital-assets.fieldmuseum.org/2184/981/C0272225F_%201.jpg,,,0139_C0272225F_%201.jpg,Harold E. Parks and Joseph P. Tracy,Harold E. Parks,Joseph P. Tracy,13207,"June 3, 1934",1934-06-03,N/A,Parasitic Fungi - Exobasidium Vaccinii (Fuckl.) Wor.,Exobasidium Vaccinii (Fuckl.) Wor.,N/A,N/A,Vaccinium ovatum Pursh,United States,California,Humboldt County,Trinidad,Trinidad.,Trinidad,N/A,N/A,N/A,N/A,C0272225F,Typed,no type status
EMu Field Museum | Mycology Collections Portal,https://fm-digital-assets.fieldmuseum.org/2184/989/C0272229F_%201.jpg,,,0140_C0272229F_%201.jpg,Lee Bonar,Lee Bonar,N/A,890,21 August 1954,1954-08-21,1954-08-21,Exobasidium Vaccinii (Fckl.) Wor. On Arctostaphylos patula Greene.,Exobasidium Vaccinii (Fckl.) Wor.,N/A,N/A,Arctostaphylos patula,United States,California,Shasta County,N/A,"Manzanita Lake, Lassen National Park, Shasta County.","Manzanita Lake, Lassen National Park",N/A,N/A,N/A,N/A,C0272229F,Typed,no type status
EMu Field Museum | Mycology Collections Portal,https://fm-digital-assets.fieldmuseum.org/2184/966/C0272218F_%201.jpg,,,0141_C0272218F_%201.jpg,H. E. Parks and J. P. Tracy,H. E. Parks,J. P. Tracy,238,"Sept. 15, 1930",1930-09-15,N/A,"Exobasidium Vaccinii (Fckl.) Wor. Host, Arbutus Menziesii Pursh.",Exobasidium Vaccinii (Fckl.) Wor.,N/A,N/A,Arbutus Menziesii Pursh.,United States,California,Humboldt County,N/A,"Kneeland, Bald Hills, Humboldt County","Kneeland, Bald Hills",Seriously affecting the young shoots.,N/A,N/A,N/A,C0272218F,Typed,no type status
EMu Field Museum | Mycology Collections Portal,https://fm-digital-assets.fieldmuseum.org/326/926/C0003693F.jpg,,,0142_C0003693F.jpg,H.K.,H.k.,N/A,68/641,5.VIII.1968,1968-08-05,1968-08-05,Crucibulum parvum H.K. 1971 (Typus),Crucibulum parvum H.K. 1971,N/A,N/A,"Cyathea dealbata, Cyathea smithii, Phyllocladus, Podocarpus etc.",New Zealand,N/A,N/A,N/A,"Kuaotunu Valley, Coromandel Peninsula, N.Z.","Kuaotunu Valley, Coromandel Peninsula",In humus unter Cyathea dealbata,humus,N/A,N/A,1017207,Typed,Typus
EMu Field Museum | Mycology Collections Portal,https://fm-digital-assets.fieldmuseum.org/407/128/C0004429F.jpg,,,0143_C0004429F.jpg,Singer,Singer,N/A,B 7463,14 V 1973,1973-05-14,1973-05-14,HYDROCYBE DIMORPHOBASIDIATA Sing. Ad terram in hylaea,HYDROCYBE DIMORPHOBASIDIATA Sing.,N/A,N/A,N/A,Ecuador,Napo,N/A,Lago Agrio,"Napo, Lago Agrio",Lago Agrio,N/A,soil,N/A,N/A,1017827,Typed,TYPE
EMu Field Museum | Mycology Collections Portal,https://fm-digital-assets.fieldmuseum.org/407/130/C0004430F.jpg,,,0144_C0004430F.jpg,Singer M0517,Singer,N/A,M0517,23 II 1988,1988-02-23,N/A,"Hygrocybe fuegiana Sing (= H. rosea, sensu Horak)",Hygrocybe fuegiana Sing,N/A,N/A,"Sphagnum sp., Rubus geoides",Argentina,Tierra del Fuego,Departamento Ushuaia,N/A,"ya. road Ushuaia-Lago Fagnano, SW of highest point","road Ushuaia-Lago Fagnano, southwest of highest point",Gregarious in bog margin,soil,N/A,N/A,F1075922,Typed,Holotype
EMu Field Museum | Mycology Collections Portal,https://fm-digital-assets.fieldmuseum.org/1964/931/C0209265F_3143.jpg,,,0145_C0209265F_3143.jpg,P. Ponce de Leon,P. Ponce de Leon,N/A,296,"September 21, 1978",1978-09-21,1978-09-21,Amanita,Amanita,N/A,N/A,N/A,United States of America,Alaska,N/A,N/A,"At or above timberline, windswept slopes of mountains about 20-30 miles north of Mt. McKinley, with mosses, lichens, Vaccinium spp. and other Ericads.","At or above timberline, windswept slopes of mountains about 20-30 miles north of Mt. McKinley","windswept slopes of mountains with mosses, lichens, Vaccinium spp. and other Ericads",soil,N/A,N/A,C0209265F,Typed,no type status
EMu Field Museum | Mycology Collections Portal,https://fm-digital-assets.fieldmuseum.org/1971/149/C0225578F_7209.jpg,,,0146_C0225578F_7209.jpg,P. Ponce de Leon,P. Ponce de Leon,N/A,303,"September 21, 1978",1978-09-21,1978-09-21,Lycoperdon,Lycoperdon,N/A,N/A,"mosses, lichens, Vaccinium spp., and other Ericads",Alaska,N/A,N/A,N/A,"At or above timberline, windswept slopes of mountains 20-30 miles north of Mt. McKinley","At or above timberline, windswept slopes of mountains 20-30 miles north of Mount McKinley",windswept slopes above timberline,soil,N/A,N/A,C0225578F,Typed,no type status
EMu Field Museum | Mycology Collections Portal,https://fm-digital-assets.fieldmuseum.org/1971/878/C0227005F_7903.jpg,,,0147_C0227005F_7903.jpg,P. Ponce de Leon,P. Ponce de Leon,N/A,267,"September 20, 1978",1978-09-20,1978-09-20,(Agaricaceae) Cap and stem light brown to beige; gills dark brown scales on cap and stem dark brown.,N/A,N/A,N/A,"Albies, Prunus, Betula, Alnus",USA,Alaska,N/A,N/A,"Boggy area south of Yukon, just below the Chatanika River, about 25 miles north of Fairbanks, Alaska. In hummocks composed of grasses, lichens, mosses and Ericads, under Albies, Prunus, Betula and Alnus species.","Boggy area south of Yukon, just below the Chatanika River, about 25 miles north of Fairbanks",In disturbed opening in boggy forest. In hummocks.,soil,N/A,N/A,F1075800,Typed,no type status
EMu Field Museum | Mycology Collections Portal,https://fm-digital-assets.fieldmuseum.org/1976/741/C0237407F_12659.jpg,,,0148_C0237407F_12659.jpg,"Leg. Chr. King, det. Singer",Chr. King,N/A,F1089917,1988,1988-00-00,1988-00-00,Psilocybe muliercula Sing. & Smith,Psilocybe muliercula Sing. & Smith,Singer,N/A,N/A,New Zealand,South Island,N/A,N/A,N/A,[precise locality unknown],N/A,N/A,N/A,N/A,C0237407F,Typed,no type status
EMu Field Museum | Mycology Collections Portal,https://fm-digital-assets.fieldmuseum.org/2164/750/C0275073F.jpg,,,0149_C0275073F.jpg,PAUL C. STANDLEY,Paul C. Standley,N/A,82917,"Jan. 9, 1941",1941-01-09,1941-01-09,Phoradendron vitis (Him.) Syle,Phoradendron vitis (Him.) Syle,Arthur,N/A,On Vitis tiliifolia H. & B.,Guatemala,Huehuetenango,N/A,San Rafael Petzal,"Near crossing of Río San Juan Ixtán, east of San Rafael Petzal, alt. about 1730 m.","Near crossing of Río San Juan Ixtán, east of San Rafael Petzal",N/A,N/A,alt. about 1730 m.,N/A,C0275073F,Typed,no type status
EMu Field Museum | Mycology Collections Portal,https://fm-digital-assets.fieldmuseum.org/2164/765/C0275088F.jpg,,,0150_C0275088F.jpg,PAUL C. STANDLEY,Paul C. Standley,N/A,86140,"Feb. 5, 1941",1941-02-05,1941-02-05,Maimia rubi (Scheid. & Holw.) Jacks. On Rubus eriocarpus Liebm.,Maimia rubi (Scheid. & Holw.) Jacks.,George B. Cummins,N/A,Rubus eriocarpus Liebm.,Guatemala,Quezaltenango,N/A,N/A,"Oak-pine forest, above Los Vahos, Cerro Quemado","Oak-pine forest, above Los Vahos, Cerro Quemado",Oak-pine forest,N/A,alt. 2900–3000 m.,N/A,C0275088F,Mix of Handwritten and Typed,no type status
EMu Field Museum | Mycology Collections Portal,https://fm-digital-assets.fieldmuseum.org/2182/433/C0291873F.jpg,,,0151_C0291873F.jpg,E. W. D. Holway,E. W. D. Holway,N/A,27,"Jan. 27, 1915",1915-01-27,1915-01-27,Ravenelia appendiculata Lagerh. & Diet. on Phyllanthus sp.,Ravenelia appendiculata Lagerh. & Diet.,E.B. Mains,N/A,Phyllanthus sp.,Guatemala,Solola,N/A,N/A,"Solola, Guatemala",Solola,N/A,N/A,N/A,N/A,C0291873F,Typed,no type status
EMu Field Museum | Mycology Collections Portal,https://fm-digital-assets.fieldmuseum.org/2161/057/C0264367F.jpg,,,0152_C0264367F.jpg,W.G. Bramley,W.g. Bramley,N/A,N/A,N/A,N/A,N/A,Nectria cinnabarina (Tode ex Fr.) Fr. with Tubercularia vulgaris,Nectria cinnabarina,T. Petch,10 Jan. 1938,Tubercularia vulgaris,N/A,Yorkshire,N/A,Bolton Percy,"On Crataegus, Bolton Percy, Yorkshire.",Bolton Percy,N/A,bark (assumed because the specimen is mentioned to be on Crataegus and this is a common substrate for the mentioned taxa),N/A,N/A,C0264367F,Typed,no type status
EMu Field Museum | Lichen Portal,https://fm-digital-assets.fieldmuseum.org/2117/165/C0095081F.jpg,,,0153_C0095081F.jpg,H. Imshaug & K. Ohlsson,H. Imshaug,K. Ohlsson,49793,9 October 1971,1971-10-09,N/A,Xanthoparmelia mougeotii (Schaer.) Hale,Xanthoparmelia mougeotii (Schaer.) Hale,N/A,N/A,N/A,Chile,Magallanes,N/A,N/A,Scattered Anthobryum and Berberis on low hill near Primera Angostura,low hill near Primera Angostura,N/A,N/A,N/A,"52° 27' S., 69° 36' W.",N/A,Typed,no type status
EMu Field Museum | Lichen Portal,https://fm-digital-assets.fieldmuseum.org/2117/199/C0095120F.jpg,,,0154_C0095120F.jpg,W. L. Culberson & R. Ornduff,W. L. Culberson,R. Ornduff,22943,"September 3, 1998",1998-09-03,N/A,"Xanthoria parietina (L.) Th.Fr. in N. Acta Reg. Soc. Sc. Upsal., ser. 3,3:67. 1861.",Xanthoria parietina (L.) Th.Fr.,W. L. Culberson,N/A,Zyophyllum sp.,South Africa,Western Cape,N/A,N/A,"15 km SE of Oudtshoorn, on the road above Blossoms.","15 kilometers Southeast of Oudtshoorn, on the road above Blossoms",On twigs of Zyophyllum sp.,twigs,N/A,N/A,N/A,Typed,no type status
EMu Field Museum | Lichen Portal,https://fm-digital-assets.fieldmuseum.org/2116/097/C0090513F.jpg,,,0155_C0090513F.jpg,HENRY A. IMSHAUG & FREDERICK H. IMSHAUG,Henry A. Imshaug,Frederick H. Imshaug,31340,21 September 1963,1963-09-21,1963-09-21,Bamblyiospora chloritis (Nyl.) Zahlbr.,Bamblyiospora chloritis (Nyl.) Zahlbr.,N/A,N/A,N/A,Tobago,N/A,N/A,N/A,"Scattered cultivations in clearings of rain forest, ca. 1200 ft., Main Ridge along ""Mt. St. George - Castara Track"" (near Castara)","Main Ridge along ""Mt. St. George - Castara Track"" (near Castara)",Scattered cultivations in clearings of rain forest,N/A,ca. 1200 ft.,N/A,N/A,Typed,no type status
EMu Field Museum | Lichen Portal,https://fm-digital-assets.fieldmuseum.org/2115/765/C0053622F.jpg,,,0156_C0053622F.jpg,Edward M. Wheeler,Edward M. Wheeler,N/A,3901,7 Jan 1989,1989-01-07,N/A,Buellia bahiana Malme on Ilex glabra,Hafellia bahiana (Malme) Sheard,R. J. Salm,20 August 2015,Ilex glabra,United States,Florida,Polk County,N/A,"POLK COUNTY: Tiger Creek Preserve, just to right of Wakeford Road Entrance.","Tiger Creek Preserve, just to right of Wakeford Road Entrance",N/A,bark,N/A,N/A,Lumbsch-3901,Typed,no type status
EMu Field Museum | Lichen Portal,https://fm-digital-assets.fieldmuseum.org/2541/682/C0052970F.jpg,,,0157_C0052970F.jpg,Shirley Tucker,Shirley Tucker,N/A,16863,"March 17, 1977",1977-03-17,N/A,Buellia punctata (Hoffm.) Mass.,Amandinea punctata (Hoffm.) Coppins & Scheid.,R.J. Salm,3 July 2019,Taxodium,United States,Louisiana,St. Tammany Parish,N/A,"Fontainebleau State Park, north shore of Lake Pontchartrain","Fontainebleau State Park, north shore of Lake Pontchartrain",Common on Taxodium,bark,N/A,"30°20'N, 90°03'W",10461,Typed,no type status
EMu Field Museum | Lichen Portal,https://fm-digital-assets.fieldmuseum.org/2541/820/C0090117F.jpg,,,0158_C0090117F.jpg,H. T. Lumbsch,H. T. Lumbsch,N/A,10566 b,14.7.1994,1994-07-14,N/A,Acarospora,Acarospora,N/A,N/A,N/A,USA,Arizona,Gila Co.,N/A,"San Carlos Lake, E exposed slopes above dam, just N of Coolidge","San Carlos Lake, east exposed slopes above dam, just north of Coolidge",On siliceous rocks,rock,N/A,"33°11'N, 110°32'W",Nr. 10566 b,Typed,no type status
EMu Field Museum | Lichen Portal,https://fm-digital-assets.fieldmuseum.org/2541/841/C0090150F.jpg,,,0159_C0090150F.jpg,"N. Hladun, H. T. Lumbsch & A. Henssen",N. Hladun,H. T. Lumbsch & A. Henssen,Nr. 925d,1983/05/24,1983-05-24,1983-05-24,Acarospora,Acarospora,N/A,N/A,N/A,Spanien,Catalunya,Prov. Gerona,Les Torruelles,"bei Torroella de Fluvià, auf Grauwacke in Kalkfels","Les Torruelles, near Torroella de Fluvià, on greywacke in limestone rock",N/A,rock,N/A,N/A,N/A,Typed,no type status
EMu Field Museum | Lichen Portal,https://fm-digital-assets.fieldmuseum.org/2116/101/C0090526F.jpg,,,0160_C0090526F.jpg,leg. H.T. Lumbsch,H.T. Lumbsch,N/A,8890,10.5.1983,1983-05-10,N/A,Bellemerea,Bellemerea,N/A,N/A,N/A,Italien,Südtirol,N/A,N/A,"Vinschgau, Gomagoi, E des Ortes. An Silikatgestein.","Vinschgau, Gomagoi, east of the place",N/A,rock,N/A,N/A,N/A,Typed,no type status
EMu Field Museum | Lichen Portal,https://fm-digital-assets.fieldmuseum.org/2116/004/C0090341F.jpg,,,0161_C0090341F.jpg,"leg. T. Feuerer, H. Hertel & H. Kilias",T. Feuerer,H. Hertel & H. Kilias,282,12.X.1977,1977-10-12,1977-10-12,Buellia schaereri DNOT.,Buellia schaereri,N/A,N/A,N/A,Italien,Südtirol,N/A,N/A,"Dolomiten, Rosengarten-Gruppe Pur g ametsch-Tal (an der Autostraße zwischen Nigerpaß und Tiers), nahe der Abzweigung des Sträßchens ins Tscharmin-Tal bei Rungun, 1220 m.","Dolomiten, Rosengarten-Gruppe, Pur g ametsch-Tal",Lichter Lärchen-Bestand auf Almgelände. An der Stammbasis und an leicht geneigten Stämmen von Lärchen (Larix decidua) in Menge,bark,1220 m.,N/A,N/A,Typed,no type status
EMu Field Museum | Lichen Portal,https://fm-digital-assets.fieldmuseum.org/2117/162/C0095075F.jpg,,,0162_C0095075F.jpg,,,,,,,,,,,,,,,,,,,,,,,,,
EMu Field Museum | Lichen Portal,https://fm-digital-assets.fieldmuseum.org/2115/976/C0055249F.jpg,,,0163_C0055249F.jpg,H. Mietzsch,H. Mietzsch,N/A,6246,27.8.1988,1988-08-27,1988-08-27,Baeomyces fungoides Sw.,Baeomyces fungoides,N/A,N/A,N/A,Schweiz,Graubünden,Unterengadin,Zernez,"1218 Zernez, Marangun, Sursaas, TK 25","Marangun, Sursaas",Auf Erde.,soil,2150-2300 m alt.,N/A,c,Typed,no type status
EMu Field Museum | Lichen Portal,https://fm-digital-assets.fieldmuseum.org/2116/988/C0089982F.jpg,,,0164_C0089982F.jpg,H. Mietszsch,H. Mietszsch,N/A,6983,26.8.1989,1989-08-26,N/A,Xanthoparmelia somloensis (Gyelnik) Hale,Xanthoparmelia somloensis (Gyelnik) Hale,N/A,N/A,N/A,Schweiz,Graubünden,N/A,N/A,"Albulatal TK 25: 1236 Savognin, Straße von Latsch nach Stugl","Albulatal TK 25: 1236 Savognin, road from Latsch to Stugl",Loose on stone,rock,1600 m alt.,N/A,N/A,Typed,no type status
EMu Field Museum | Lichen Portal,https://fm-digital-assets.fieldmuseum.org/2117/053/C0090059F.jpg,,,0165_C0090059F.jpg,leg. Aino Henssen,Aino Henssen,N/A,21 931 a,29.8.1971,1971-08-29,1971-08-29,Xanthoria elegans (Link) Th. Fr.,Xanthoria elegans (Link) Th. Fr.,N/A,N/A,N/A,Schweiz,Graubünden,N/A,N/A,"Albula pass, 2000 m ü.M. auf Dolomit",Albula pass on Dolomite,N/A,rock,2000 m ü.M.,N/A,N/A,Typed,no type status
EMu Field Museum | Lichen Portal,https://fm-digital-assets.fieldmuseum.org/2117/224/C0095147F.jpg,,,0166_C0095147F.jpg,Leg. William L. Culberson,William L. Culberson,N/A,N/A,9.VIII.1996,1996-08-09,N/A,Xanthoria polycarpa (Ehrh.) Riebcr,"Polycauliona polycarpa (Hoffmann) Frödén, Arup & Søchting",R. J. Salm,7 July 2019,N/A,U.S.A.,Washington,Spokane County,N/A,"In urbe Spokane, loco Riverside State Park. Ad ramunculos fruticis in Pineto (Pinus ponderosa).",Riverside State Park,Ad ramunculos fruticis in Pineto (Pinus ponderosa),N/A,N/A,N/A,22403,Typed,no type status
EMu Field Museum | Lichen Portal,https://fm-digital-assets.fieldmuseum.org/2541/654/C0052862F.jpg,,,0167_C0052862F.jpg,G. Follmann (collectors maybe prefixed by leg.),G. Follmann,N/A,N/A,N/A,N/A,N/A,Abrothallus parmeliarum (Sommerf.) Arn. (anam. Vouauxiomyces cartesoni (Hawksw.) Patellariaceae,Vouauxiomyces cartesoni (Hawksw.),G. Follmann,N/A,N/A,Deutschland,Rheinland-Pfalz,N/A,N/A,"Deutschland, Rheinland-Pfalz: zerstreut in der Oberinde der Lagerlappen von Hypogymnia physodes (L.) NYL., 450 m, NW – SW, pH 6,0; Heckengürtel am Südfuß des Schwarzenheimer Kopfes zwischen Gerolstein und Prüm in der Hocheifel",Heckengürtel am Südfuß des Schwarzenheimer Kopfes zwischen Gerolstein und Prüm in der Hocheifel,N/A,"bark (from ""Oberinde der Lagerlappen"")",450 m,N/A,N/A,Typed,no type status
EMu Field Museum | Lichen Portal,https://fm-digital-assets.fieldmuseum.org/2541/662/C0052873F.jpg,,,0168_C0052873F.jpg,H.T. Lumbsch & E. Mietzsch,H.T. Lumbsch,E. Mietzsch,5135 b,24.5.1987,1987-05-24,N/A,Buellia punctata (Hoffm.) Massal.,Amandinea punctata (Hoffm.) Coppins & Scheid.,R.J. Salm,3 July 2019,N/A,BRD,Rheinland-Pfalz,Landkreis Mainz/Bingen,6013 Bingen,"TK 25: 6013 Bingen, Ockenheimer Hörnchen. An Populus.",Ockenheimer Hörnchen,N/A,N/A,N/A,N/A,N/A,Typed,no type status
EMu Field Museum | Lichen Portal,https://fm-digital-assets.fieldmuseum.org/2541/724/C0053240F.jpg,,,0169_C0053240F.jpg,N/A,N/A,N/A,MTB5608,N/A,N/A,N/A,Aspicilia caesiocinerea Nyl. ex Malbr.,"Circinaria caesiocinerea (Nyl. ex Malbr.) A. Nordin, Savic & Tibell",R. J. Salm,N/A,N/A,N/A,N/A,N/A,N/A,N/A,[precise locality unknown],N/A,N/A,N/A,N/A,8000,Mix of Handwritten and Typed,no type status
EMu Field Museum | Lichen Portal,https://fm-digital-assets.fieldmuseum.org/2541/704/C0053210F.jpg,,,0170_C0053210F.jpg,H.T. Lumbsch & E. Mietzsch,H.T. Lumbsch,E. Mietzsch,Nr. 5127 a,24.5.1987,1987-05-24,N/A,Aspicilia contorta,"Circinaria contorta (Hoffm.) A. Nordin, Savic & Tibell",R.J. Salm,3 July 2019,N/A,BRD,Rheinland-Pfalz,Landkreis Mainz-Bingen,Ingelheim am Rhein,"TK 25: 6014 Ingelheim am Rhein, Weg von Gau-Algesheim zum Ockenheimer Hörnchen. An Mörtel.","TK 25: 6014 Ingelheim am Rhein, Gau-Algesheim to Ockenheimer Hörnchen. On mortar.",N/A,mortar,N/A,N/A,N/A,Typed,no type status
EMu Field Museum | Lichen Portal,https://fm-digital-assets.fieldmuseum.org/2117/105/C0090185F.jpg,,,0171_C0090185F.jpg,"H.T. Lumbsch, E. Mietzsch & C.",H.t. Lumbsch,"E. Mietzsch, C.",7103 f,19.11.1989,1989-11-19,1989-11-19,Xanthoparmelia conspersa (Ach.) Hale,Xanthoparmelia conspersa (Ach.) Hale,N/A,N/A,N/A,Deutschland,Hessen,Stadt Wiesbaden,Dotzheim,"TK 25: 5925 Wiesbaden, Dotzheim, Felsiger Weilburger Bach.","Dotzheim, Weilburger Bach",An Silikatgestein,rock,N/A,N/A,N/A,Typed,no type status
EMu Field Museum | Lichen Portal,https://fm-digital-assets.fieldmuseum.org/2541/809/C0090105F.jpg,,,0172_C0090105F.jpg,leg. H.T. Lumbsch,H.T. Lumbsch,N/A,12159,26.08.2001,2001-08-26,N/A,Arctoparmelia centrifuga,Arctoparmelia centrifuga,N/A,N/A,N/A,Norwegen,Sogn og Fjordane,N/A,N/A,"Jotunheimen, alpine Matten an der Straße 55 zwischen Turtegrö und Hervassbu, 1400 m alt. Auf Silikatgestein.","Jotunheimen, along road 55 between Turtegrö and Hervassbu",alpine Matten,Silikatgestein,1400 m alt.,N/A,N/A,Typed,no type status
EMu Field Museum | Bryophytes Portal,https://fm-digital-assets.fieldmuseum.org/444/531/C0020034F.jpg,,,0173_C0020034F.jpg,R. M. Schuster,R. M. Schuster,N/A,68-1644,Aug. 17 68,1968-08-17,N/A,Anastrophylum minutum + gemm.,Anastrophylum minutum,R. M. Schuster,N/A,Diplophyllum taxifolium + gemmae,Newfoundland,Newfoundland,N/A,N/A,"Along Humber R., in Squires Memorial Park, near Rte 1A.","Along Humber River, in Squires Memorial Park, near Route 1A.",N/A,N/A,N/A,N/A,68-1644a,Typed,no type status
EMu Field Museum | Bryophytes Portal,https://fm-digital-assets.fieldmuseum.org/444/535/C0020052F.jpg,,,0174_C0020052F.jpg,R. M. Schuster & K. Damsholt,R. M. Schuster,K. Damsholt,82-1049,July 3.,1982-07-03,N/A,Anastrophylum minutum (SCHREB.) SCHUST. v.grandis (GOTT.) SCHUST.,Anastrophylum minutum v.grandis,R. M. Schuster,1982,Cephalozia bicuspidata (L.) DUM.,Greenland,South Greenland,N/A,Frederiksdal,"Frederiksdal 60°00'N lat., 44°40'W. long.",Frederiksdal,N/A,N/A,N/A,"60°00'N lat., 44°40'W. long.",S1,Typed,no type status
EMu Field Museum | Bryophytes Portal,https://fm-digital-assets.fieldmuseum.org/445/656/C0025138F.jpg,,,0175_C0025138F.jpg,R.M. Schuster,R.M. Schuster,N/A,9067,June 30 19 51,1951-06-30,N/A,"Frullania asagrayana Mont., male, on per. Plagiochila tridenticulata Dum. (traces)",N/A,N/A,N/A,Plagiochila tridenticulata Dum. (traces),United States of America,North Carolina,N/A,N/A,"Balsam Gap, N.C., ca. 25 mi. n. of Asheville, along Blue Ridge Parkway, 5220-5260 feet on Abies fraseri","Balsam Gap, approximately 25 miles north of Asheville, along Blue Ridge Parkway",[precise locality unknown],bark,5220-5260 feet,N/A,N/A,Typed,no type status
EMu Field Museum | Bryophytes Portal,https://fm-digital-assets.fieldmuseum.org/409/473/C0025164F.jpg,,,0176_C0025164F.jpg,R. M. Schuster,R. M. Schuster,N/A,79-488,April 14 19 79,1979-04-14,1979-04-14,Frullania asagrayana,Frullania asagrayana,N/A,N/A,N/A,United States of America,Arkansas,Stone County,N/A,"Ozark Natl. Forest. Barkshed Camp, ca. 10 mi E. of Big Flat.","Ozark National Forest. Barkshed Camp, approximately 10 miles East of Big Flat.",N/A,N/A,N/A,N/A,N/A,Typed,no type status
EMu Field Museum | Bryophytes Portal,https://fm-digital-assets.fieldmuseum.org/276/684/C0000578F.jpg,,,0177_C0000578F.jpg,"John J. Engel, Matt von Konrat & John E. Braggins",John J. Engel,"Matt von Konrat, John E. Braggins",23773,12 February 2003,2003-02-12,2003-02-12,Telaranea lindenbergii var. papillata Engel & Merr.,Telaranea lindenbergii var. papillata,Engel & Merr.,N/A,N/A,New Zealand,Auckland,N/A,N/A,"Whareorino Forest, start of track to Leitch's Hut","Whareorino Forest, start of track to Leitch's Hut","On clayey bank. Clay banks with Blechnum novae-zelandiae overhang, Weinmannia and Dicksonia squarrosa dominant canopy and occasional Leptospermum scoparium",soil,280 m,"38° 24.5' S, 174° 49.8' E",1173554,Typed,holotype
EMu Field Museum | Bryophytes Portal,https://fm-digital-assets.fieldmuseum.org/2535/382/C2079898F.jpg,,,0178_C2079898F.jpg,"Marko Lewis, no. 768-684",Marko Lewis,N/A,768-684,21-22 November 1978,1978-11-21,1978-11-22,Kindbergia praelonga (Hedw.) Ochyra,Kindbergia praelonga (Hedw.) Ochyra,V.C. Steere,N/A,N/A,Ecuador,Imbabura,N/A,N/A,"E. side of Cerro Cotacachi, N of Otavalo; 0°22'N, 78°20'W","East side of Cerro Cotacachi, North of Otavalo",Wet bank of runoff ravine,N/A,3750 m.,"0°22'N, 78°20'W",N/A,Typed,no type status
EMu Field Museum | Bryophytes Portal,https://fm-digital-assets.fieldmuseum.org/2537/873/C2077559F.jpg,,,0179_C2077559F.jpg,Marko Lewis,Marko Lewis,N/A,70-3163,8 December 1978,1978-12-08,1978-12-08,Hedwigia ciliata (Hedw.) P. Beauv.,Hedwigia ciliata (Hedw.) P. Beauv.,Efraín De Luna,1992,N/A,Ecuador,Azuay,N/A,N/A,"Area Nacional de Recreación ""Cajas"", forested hills S. of ""Surocucho"" (Laguna Llaviuco), SW of Sayausí","Area Nacional de Recreación ""Cajas"", forested hills south of ""Surocucho"", southwest of Sayausí",Stone wall.,N/A,3240 m.,N/A,1065433,Typed,no type status
EMu Field Museum | Bryophytes Portal,https://fm-digital-assets.fieldmuseum.org/2537/883/C2077563F.jpg,,,0180_C2077563F.jpg,N/A,N/A,N/A,4659,N/A,N/A,N/A,Hedwigia albicans (Web.) Lindb.,Hedwigia ciliata (Hedw.) P. Beauv.,Efrain De Luna,1992,N/A,N/A,N/A,N/A,N/A,environs de Quito,[precise locality unknown],N/A,N/A,N/A,N/A,1089453,Typed,no type status
EMu Field Museum | Bryophytes Portal,https://fm-digital-assets.fieldmuseum.org/2537/887/C2077564F.jpg,,,0181_C2077564F.jpg,Renost et M. Charlotte,Renost,M. Charlotte,27,"1930,VII,27",1930-07-27,1930-07-27,Hedwigia ciliata (Hedw.) P. Beauv.,Hedwigia ciliata (Hedw.) P. Beauv.,Efraín De Luna,1992,N/A,Ecuador,N/A,N/A,Quito,Sur rochers à tándesite. Quito.,"Sur rochers à tándesite, Quito.",Sur rochers à tándesite.,rock,N/A,N/A,HERB. CRYPT. MUS. PARIS,Mix of Handwritten and Typed,no type status
EMu Field Museum | Bryophytes Portal,https://fm-digital-assets.fieldmuseum.org/2537/891/C2077565F.jpg,,,0182_C2077565F.jpg,R. S. Williams,R. S. Williams,N/A,1850,"April 30, 1902",1902-04-30,1902-04-30,Hedwigia ciliata (Hedw.) P. Beauv.,Hedwigia ciliata (Hedw.) P. Beauv.,Erwin Del Luna,1992,N/A,Bolivia,N/A,N/A,N/A,"near Pojoquito, 3700 meters",near Pojoquito,N/A,N/A,3700 meters,N/A,1063451,Typed,no type status
EMu Field Museum | Bryophytes Portal,https://fm-digital-assets.fieldmuseum.org/2537/895/C2077566F.jpg,,,0183_C2077566F.jpg,Marko Lewis,Marko Lewis,N/A,79-1237A,22 March 1979,1979-03-22,1979-03-22,Hedwigia ciliata (Hedw.) P. Beauv.,Hedwigia ciliata (Hedw.) P. Beauv.,Erin D. Upp,1992,N/A,Bolivia,La Paz,Larecaja,Sorata,"DEPTO. LA PAZ, PROV. LARECAJA: Near large red out-crop 2 mi. from Sorata down Río Consata.",Near large red outcrop 2 miles from Sorata down Río Consata,"Bromeliad habitat, abundant on rock faces of exposed cliffs",rock,2630 m.,"15° 41' S, 68° 43' W",1032221,Typed,no type status
EMu Field Museum | Bryophytes Portal,https://fm-digital-assets.fieldmuseum.org/2537/899/C2077567F.jpg,,,0184_C2077567F.jpg,Marko Lewis,Marko Lewis,N/A,79-1232,22 March 1979,1979-03-22,N/A,Hedwigia ciliata (Hedw.) P. Beauv.,Hedwigia ciliata (Hedw.) P. Beauv.,Erwin De Luna,1982,N/A,Bolivia,La Paz,Larecaja,N/A,"DEPTO. LA PAZ, PROV. LARECAJA: Near large red out-crop 2 mi. from Sorata down Rio Consata, ""15 41' S, 68° 43' W"".",Near large red outcrop 2 miles from Sorata down Rio Consata,"Bromeliad-grass habitat on exposed cliffs, 2630 m.",N/A,2630 m.,"""15 41' S, 68° 43' W""",1032219,Typed,no type status
EMu Field Museum | Bryophytes Portal,https://fm-digital-assets.fieldmuseum.org/2537/903/C2077568F.jpg,,,0185_C2077568F.jpg,Marko Lewis,Marko Lewis,N/A,79-1114,6 March 1979,1979-03-06,1979-03-06,Hedwigia ciliata (Hedw.) P. Beauv.,Hedwigia ciliata (Hedw.) P. Beauv.,Erwin De Luna,1992,N/A,Bolivia,Depto. La Paz,Prov. Saavedra,N/A,"On mountain side directly N. of river, beneath Niko Ravine, NW of Chuma, 15º 08´ S, 69º 03´ W.","On mountain side directly north of river, beneath Niko Ravine, northwest of Chuma",Humid cliffs and steep slopes,N/A,3320 m.,"15º 08´ S, 69º 03´ W.",1032220,Typed,no type status
EMu Field Museum | Bryophytes Portal,https://fm-digital-assets.fieldmuseum.org/2537/908/C2077569F.jpg,,,0186_C2077569F.jpg,F. J. Hermann,F. J. Hermann,N/A,25152,"December 27, 1972",1972-12-27,1972-12-27,Hedwigia ciliata (Hedw.) P. Beauv.,Hedwigia ciliata (Hedw.) P. Beauv.,Erin In Lima,1982,N/A,Bolivia,Depto. de Cochabamba,N/A,N/A,"On conglomerate boulder on shrubby NW slope of Mt. Tunari, near Liriuni Aguas Termas Hotel, alt. ca. 2700 m., 28 km. NW Cochabamba","On conglomerate boulder on shrubby north-west slope of Mount Tunari, near Liriuni Aguas Termas Hotel, 28 kilometers north-west of Cochabamba",on shrubby north-west slope,boulder,alt. ca. 2700 m.,N/A,1040675,Mix of Handwritten and Typed,no type status
EMu Field Museum | Bryophytes Portal,https://fm-digital-assets.fieldmuseum.org/2537/555/C2077570F.jpg,,,0187_C2077570F.jpg,Ynes Mexia,Ynes Mexia,N/A,6804,"Dec. 2, 1931",1931-12-02,N/A,Pilotrichum subheterophyllum C.M.,Pilotrichum subheterophyllum C.M.,Bartram,N/A,N/A,Peru,Loreto,N/A,N/A,Above Pongo de Manseriche. Streamlet near mouth of Rio Santiago.,"Above Pongo de Manseriche, streamlet near mouth of Rio Santiago",N/A,On fallen log,Alt. 400 m,N/A,1057692,Typed,no type status
EMu Field Museum | Bryophytes Portal,https://fm-digital-assets.fieldmuseum.org/2537/556/C2077571F.jpg,,,0188_C2077571F.jpg,Ynes Mexia,Ynes Mexia,N/A,6804,"Dec. 2, 1931",1931-12-02,N/A,Philonotis subaduncophylla Lorez,Philonotis subaduncophylla Lorez,Bartram,N/A,N/A,Peru,Loreto,N/A,N/A,Above Pongo de Manseriche. Streamlet near mouth of Rio Santiago. On fallen logs,"Above Pongo de Manseriche, near mouth of Rio Santiago, on fallen logs",Streamlet,logs,Alt. 400 m.,N/A,N/A,Typed,no type status
EMu Field Museum | Bryophytes Portal,https://fm-digital-assets.fieldmuseum.org/2537/557/C2077572F.jpg,,,0189_C2077572F.jpg,"A.C. Smith, no. 2746",A.C. Smith,N/A,2746,"Dec. 1-5, 1937",1937-12-01,1937-12-05,Plagiochila Haraiensis,Plagiochila Haraiensis,E.B. Bartram,N/A,N/A,British Guiana,N/A,N/A,N/A,"Basin of Essequibo River, near mouth of Orocop River.","Basin of Essequibo River, near mouth of Orocop River","On decaying wood, in swamp, dense forest",decaying wood,N/A,N/A,1027351,Typed,no type status
EMu Field Museum | Bryophytes Portal,https://fm-digital-assets.fieldmuseum.org/2537/558/C2077573F.jpg,,,0190_C2077573F.jpg,J. Florischtz-de Waard & R. Zieleman,J. Florischtz-de Waard,R. Zieleman,5315,21-i-1981,1981-01-21,N/A,Pilosium chlorophyllum (Hornsch.) C. Müller,Pilosium chlorophyllum (Hornsch.) C. Müller,Rudi Zielman,5-11-1982,N/A,Suriname,Nickerie,N/A,N/A,"area of Kabalebo Dam project, distr. Nickerie, line NW from road km 39.5, p. Second saw wood","area of Kabalebo Dam project, line Northwest from road kilometer 39.5, Second saw wood",on rotting log with Cecropia (boopapaja),rotting log,ALT. 0-50 m,N/A,1075252,Typed,no type status
EMu Field Museum | Bryophytes Portal,https://fm-digital-assets.fieldmuseum.org/2537/559/C2077574F.jpg,,,0191_C2077574F.jpg,J. Fluorschütz-de Waard & R. Zijlman,J. Fluorschütz-de Waard,R. Zijlman,5254,d.d. 3-11-1981,1981-11-03,1981-11-03,Pilotrichum chlorophyllum (Mont.) C. Müll.,Pilotrichum chlorophyllum (Mont.) C. Müll.,Zijlman,N/A,N/A,Suriname,N/A,N/A,N/A,"area of Kabalebo Dam project, along Nickerie Line NW from road km 39,5, Pc. 51 SW 9M, SW, Savanna forest, on rotting log.","area of Kabalebo Dam project, along Nickerie Line Northwest from road kilometer 39.5, Point Circle 51 Southwest 9M, Southwest","Savanna forest, on rotting log",log,Alt.: 0 - 50 m.,N/A,1073529,Typed,no type status
EMu Field Museum | Bryophytes Portal,https://fm-digital-assets.fieldmuseum.org/2537/560/C2077575F.jpg,,,0192_C2077575F.jpg,J. F. Ploegarts-de Waard & R. Zieckelman,J. F. Ploegarts-de Waard,R. Zieckelman,5098,3-10-1981,1981-10-03,N/A,Pilotrichum chlorophyllum (Hornsch.) Mitt.,Pilotrichum chlorophyllum (Hornsch.) Mitt.,R. Zieckelman,3-10-1981,N/A,Surinam,Nickerie,N/A,N/A,"Aves of Kabalebo Dam Project, distr. Nickerie, line W from road 34 km, P. 55°W en 925, Rainforest, on rotting logs","Aves of Kabalebo Dam Project, line West from road 34 kilometers","Rainforest, on rotting logs",wood,0 - 50 m.,N/A,1073528,Typed,no type status
EMu Field Museum | Bryophytes Portal,https://fm-digital-assets.fieldmuseum.org/2537/561/C2077576F.jpg,,,0193_C2077576F.jpg,"J.C. Lindeman, A.A. Pulle, G.M. van Iterson Jr., J.J. Winkelman",J.C. Lindeman,"A.A. Pulle, G.M. van Iterson Jr., J.J. Winkelman",243 A,d.d. 3–7–IX–1980,1980-09-03,1980-09-07,Philodendron chlorophyllum (Hemsl.) C. Koch,Philodendron chlorophyllum (Hemsl.) C. Koch,A. Croat,N/A,N/A,Surinam,Nickerie,N/A,N/A,"Awa of Kabalebo Dam Project, distr. Nickerie, Forest ck 28, 29","Awa of Kabalebo Dam Project, Forest ck 28, 29",Forest,tree trunk,Alt.; 30 - 130 m.,"4° 50' N., 57° 30' 590 W.",1073527,Typed,no type status
EMu Field Museum | Bryophytes Portal,https://fm-digital-assets.fieldmuseum.org/2537/562/C2077577F.jpg,,,0194_C2077577F.jpg,J. Florschütz-de Waard and R. Zieleman,J. Florschütz-de Waard,R. Zieleman,5141,31 October 1981,1981-10-31,N/A,Pilotrichella flexilis (Hedw.) Ångström,Pilotrichella flexilis (Hedw.) Ångström,R. Zieleman,N/A,N/A,Suriname,N/A,N/A,N/A,"Distr. Nickerie, Kabalebo river area, 1 line W. from road km 34.","Kabalebo river area, 1 line west from road kilometer 34",In marsh forest with Astrocaryum,decaying log,alt. 0-50 m,N/A,1679833,Typed,no type status
EMu Field Museum | Bryophytes Portal,https://fm-digital-assets.fieldmuseum.org/2537/563/C2077578F.jpg,,,0195_C2077578F.jpg,J. and P.A. Florschütz,J. Florschütz,P.A. Florschütz,4690,18 December 1975,1975-12-18,N/A,Pilosium chlorophyllum (Hornsch.) C. Muell.,Pilosium chlorophyllum (Hornsch.) C. Muell.,R. Ziemann and J. Florschütz-de Waard,1986,N/A,Suriname,Brokopondo,N/A,N/A,"Brownsberg, trail to Leo Val","Brownsberg, trail to Leo Val",On rotting log in rainforest,log,alt. ca. 500 m.,N/A,N° 1065613,Typed,no type status
EMu Field Museum | Bryophytes Portal,https://fm-digital-assets.fieldmuseum.org/2537/564/C2077579F.jpg,,,0196_C2077579F.jpg,H. Cornelissen & S.R. Gradstein,H. Cornelissen,S.R. Gradstein,C076,8 March 1977,1977-03-08,N/A,Pilotrichum chlorophyllum (Hornsch.) C. Müll.,Pilotrichum chlorophyllum (Hornsch.) C. Müll.,J. Florschütz-de Waard,N/A,N/A,Guyana,N/A,N/A,N/A,"Mahura Hill, 180 km S of Georgetown",Mahura Hill,On rotting tree base in mixed rain forest,bark,alt. 0-50 m,5°20'N 58°40'W,1691586,Typed,no type status
EMu Field Museum | Bryophytes Portal,https://fm-digital-assets.fieldmuseum.org/2537/565/C2077580F.jpg,,,0197_C2077580F.jpg,Herb. Sullivant,Herb. Sullivant,N/A,321,March 1941,1941-03-00,N/A,Stereophyllum stellatopilosum. Howell,Pilotrichum chlorophyllum (Hornsch.) C. Müll. in Broth.,Det. W.R. Buck,"June 19, 1964",N/A,USA,Ohio,N/A,N/A,H.A. Crum Rocks Para.,H.A. Crum Rocks Para.,[Habitat not specified on the label],N/A,N/A,N/A,1078188,Mix of Handwritten and Typed,no type status
EMu Field Museum | Bryophytes Portal,https://fm-digital-assets.fieldmuseum.org/2537/566/C2077581F.jpg,,,0198_C2077581F.jpg,Richard Evans Schultes & Isidoro Cabrera,Richard Evans Schultes,Isidoro Cabrera,7922,"Oct. 22, 1952",1952-10-22,N/A,Pilotrichum chlorophyllum (Hornsch.) Jaeg.,Pilotrichum chlorophyllum (Hornsch.) Jaeg.,H. A. Crum,1956,N/A,Colombia,Vaupes,N/A,N/A,Rio Vaupes: Mitu and vicinity. Cerro Mitu,Cerro Mitu,N/A,N/A,N/A,"Lat. 1°10'N, Long. 70°15'W",1055492,Typed,no type status
EMu Field Museum | Bryophytes Portal,https://fm-digital-assets.fieldmuseum.org/2537/567/C2077582F.jpg,,,0199_C2077582F.jpg,Richard Evans Schultes et Isidoro Cabrera,Richard Evans Schultes,Isidoro Cabrera,14394,"October 1-6, 1951",1951-10-01,1951-10-06,Pilotrichum chlorophyllum (Hornsch.) C. Muell.,Pilotrichum chlorophyllum (Hornsch.) C. Muell.,E. A. C.,1956,N/A,Colombia,Vaupes,N/A,Yapobodá,"Rio Kuduyarí (affluent of Rio Vaupés), Yapobodá, quartzite savannah.","Rio Kuduyarí (affluent of Rio Vaupés), Yapobodá, quartzite savannah",On rotten logs,Wood,N/A,N/A,N/A,Typed,No type status
EMu Field Museum | Bryophytes Portal,https://fm-digital-assets.fieldmuseum.org/2537/568/C2077583F.jpg,,,0200_C2077583F.jpg,Richard Evans Schultes,Richard Evans Schultes,N/A,12309,June 1951,1951-06-00,1951-06-00,Pilotrichum chlorophyllum (Hornsch.) C. M. in Broth.,Pilotrichum chlorophyllum (Hornsch.) C. M. in Broth.,Dana Griffin III,June 1951,N/A,Colombia,Vaupés,N/A,N/A,"Comisaria del Vaupés, Río Apaporis, Soratama","Río Apaporis, Soratama",On trunks,bark,N/A,N/A,1055490,Typed,no type status
EMu Field Museum | Bryophytes Portal,https://fm-digital-assets.fieldmuseum.org/2537/569/C2077584F.jpg,,,0201_C2077584F.jpg,Richard Evans Schultes,Richard Evans Schultes,N/A,11128,Dec. 1950,1950-12-00,1950-12-00,Pilotrichum chlorophyllum (Hensch.) C. Mü. in Broth.,Pilotrichum chlorophyllum (Hensch.) C. Mü. in Broth.,Dana Griffin III,N/A,N/A,Colombia,N/A,N/A,San Jose del Guaviare,San Jose del Guaviare,[precise locality unknown],N/A,N/A,N/A,N/A,1055489,Mix of Handwritten and Typed,no type status
EMu Field Museum | Bryophytes Portal,https://fm-digital-assets.fieldmuseum.org/2537/570/C2077585F.jpg,,,0202_C2077585F.jpg,Ynes Mexia,Ynes Mexia,N/A,60124,"Aug. 31, 1931",1931-08-31,1931-08-31,PIlousm chlorophyllum (Hitch.) C. Muell.,Pilousm chlorophyllum (Hitch.) C. Muell.,N/A,N/A,N/A,Brazil,N/A,N/A,N/A,Districto Acorá. [Thomé Assú]; down Rio Acorá 3 km.,[precise locality unknown],On fallen log.,wood,Alt. 35 m.,N/A,N/A,Typed,no type status
EMu Field Museum | Bryophytes Portal,https://fm-digital-assets.fieldmuseum.org/2537/571/C2077586F.jpg,,,0203_C2077586F.jpg,Ynes Mexia,Ynes Mexia,N/A,5914,"July 16, ",1931-07-16,N/A,Pilotrichum Chlorophyllum (Brid.) C. Muell.,N/A,N/A,N/A,N/A,Brazil,Pará,N/A,N/A,Districto Açy; Thome Assú; Japanese Colony. On rotting log in woods.,"Districto Açy, Thome Assú, Japanese Colony",Abundant,log,Alt. about 30 m,N/A,870829,Typed,no type status
EMu Field Museum | Bryophytes Portal,https://fm-digital-assets.fieldmuseum.org/2539/518/C2078862F.jpg,,,0204_C2078862F.jpg,"Dana Griffin III, Manuel Lopez",Dana Griffin III,Manuel Lopez,PV-1525,12 marzo 1983,1983-03-12,N/A,Brachythecium plumosum (Hedw.) BSG,Brachythecium plumosum (Hedw.) BSG,Dana Griffin III,N/A,N/A,Venezuela,Estado Trujillo,N/A,N/A,"Páramo de Guirigay, arriba del pueblo de La Peñita, Entre el Escuque y El Batatal, en Gypsofera silvestre, Alt. 3,200 m",[precise locality unknown],"Sobre roca húmeda, lecho de riachuelo, a sol.",rock,"Alt. 3,200 m",N/A,1064449,Typed,no type status
EMu Field Museum | Bryophytes Portal,https://fm-digital-assets.fieldmuseum.org/2539/519/C2078913F.jpg,,,0205_C2078913F.jpg,P. Dusén,P. Dusén,N/A,5872,22 February 1897,1897-02-22,1897-02-22,Brachythecium albicans (Hedw.) Schimp.,Brachythecium albicans (Hedw.) Schimp.,W. R. Buck,N/A,N/A,Chile,Patagonia occidental,N/A,N/A,Cerro Colorado,Cerro Colorado,N/A,N/A,N/A,N/A,811749,Typed,no type status
EMu Field Museum | Bryophytes Portal,https://fm-digital-assets.fieldmuseum.org/2539/520/C2078924F.jpg,,,0206_C2078924F.jpg,Ynes Mexia,Ynes Mexia,N/A,8001,"April 10,1936",1936-04-10,N/A,Brachythecium austro-glareosum (C. Müll.) Kindb.,Brachythecium austro-glareosum (C. Müll.) Kindb.,Kenneth D. McFarland,Sept 1982,N/A,Chile,Territorio Magallanes,N/A,N/A,Las Hojas Inlet; Peninsula Antonio Varas; opening into Otway Inlet; cool moist earth,Las Hojas Inlet; Peninsula Antonio Varas; opening into Otway Inlet,In Nothofagus wood in cool moist earth,soil,Alt. 25 m.,N/A,1037958,Typed,no type status
EMu Field Museum | Bryophytes Portal,https://fm-digital-assets.fieldmuseum.org/2539/521/C2078925F.jpg,,,0207_C2078925F.jpg,Marko Lewis,Marko Lewis,N/A,79-2108,25 May 1979,1979-05-25,N/A,Brachythecium cf. caliigonoides Broth. in Herz.,Brachythecium cf. caliigonoides Broth. in Herz.,R. Ochyra,February 1982,N/A,Bolivia,Oruro,N/A,N/A,"DEPTO. ORURO, PROV. SAJAMA: Rio Juntuma Khuchu, 2 mi. down river from Aguas termales de Rio Juntuma Khuchu, 4350 m, 18° 07' S, 69° 00' W. In Warnish creek.","DEPTO. ORURO, PROV. SAJAMA: Rio Juntuma Khuchu, 2 miles down river from Aguas termales de Rio Juntuma Khuchu. In Warnish creek.",N/A (not described in the image),N/A (not described in the image),4350 m,"18° 07' S, 69° 00' W",1049405,Typed,no type status
EMu Field Museum | Bryophytes Portal,https://fm-digital-assets.fieldmuseum.org/2539/522/C2078926F.jpg,,,0208_C2078926F.jpg,Marko Lewis,Marko Lewis,N/A,79-2109,25 May 1979,1979-05-25,N/A,Brachythecium callicoronoides Broth. in Herz.,Brachythecium callicoronoides Broth. in Herz.,R. Ochyra,1982,N/A,Bolivia,Oruro,N/A,Sajama,"DEPTO. ORURO, PROV. SAJAMA: Rio Jachuma Khuchu, 2 mi. down river from Aguas termales de Rio Jachuma Khuchu, 4350 m, 18°07' S, 69°00' W. In warmish creek.","Rio Jachuma Khuchu, 2 miles down river from Aguas termales de Rio Jachuma Khuchu",In warmish creek,N/A,4350 m,"18°07' S, 69°00' W",1049406,Typed,no type status
EMu Field Museum | Bryophytes Portal,https://fm-digital-assets.fieldmuseum.org/2539/523/C2078927F.jpg,,,0209_C2078927F.jpg,Marko Lewis,Marko Lewis,N/A,79-2112,25 May 1979,1979-05-25,1979-05-25,Brachythecium camillaegeorginae Broth. in Herz.,Brachythecium camillaegeorginae Broth.,E. Ochyra,1982,N/A,Bolivia,Oruro,Sajama,N/A,"DEPTO. Oruro, PROV. SAJAMA: Río Jhunchuma khuchu, down river from Aguas termales de Río Jhunchuma 2 Km. 4350, 18° 07' S, 69° 00' W. In warmish creek.","Río Jhunchuma khuchu, down river from Aguas termales de Río Jhunchuma 2 kilometers ",In warmish creek,N/A,4350,"18° 07' S, 69° 00' W",1049407,Typed,no type status
EMu Field Museum | Bryophytes Portal,https://fm-digital-assets.fieldmuseum.org/2539/524/C2078928F.jpg,,,0210_C2078928F.jpg,Marko Lewis,Marko Lewis,N/A,79-2115,25 May 1979,1979-05-25,1979-05-25,Brachythecium callirgonoides Broth. in Herz.,Brachythecium callirgonoides Broth. in Herz.,R. Ochyra,1982,N/A,Bolivia,Oruro,N/A,N/A,"DEPTO. ORURO, PROV. SAJAMA: Río Jhuntuuma Kkuchu, 2 mi. downriver from Aguas termales de Río Jhuntuuma Kkuchu, 4350 m.","Río Jhuntuuma Kkuchu, 2 miles downriver from Aguas termales de Río Jhuntuuma Kkuchu",In warmish creek,N/A,4350 m.,"18° 07' S, 69° 00' W",1049409,Typed,no type status
EMu Field Museum | Bryophytes Portal,https://fm-digital-assets.fieldmuseum.org/2539/525/C2078929F.jpg,,,0211_C2078929F.jpg,Marko Lewis,Marko Lewis,N/A,79-2117,25 May 1979,1979-05-25,1979-05-25,Brachythecium calliergonoides Broth. in Herz.,Brachythecium calliergonoides Broth.,R. Ochyra,1982,N/A,Bolivia,Oruro,Prov. Sajama,N/A,"Rio Jhutuma khuchu, 2 mi. down river from Aguas termales de Rio Umachuckha","Rio Jhutuma khuchu, 2 miles down river from Aguas termales de Rio Umachuckha",In warmish creek,N/A,N/A,N/A,1049410,Typed,no type status
EMu Field Museum | Bryophytes Portal,https://fm-digital-assets.fieldmuseum.org/2539/526/C2078930F.jpg,,,0212_C2078930F.jpg,Marko Lewis,Marko Lewis,N/A,79-2118,25 May 1979,1979-05-25,N/A,Brachythecium calliergonoides Broth. in Herz.,Brachythecium calliergonoides Broth. in Herz.,R. Ochyra,1 January 1982,Antithyriaceae,Bolivia,Oruro,N/A,Sajama,"DEPTO. ORURO, PROV. SAJAMA: Rio Juntuma lkmna 2 km down river from Aguas termales de Rio Juchusuma,curso 4380 m",Rio Juntuma 1 kilometer to 2 kilometers down river from Aguas termales de Rio Juchusuma,In warmish creek,N/A,4350 m.,N/A,1049411,Typed,no type status
EMu Field Museum | Bryophytes Portal,https://fm-digital-assets.fieldmuseum.org/2539/527/C2078931F.jpg,,,0213_C2078931F.jpg,Marko Lewis,Marko Lewis,N/A,79-2107,25 May 1979,1979-05-25,1979-05-25,Brachythecium californiconde in Herz.,Brachythecium californiconde in Herz.,R. Ochyra,1982,N/A,Bolivia,Oruro,Sajama,N/A,"Depto. Oruro, Prov: Sajama: Rio Juntuma Khuchu, 2 mi. down river from Aguas termales de Rio Juntuma Khuchu","Rio Juntuma Khuchu, 2 miles down river from Aguas termales de Rio Juntuma Khuchu",In Warmish creek,N/A,4350 m.,"18° 07' S, 69° 00' W",1049404,Typed,no type status
EMu Field Museum | Bryophytes Portal,https://fm-digital-assets.fieldmuseum.org/2539/529/C2078932F.jpg,,,0214_C2078932F.jpg,"Marko Lewis, leg. 79-2119",Marko Lewis,N/A,79-2119,25 May 1979,1979-05-25,N/A,Brachythecium calliergonoides Broth. in Herz.,Brachythecium calliergonoides Broth. in Herz.,E. Ochyra,1982,N/A,Bolivia,Oruro,N/A,N/A,"DEPTO. ORURO, PROV. SAJAMA: Rio Juntuma Khuchu, 2 mi. down river from Aguas termales de Rio Juntuma Khuchu, 4350 m.","Rio Juntuma Khuchu, 2 miles down river from Aguas termales de Rio Juntuma",In warmish creek.,N/A,4350 m.,N/A,1049412,Typed,no type status
EMu Field Museum | Bryophytes Portal,https://fm-digital-assets.fieldmuseum.org/2539/889/C2079350F.jpg,,,0215_C2079350F.jpg,Ynes Mexia,Ynes Mexia,N/A,6149,"Nov. 23, 1931",1931-11-23,1931-11-23,Vesicularia amphipoda (Spr.) Broth.,Vesicularia amphipoda (Spr.) Broth.,A.J. Sharp,N/A,N/A,Peru,Loreto,N/A,N/A,Above Pongo de Manseriche. Left bank of Rio Santiago.,"Above Pongo de Manseriche, left bank of Rio Santiago",On stone in overflow forest,stone,200 m.,N/A,873368,Typed,no type status
EMu Field Museum | Bryophytes Portal,https://fm-digital-assets.fieldmuseum.org/2539/890/C2079351F.jpg,,,0216_C2079351F.jpg,N/A,N/A,N/A,1610-,"May 25, 1931",1931-05-25,1931-05-25,Vesicularia umbilicata (Spr.) Broth.,Vesicularia umbilicata (Spr.) Broth.,Bartram,N/A,N/A,Peru,Loreto,N/A,N/A,"Above Pongo de Manseriche, Alt. 200 m. Right bank of Rio Santiago.","Above Pongo de Manseriche, Right bank of Rio Santiago.",Dense forest on log.,log,Alt. 200 m.,N/A,873667,Typed,no type status
EMu Field Museum | Bryophytes Portal,https://fm-digital-assets.fieldmuseum.org/2539/892/C2079352F.jpg,,,0217_C2079352F.jpg,Ynes Mexia,Ynes Mexia,N/A,6217-a,"Dec. 4, 1931",1931-12-04,N/A,Vesicularia amphipholia (Spr.) Broth.,Vesicularia amphipholia (Spr.) Broth.,Bartram,N/A,N/A,Peru,Loreto,N/A,N/A,Above Pongo de Manseriche. Streamlet on right bank of Rio Santiago.,"Above Pongo de Manseriche, on streamlet on right bank of Rio Santiago",On rocks wet by spray,rock,Alt. 250 m.,N/A,870879,Typed,no type status
EMu Field Museum | Bryophytes Portal,https://fm-digital-assets.fieldmuseum.org/2539/893/C2079353F.jpg,,,0218_C2079353F.jpg,Ynes Mexia,Ynes Mexia,N/A,6259,"Dec. 12, 1931",1931-12-12,1931-12-12,Vesicularia amphibia (Spreng.) Broth.,Vesicularia amphibia (Spreng.) Broth.,Bartram,N/A,N/A,Peru,Loreto,N/A,N/A,"Above Pongo de Manseriche, Crocker Carapas, ""08 in forest.","Above Pongo de Manseriche, Crocker Carapas",In forest,N/A,Alt. 215 m.,N/A,870867,Typed,no type status
EMu Field Museum | Bryophytes Portal,https://fm-digital-assets.fieldmuseum.org/2539/894/C2079354F.jpg,,,0219_C2079354F.jpg,Yes Meincke,Yes Meincke,N/A,6356,"Jan. 3, 1932",1932-01-03,1932-01-03,Vesicularia spinulosa (Spr.) Brotherus,Vesicularia spinulosa (Spr.) Brotherus,Bartram,N/A,N/A,Peru,Departamento de Loreto,N/A,N/A,Above Pongo de Manseriche.,Above Pongo de Manseriche,On earth collected on inclined tree trunk,tree trunk,Alt. 215 m.,N/A,872369,Typed,no type status
EMu Field Museum | Bryophytes Portal,https://fm-digital-assets.fieldmuseum.org/2539/895/C2079355F.jpg,,,0220_C2079355F.jpg,Ynes Mexia,Ynes Mexia,N/A,6575,"Jan. 3, 1932",1932-01-03,N/A,Vesicularia amphibiola (Spr.) Broth.,Taxithelium planum (Brid.) Mitt.,N/A,N/A,N/A,Peru,Loreto,N/A,N/A,Above Pongo de Manseriche. Creek Inche. On rotten log. Stolle.,"Above Pongo de Manseriche, Creek Inche, on rotten log, Stolle",N/A,log,Alt. 215 m.,N/A,1039121,Typed,no type status
EMu Field Museum | Bryophytes Portal,https://fm-digital-assets.fieldmuseum.org/2539/896/C2079356F.jpg,,,0221_C2079356F.jpg,Ynes Mexia,Ynes Mexia,N/A,6379b,"Jan. 3, 1936",1936-01-03,N/A,Vestia lycioides (syn. spartioides) Benth.,Vestia lycioides (syn. spartioides) Benth.,L. O. Williams,N/A,Bartholomew planum (Eriod) Mitt.,Peru,Loreto,N/A,N/A,Above Pongo de Manseriche,Above Pongo de Manseriche,N/A,soil,Alt. 215 m.,N/A,570880,Mix of Handwritten and Typed,no type status
EMu Field Museum | Bryophytes Portal,https://fm-digital-assets.fieldmuseum.org/2539/897/C2079357F.jpg,,,0222_C2079357F.jpg,Ynes Mexia,Ynes Mexia,N/A,6377,"Jan. 3, 1932.",1932-01-03,1932-01-03,Vesicularia amphibia (Spr.) Broth.,Vesicularia amphibia (Spr.) Broth.,N/A,N/A,N/A,Peru,Departmento de Loreto,N/A,N/A,Above Pongo de Manseriche. Creek Inche.,"Above Pongo de Manseriche, Creek Inche",On rotten log.,wood,Alt. 215 m.,N/A,870873,Typed,no type status
EMu Field Museum | Bryophytes Portal,https://fm-digital-assets.fieldmuseum.org/2539/898/C2079358F.jpg,,,0223_C2079358F.jpg,Ynes Mexia,Ynes Mexia,N/A,8070,"May 14, 1936",1936-05-14,N/A,Viscularia amphibia (Spr.) Broth.,Viscularia amphibia (Spr.) Broth.,Det. Bartram,N/A,N/A,Peru,Cuzco,N/A,N/A,Provincia La Convencion; upper valley of the Sambra; affluent of the Vilcanota; on rotten logs in virgin forest.,"Provincia La Convencion, upper valley of the Sambra, affluent of the Vilcanota, on rotten logs",in virgin forest,wood,Alt. 1800 m.,N/A,1048818,Typed,no type status
EMu Field Museum | Bryophytes Portal,https://fm-digital-assets.fieldmuseum.org/2539/900/C2079359F.jpg,,,0224_C2079359F.jpg,Ynes Mexia,Ynes Mexia,N/A,8070,"May 14,1936",1936-05-14,1936-05-14,Vesicularia amphibia (Spreng.) Broth. Determined by E. Bartram,Vesicularia amphibia (Spreng.) Broth.,E. Bartram,N/A,N/A,Peru,Cuzco,La Convencion,N/A,upper valley of the Sambay; affluent of the Vilcanota,"Upper valley of the Sambay, affluent of the Vilcanota",On rotten logs in virgin forest,wood,1600 m.,N/A,N/A,Typed,no type status
EMu Field Museum | Bryophytes Portal,https://fm-digital-assets.fieldmuseum.org/2539/901/C2079360F.jpg,,,0225_C2079360F.jpg,R. Reitz,R. Reitz,N/A,222,9. IV. 1956,1956-04-09,1956-04-09,Hypnum revolutum (Schwägr.) Borth.,Hypnum revolutum (Schwägr.) Borth.,N/A,N/A,N/A,Brasil,Santa Catarina,N/A,N/A,"Bom Jesus, Braço","Bom Jesus, Braço",Campos e beira de mata virgem,N/A,550 m. s. mar,N/A,N/A,Typed,no type status
EMu Field Museum | Bryophytes Portal,https://fm-digital-assets.fieldmuseum.org/2539/902/C2079361F.jpg,,,0226_C2079361F.jpg,Leg. F. J. Hermann,F. J. Hermann,N/A,20519,"December 19, 1972",1972-12-19,N/A,Vesicularia vesicularis (Schwaegr.) Broth.,Vesicularia vesicularis (Schwaegr.) Broth.,H. Robinson,N/A,N/A,Colombia,Santander,N/A,N/A,"On base of tree trunk, Parquítas, alt. ca. 4000 ft., 1/4 mile NW Florida","On base of tree trunk, Parquítas, 1/4 mile Northwest Florida",N/A,bark,alt. ca. 4000 ft.,N/A,1099191,Typed,no type status
EMu Field Museum | Bryophytes Portal,https://fm-digital-assets.fieldmuseum.org/2539/903/C2079362F.jpg,,,0227_C2079362F.jpg,Richard Evans Schultes,Richard Evans Schultes,N/A,11107,"Dec., 1950",1950-12-00,1950-12-00,Vesicularia vesicularis (Schwgr.) Broth.,Vesicularia vesicularis (Schwgr.) Broth.,Dana G. Griffin III,"Dec., 1950",N/A,Colombia,Intendencia del Meta,N/A,N/A,alrededores de Villavicencio.,alrededores de Villavicencio,N/A,N/A,Alt 500 m.,N/A,1055509,Mix of Handwritten and Typed,no type status
EMu Field Museum | Bryophytes Portal,https://fm-digital-assets.fieldmuseum.org/2542/815/C2079715F.jpg,,,0228_C2079715F.jpg,"J.P. Frahm, P. Geissler, S.R. Gradstein, G. Philippi, W. Schultze-Motel",J.P. Frahm,"P. Geissler, S.R. Gradstein, G. Philippi, W. Schultze-Motel",Nr. 875,4.9.1982,1982-09-04,N/A,Entodon jamesonii (Tayl.) Mitt.,Entodon jamesonii (Tayl.) Mitt.,W. Schultze-Motel,N/A,N/A,Peru,Amazonas,Chachapoyas,N/A,"Dep. Amazonas, Prov. Chachapoyas, Straße Chachapoyas Cajamarca oberhalb Leimebamba km 417, sexponierter Hang, hochandiner Regenwald auf Kalkstein","Straße Chachapoyas Cajamarca oberhalb Leimebamba km 417, sexponierter Hang",hochandiner Regenwald auf Kalkstein,N/A,2800 msn.,N/A,N/A,Typed,no type status
EMu Field Museum | Bryophytes Portal,https://fm-digital-assets.fieldmuseum.org/2542/817/C2079716F.jpg,,,0229_C2079716F.jpg,J. Kenneth Wright,J. Kenneth Wright,N/A,4806,1 April 1964,1964-04-01,1964-04-01,Entodon jamesonii (Tayl.) Mitt.,Entodon jamesonii (Tayl.) H. Rob.,E. H. Robinson,1966,N/A,Peru,Department of Amazonas,Province of Chachapoyas,N/A,"Cerros Calla Calla, este sde., 5 km. above Leimebamba on the road to Balsas, at San Miguel (no buildings at this locality).","Cerros Calla Calla, este side, 5 kilometers above Leimebamba on the road to Balsas, at San Miguel",N/A,N/A,Altitude 3400 m.,N/A,1021824,Typed,no type status
EMu Field Museum | Bryophytes Portal,https://fm-digital-assets.fieldmuseum.org/2542/820/C2079717F.jpg,,,0230_C2079717F.jpg,Dana Griffin III,Dana Griffin III,N/A,PV-966,30. Nov. 1983.,1983-11-30,N/A,Entodon jamesoni (tayl.) Broth.,Entodon jamesoni (tayl.) Broth.,Dana Griffin III,N/A,N/A,Venezuela,Estado Merida,N/A,N/A,"Paramo de Los Granates, finca de Los Granates, a la orilla del rio de Los Granates y en las lomas cercanas. 30. Nov. 1983.","Paramo de Los Granates, finca de Los Granates, a la orilla del rio de Los Granates","Sobre roca + seca, a sombra.",rock,"3,000-3,300 m",N/A,1064416,Typed,no type status
EMu Field Museum | Bryophytes Portal,https://fm-digital-assets.fieldmuseum.org/2542/822/C2079718F.jpg,,,0231_C2079718F.jpg,Ynes Mexia,Ynes Mexia,N/A,5677,"April 21, 1931",1931-04-21,1931-04-21,Entodon Lindbergii Hpe.,Entodon Lindbergii Hpe.,A.L. S. de Brasileiro,N/A,N/A,Brazil,State of Minas Geraes,N/A,Corinto,Fazenda do Diamante. Campo virgén. Base of living trees in shade.,"Fazenda do Diamante, Campo virgén, base of living trees","Campo virgén, base of living trees in shade",bark,Alt. 500 m.,N/A,307818,Typed,no type status
EMu Field Museum | Bryophytes Portal,https://fm-digital-assets.fieldmuseum.org/2542/825/C2079719F.jpg,,,0232_C2079719F.jpg,N/A,N/A,N/A,No. 1023,March 1941,1941-03-00,1941-03-00,Entosthodon longisetus (C. Müll.) Kindb.,Entosthodon longisetus (C. Müll.) Kindb.,W. D. Reese,N/A,N/A,N/A,N/A,N/A,N/A,[precise locality unknown],[precise locality unknown],N/A,soil,N/A,N/A,1078203,Typed,no type status
EMu Field Museum | Bryophytes Portal,https://fm-digital-assets.fieldmuseum.org/2542/827/C2079720F.jpg,,,0233_C2079720F.jpg,Marko Lewis,Marko Lewis,N/A,79-590,8 February 1979,1979-02-08,1979-02-08,Entodon cf. nano-climacium C. Muell. (E. micans Herz.),Entodon cf. nano-climacium C. Muell. (E. micans Herz.),M. Buck,1980,N/A,Bolivia,Tarija,Mendez,N/A,"DEPTO. TARIJA. PROV. MENDEZ. PROV. CERCADO; PROV. AVILES: Canyon 5 mi. SW of Tablada, SW of Tarijo 3.16""S, 64.49""W.",Canyon 5 miles southwest of Tablada,Bank of creek,soil,2160 m.,"3.16""S, 64.49""W.",1678758,Typed,no type status
EMu Field Museum | Bryophytes Portal,https://fm-digital-assets.fieldmuseum.org/2542/829/C2079721F.jpg,,,0234_C2079721F.jpg,Marko Lewis,Marko Lewis,N/A,79-1220,22 March 1979,1979-03-22,1979-03-22,Entodon nano-climacium C. Muell. ( = E. nicanus Herz.),Entodon nano-climacium C. Muell.,M. Buck,1980,N/A,Bolivia,La Paz,Larecaja,Sorata,"DEPTO. LA PAZ, PROV. LARECAJA: Near large red out-crop 2 mi. from Sorata down Río Consata, 15° 41' S., 68° 43' W.",near large red outcrop 2 miles from Sorata down Río Consata,very shady ground along creek in humid shrubs,N/A,2600 m.,"15° 41' S., 68° 43' W.",N/A,Typed,no type status
EMu Field Museum | Bryophytes Portal,https://fm-digital-assets.fieldmuseum.org/2542/831/C2079722F.jpg,,,0235_C2079722F.jpg,Collected by Harry Ward Foote,Harry Ward Foote,N/A,N/A,Sept. 3,1911-09-03,N/A,Ectropothecium flagelliradicis,Ectropothecium flagelliradicis,N/A,N/A,N/A,Peru,N/A,N/A,N/A,On rocks near San Miguel,near San Miguel,rocks,rock,"1,300 ft.",N/A,N/A,Handwritten,no type status
EMu Field Museum | Bryophytes Portal,https://fm-digital-assets.fieldmuseum.org/2542/835/C2079723F.jpg,,,0236_C2079723F.jpg,Marko Lewis,Marko Lewis,N/A,79-1346,1 April 1979,1979-04-01,1979-04-01,cf. Entodon polycarpus,Entodon polycarpus,W. Buck,1980,N/A,Bolivia,La Paz,Larecaja,N/A,"DEPLO. LA PAZ, PROV. LARECAJA: Between Abra Huallata and waterfall at Millipaya",Between Abra Huallata and waterfall at Millipaya,"Waterfall ravine, highest extension of shrubs.",N/A,3780 m.,"15° 51' S, 68° 39' W",1008879,Typed,no type status
EMu Field Museum | Bryophytes Portal,https://fm-digital-assets.fieldmuseum.org/2542/837/C2079595F.jpg,,,0237_C2079595F.jpg,H. Roivainen,H. Roivainen,N/A,2095,25.I.1970,1970-01-25,1970-01-25,Isopterygium pulchellum (Hedw.) Jaeg.,Isopterygium pulchellum (Hedw.) Jaeg.,R. Ochyra,1996,N/A,Argentina,Tierra del Fuego australis,N/A,Ushuaia,"Tierra del Fuego australis, Ushuaia, Arroyo Grande (54°47'S, 68°18'W)",Arroyo Grande,"en fisuras de roca y en raíces humoso-arcillosos de Nothofagus pumilio, en orilla de la cascada",rock,150 m.,"54°47'S, 68°18'W",N° 1182417,Typed,no type status
EMu Field Museum | Bryophytes Portal,https://fm-digital-assets.fieldmuseum.org/2542/839/C2079596F.jpg,,,0238_C2079596F.jpg,H. Roivainen,H. Roivainen,N/A,1352,21.12.1969,1969-12-21,N/A,Isoterygium pulchellum (Brid.) Jaeg.,Isoterygium pulchellum (Brid.) Jaeg.,Ochyra,1996,N/A,Argentina,Tierra del Fuego,N/A,N/A,"Tierra del Fuego australis, Ushuaia, Valle del rio Pipo, suelo humoso húmedo en el pendiente del río, 300 m s.m.","Tierra del Fuego australis, Ushuaia, Valle del rio Pipo",suelo humoso húmedo en el pendiente del río,soil,300 m s.m.,"54°46'S, 68°20'W",N/A,Typed,no type status
EMu Field Museum | Bryophytes Portal,https://fm-digital-assets.fieldmuseum.org/2542/842/C2079597F.jpg,,,0239_C2079597F.jpg,E. P. Killip & A. C. Smith,E. P. Killip,A. C. Smith,14917,"November 29, 1926",1926-11-29,N/A,Isoterygium stigmatosum (Cal.) Par.,Isoterygium tenerrum (Sw.) Mitt.,R. R. Ireland,1988,N/A,Colombia,Santander,N/A,N/A,"Dept. Santander, between Puerto Wilches and Puerto Santos, near 10-115","between Puerto Wilches and Puerto Santos, near 10-115",N/A,soil,N/A,N/A,N/A,Typed,no type status
EMu Field Museum | Bryophytes Portal,https://fm-digital-assets.fieldmuseum.org/2542/844/C2079598F.jpg,,,0240_C2079598F.jpg,Richard Evans Schultes,Richard Evans Schultes,N/A,11110,"Dec., 1950",1950-12-00,1950-12-00,Isopterygium tenerum (Sw.) Mitt.,Isopterygium tenerum (Sw.) Mitt.,Dana Griffin III,1988,N/A,Colombia,Meta,N/A,N/A,Intendencia del Meta: alrededores de Villa Vicencio,Intendencia del Meta: alrededores de Villa Vicencio,N/A,N/A,Alt. 500 m.,N/A,1055473,Typed,no type status
EMu Field Museum | Bryophytes Portal,https://fm-digital-assets.fieldmuseum.org/2542/846/C2079599F.jpg,,,0241_C2079599F.jpg,D.C. Geijskes,D.C. Geijskes,N/A,N/A,29-9-1952,1952-09-29,N/A,Isopterygium tenerum (Sw.) Mitt.,Isopterygium tenerum (Sw.) Mitt.,H.R. Zielman,N/A,N/A,Surinam,N/A,N/A,N/A,"Marowijne river, Armina falls, rainforest","Marowijne river, Armina falls","Rainforest on roots and rocks on bank of river, shai",roots and rocks,N/A,N/A,1073518,Typed,N/A
EMu Field Museum | Bryophytes Portal,https://fm-digital-assets.fieldmuseum.org/2542/848/C2079600F.jpg,,,0242_C2079600F.jpg,"Ynes Mexia, No. 8431",Ynes Mexia,N/A,No. 8431,"July 6, 1930",1930-07-06,1930-07-06,Isoterygium braschyuraem (Sw.) Mitt. sp. A. Jaeger. det. Gasteran,Isoterygium tenerum (Sw.) Mitt.,R.R. Ireland,1988,N/A,Brazil,Minas Gerais,N/A,Viçosa,"Agriculture College land, Horticultural Hill, on out woods near base. Alt. 870 m. Abundant logs.","Agriculture College land, Horticultural Hill, on out woods near base.",N/A,log,Alt. 870 m,N/A,1039979,Typed,no type status
EMu Field Museum | Bryophytes Portal,https://fm-digital-assets.fieldmuseum.org/2542/851/C2079601F.jpg,,,0243_C2079601F.jpg,Ynes Mexia No. 8488,Ynes Mexia,N/A,8488,"July 21, 1930",1930-07-21,N/A,Isopterygium laxum (Hpe.) Broth.,Isopterygium tenerum (Sw.) Mitt.,R.R. Ireland,1988,N/A,Brazil,Minas Geraes,N/A,Viçosa,"Viçosa Agricultural College Bank, Correjos Ribierão","Viçosa Agricultural College Bank, Corrigos Ribierão","Shady streambanks, On rotten wood",wood,Alt. 675 m.,N/A,837365,Typed,no type status
EMu Field Museum | Bryophytes Portal,https://fm-digital-assets.fieldmuseum.org/2542/853/C2079602F.jpg,,,0244_C2079602F.jpg,"Ynes Mexia, No. 8530",Ynes Mexia,N/A,8530,"Dec. 8, 1930",1930-12-08,1930-12-08,Isopterygium tenerum (Sw.) Mitt.,Isopterygium tenerum (Sw.) Mitt.,R.R. Ireland,1988,N/A,Brazil,Minas Gerais,N/A,N/A,Vicosa. Road to Sao Luiz.,"Vicosa, Road to Sao Luiz",Dense forest. On rotten log.,wood,Alt. 710 m.,N/A,870841,Typed,no type status
EMu Field Museum | Bryophytes Portal,https://fm-digital-assets.fieldmuseum.org/2542/855/C2079603F.jpg,,,0245_C2079603F.jpg,Ynes Mexia,Ynes Mexia,N/A,5441,"Dec. 23, 1930",1930-12-23,1930-12-23,Isoterygium tenerrimum (Sw.) Mitt.,Isoterygium tenerum (Sw.) Mitt.,R.R. Ireland,1988,N/A,Brazil,Minas Geraes,N/A,N/A,Viçosa Agricultural College lands. Base of Horticultural Hill.,Viçosa Agricultural College lands. Base of Horticultural Hill.,"On rotting logs, in woods. Abundant.",log,Alt. 670 m.,N/A,3780838,Typed,no type status
EMu Field Museum | Bryophytes Portal,https://fm-digital-assets.fieldmuseum.org/2542/857/C2079604F.jpg,,,0246_C2079604F.jpg,"H. S. Irwin, R. M. Harley, G. L. Smith",H. S. Irwin,"R. M. Harley, G. L. Smith",31332,2 March 1971,1971-03-02,N/A,Isoterygium tenerum (Sw.) Mitt.,Isoterygium tenerum (Sw.) Mitt.,N/A,1988,N/A,Brasil,N/A,N/A,N/A,Valley of the Rio das Ondas,Valley of the Rio das Ondas,"On the bark and exposed roots of CocosBahia and on adjacent soil, at river bank, cerrado gallery forest, and adjacent out-curve, ca. 10km W. of Barreiras","bark, soil",ca. 500m.,N/A,1059328,Typed,no type status
EMu Field Museum | Bryophytes Portal,https://fm-digital-assets.fieldmuseum.org/2542/863/C2079606F.jpg,,,0247_C2079606F.jpg,Ynes Mexia,Ynes Mexia,N/A,4844,"July 21, 0192",1929-07-21,N/A,Isopterygium tenerum (Sw.) Mitt.,Isopterygium tenerum (Sw.) Mitt.,R.R. Ireland,1988,N/A,Brazil,Minas Gerais,N/A,Vicosa,"Vicosa Agricultural College lands, Corrego Felisberto","Vicosa Agricultural College lands, Corrego Felisberto","Shady streambank, on rotten logs",wood,Alt. 675 m.,N/A,830845,Typed,no type status
EMu Field Museum | Bryophytes Portal,https://fm-digital-assets.fieldmuseum.org/2542/865/C2079607F.jpg,,,0248_C2079607F.jpg,Ynes Mexia,Ynes Mexia,N/A,4690,"May 14, 1930",1930-05-14,1930-05-14,Isoptrygium curvifolium (Mitt.) Mitt. Ex p.,Isopterygium tenerum (Sw.) Mitt.,R. R. Ireland,1988,N/A,Brazil,Minas Geraes,N/A,Vicosa,Fazenda de Cressium. Wood on slope. On rotten log.,"Fazenda de Cressium, wood on slope",Wood on slope,bark,Alt. 700 m.,N/A,870839,Typed,no type status
EMu Field Museum | Bryophytes Portal,https://fm-digital-assets.fieldmuseum.org/2542/868/C2079608F.jpg,,,0249_C2079608F.jpg,Ynes Mexia,Ynes Mexia,N/A,4884,"July 21, 1930",1930-07-21,1930-07-21,Isoterygium curvilinilum (Sw.) Mitt.,Isoterygium tenerum (Sw.) Mitt.,R.R. Ireland,1988,N/A,Brazil,Minas Geraes,N/A,N/A,Viçosa Agricultural College lands. Corrego Ribiero.,"Viçosa Agricultural College lands, Corrego Ribiero","Shady streambank, on rotten log",log,Alt. 675 m,N/A,1039977,Typed,no type status
EMu Field Museum | Bryophytes Portal,https://fm-digital-assets.fieldmuseum.org/2542/870/C2079609F.jpg,,,0250_C2079609F.jpg,Ynes Mexia,Ynes Mexia,N/A,4545,"March 31, 1930",1930-03-31,1930-03-31,Isoterygium tenerum (Sw.) Mitt.,Isopterygium tenerum (Sw.) Mitt.,R. R. Ireland,1988,N/A,Brazil,State of Minas Gerais,N/A,N/A,"Road to São Miguel, near stream ""turvo,"" out over woods on slope. On rotting tree trunk.","Road to São Miguel, near stream ""Turvo""",out over woods on slope,rotting tree trunk,Alt. 710 m.,N/A,1039978,Mix of Handwritten and Typed,no type status
EMu Field Museum | Bryophytes Portal,https://fm-digital-assets.fieldmuseum.org/2542/875/C2079611F.jpg,,,0251_C2079611F.jpg,W. Schäfer,W. Schäfer,N/A,2898,Dec-57,1957-12-00,N/A,Isoperygium anmatum (Hampe ex Müll. Hal.) Kindb.,Isopterygium tenerum (Sw.) Mitt.,R. R. Ireland,1989,N/A,Brasil,Sao Paulo,N/A,Ubatuba,"prope urbem Ubatuba, inter Palmes, ca. 650 m. s. m. l. alt. fl.","prope urbem Ubatuba, inter Palmes",N/A,N/A,ca. 650 m. s. m. l. alt. fl.,N/A,N/A,Typed,no type status
EMu Field Museum | Bryophytes Portal,https://fm-digital-assets.fieldmuseum.org/2542/877/C2079856F.jpg,,,0252_C2079856F.jpg,Ynes Mexia,Ynes Mexia,N/A,4641,"July 6, 1930",1930-07-06,1930-07-06,Isoterygium brachyneuron (Mitt.) Mitt. exp. P. de la Varde,Isoterygium tenerum (Sw.) Mitt.,R. R. Ireland,1988,N/A,Brazil,Minas Gerais,N/A,Viçosa,"Viçosa Agricultural College lands, Horticultural Hill.","Viçosa Agricultural College lands, Horticultural Hill. ",Cut over woods near base. On rotting logs.,Wood,alt. 670 m.,N/A,87051,Typed,no type status
EMu Field Museum | Bryophytes Portal,https://fm-digital-assets.fieldmuseum.org/2542/879/C2079858F.jpg,,,0253_C2079858F.jpg,R. S. Williams,R. S. Williams,N/A,2045,1901-1902,1901-00-00,1902-12-31,Isopterygium tenerum (Sw.) Mitt.,Isopterygium tenerum (Sw.) Mitt.,R. R. Ireland,1988,N/A,Bolivia,N/A,N/A,San Vicente,San Vicente,San Vicente,In woods,N/A,1200 meters,N/A,1039993,Typed,no type status
EMu Field Museum | Bryophytes Portal,https://fm-digital-assets.fieldmuseum.org/2542/881/C2079859F.jpg,,,0254_C2079859F.jpg,R. S. Williams,R. S. Williams,N/A,2037,1901-1902,1901-00-00,1902-00-00,Isoterygium tenerum (Sw.) Mitt.,Isoterygium tenerum (Sw.) Mitt.,R. S. Williams,23 Jan 1902,N/A,Bolivia,N/A,N/A,N/A,N/A,[precise locality unknown],N/A,N/A,N/A,N/A,1014912,Mix of Handwritten and Typed,no type status
EMu Field Museum | Bryophytes Portal,https://fm-digital-assets.fieldmuseum.org/2550/919/C2010970F.jpg,,,0255_C2010970F.jpg,I. Hagen,I. Hagen,N/A,N/A,N/A,N/A,N/A,Cephalozia bicuspidata (L.) Dumort. var. lammersiana (Nees) Schiffn.,Cephalozia bicuspidata var. lammersiana,N/A,N/A,N/A,Norvegia,N/A,N/A,patria,Norvegia vallis Sunndalsfjord ad loc. Kvitrudgjerdet,[precise locality unknown],N/A,soil,altit. mtr 200-300,N/A,N/A,Typed,no type status
EMu Field Museum | Bryophytes Portal,https://fm-digital-assets.fieldmuseum.org/2550/921/C2010972F.jpg,,,0256_C2010972F.jpg,,,,,,,,,,,,,,,,,,,,,,,,,
EMu Field Museum | Bryophytes Portal,https://fm-digital-assets.fieldmuseum.org/2550/925/C2000534F.jpg,,,0257_C2000534F.jpg,Pyrenees: Co. de Jeret,N/A,N/A,1878,1878,1878-00-00,N/A,Polytrichum alpinum L. & P. juniperinum Willd.,Polytrichum juniperinum Willd.,N/A,N/A,N/A,N/A,N/A,N/A,N/A,N/A,[precise locality unknown],N/A,N/A,N/A,N/A,N/A,Mix of Handwritten and Typed,no type status
EMu Field Museum | Bryophytes Portal,https://fm-digital-assets.fieldmuseum.org/2550/927/C2000536F.jpg,,,0258_C2000536F.jpg,N/A,N/A,N/A,N/A,N/A,N/A,N/A,Pogonatum urnigerum,Pogonatum urnigerum,N/A,N/A,N/A,England,Sussex,N/A,N/A,"Sussex, England",Sussex,N/A,N/A,N/A,N/A,Ex Herb. Wm. H. Mitten,Typed,no type status
EMu Field Museum | Bryophytes Portal,https://fm-digital-assets.fieldmuseum.org/2550/929/C2000538F.jpg,,,0259_C2000538F.jpg,E.H. Eames,E.H. Eames,N/A,N/A,Without Date,N/A,N/A,Lycopodiella inundata,Lycopodiella inundata,N/A,N/A,N/A,United States,Connecticut,Fairfield County,Upper Stepney,"Upper Stepney, Conn.",[precise locality unknown],N/A,N/A,N/A,N/A,1182972,Mix of Handwritten and Typed,no type status
EMu Field Museum | Bryophytes Portal,https://fm-digital-assets.fieldmuseum.org/2550/933/C2000542F.jpg,,,0260_C2000542F.jpg,Leg. Font Quer,Font Quer,N/A,s.n.,19/VI/1928,1928-06-19,N/A,Saponaria ocymoides L.,Saponaria ocymoides L.,N/A,N/A,N/A,Spain,Catalunya,Barcelona,Viladrau,Viladrau,Viladrau,N/A,soil,N/A,N/A,Barcode: C0040582F,Handwritten,no type status
EMu Field Museum | Bryophytes Portal,https://fm-digital-assets.fieldmuseum.org/2550/935/C2000932F.jpg,,,0261_C2000932F.jpg,C. Maler Frhr.,C. Maler Frhr.,N/A,476,9 Sept. 1905,1905-09-09,N/A,Polytrichum juniperinum (L.) P. Beauv. ex Brid.,Polytrichum juniperinum (L.) P.Beauv. ex Brid.,E. Biebl.,10. 7. 1909,N/A,N/A,N/A,N/A,N/A,"SaeJ.) Brhlen auf Erde in Felsspalten zwischen Binken und Sernechn on Felberberge, (etwa 1210 m w. n. M.)",[precise locality unknown],On earth in rock crevices,soil,etwa 1210 m w. n. M.,N/A,1123491,Handwritten,no type status
EMu Field Museum | Bryophytes Portal,https://fm-digital-assets.fieldmuseum.org/2550/937/C2000934F.jpg,,,0262_C2000934F.jpg,leg. d. Píč,D. Píč,N/A,214,V.1946,1946-05-00,1946-05-00,Poematium umbrarum Fr.,Poematium umbrarum Fr.,N/A,N/A,N/A,Czechoslovakia,Bohemia,N/A,Konten Kolonádě,"In paeonivis graminosis silvaticis prope pagum Hoření Vrchlabí, ca 580 m",In paeonivis graminosis silvaticis prope pagum Hoření Vrchlabí,graminosis silvaticis,N/A,ca 580 m,N/A,12700515,Typed,no type status
EMu Field Museum | Bryophytes Portal,https://fm-digital-assets.fieldmuseum.org/2550/939/C2000936F.jpg,,,0263_C2000936F.jpg,Collected in 1843 by James Thompson,James Thompson,N/A,N/A,1843,1843-00-00,1843-00-00,Gonatonium bryogenum,Gonatonium bryogenum,N/A,N/A,N/A,Scotland,N/A,N/A,N/A,N/A,[precise locality unknown],N/A,N/A,N/A,N/A,1230790,Handwritten,no type status
EMu Field Museum | Bryophytes Portal,https://fm-digital-assets.fieldmuseum.org/2550/941/C2000938F.jpg,,,0264_C2000938F.jpg,Her bier Ed. Jeanpert,Ed. Jeanpert,N/A,N/A,N/A,N/A,N/A,Rhynchospora corymbosa L.f. Olivar,Rhynchospora corymbosa L.f. Olivar,N/A,N/A,N/A,N/A,N/A,N/A,N/A,N/A,[precise locality unknown],N/A,N/A,N/A,N/A,N/A,Typed,no type status
EMu Field Museum | Bryophytes Portal,https://fm-digital-assets.fieldmuseum.org/2550/943/C2000940F.jpg,,,0265_C2000940F.jpg,N/A,N/A,N/A,N/A,May 1945,1945-05-00,N/A,Polypodium vulgare Linn.,Polypodium vulgare Linn.,W. N. Johnson,N/A,N/A,N/A,N/A,N/A,N/A,Herbarium of W. N. Johnson,[precise locality unknown],N/A,N/A,N/A,N/A,1153426,Typed,no type status
EMu Field Museum | Bryophytes Portal,https://fm-digital-assets.fieldmuseum.org/2550/946/C2000943F.jpg,,,0266_C2000943F.jpg,C. Jensen,C. Jensen,N/A,N/A,25/10 1901,1901-10-25,N/A,Pogonatum urnigerum (Hedw.) P. Beauv.,Pogonatum urnigerum (Hedw.) P. Beauv.,N/A,N/A,N/A,Denmark,Sjælland,N/A,N/A,Maglebrække by Præstø in a gravel-pit,Maglebrække by Præstø in a gravel pit,N/A,N/A,N/A,N/A,AP 1953,Typed,no type status
EMu Field Museum | Bryophytes Portal,https://fm-digital-assets.fieldmuseum.org/2550/948/C2000945F.jpg,,,0267_C2000945F.jpg,Ed. Jeanpert,Ed. Jeanpert,N/A,N/A,15 Octobre 1922,1922-10-15,1922-10-15,Bryum caespiticium L. var. turbinatum (Schwaegr.) C. Muell.,Bryum caespiticium var. turbinatum,N/A,N/A,N/A,France,Paris,N/A,N/A,Bois de Vincennes,Bois de Vincennes,[No habitat information provided],soil,N/A,N/A,1058475,Handwritten,no type status
EMu Field Museum | Bryophytes Portal,https://fm-digital-assets.fieldmuseum.org/2550/950/C2000947F.jpg,,,0268_C2000947F.jpg,Herbarium Ed. Jeanpert,Ed. Jeanpert,N/A,N/A,N/A,N/A,N/A,Saxifraga cuneifolia Var. hibernica (Simms) Jenn.,Saxifraga cuneifolia Var. hibernica (Simms) Jenn.,N/A,N/A,N/A,N/A,N/A,N/A,N/A,N/A,[precise locality unknown],N/A,N/A,N/A,N/A,1058481,Handwritten,no type status
EMu Field Museum | Bryophytes Portal,https://fm-digital-assets.fieldmuseum.org/2550/952/C2000949F.jpg,,,0269_C2000949F.jpg,GIFT OF ELMER I. RICHARD,Elmer I. Richard,N/A,1182976,May 1946,1946-05-00,1946-05-00,Sporadanthus gracilis,Sporadanthus gracilis,N/A,N/A,N/A,Scotland,N/A,N/A,N/A,Scotland,[precise locality unknown],N/A,N/A,N/A,N/A,1182976,Typed,no type status
EMu Field Museum | Bryophytes Portal,https://fm-digital-assets.fieldmuseum.org/2550/954/C2010614F.jpg,,,0270_C2010614F.jpg,J.F. Leroy,J.f Leroy,N/A,18.07.1942,XI. 1942,1942-11-00,1942-11-00,Isoetes velatum A. Braun Rhizomate crasso foliisque dense lanosis,Isoetes velatum A. Braun,O. Crozals,XI. 1942,N/A,France,Pyrénées-Orientales,N/A,N/A,"Sous le Roc de la Pala, Vallée d'Eyne","Sous le Roc de la Pala, Vallée d'Eyne",[precise habitat unknown],soil,alt. 1750 m,N/A,1050871,Mix of Handwritten and Typed,no type status
EMu Field Museum | Bryophytes Portal,https://fm-digital-assets.fieldmuseum.org/2550/956/C2010616F.jpg,,,0271_C2010616F.jpg,M. Arnaud,M. Arnaud,N/A,75360,7.01.1976,1976-01-07,N/A,Sphagnum uncinatum H. Beauv. Schimp.,Sphagnum uncinatum H. Beauv. Schimp.,N/A,N/A,N/A,Guinée,N/A,N/A,N/A,"Futa Jallon', val d'ouma, entre T. Mariama et Niare'","Futa Jallon', val d'ouma, entre T. Mariama et Niare'",falaise forestière,soil,alt. 1700m,N/A,N/A,Typed,no type status
EMu Field Museum | Bryophytes Portal,https://fm-digital-assets.fieldmuseum.org/2550/958/C2010618F.jpg,,,0272_C2010618F.jpg,Dixon's Musci Britannici,Dixon,N/A,N/A,N/A,N/A,N/A,"Hypopterygium wilsonii, ",Hypopterygium wilsonii (Assuming no other determination labels present),N/A,N/A,N/A,N/A,N/A,N/A,N/A,[precise locality unknown],[precise locality unknown],N/A,N/A,N/A,N/A,1058318,Mix of Handwritten and Typed,no type status
EMu Field Museum | Bryophytes Portal,https://fm-digital-assets.fieldmuseum.org/2550/960/C2010620F.jpg,,,0273_C2010620F.jpg,Jos. Rohlena u. Stiebenberger,Jos. Rohlena,Stiebenberger,9864,23. August 1850,1850-08-23,N/A,Polygonum aviculare L.,Polygonum aviculare L.,N/A,N/A,N/A,Germany,Bayern,N/A,N/A,An Wegrändern bei Salurn,[precise locality unknown],N/A,N/A,N/A,N/A,N/A,Typed,no type status
EMu Field Museum | Bryophytes Portal,https://fm-digital-assets.fieldmuseum.org/2550/962/C2010622F.jpg,,,0274_C2010622F.jpg,Dr. Hopp.,Dr. Hopp,N/A,9986,17. Oktober 1862,1862-10-17,1862-10-17,Pogonatum urnigerum (L.) P. Beauv.,Pogonatum urnigerum (L.) P. Beauv.,N/A,N/A,N/A,N/A,N/A,N/A,N/A,Aus dem Waldauwalde und von rothen Sandsteinfelsen oberhalb Doberzeit,[precise locality unknown],Waldauwalde und rothen Sandsteinfelsen,N/A,N/A,N/A,1054981,Typed,no type status
EMu Field Museum | Bryophytes Portal,https://fm-digital-assets.fieldmuseum.org/2550/964/C2010624F.jpg,,,0275_C2010624F.jpg,A. Löhr and W. Schaffhausen,A. Löhr,W. Schaffhausen,9688 d.,September 1952,1952-09-00,1952-09-00,Pogonatum urnigerum (L.) P. Beauv.,Pogonatum urnigerum (L.) P. Beauv.,N/A,N/A,N/A,N/A,N/A,N/A,N/A,N/A,[precise locality unknown],N/A,soil,N/A,N/A,1055050,Handwritten,no type status
EMu Field Museum | Bryophytes Portal,https://fm-digital-assets.fieldmuseum.org/2550/966/C2010626F.jpg,,,0276_C2010626F.jpg,C. Jensen,C. Jensen,N/A,104,"November 21, 1904",1904-11-21,N/A,Pogonatum urnigerum (Hedw.) P. C. f.,Pogonatum urnigerum (Hedw.) P. C. f.,C. Jensen,N/A,N/A,New Zealand,N/A,N/A,Mangataksow,sandy soil in Mangataksow south of Hawkes,sandy soil in Mangataksow south of Hawkes,sandy soil,soil,N/A,N/A,N/A,Typed,no type status
EMu Field Museum | Bryophytes Portal,https://fm-digital-assets.fieldmuseum.org/2550/968/C2010974F.jpg,,,0277_C2010974F.jpg,P. Allorge,P. Allorge,N/A,49,"Marzo, 1928",1928-03-00,1928-03-00,"Pogonatum urnigerum (Linb. Sp. Plant. II, p. 1409, n. 1333, ad pl. Julich.) Palustre Beauvois Prod. p. 68. T. V. = Polytrichum urnigerum (Lindb.) Aloina julica (Schultz.) Douin (Mitt. m.) = Aulacomnium palustre (L.) C. Müll. (pl H.) = Polytrichum julicum (Lund.) Warnst. = P. schimperi Bryotheca Iberica",Bryotheca Iberica,N/A,N/A,N/A,Spain,Navarra,N/A,Puente la Reina,Puente la Reina (Navarra),Puente la Reina,Talus argileux (schisteux) avec Aloina julica (Schultz. ) Douin,soil,N/A,N/A,1200129,Typed,no type status
EMu Field Museum | Bryophytes Portal,https://fm-digital-assets.fieldmuseum.org/2550/970/C2010976F.jpg,,,0278_C2010976F.jpg,Zd. Pilous,Zd. Pilous,N/A,1025,VII.1949,1949-07-00,1949-07-00,Pogonatum urnigerum Pal. var. humile Brid.,Pogonatum urnigerum var. humile,N/A,N/A,N/A,Slovakia,N/A,N/A,N/A,"Monts Málek Tatry: In terra montis Dumbier, ca 1840 m","Monts Málek Tatry, terra montis Dumbier, approximately 1840 meters",N/A,soil,ca 1840 m,N/A,1350857,Typed,no type status
EMu Field Museum | Bryophytes Portal,https://fm-digital-assets.fieldmuseum.org/2550/990/C1042257F.jpg,,,0279_C1042257F.jpg,S. Churchill et al.,S. Churchill,et al.,22858,12 May 2004,2004-05-12,N/A,Neckera scabridens C. Müller,Neckera scabridens C. Müller,S. Churchill,Jun 2004,N/A,Bolivia,Chuquisaca,Belisario Boeto,"Monte Grande, cerca de Villa Serrano","Bosque montano de yungas Con Pumpupitys exigua, Podocarpus, Myrcianthes.",Bosque montano de yungas,Musgo sobre rama de árbol,bark,2740 m,"18°43'04""S 64°29'07""W",1183467,Typed,no type status
"Dillen et al., 2019",https://zenodo.org/record/1486506/files/K000931304.jpg,,,0280_K000931304.jpg,E. Círdulo (309); V. Mello & K. Pinheiro,E. Círdulo,"V. Mello, K. Pinheiro",1423,23/IV/2007,2007-04-23,N/A,Vigna peduncularis (Kunth) Fawc. & Rendle,Ancistrotropis peduncularis (Fawcett & Rendle) A. Delgado,G. P. Lewis,12.2012,N/A,Brasil,Pernambuco,N/A,Municipio de Mirandiba,"Municipio de Mirandiba, Serra das Umburanas (afloramento rochoso)",Serra das Umburanas,"Área aberta- arborizada, solo pedregoso, em embasamento cristalino.",soil,457 m,Latitude: 8º12'S Longitude: 38º32',Dupl. Herb. PEUFR,Typed,no type status
"Dillen et al., 2019",https://zenodo.org/record/1485174/files/EIG.6763.jpg,,,0281_EIG.6763.jpg,Ilkka Kukkonen,Ilkka Kukkonen,N/A,11003,13. Sept. 1981,1981-09-13,N/A,Arthropteris tenella (G. Forst.) J. Sm.,Arthropteris tenella (G. Forst.) J. Sm.,S. Kurvĕla,1982,N/A,Australia,Queensland,N/A,Atherton Tableland,Path of the rain forest islands.,[precise locality unknown],Rain forest. Fern climbing on tree stems.,bark,N/A,N/A,H78765,Typed,no type status
"Dillen et al., 2019",https://zenodo.org/record/1486594/files/K001046329.jpg,,,0282_K001046329.jpg,G. Pabst,G. Pabst,N/A,211,Data 23-9-60,1960-09-23,N/A,Avicennia tomentosa,Avicennia tomentosa,A. P. Duarte,N/A,N/A,Brazil,N/A,N/A,N/A,"Brasil: Ilha do ""Governador.""","Ilha do ""Governador""",Mangue; próximo ao leito da líquid.,N/A,N/A,N/A,N/A,Typed,no type status
"Dillen et al., 2019",https://zenodo.org/record/1486540/files/K000964719.jpg,,,0283_K000964719.jpg,W. Hoehne,W. Hoehne,N/A,10228,13/03/33,1933-03-13,N/A,Cestrum corymbosum Schltdl.,Cestrum corymbosum Schltdl.,Kuhlmann,N/A,N/A,Brasil,São Paulo,N/A,"Cantareira, São Paulo","Cantareira, São Paulo, - -, Alt -",[precise locality unknown],N/A,N/A,N/A,N/A,N/A,Typed,no type status
"Dillen et al., 2019",https://zenodo.org/record/1485130/files/EIG.5460.jpg,,,0284_EIG.5460.jpg,h. Eggert,H. Eggert,N/A,N/A,N/A,N/A,N/A,Cystopteris bulbifera (L.) Bernh.,Cystopteris bulbifera (L.) Bernh.,N/A,N/A,N/A,United States,Missouri,N/A,St. Louis,"St. Louis, Mo.","St. Louis, Missouri",N/A,N/A,N/A,N/A,N/A,Handwritten,no type status
"Dillen et al., 2019",https://zenodo.org/record/1485102/files/EIG.435.jpg,,,0285_EIG.435.jpg,T. Pocs,T. Pocs,N/A,19603,8.XI.1982,1982-11-08,1982-11-08,Dryopteris inaequalis (Schltr.) Kuntze,Dryopteris inaequalis (Schltr.) Kuntze,J. Särkelä,1983,N/A,Ethiopia,Bale Adm. Reg.,N/A,N/A,"Saneti plateau and Mount Batu, c. 4000-4200 m. In alpine belt dominated by Festuca schesleri, Euryops pectinata, and Helichrysum rosulate",Saneti plateau and Mount Batu,"In alpine belt dominated by Festuca schesleri, Euryops pectinata, and Helichrysum rosulate",soil,c. 4000-4200 m,06º55'N 39º40'E,1489739,Mix of Handwritten and Typed,no type status
"Dillen et al., 2019",https://zenodo.org/record/1484126/files/E00570050.jpg,,,0286_E00570050.jpg,"M. Vallejo, M.I.H. Wilcock seed 2.14",M. Vallejo,M.I.H. Wilcock,seed 2.14,22 March 2012,2012-03-22,N/A,Mimulus peregrinus,Mimulus peregrinus Nakielski & Mari. var. Nakielski & Mari,"M. Vallejo, M.I.H. Wilcock",N/A,N/A,Scotland,Scottish Borders,Selkirkshire,N/A,"ditch sides, 7 Sorrowlessfield Water, Melrose, Grid Ref: NT 54936 32752, WGS84 coordinates: N55.62370, W2.71579","ditch sides, 7 Sorrowlessfield Water, Melrose",Growing on the banks of a stream on a substrate of sand and silt/clay,sand and silt/clay,50 m,"N55.62370, W2.71579",E00570960,Typed,HOLOTYPE
"Dillen et al., 2019",https://zenodo.org/record/1485964/files/K000773283.jpg,,,0287_K000773283.jpg,T. R. Archer,T. R. Archer,N/A,648,Aug. 9/ 1902,1902-08-09,N/A,Monotropa Hypopitys Linnaeus,Monotropa Hypopitys Linnaeus,N/A,N/A,N/A,N/A,N/A,N/A,N/A,"Highgate Hill, Sissinghurst","Highgate Hill, Sissinghurst",N/A,soil,N/A,N/A,266 ex herb Lowen,Typed,no type status
"Dillen et al., 2019",https://zenodo.org/record/1480969/files/BR0000006918378.jpg,,,0288_BR0000006918378.jpg,Bart Van de Vijver & W. Van Looken,Bart Van de Vijver,W. Van Looken,N/A,25/04/2007,2007-04-25,2007-04-25,Ophrys oestrifera subsp. garganensis Van de Vijver & W. Van Looken,Ophrys oestrifera subsp. garganensis,N/A,N/A,N/A,Italia,N/A,N/A,N/A,"Promontorio del Gargano, Madonna di Loreto, Behind the Chapel of Madonna di Loreto","Promontorio del Gargano, Madonna di Loreto, Behind the Chapel of Madonna di Loreto",macchia-shrub with Cistus and Pinus,soil,N/A,N/A,BR - S.P. 691 837,Typed,no type status
"Dillen et al., 2019",https://zenodo.org/record/1486710/files/K001207911.jpg,,,0289_K001207911.jpg,G. Hatschbach 68083,G. Hatschbach,N/A,68083,N/A,N/A,N/A,Platycerium bifurcatum (Cav.) C. Chr.,Platycerium bifurcatum (Cav.) C. Chr.,G. Hatschbach,N/A,N/A,Brazil,Paraná,N/A,[precise locality unknown],"Rio Iguaçu, perto da usina Gov. Pedro Viriato Parigot de Souza, Lapa","Rio Iguaçu, perto da usina Gov. Pedro Viriato Parigot de Souza, Lapa","Em terreno arenoso, margens de rio",soil,N/A,N/A,N/A,Typed,no type status
"Dillen et al., 2019",https://zenodo.org/record/1485807/files/K000263710.jpg,,,0290_K000263710.jpg,"J.J. de Wilde, B.J. de Wilde-Sosef & B. van Nek",J.J. de Wilde,"B.J. de Wilde-Sosef, B. van Nek",10130,22-1-1991,1991-01-22,N/A,Hymenostegia gabonensis Jongkind,Rhynchostigma gabonense Jongkind,Jongkind,N/A,N/A,Gabon,N/A,N/A,N/A,"About 10 km on the road from Tchimbélé to Vasseko O 04 N., O 23 E.",About 10 km on the road from Tchimbélé to Vasseko,On tree in roadside,N/A,alt. ± 580 m.,"O 04 N., O 23 E.",K000236710,Typed,Isotype
"Dillen et al., 2019",https://zenodo.org/record/1480461/files/BM000934757.jpg,,,0291_BM000934757.jpg,Wilhelm Suksdorf,Wilhelm Suksdorf,N/A,12045,"Aug. 22, 1926",1926-08-22,1926-08-22,Solanum triflorum Nutt.,Solanum triflorum Nutt.,M. Nee,Dec. 2005,N/A,United States,Washington,Klickitat,N/A,High sandy river-bank at Bingen.,High sandy river-bank at Bingen,N/A,soil,N/A,N/A,BMOO0039478,Typed,no type status
"Dillen et al., 2019",https://zenodo.org/record/1485887/files/K000536956.jpg,,,0292_K000536956.jpg,J. Francis Macbride,J. Francis Macbride,N/A,5234,"Aug. 27-Sept. 1, 1923",1923-08-27,1923-09-01,Tococa umbellosa Macbr.,Tococa umbellosa Macbr.,T.F. Macbride,N/A,N/A,Peru,N/A,N/A,La Merced,Mountain slope.,Mountain slope.,N/A,N/A,about 4000 feet,N/A,N/A,Typed,Isotype
"Dillen et al., 2019",https://zenodo.org/record/1479535/files/B%2010%200375227.jpg,,,0293_B%2010%200375227.jpg,"X. Cornejo, C. Bonifaz",X. Cornejo,C. Bonifaz,5822,19 Jul 1997,1997-07-19,1997-07-19,Capparis scrobiphylla Miers nov.sp.,Capparis scrobiphylla Miers,N/A,N/A,"C. heterophylla, C. scabrida, C. lanceolata y C. crotonoides",Ecuador,Manabí,N/A,N/A,"Bosque seco tropical deciduo, frecuentemente intervenido. Bahía de Caráquez & 3 km Alr. Alrededores de Universidad Católica",Bahía de Caráquez & 3 km Alrededores de Universidad Católica,"Bosque seco tropical deciduo, frecuentemente intervenido",soil,0-45 m,Latitud 00°45' IMI hasta 80°32' 30,B 10 0375227,Typed,Isotype
"Dillen et al., 2019",https://zenodo.org/record/1479341/files/B%2010%200185601.jpg,,,0294_B%2010%200185601.jpg,M. l'Abbé Delavay,M. l'Abbé Delavay,N/A,N/A,2 avril 1887,1887-04-02,1887-04-02,Gentiana albescens,Gentiana albescens Franch.,N/A,N/A,N/A,Chine,Yunnan,N/A,N/A,Collines argileuses Mo-so-yen,Collines argileuses Mo-so-yen,Collines argileuses,soil,3100-4000 m,N/A,N/A,Handwritten,no type status
"Dillen et al., 2019",https://zenodo.org/record/1479171/files/B%2010%200030508.jpg,,,0295_B%2010%200030508.jpg,P. J. M. Maas & Nap,P. J. M. Maas,Nap,3685,16-19 de abril 1993,1993-04-16,1993-04-19,Herbario Nacional de Venezuela (VEN) Klarobelia subglobosa Chatrou,Klarobelia subglobosa Chatrou,Chatrou,1999,N/A,Venezuela,Distrito Federal,N/A,N/A,"Distrito Federal, Estado Miranda: Cordillera de la Costa: cursus Busteiro-Curucutí: ruta Fila Juan Torres-Río Brazo Grande-Cima Naiguatá-Río Curucutil Burger Joint a circa 500 mssnm","Cordillera de la Costa, ruta Fila Juan Torres-Río Brazo Grande-Cima Naiguatá-Río Curucuti Burger Joint a circa 500 meters",Fila Billarini en selva,"unknown, check",circa 500 mssnm,N/A,3685,Typed,Isotype
"Dillen et al., 2019",https://zenodo.org/record/1479203/files/B%2010%200069251.jpg,,,0296_B%2010%200069251.jpg,Kessler 283,Kessler,N/A,283,21.12.1988,1988-12-21,1988-12-21,Mallotus paniculatus,Mallotus paniculatus,Kessler,N/A,N/A,Sarawak,1st Division,N/A,Base of Gunung Pueh,"Sarawak, 1st Division, Base of Gunung Pueh",Base of Gunung Pueh,Secondary vegetation along road,N/A,up to 200 m,N/A,BGBM2003,Typed,no type status
"Dillen et al., 2019",https://zenodo.org/record/1479479/files/B%2010%200279821.jpg,,,0297_B%2010%200279821.jpg,M. Jacobs,M. Jacobs,N/A,5005,Aug. 1,1958-08-01,1958-08-01,Piptospatha grabowskii (Engl.) Engl. (Syn. P. havilandii (Engl.) Engl.),Piptospatha grabowskii (Engl.) Engl.,N/A,N/A,N/A,Borneo,Sarawak,N/A,N/A,"1st div., Slopes of Mount Penrissen (S. of Kuching), approx. 1°5' N., 110°5' E.",Slopes of Mount Penrissen,Primary forest on sandstone substrate. In very moist sandstone gorge on rocks.,rock,c. 700-900 m,"approx. 1°5' N., 110°5' E.",B 700071608,Mix of Handwritten and Typed,no type status
"Dillen et al., 2019",https://zenodo.org/record/1479168/files/B%2010%200030420.jpg,,,0298_B%2010%200030420.jpg,"P. J. M. & H. Maas, L. Kollmann",P. J. M. Maas,"H. Maas, L. Kollmann",8833,16 Feb 1939,1939-02-16,N/A,Annonaceae Pseudoxandra sp. nov. Det. P.J.M. Maas 1999,Pseudoxandra spiritus-sancti Maas,P.J.M. Maas,2001,N/A,Brazil,Espírito Santo,Santa Teresa,N/A,"Estação Biológica de Santa Lúcia, Municipio de Santa Teresa",Estação Biológica de Santa Lúcia,"High forest on Barroloisland, vegetation with dominance of Podocarpus and terrestrial and epiphytic Bromeliaceae",N/A,800-850m,19°58'S & 40°32'W,B 10 0094420,Typed,Isotype
"Dillen et al., 2019",https://zenodo.org/record/1479553/files/B%2010%200385068.jpg,,,0299_B%2010%200385068.jpg,"R. Berazaín, J. Bisse, M. A. Díaz, H. Dietrich, L. González Géigel, J. Gutiérrez, E. Köhler, L. Lepper, U. Rändel, H. Scharaschmidt",R. Berazaín,"J. Bisse, M. A. Díaz, H. Dietrich, L. González Géigel, J. Gutiérrez, E. Köhler, L. Lepper, U. Rändel, H. Scharaschmidt",HFC 39098,09-11-1979,1979-11-09,N/A,Planodes virginicum var. glanduliferum Urb.,Planodes virginicum var. glanduliferum Urb.,N/A,N/A,N/A,Cuba,Guantánamo,N/A,San Antonio del Sur,"Abra de Mariana, loma al oeste del barranco","Abra de Mariana, loma al oeste del barranco",Coordenadas de la cuadrícula (Cuba 1:250000): 16/71,N/A,"1,150-1,170 m",N/A,Mus. Bot. Berol. B 10 0358068,Typed,Isotype