Image,verbatimCollectors,collectedBy,secondaryCollectors,recordNumber,verbatimEventDate,minimumEventDate,maximumEventDate,verbatimIdentification,latestScientificName,identifiedBy,verbatimDateIdentified,associatedTaxa,country,firstPoliticalUnit,secondPoliticalUnit,municipality,verbatimLocality,locality,habitat,substrate,verbatimElevation,verbatimCoordinates,otherCatalogNumbers,originalMethod,typeStatus
0035_C2079355F.jpg,Alejo Ponce de Mansanet Greek Inctte,A. Ponce de Mansanet,N/A,52756,Jan 3 1932,1932-01-03,N/A,Vesicularia vesicularis (Schp) Broth var Bartram det Bartram,Vesicularia vesicularis,E. B. Bartram,Oct 1932,N/A,Peru,Loreto,N/A,N/A,On rotten log sterile Mishuyacu near Iquitos,"On rotten log, Mishuyacu near Iquitos [precise locality unknown]",N/A,,Alt 100 m,N/A,1039421,Mix of Handwritten and Typed,no type status
0016_C2077584F.jpg,"Richard Evans Schultes (Dec, 1950)",R. E. Schultes,N/A,N/A,"Dec, 1950",1950-12-00,N/A,"Pilocereus chichonpalina (Jacq, P C)",Pilocereus chichonpalina,N/A,N/A,N/A,Colombia,Guaviare,San Jose del Guaviare,Unsure and check,"Level Richard evans schultes Dec, 1950",[precise locality unknown],N/A,,N/A,N/A,1055486,Typed,no type status
0023_C2078926F.jpg,N/A,N/A,N/A,1049406,s.d.,N/A,N/A,Brachythecium californicumbottx Bryophyta of Bolivia,Brachythecium californienseBottx,E. B. Bartram,25 May 1979,N/A,Bolivia,Oruro,Prov. Sajama,Rio Junthuma,"Khachu, 2 mi down river from Aguas termales de Rio Junthuma Khuchu, 4350 m, 18º 0' S, 69º 00' W In warmish creek",[precise locality unknown],N/A,,N/A,"18º 0' S, 69º 00' W",1049406,Typed,no type status
0042_C2079358F.jpg,Coll BY Ynés Mexia,Y. Mexia,N/A,8070,"May 14,1936",1936-05-14,N/A,Verbenaria amphibola (Spr.) Enoth.,Verbenaria amphibola,unsure and check,unsure and check,N/A,Peru,La Convencion,unsure and check,unsure and check,upper valley of the Sambray affluent of the Vilcanota; on rotten logs in virgin forest. Alt 1800 m.,upper valley of the Sambray affluent of the Vilcanota; on rotten logs in virgin forest.,in virgin forest,,Alt 1800 m.,N/A,1093814,Typed,no type status
0024_C2078927F.jpg,Marko Lewis 6972-2112,M. Lewis,N/A,6972-2112,25 May 1979,1979-05-25,N/A,Brachytheclum callieroonides synth in Bark,Bryophyta of Bolivia,D. R. Ochyra,Det. D. R. Ochyra 1982,N/A,Bolivia,La Paz,N/A,Rio Junthuma,Khuchu 2 mi down river from Aguas termales de Rio Junthuma Khuchu 4350 m 13° 07' S 69° 00' W in warmish creek,2 miles down river from Aguas termales de Rio Junthuma Khuchu 4350 meters in warmish creek,N/A,,4350 m,13° 07' S 69° 00' W,1049407,Typed,no type status
0040_C2079356F.jpg,YDO Mesia No. 3772wet,Y. D. O. Mesia,N/A,3772wet,"Jan. 4, 1958.",1958-01-04,N/A,Fontinalis antipyretica (det.) Mitt.,Fontinalis antipyretica,N/A,N/A,N/A,Peru,N/A,N/A,Maransohe,"Dr reitas small stream, Quelle, Pindar olivs planzs (usdl.) Mitt.",[precise locality unknown],near small stream,,alt. 210 m.,N/A,870880,Handwritten,no type status
0026_C2078929F.jpg,Det R Ochyra 1982,N/A,N/A,N/A,s.d.,N/A,N/A,Brachythecium calliergonoides Broth in Höhm,Brachythecium calliergonoides,R. Ochyra,1982,N/A,Bolivia,Rio Junthuma,N/A,N/A,2 mi down river from Aguas termales de Rio Junthuma Khuchu 4350 m 18° 07' S 69° 00' W In warmish creek,[precise locality unknown],N/A,,4350 m,18° 07' S 69° 00' W,1049410,Typed,no type status
0065_C2000932F.jpg,Gift of Elmer J Richards,N/A,N/A,N/A,AUG 1946,1946-08-00,N/A,Pogonatum urnigerum (L) Pal Beauv C fr,Pogonatum urnigerum,N/A,N/A,N/A,N/A,N/A,N/A,N/A,N/A,[precise locality unknown],Sedalia an Erle in Colortree western flicker and Schl from some,,N/A,N/A,1194591,Handwritten,no type status
0096_C2032321F.jpg,John Child M 4147,J. Child,N/A,4147,11 Jul 1973,1973-07-11,N/A,Rhacoplilus,Rhacoplilus,N/A,N/A,N/A,New Zealand,North Island,North Auckland Prov,Kaipara,"Track to Mahuta, Waipaua ca 1000 ft","Track to Mahuta, Waipaua",Epiphyte on tree in Kauri forest,,"35°40'S,173°30'E",ca. 1000 ft.,1056055,Mix of Handwritten and Typed,no type status
0027_C2078926F.jpg,leg E Asplund,E. Asplund,N/A,1982,det 25 V 1979,1979-05-25,N/A,Brachythecium calliergonoides Broth,Brachythecium calliergonoides,Mårten Sonesson,det 25 V 1979,N/A,Bolivia,Oruro,Prov Sajama,Rio Junthuma,Khuchu 2 mi down river from Aguas termales de Rio Junthuma Khuchu 4350 m 18° 0' S 69° 00' W in warmish creek,2 miles down river from Aguas termales de Rio Junthuma Khuchu in warmish creek [precise locality unknown],N/A,,4350 m,18° 0' S 69° 00' W,1049406,Typed,no type status
0001_C0020052F.jpg,Collected and Determined by R M Schuster & K Damsholt,R. M. Schuster,K. Damsholt,82-1049,July 3,1982-07-03,N/A,Anastrophyllum minutum (SCHREB) SCHUST v grandis (GOTT) SCHUST,Anastrophyllum minutum,R. M. Schuster,1982,Cephalozia bicuspidata (L) DUM,Greenland,Frederiksdal,N/A,N/A,"60°00'N lat, 44°40'W long",[precise locality unknown],N/A,,N/A,"60°00'N lat, 44°40'W long",No 82-1049,Mix of Handwritten and Typed,no type status
0019_C2078862F.jpg,J BSG (Determined by Dom Cirilo Hl),N/A,N/A,N/A,N/A,N/A,N/A,Brachythecium plumosum (Hedw.) BSG,Brachythecium plumosum,"Sobre roca húmeda, lecho de riachuelo, a sol.",N/A,N/A,Venezuela,N/A,N/A,N/A,"ESTADO TRUJILLO: Between the towns of Carache and Boconó Along the border between the two towns Elevation from 1,300 m to approximately 3,800 m",Between the towns of Carache and Boconó Along the border between the two towns,"Sobre roca húmeda, lecho de riachuelo, a sol.",,"Elevation from 1,300 m to approximately 3,800 m",N/A,1064449,Typed,no type status
0025_C2078928F.jpg,N/A,N/A,N/A,1019109,N/A,N/A,N/A,Brachythecium calliergonoides Broth s str,Brachythecium calliergonoides,H Ochi,det H Ochi 1982,N/A,Bolivia,Oruro,Sajama,Khuchi,Bio Junthuma Khucha 4350 m 18° 07' S 68° 00' W in warmish creek,Bio Junthuma Khucha in warmish creek,N/A,,4350 m,18° 07' S 68° 00' W,79-2115,Mix of Handwritten and Typed,no type status
0027_C2078930F.jpg,According to label information No 1 den,R. Ehezner,N/A,402,February 1982,1982-02-00,N/A,Bryophyta of Bolivia N° 73-2118 According to label information No 40 Bryothecium calliergonioides Broth in Herz det G (Unsure and check) Onoyra 1982,Bryothecium calliergonioides,G. Onoyra,1982,N/A,Bolivia,Rio Junthuma,Khuchi,N/A,Depto Oruro Prov Sajama 2 mi down river from Aguas termales de Rio Junthuma Khuchi 4350 m 18°07′ S 69°00′ W In warm creek,2 miles down river from Aguas termales de Rio Junthuma,In warm creek,,4350 m,18°07′ S 69°00′ W,1049411,Mix of Handwritten and Typed,no type status
0021_C2078924F.jpg,KENNETH D MCFARLAND,K. D. McFarland,N/A,s.n.,Sept 1989,1989-09-00,N/A,Frullanoides augustifolia (H F W Lindbg) B Barthol | Tejar leg Barthol | Last Hope Inlet; Peninsula Antonio Varas; Open from Molat in Bathythecum good | moist earth | Alt 65 m,Frullanioides augustifolia,W. Linzey | det Barthol,April 10 1936 | Tejar Bartholom,N/A,Chile,N/A,N/A,N/A,Last Hope Inlet; Peninsula Antonio Varas; Open from Molat in Bathythecum good moist earth,Last Hope Inlet; Peninsula Antonio Varas; Open from Molat in Bathythecum good moist earth,N/A,,Alt 65 m,N/A,5001 | 1100738,Typed,no type status
0009_C2077574F.jpg,G Lörincz,G. Lörincz,N/A,s.n.,s.d.,N/A,N/A,FLORA SURINAMENSIS Herb Acad Rheno - Traj,unsure and check,N/A,N/A,N/A,Suriname,N/A,N/A,N/A,"Savanna forest, on rotting log",[precise locality unknown],"Savanna forest, on rotting log",,N/A,N/A,1073529 R 143017,Mix of Handwritten and Typed,no type status
0006_C2077570F.jpg,Above Pongo de Manseriche,N/A,N/A,N/A,Aug 2 1961,1961-08-02,N/A,ulreocolax sp.n. south of Ric Santiago On fallen log,Aureocolax,det Bartram,Aug 2 1961,N/A,Peru,N/A,Loreto,N/A,Above Pongo de Manseriche Dept Loreto alt 450 m stromata poor south of Rio Santiago on fallen log,[precise locality unknown],on fallen log,,alt 450 m,N/A,1057692,Handwritten,no type status
0068_C2079856F.jpg,Leg CyPtoR amrc herbarium,C. Aric,N/A,N/A,"July 6, 1936",1936-07-06,N/A,Plants of Brazil State of Minas Gerais Viçosa Minas No 4541 Isopterygium brachyneuron (CMull) Mitt ex p Vicosa Agricultural College lands Alt 670 m Epiphytic in trees Out over woods near base On rotting log Abundant,Isopterygium tenerifolium,R. R. Ireland,1988,N/A,Brazil,Minas Gerais,N/A,Viçosa,Vicosa Agricultural College lands,Vicosa Agricultural College lands,Epiphytic in trees Out over woods near base On rotting log Abundant,,Alt 670 m,N/A,870537,Typed,no type status
0037_C2079357F.jpg,J Vasicularis mephitola (Spr) Endrh,N/A,N/A,8377,Jan 5 1935,1935-01-05,N/A,Herbarium FIELD MUSEUM,N/A,N/A,N/A,N/A,Peru,Huanuco,Unsure and check,Alt 8250 m,Above Tonahe Monzon,Above Tonahe Monzon,N/A,,Alt 8250 m,N/A,870873,Typed,no type status
0004_C2077568F.jpg,Det Hasan De Luna 1992,N/A,N/A,s.n.,s.d.,N/A,N/A,Hedwigia ciliata (Hedw.) P. Beauv.,Hedwigia ciliata,Hasan De Luna,1992,N/A,Bolivia,N/A,N/A,N/A,N/A,[precise locality unknown],humid cliffs and steep stones 3320 m DEPTO LA PAZ PROV SAAVEDRA: On mountain side directly N. of river beneath Nido Karina NNW of Chuma 15°08'S 69°01'W.,,3320 m.,15°08'S 69°01'W,1032220,Typed,no type status
0073_C2010622F.jpg,J Pal Braun,J. P. Braun,N/A,881,17 October 1935,1935-10-17,N/A,Pogonatum urnigerum XXL,Pogonatum urnigerum,N/A,N/A,N/A,unsure and check,N/A,N/A,N/A,Pol Braun,[precise locality unknown],An einem Waldwege auf dem rothen Sandsteinboden nordlich Wasserjotsh 17 Oktober 1935 m Hopp,,N/A,N/A,1054981,Typed,no type status
0044_C2079360F.jpg,R O Berteau,R. O. Berteau,N/A,2465,APR 1956,1956-04-00,N/A,Hesionodendron westoniensis (Bonham) A Smith,Hesionodendron westoniensis,A. Smith,5-jun-1956,Macrochloris vesicularia,Brazil,Santa Catarina,N/A,unsure and check,"Ascobaja, Brusque","Ascobaja, Brusque","epiphyta, da casa virgem",,"Altit, cr. msm",N/A,5.469,Typed,no type status
0026_C2078925F.jpg,Riihijarvi Finland 1932,N/A,N/A,N/A,N/A,1932-00-00,N/A,Brachytherium cf calliergenicus brol N.D.,Brachytherium calliergonoidos,N/A,N/A,N/A,Finland,N/A,N/A,Riihijarvi,Riihijarvi Finland,[precise locality unknown],N/A,,N/A,N/A,1019405,Typed,no type status
0006_C2077566F.jpg,"Du Rietz Et Lüna, 1952",D. E. Lüna,N/A,s.n.,22 March 1979,1979-03-22,N/A,Bryophyta of Bolivia,Hedwigia ciliata,P. Beauv,N/A,N/A,Bolivia,La Paz,Prov Larecaja,"Near large red outcrop 2 mi from Sorata down Río Consata, 15° 41' S, 68° 43' W","Bromeliad habitat. Abundant on rock faces of exposed cliffs, 2520 m",[precise locality unknown],Bromeliad habitat. Abundant on rock faces of exposed cliffs,,2520 m,"15° 41' S, 68° 43' W",1032221,Typed,no type status
0049_C2079595F.jpg,H Novarro,H. Novarro,N/A,s.n.,25.1.1970,1970-01-25,N/A,"Tierra del Fego,australes, Ushuaia,arroyo grande (74°47'8.68""W), en fisuras de roca y en raices humoso-arcillosos de arbustos pusillos, en orilla de la cascada,190 m sm, bastante copiosamen-te",Plantae argentinae,E. Ochyra,det. E. Ochyra 1996,N/A,Argentina,Ushuaia,N/A,N/A,"Tierra del Fego,australes",[precise locality unknown],"en fisuras de roca y en raices humoso-arcillosos de arbustos pusillos, en orilla de la cascada",,190 m s.m.,"74°47'8.68""W",1182417,Mix of Handwritten and Typed,no type status
0025_C2078924F.jpg,Leg Mary Klinck,M. Klinck,N/A,s.n.,"April 10,1936",1936-04-10,N/A,Brachythecium salebrosum (Hoffm),Brachythecium salebrosum,W. Welch Det,Sept 1947,N/A,Chile,N/A,N/A,Punta Arenas,Last Hope Inlet; Peninsula Antonio Varas; openings in Nothofagus wood in moist earth,Last Hope Inlet; Peninsula Antonio Varas; openings in Nothofagus wood in moist earth,Alt. 65 m Common scattered in small turfs,,Alt. 65 m,N/A,8001,Typed,no type status
0022_C2078925F.jpg,Breitschmid et callegionides,Breitschmid,callegionides,N/A,s.d.,N/A,N/A,Bryophyta of Bolivia,unsure and check,N/A,N/A,N/A,Bolivia,N/A,N/A,N/A,N/A,[precise locality unknown],N/A,,N/A,N/A,1019405,Typed,no type status
0002_C2077566F.jpg,Hedwigia ciliata (Hedw.) P. Beauv,N/A,N/A,N/A,N/A,N/A,N/A,Hedwigia ciliata (Hedw.) P. Beauv,Hedwigia ciliata,N/A,N/A,N/A,N/A,N/A,N/A,N/A,"Bromeliad habitat. Abundant on rock faces of exposed cliffs, 2630 m",[precise locality unknown],"Near large red outcrop 2 mi. from Sorata down Río Consata, 15° 41' S, 68° 43' W",,2630 m,"15° 41' S, 68° 43' W",1032221,Typed,no type status
0048_C2079723F.jpg,cf Eptodon polycarpus Det W Buck 1980,N/A,N/A,N/A,s.d.,N/A,N/A,BRYOPHYTA OF BOLIVIA Materfall ravine highest extension of shrubs 3750 m,Eptodon polycarpus,W. Buck,1980,N/A,Bolivia,La Paz,N/A,Between Abra Huallatá and waterfall at Millipaya,Materfall ravine highest extension of shrubs,[precise locality unknown],highest extension of shrubs,,3750 m.,16° 37' S 68° 09' W,1098-80,Typed,no type status
0040_C2079360F.jpg,N/A,N/A,N/A,N/A,APR 1956,1956-04-00,N/A,Axonopus compressus (Swartz) Beauv,Axonopus compressus,N/A,N/A,N/A,Brazil,Santa Catarina,N/A,N/A,"Asseburg, Brusque","Asseburg, Brusque","capoeira, em mata virgem",,Alt 50 msm,N/A,N 2.322Date C.N.P.F. 3.947,Typed,no type status
0084_C0341828F.jpg,"On wet, fallen log",N/A,N/A,16563,s.d.,N/A,N/A,Lepuropetalum trichocladum SW Arnott (det.) Moss,Lepuropetalum trichocladum,W. D. Reese,"May 19, 1982",N/A,Colombia,Amazonas,N/A,N/A,"On wet, fallen log",[precise locality unknown],N/A,,Altitude about 700 feet,"Lat 0° 50' S, Long 70° 40' W",1055465,Typed,no type status
0055_C2079601F.jpg,Leg R R Ireland,R. R. Ireland,N/A,1988,1928,1928-00-00,N/A,Isoterygium tenorum (Sw) Mitt,Herperum jamesonii,Yvma-Maria Mexico,July 21 1930,Corrica Ribersii | Shally atromacrous | Ocradian wood,Brazil,State of Minas Gerais,N/A,Theresopolis,National Herbarium or Canada Yna Mecks No 4858,[precise locality unknown],N/A,,575m,Alt 575m,873365,Mix of Handwritten and Typed,no type status
0011_C2077571F.jpg,N/A,N/A,N/A,N/A,N/A,N/A,N/A,PLANTS OF PERU Department of Loreto Piper methysticum forst f 1961 Yono mexia No 6254 Wissmon Ruis iorcphyllum fr ex DC spp Spreatei Trev South of rio santiago on fallen log,Piper methysticum,unsure and check,N/A,N/A,Peru,Loreto,N/A,N/A,Yono mexia No 6254 Wissmon Ruis iorcphyllum fr ex DC spp Spreatei Trev,South of Rio Santiago on fallen log,on fallen log,,N/A,N/A,8264-3,Typed,no type status
0081_C2056763F.jpg,Echario Crittogamico Italiano,N/A,N/A,11. Fascicolo XXI e XXII,1861,1861-00-00,N/A,ECHARIO CRITTOGAMICO ITALIANOraccolta della Specie II Fascicolo XXI e XXII,unsure and check,N/A,N/A,N/A,Italy,N/A,N/A,N/A,N/A,[precise locality unknown],N/A,,N/A,N/A,982325,Mix of Handwritten and Typed,no type status
0045_C2079362F.jpg,Levi Richard Evans Schultes (Dec 1 1940 det Juan Crispin III N/A,L. R. Evans Schultes,N/A,1105,Dec 1 1940,1940-12-01,N/A,Vesicularia vesicularis (Schwaegr) Broth,Vesicularia vesicularis,Juan Crispin III,s.d.,N/A,Colombia,N/A,N/A,Bryophyta,Intendencia del Meta: alrededores de Villavicencio Alt 500 m,alrededores de Villavicencio,N/A,,Alt 500 m,N/A,1055509,Typed,no type status
0072_C2010620F.jpg,"Josef, Leitovin, Steienberger, Kryptogamen Badenz, Para, XXI",N/A,N/A,7864 b,N/A,N/A,N/A,"Plocamium sunilaosum (L) gat, many",Plocamium,unsure and check,N/A,N/A,N/A,N/A,N/A,N/A,"Plocamium sunilaosum (L) gat, many",[precise locality unknown],N/A,,N/A,N/A,1055838,Typed,no type status
0078_C0342515F.jpg,"T. Husnot a Cahan, par Athis (Orne)",T. Husnot,N/A,109,N/A,N/A,N/A,Weisia compacta [Brid],Weisia compacta,N/A,N/A,N/A,France,N/A,N/A,"Cahan, par Athis","Cahan, par Athis (Orne)","Cahan, par Athis [precise locality unknown]",Rochers schisteux de la Saleinte Bachelier,,N/A,N/A,1084497,Typed,no type status
0002_C0025138F.jpg,Collected by R. M. Schuster,R. M. Schuster,N/A,19067,June 30 19 51,1951-06-30,N/A,"Frullania asagrayana Mont., male, oan per. Plagiochila tridenticulata Dum. (traces)",Frullania asagrayana,N/A,N/A,Plagiochila tridenticulata,United States,North Carolina,N/A,Asheville,"Balsam Gap, N.C., ca. 25 mi. n. of Asheville, along Blue Ridge Parkway, 5220-5260 feet; on Abies fraseri","along Blue Ridge Parkway, 5220-5260 feet; on Abies fraseri",N/A,,5220-5260 feet,N/A,N/A,Typed,no type status
0041_C2079362F.jpg,"Levi, RICHARD EVANS SCHIJLTES leg",R. E. Schultes,N/A,1107,Dic. 1 Jan 2 1942,1942-12-01,1943-01-02,Vesicularia vesicularis (Schwaegr.) Broth,Vesicularia vesicularis,N/A,N/A,N/A,Colombia,Putumayo,N/A,N/A,Intendencia del Putumayo alt 200 m,[precise locality unknown],N/A,,alt 200 m,N/A,1055509,Typed,no type status
0023_C2078862F.jpg,Brachythecium plumosum Hedw J 856,N/A,N/A,s.n.,s.d.,N/A,N/A,Brachythecium plumosum Hedw J 856|Flora of Venezuela|Bryophytes of the Venezuelan paramos|Sobre roca húmeda lecho de riachuelo a sol|Determined by Dan Griffin III,Brachythecium plumosum,Dan Griffin III,N/A,N/A,Venezuela,N/A,N/A,N/A,Flora of Venezuela Bryophytes of the Venezuelan paramos Sobre roca húmeda lecho de riachuelo a sol,[precise locality unknown],Sobre roca húmeda lecho de riachuelo a sol,,N/A,N/A,1064149,Mix of Handwritten and Typed,no type status
0057_C2079603F.jpg,leg A Glaziou,A. Glaziou,N/A,8441,Dec 23 1869,1869-12-23,N/A,Isopterygium tenerum (Sw) Mitt,Isopterygium tenerum,R. E. Ireland,1988,N/A,Brazil,N/A,N/A,Petropolis,Mta do Retiro Agulhas-Negras Petropolis,Mta do Retiro Agulhas-Negras [precise locality unknown],on rotting log in woods abundant,,Alt 670 m,N/A,879823,Mix of Handwritten and Typed,no type status
0013_C2077578F.jpg,"Distributed by the Institute of Systematic Botany, Utrecht",J. and F.A. Florschütz,N/A,4690,18 December 1975,1975-12-18,N/A,"BRYOPHYTA NEOTROPICA EXSICCATA: Fasc. II (1966), edited by S. Rob Gradstein distibuted by the Institute of Systematic Botany, Utrecht 66. PILOTRUM CHLOROPHYLLUM (Hornsch.) C. Muell. det. R. Ziekman and J. Florschütz-de Waard",Pilotrum chlorophyllum,R. Ziekman and J. Florschütz-de Waard,unsure and check,N/A,Suriname,Brownsberg,trail to Leo Val,alt. ca. 500 m,N/A,[precise locality unknown],on rotting log in rainforest,,alt. ca. 500 m,N/A,1065613,Typed,no type status
0095_C2032310F.jpg,Josephine E. Tilden South Pacific Exped.,J. E. Tilden,N/A,270,February 1910,1910-02-00,N/A,Rhacopilum confusum Cardot in herb.,Rhacopilum confusum,unsure and check,N/A,N/A,New Zealand,N/A,N/A,Te Aroha,Te Aroha New Zealand,[precise locality unknown],N/A,,N/A,N/A,1023785,Typed,no type status
0011_C2077576F.jpg,Leg Mohammed Asa,M. Asa,N/A,6363,2d 12 1989,1989-12-02,N/A,Pilosium chlorophyllum (Javanm) G Mill,Pilosium chlorophyllum,N/A,N/A,N/A,United Arab Emirates,Ras al-Khaimah,unsure and check,unsure and check,Acacio niloticetis marginem deserti occ prope Al Daith,[precise locality unknown],Acacio niloticetis marginem deserti,,70-100 m,N/A,10735327 1465,Mix of Handwritten and Typed,no type status
0057_C2079599F.jpg,Herb. Acad. Rheno - Trai.,Herb. Acad. Rheno-Trai.,N/A,N/A,N/A,N/A,N/A,Isopterygium tenerum(Sw.)Mitt.,Isopterygium tenerum,H. Giesenhagen,5.2.1932,N/A,Suriname,unsure and check,unsure and check,unsure and check,hab.: lign. [illegible] Andes foliis rainforest,[precise locality unknown],"on roots and rocks in heads of rivers, that",,N/A,N/A,1073518,Mix of Handwritten and Typed,no type status
0030_C2079350F.jpg,"Left sank of Rio Santiago, un stone on overflow forest",N/A,N/A,6149,"Nov 23, 1931",1931-11-23,N/A,Veinmannia amphibola (Spr) Brothe,unsure and check,F. Rio Bucno,Aet. Bertram Alt 200 m,N/A,Peru,Departamento de Loreto,N/A,Iquitos,"Left sank of Rio Santiago, un stone on overflow forest",[precise locality unknown],un stone in overflow forest,,Alt 200 m,N/A,873368,Typed,no type status
0016_C2077577F.jpg,G Müll,G. Müll,N/A,s.n.,det. R. Zielmann,1981-10-31,N/A,PILOPHUS CHLOROPHYLLUM (Hornsch.) C. Müll.,Bryophyta neotropica exsiccata,R. Zielmann,31 October 1981,N/A,N/A,N/A,N/A,N/A,"SURINAGE: Distr. Victoria, Kabalebo river area, 1 mi W. from road km 34, 59°W., alt. 0-30 m. One spreading log in moist forest with Metrosideros",[precise locality unknown],One spreading log in moist forest with Metrosideros,,alt. 0-30 m,59°W.,M 0055363,Typed,no type status
0014_C2077579F.jpg,E. Rob Gradstein | S.R.Gradstein C076,E. Rob Gradstein,S. R. Gradstein,C076,8 March 1977,1977-03-08,N/A,"Bryophyta Neotropica Exsiccata Fasc.1/2 (1978), edited by E. Rob Gradstein",Pilotrichum chlorophyllum,J. Florschütz-de Waard,N/A,N/A,Guyana,Mazura Hill,N/A,N/A,"180 km S of Georgetown, S3°0'N",[precise locality unknown],On rotting tree base in mixed rain forest,,N/A,S3°0'N,1091586,Typed,no type status
0053_C2079599F.jpg,Herb Acad Rheno - Traj,N/A,N/A,N/A,s.d.,N/A,N/A,Isothecium tenurum(Sw.)Mitt.,Isothecium tenurum,N/A,s.d.,N/A,Netherlands,N/A,N/A,N/A,"habitat in roots and rocks in shade of spring, chair",[precise locality unknown],"in roots and rocks in shade of spring, chair",,N/A,N/A,1073518,Handwritten,no type status
0015_C2077576F.jpg,Leg C R M Schuster,C. R. M. Schuster,N/A,N/A,Jun 70,1970-06-00,N/A,Ptilidium ciliare (L) Hampe,Ptilidium ciliare,N/A,N/A,N/A,Greenland,N/A,N/A,N/A,"NE Greenland Mestersvig and Elis, Rundso 10-100 m","Mestersvig and Elis, Rundso",mossy tundra,,10-100 m,N/A,10733527,Mix of Handwritten and Typed,no type status
0021_C2077585F.jpg,Leg Pilger,Pilger,N/A,5014a,Aug 21 1881,1881-08-21,N/A,Pilosum chlorophyllum (Hochl DA,Pilosum chlorophyllum,Oet Bartram,IX 1935,N/A,Brazil,N/A,Districto Acara,Cho6 road near Rio Acara 3 km,On fallen log,[precise locality unknown],N/A,,N/A,N/A,68,Typed,no type status
0094_C0679848F.jpg,Leg S R Bertram,S. R. Bertram,N/A,N.1.235,4.5.1956,1956-05-04,N/A,Cryptogamic herbarium,Laevigata galloga,N/A,N/A,N/A,Brazil,Santa Catarina,N/A,N/A,Planatas de Santa Catarina,[precise locality unknown],Mata,,300 m,Alt. 300 m,2001436,Typed,no type status
0017_C2077578F.jpg,S Bob Graderstein,S. Graderstein,N/A,4690,18 December 1975,1975-12-18,N/A,BRYOBERTA MEMORABICI FRUSTULATA Fascicle II (1986) edited by S Bob Graderstein distributed by the Institute of Systematic Botany Utrecht,Pilosium chlorophyllum,G. Muell Det. R. Zielman and J. Florschutz-de Waard,N/A,Braunsberg trail to Leo Val alt ca 500 m in rotting log in rainforest J and P.A. Florschutz 4690,Suriname,Brokopondo,N/A,Brownsberg,trail to Leo Val alt ca 500 m in rotting log in rainforest,trail to Leo Val alt ca 500 meters in rotting log in rainforest,in rotting log in rainforest,,ca 500 m,N/A,1065613,Typed,no type status
0051_C2079597F.jpg,leg. S. T. Fillig & A. C. Smith,S. T. Fillig,A. C. Smith,1056,"Nov. 8-25, 1928",1928-11-08,1928-11-25,Isopteryglum tenerum (Sw) Mitt,Isopterygium glaucourans,R. R. Ireland,1988,N/A,Colombia,Dept. Santander,between Puerto Wilches and Puerto Santos,alt. 110-115 m,N/A,[precise locality unknown],N/A,,alt. 110-115 m.,N/A,114971,Mix of Handwritten and Typed,no type status
0047_C2079721F.jpg,W Buck,W. Buck,N/A,7921-1220,22 March 1979,1979-03-22,N/A,Entodon nano-ciliactus C M,Entodon nano-cliactus,C. E. Bicans Horr,Oct W Buck 1980,N/A,Bolivia,La Paz,N/A,N/A,Very shaky ground along creek in humid shrubs 2600 m Depto La Paz Prov Larecaja Near large red outcrop 2 mi from Sorata down Rio Consata 15° 41' S 68° 40' W,[precise locality unknown],Very shaky ground along creek in humid shrubs,,2600 m,15° 41' S 68° 40' W,1056759 | 11148748,Mix of Handwritten and Typed,no type status
0034_C2079350F.jpg,F FIELD ROJAS,F. Field Rojas,N/A,s.n.,"Nov 23, 1931",1931-11-23,N/A,Vaistullaria amphibola (Spr.) Brothe,Vaistullaria amphibola,N/A,N/A,N/A,Peru,Departmento de Loreto,N/A,N/A,Left bank of Río Santiago Un stone in overflow forest,Left bank of Río Santiago On stone in overflow forest,N/A,,N/A,N/A,873368,Typed,no type status
0012_C2077577F.jpg,"Fascicle III (1988), edited by S, Rob Gradstein",S. Rob Gradstein,N/A,124,31 October 1981,1981-10-31,N/A,BRYOPHYTA NEOTROPICA EXSICCATA,Pilotrim chlorophyllum,R. Zielman,N/A,N/A,Suriname,Distr. Nickerie,Kabalebo river area,line 9,"from road km 34, 5°N, 58°W, alt, 0-20 m",from road km 34 [precise locality unknown],Growing on tree in marsh forest with Astrocaryum,,"alt, 0-20 m","5°N, 58°W",1079893,Mix of Handwritten and Typed,no type status
0073_C2010976F.jpg,Misci Czechosloveniei exsiocati Edit zdeněk Pilous,N/A,N/A,1025,JUN 1980,1980-06-00,N/A,Pogonatum urnigerum Pal var mamle Brid,Pogonatum urnigerum,N/A,N/A,N/A,Slovakia,Montes Nízké Tatry,in terra montis Ďumbier,ca 1850 m,Slovakia Montes Nízké Tatry in terra montis Ďumbier ca 1850 m,[precise locality unknown],N/A,,ca 1850 m,N/A,1380887,Typed,no type status
0013_C2077574F.jpg,Leg G Tischler/Fls-La Venta a R Chamlican,G. Tischler,N/A,1001,8/7 1951,1951-07-08,N/A,FLORA SURINAMENSIS Herb Acad Rheno - Traj,Flora surinamensis,N/A,N/A,N/A,Panama,Darien,N/A,N/A,Fls-La Venta a R Chamlican,[precise locality unknown],N/A,,Alt 0 - 20 m,N/A,1073529,Typed,no type status
0058_C2079600F.jpg,R.R. Ireland,R. R. Ireland,N/A,1039979,Received 1981,1981-00-00,N/A,Isopterygium tenerum (Sw.) Mitt.,Isopterygium tenerum,N/A,N/A,N/A,Brazil,N/A,N/A,N/A,Plants of Brazil State of Minas Gerais Vera Mendes No. 42321 of Isopterygium Dussigscens (C.M) Mitt. Loc. Vila Nova Alico 370 mo Northwestern Hills. On rotting log under underbrush of tree Base. Abund.,[precise locality unknown],On rotting log under underbrush of tree Base,,N/A,N/A,1039979,Typed,no type status
0071_C2010626F.jpg,N/A,N/A,N/A,104,Mar 1953,1953-03-00,N/A,Bryophyta danica exsiccata 104 Pogonatum urnigerum (Hedw) P Beauv,Pogonatum urnigerum,N/A,N/A,N/A,Denmark,N/A,N/A,Copenhagen,Zealand sandy soil in Maglemose south of Helsi,[precise locality unknown] Zealand sandy soil in Maglemose south of Helsi,N/A,,N/A,N/A,MAR 1953,Typed,no type status
0069_C2010622F.jpg,L. Pol Benno,L. Pol Benno,N/A,826 E,17 Oktober 1962,1962-10-17,N/A,Pogonatum urnigorum XXI,Pogonatum urnigerum,N/A,N/A,N/A,Germany,Rhineland-Palatinate,Westerwald,Nisterberg,An einem Waldrande auf dem rothen sandreinen schieferberge bei Nisterberg 17 Oktober 1962,[precise locality unknown],An einem Waldrande auf dem rothen sandreinen schieferberge,,N/A,N/A,1054981,Mix of Handwritten and Typed,no type status
0014_C2077575F.jpg,"Prof Dr Peter Sönke Boisen, Michael Hickler, Lisa Alison Trail leg",P. S. Boisen,M. Hickler | L. A. Trail,50266,7X 1990,1990-10-07,N/A,"FLORA SURINAMENSIS Ellantus ollerophyllus(Somsors),M.MKL",Ellantus ollerophyllus,unsure and check,unsure and check,N/A,Suriname,Nickerie District,N/A,Nieuw Nickerie,"7km E from Trail Project, Nickerie District, N from Adampada River, L to Km 34, SE, on way from, Nieuw Nickerie, N from X-kreek, Nickerie District","7km E from Trail Project, N from Adampada River, L to Km 34, SE, on way from, N from X-kreek",Floristical: Riverplain in Moist Forest,,alt. 0 - 50 m,N/A,1073528,Mix of Handwritten and Typed,no type status
0032_C2079352F.jpg,det Bartram,Bartram,N/A,s.n.,Dec 4 1931,1931-12-04,N/A,Fiscularia amphibola (Spr) Broth,Fiscularia amphibola,Bartram,Dec 4 1931,N/A,Peru,N/A,N/A,Above Punto de Manseriche,Streamlet on right bank of Rio Santiago On rocks wet by spray,[precise locality unknown],On rocks wet by spray,,Alt 250 m,N/A,870879,Mix of Handwritten and Typed,no type status
0053_C2079595F.jpg,N/A,N/A,N/A,N/A,N/A,N/A,N/A,"Tierra del Fuego, australis, Ushuaia, Arroyo grande (74°47'S,68°17'W), en llanura de Toia y en raises humoso-arcillosos de suelo humido, en orilla de un cascada,190 m sm,bastante copiosamen-te",unsure and check,H Rovainen,25111970,N/A,Argentina,Ushuaia,Tierra del Fuego,Ushuaia,"Tierra del Fuego, australis, Ushuaia, Arroyo grande (74°47'S,68°17'W), en llanura de Toia y en raises humoso-arcillosos de suelo humido, en orilla de un cascada,190 m sm,bastante copiosamen-te","Arroyo grande, en llanura de Toia y en raises humoso-arcillosos de suelo humido, en orilla de un cascada","en llanura de Toia y en raises humoso-arcillosos de suelo humido, en orilla de un cascada",,190 m,"74°47'S,68°17'W",1182417,Typed,no type status
0010_C2077575F.jpg,Herb Acad Rheno-Traj Coll M Cowan,M. Cowan,N/A,s.n.,s.d.,N/A,N/A,Flora Surinamensis,Flora surinamensis,N/A,s.d.,N/A,Suriname,N/A,N/A,N/A,Hb Coll of Parabno D A Fokke Mistr District Legit & Tra Paul Hll Nunc M N M Halfmenen N Surinam 1904,[precise locality unknown],N/A,,N/A,N/A,1073528,Mix of Handwritten and Typed,no type status
0036_C2079352F.jpg,Dec 4 1931 det Bertram,Bertram,N/A,s.n.,Dec 4 1931,1931-12-04,N/A,Vesicularia amphibola (Spr) Broth,Vesicularia amphibola,Bertram,Dec 4 1931,N/A,Peru,N/A,N/A,Rio Santiago,Streamlet on right bank of Rio Santiago On rocks wet by spray,Streamlet on right bank of On rocks wet by spray,Above Pongo de Manseriche alt 250 m,,alt 250 m,N/A,870879,Typed,no type status
0052_C2079723F.jpg,cf Entodon polycarpus Det W Buck 1980,N/A,N/A,N/A,s.d.,N/A,N/A,cf Entodon polycarpus Det W Buck 1980,Bryophyta of Bolivia,W. Buck,1980,N/A,Bolivia,La Paz,Larecaja,Between Abra Hualata and waterfall at Millipaya 15o 57' S 68o 09' W,Between Abra Hualata and waterfall at Millipaya 15o 57' S 68o 09' W,[precise locality unknown],waterfall ravine highest extension of scrubs 3780 m,,3780 m.,15o 57' S 68o 09' W,1078762,Typed,no type status
0098_C0341763F.jpg,Mina Green,M. Green,N/A,8221-a,"Nov. 11, 1930",1930-11-11,N/A,Perezia teneta R. Lopez det. M. Green,Perezia teneta,M. Green,N/A,N/A,Brazil,N/A,N/A,Harviex,on rotting log,[precise locality unknown],On rotting log,,Alt. 790 m.,N/A,00847106P,Handwritten,no type status
0075_C2010626F.jpg,N/A,N/A,N/A,104,s.d.,N/A,N/A,Bryohypnum danicum Podp.,Bryohypnum danicum,Podpĕra,s.d.,N/A,Denmark,N/A,N/A,N/A,N/A,[precise locality unknown],Pogonatum urnigerum (Hedw) P. Beauv. Zealand: sandy soil in Maglemose south of Fredlef,,N/A,N/A,1953,Typed,no type status
0015_C2077582F.jpg,On rotten logs.,N/A,N/A,14994,"October 18, 1931",1931-10-18,N/A,Pilocline chlorophyllum (Hornsch.) C.M. On rotten logs.,Pilocline chlorophyllum,"R. A. Crum, 1956","Det. R. A. Crum, 1956",N/A,N/A,N/A,N/A,N/A,"Yaracuy, Venezuela",[precise locality unknown],On rotten logs.,,N/A,N/A,1055481,Typed,no type status
0076_C2020438F.jpg,Collected by WILLIAM R BUCK L6060,W. R. BUCK,N/A,L6060,16 Aug 1981,1981-08-16,N/A,PTERIGYNANDRUM var Lawrencii (James) Grout,Pterigynandrum filiforme,N/A,N/A,N/A,Australia,Victoria,N/A,Beaufort,VICTORIA: ca 5 mi W of Beaufort on hwy 8 Eucalyptus forest flooded after rains 500m,ca 5 mi W of Beaufort on hwy 8 Eucalyptus forest flooded after rains,Eucalyptus forest flooded after rains,,500m,N/A,1052208,Typed,no type status
0043_C2079716F.jpg,COLLECTED BY Paul C. Hutchison,P. C. Hutchison,N/A,1806,"APRIL 4, 1964",1964-04-04,N/A,N/A,"Entodon jamesoni (Tayl,) Mitt.",J. Kenneth Wright,4 April 1964,N/A,Peru,Department of Amazonas,Prov. Chachapoyas,N/A,N/A,"Cerros Calla Calla, east side, 5 km above Leimebamba on the road to Balsas, at San Miguel (in building at this locality)",Altitude ca. 2500 m,,Altitude ca. 2500 m,N/A,1012192,Typed,no type status
0044_C2079717F.jpg,Sobr roca + seca a sombra,Sobre roca,seca a sombra,N/A,N/A,N/A,N/A,FLORA OF VENEZUELA BRYOPHYTES OF THE VENEZUELAN PARAMOS,Entodon jamesoni,Det Dana Griffin III,No Date,N/A,Venezuela,N/A,N/A,N/A,N/A,[precise locality unknown],N/A,,N/A,N/A,1064116,Mix of Handwritten and Typed,no type status
0076_C2010974F.jpg,P ALLONGE,P. ALLONGE,N/A,N/A,OCT 1946,1946-10-00,N/A,BRYOTHECA IBERICA Phyllitis sp cf P. fascia,Phyllitis fascia,unsure and check,unsure and check,N/A,France,N/A,N/A,Paris,Paris Mai 1928,Paris,Bryotheca Iberica (Linn Sp Plant II Edit N. 102 Pyrenaeis: Pena de Orael ad opp Jaca (Hienea Aragonia),,1200 m,N/A,1200129,Mix of Handwritten and Typed,no type status
0066_C2000934F.jpg,Bryological herbarium CHICAGI NATURAL HISTORY MUSEUM,N/A,N/A,V.1546,Jan 1948,1948-01-00,N/A,Haplocladium angustifolium Ther,Haplocladium angustifolium,N/A,N/A,N/A,N/A,N/A,N/A,N/A,"On rock in dard streamside, in ass of little Calavera altitudes, pres de Boguca Hersute Prosiaus, on 900 m",[precise locality unknown],N/A,,ca. 900 m,N/A,1377035,Typed,no type status
0009_C2077569F.jpg,F J Hemann,F. J. Hemann,N/A,25132,"December 27, 1972",1972-12-27,N/A,Herbarium of Donald Richards,Hedwigia ciliata,P. Beauv.,unsure and check,N/A,Bolivia,Cochabamba,N/A,N/A,On conglomerate boulder on shrubby NW slope of Mt Tunari near Lifiani Aguas Termales Hotel alt ca 2700 m 28 km NW,"On conglomerate boulder on shrubby NW slope of Mt. Tunari, near Lifiani Aguas Termales Hotel, 28 kilometers northwest [precise locality unknown]",Plants of Bolivia Depto de Cochabamba Duke University Herbarium,,ca 2700 m,N/A,1040675,Mix of Handwritten and Typed,no type status
0047_C2079716F.jpg,Collected by J Kenneth Wright,J. Kenneth Wright,N/A,1806,4 April 1964,1964-04-04,N/A,Entodon duchassaingi (Schimp.) Mitt.,Entodon duchassaingi,Paul C. Hutchison,N/A,N/A,Peru,Amazonas,N/A,N/A,cerros Calla Calla east side c. 1 km above Leimebamba (on the road to Balsas at San Miguel) (no buildings at this locality) Altitude ca. 2100 m,[precise locality unknown],N/A,,Altitude ca. 2100 m,N/A,10121911,Typed,no type status
0045_C2079718F.jpg,Leg Lindbergh Emb,Lindbergh,Emb,N/A,"April 01, 1931",1931-04-01,N/A,Corians,Corians,Lindbergh Emb,"April 01, 1931",N/A,Brazil,Minas Gerais,Diamante,Biribiry,State of Minas Gerais Vioo Mata No 6097,Base of living tree in shade,N/A,,Alt 800 m,N/A,870348,Typed,no type status
0077_C0268725F.jpg,V et P Allorge,V. Allorge,P. Allorge,193,11 VI 1937,1937-06-11,N/A,BRYOPHYTA AZORICA MOUSSES ET HEPATIQUES récoltées en 1937 ILES AÇORES par V et P ALLORGE,Bryophyta azorica,N/A,s.d.,N/A,Portugal,Azores,N/A,N/A,193 Fayanatug urcisatus(Hedw)VF L lus deportvert salto de cavalo vers 700 m,Salto do Cavalo [precise locality unknown],N/A,,vers 700 m,N/A,1181624,Typed,no type status
0038_C2079358F.jpg,Ynes Mexia,Y. Mexia,N/A,8070,"May 14,1936",1936-05-14,N/A,Vernonia amphitida (Spr.) Broth. in mixtare,Vernonia amphitida,alf. 1800 m.,N/A,N/A,Peru,La Convencion,unsure and check,Sel. Maruani,Provincia La Convención; upper valley of the Sambray; affluent of the Vilcanota; on rotten logs in virgin forest,upper valley of the Sambray; affluent of the Vilcanota; on rotten logs in virgin forest,N/A,,alt. 1800 m.,N/A,1096314,Typed,no type status
0072_C2010974F.jpg,P Allorge,P. Allorge,N/A,N/A,Paris Mai 1928,1928-05-00,N/A,Bryotheca Iberica P Allorge No 129 Bryum argenteum L,Bryum argenteum,N/A,N/A,N/A,Spain,unsure and check,unsure and check,unsure and check,F 4109 A Alto del Monte Acebo au-dessus d'Elizondo Prov du Navarra Espagne,unsure and check,Pierres de chemin Savarre talus argileux calcaires assoc Brywm paradox L Pottia eurystoma Riell Aloina Barbula fallax (Hedw) Schpr Rhytidiadelphus loreus (Dill L) Warnst et Alt 550,,Alt 550,N/A,1200329,Typed,no type status
0060_C2079602F.jpg,Plants of Brazil state of Minas Gerais,N/A,N/A,6204,"Dec 6, 1930",1930-12-06,N/A,Isopterygium tenerum (Sw )Mitt,Isopterygium tenerum,E E  Ireland,1988,N/A,Brazil,Minas Gerais,N/A,Viçosa,Grotto near Viçosa Alt 710 m,[precise locality unknown] Grotto near Viçosa,In grotto,,Alt 710 m,N/A,870841,Mix of Handwritten and Typed,no type status
0070_C2010624F.jpg,J in Hedmogen bei Schmalhausen September 1882,J. Hedmogen,N/A,s.n.,September 1882,1882-09-00,N/A,Crypotgamus unisorum Hedmuns,Cryptogamus unisorum,Hedmuns,September 1882,N/A,unsure and check,unsure and check,N/A,unsure and check,bei Schmalhausen,[precise locality unknown],N/A,,N/A,N/A,1063050,Handwritten,no type status
0046_C2079715F.jpg,"J-P. Frahm, P. Geissler, S.R. Gradstein, G. Philippi, W. Schultze-Motel",J-P. Frahm,P. Geissler | S. R. Gradstein | G. Philippi | W. Schultze-Motel,975,4.9.1982,1982-09-04,N/A,Entodon jamesonii (Tayl.) Mitt.,Entodon jamesonii,W. Schultze-Motel,det. W. Schultze-Motel,N/A,Peru,Dep. Amazonas,Prov. Chachapoyas,"Straße Chachapoyas Cajamarca oberhalb Leimebamba km 417, sexponierter Hang, hochandiner Regenwald auf Kalkstein",N/A,"Straße Chachapoyas Cajamarca oberhalb Leimebamba km 417, sexponierter Hang, hochandiner Regenwald auf Kalkstein",N/A,,2800 msm.,N/A,1076822,Typed,no type status
0068_C2010620F.jpg,leg Lichtenberger,Lichtenberger,N/A,3864 b,Jul 1930,1930-07-00,N/A,Pogonatum urnigerum (L) Pal Beauv,Pogonatum urnigerum,S Ar Wodjzikowa ks Batow,22 Styczen 1952,N/A,Poland,N/A,N/A,Kryptówowem Bedzin,Kryptówowem Bedzin Pow XXI,[precise locality unknown],N/A,,N/A,N/A,1052535,Mix of Handwritten and Typed,no type status
0071_C2000943F.jpg,N/A,N/A,N/A,N/A,N/A,N/A,N/A,Pogonatum urnigerum (Hedw) PB,Pogonatum urnigerum,N/A,APR 1953,N/A,Denmark,N/A,N/A,Sjelland,Magistratskoven by Hvalsø,Magistratskoven by Hvalsø,in a gravel-pit,,N/A,N/A,28/16 Uge1,Typed,no type status
0038_C2079354F.jpg,N/A,N/A,N/A,6988-e,"Jan 2, 1928",1928-01-02,N/A,PIETRAFOLIA AMPULLACEA (Spr.) Brot,Frullania ampullacea,N/A,N/A,N/A,Spain,Catalonia,Barcelona,Manresa,N/A,[precise locality unknown],Gran limbo under rocks on north collected from trunk tree trunk,,230,N/A,873369,Typed,no type status
0093_C0679833F.jpg,leg Schäfer-Verwimp 551987,A. Schäfer-Verwimp,N/A,551987,5.5.1987,1987-05-05,N/A,Campylopodes exsiccatae,Campylopus griseus,unsure and check,unsure and check,N/A,Brazil,São Paulo,Pedra Grande bei Atibaia,Campos-Vegetation im Gindfelbereich sickerfenchter Felshang 1400 msm,Campos-Vegetation im Gindfelbereich sickerfenchter Felshang 1400 msm,[precise locality unknown],Campos-Vegetation im Gindfelbereich sickerfenchter Felshang,,1400 msm,N/A,1097651,Typed,no type status
0042_C2079715F.jpg,"leg. J. P. Frohm, P. Geissler, S.R. Gradstein, G. Philippi, W. Schultze-Motel",J. P. Frohm,P. Geissler | S.R. Gradstein | G. Philippi | W. Schultze-Motel,1076822,4.9.1982,1982-09-04,N/A,Entodon jamesonii (Tayl.) Mitt.,Entodon jamesonii,W. Schultze-Motel,det. W. Schultze-Motel,N/A,Peru,Dep. Amazonas,Prov. Chachapoyas,Straße Chachapoyas Cajamarca oberhalb Leimebamba km 417,"sexponierter Hang, hochandiner Regenwald auf Kalkstein 2800 msm.",sexponierter Hang hochandiner Regenwald auf Kalkstein 2800 meters above sea level,N/A,,2800 msm.,N/A,975,Typed,no type status
0074_C2010624F.jpg,J Dr Brunnegger bei Schaffhausen,J. Brunnegger,N/A,s.n.,September 1885,1885-09-00,N/A,Fontinalis undulatum (L) Pal Beauv,Fontinalis undulatum,J. Leinig,21 Jan 1930,N/A,Switzerland,N/A,N/A,unsure and check,bei Schaffhausen,[precise locality unknown],N/A,,N/A,N/A,1053050,Handwritten,no type status
0075_C2077501F.jpg,Collected by William R. Buck 7368,W. R. Buck,N/A,7368,22 Sept 1981,1981-09-22,N/A,CALYPTOTHECIUM TENUINERVE Bartr.,CALYPTOTHECIUM TENUINERVE,N/A,N/A,N/A,New York,N/A,N/A,The New York Botanical Garden,"VITI LEVU: ca. 1km W of Nadara, Humid forest, ca. 300m.","ca. 1km W of Nadara, Humid forest",Humid forest,,ca. 300m.,N/A,1059210,Typed,no type status
0059_C2079601F.jpg,Ynés Mexia No 4338,Y. Mexia,N/A,4338,July 21 1930,1930-07-21,N/A,Isopterygium tenerum (Sw) Mitt,Isopterygium tenerum,Crum,1988,N/A,Brazil,Minas Gerais,N/A,Ynes Mexia,Viçosa Agricultural College banks Alt 675 m,Viçosa Agricultural College banks,On rotten wood copice Ribeirão,,Alt 675 m,N/A,873365,Typed,no type status
0005_C2077563F.jpg,Hering P Beauv,P. Beauv,N/A,s.n.,s.d.,N/A,N/A,Hedwigia albicans,Hedwigia albicans,N/A,N/A,N/A,France,N/A,N/A,Paris,Paris,Paris,environs de Canto equateur environ 35 Canto LN T Schistet ne 4523 p,,N/A,N/A,10394552,Mix of Handwritten and Typed,no type status
0033_C2079353F.jpg,Dept 19 1951 Vesicularia vesicularis (Schwaegr) Broth Coll R Magill Above Porto do Mangalebe Oct 15 th No 6598-A Alto Rio m,R. Magill,N/A,6598-A,Oct 15 th,1951-10-15,N/A,Vesicularia vesicularis (Schwaegr) Broth,Vesicularia vesicularis,N/A,N/A,N/A,Peru,N/A,N/A,N/A,Above Porto do Mangalebe Alto Rio m,Above Porto do Mangalebe [precise locality unknown],bog in forest,,N/A,N/A,3705867,Typed,no type status
0070_C2000934F.jpg,N/A,N/A,N/A,N/A,N/A,N/A,N/A,Musci repnphoranthus arealomili - Mitt. ex Sull,unsure and check,N/A,N/A,N/A,N/A,N/A,N/A,N/A,JUL 1948,[precise locality unknown],N/A,,N/A,N/A,1277015,Handwritten,no type status
0090_C0399191F.jpg,N/A,N/A,N/A,N/A,APR 1956,1956-04-00,N/A,"Campylopus proto-trachyblepharon (Herz,) L Wats",Campylopus proto-trachyblepharon,L Wats,N/A,N/A,Brazil,Santa Catarina,N/A,"Serra do Faú, Penẹuí",Barrancos da estrada,"Serra do Faú, Penẹuí",Barrancos da estrada,,1500 msm,N/A,392052,Typed,no type status
0022_C2077586F.jpg,Ynes Mexia No 5914,Y. Mexia,N/A,5914,July 15 1931,1931-07-15,N/A,Pilostyles chlorophyllum (Wedd) Ost a district acord about 35 m alt about 30 m,Pilostyles Mexia,N/A,unsure and check,prostrating log in woods,Brazil,N/A,N/A,N/A,"district acord, about 30 m, Abaretetuba",[precise locality unknown],prostrating log in woods,,about 35 m alt,N/A,879839,Handwritten,no type status
0037_C2079353F.jpg,Dept 19 1921 Vasicularis magallanica (Spr) Nrodo Acto Punta de Marirade Sta Bertram Alto Rll m,N/A,N/A,6890-s,s.d.,N/A,N/A,Vasicularis magallanica (Spr) Nrodo,N/A,N/A,N/A,N/A,Peru,N/A,N/A,N/A,Dept 19 1921 Acto Punta de Marirade Sta Bertram Alto Rll m,[precise locality unknown],in forest,,N/A,N/A,870867,Mix of Handwritten and Typed,no type status
0001_C2077563F.jpg,Herings citate (Herb) P Beauv,P. Beauv,N/A,N/A,s.d.,N/A,N/A,Hedwigia albicans (Web)Lindb cenueus environ le Caire,Hedwigia albicans,unsure and check,unsure and check,N/A,Egypt,N/A,N/A,Cairo,environ le Caire,[precise locality unknown],Rochers n° 4654 pp,,N/A,N/A,10894552 may 1952,Mix of Handwritten and Typed,no type status
0054_C2079596F.jpg,Jaeg.,N/A,N/A,N/A,det. R. Ochyra 1996,1996-01-01,1996-12-31,Isopterygium pulchellum (Brid.),Isopterygium pulchellum,R. Ochyra,det. R. Ochyra 1996,N/A,N/A,N/A,N/A,N/A,Jaeg.,[precise locality unknown],humi et truncis arborum ad rupes umbrosas Andium,,N/A,N/A,1182415,Mix of Handwritten and Typed,no type status
0008_C2077573F.jpg,J.Florschütz-de Waard & K.Zielman,J. Florschütz-de Waard,K. Zielman,1515,5 - 15 - 1981,1981-05-15,N/A,Pilopium chlorophyllum (Hornsch.)C.Müll.,Pilopium chlorophyllum,N/A,N/A,on rotting log,Suriname,Brokopondo,N/A,Dam project distr,"Area of Kabalebo Dam project, distr. Brokopondo, line NW from road km 39.5, p. 50 sq. GE","Area of Kabalebo Dam project, line NW from road km 39.5, p. 50 sq. GE",Secondary wood with Cecropia (hoepapaja),,ALT.0-50 m,N/A,1640811,Typed,no type status
0000_C0020034F.jpg,Collected and Determined by R. M. Schuster,R. M. Schuster,N/A,68-1644,Aug. 17 1968,1968-08-17,N/A,Anastrophyllum minutum + gem.,Anastrophyllum minutum,R. M. Schuster,Aug. 17 1968,Diplophyllum taxifolium + gemmae 68-1644a,Canada,Newfoundland,N/A,N/A,"Along Humber R., in Squires Memorial Park, near Rte 1A","Along Humber River, in Squires Memorial Park, near Route 1A",N/A,,N/A,N/A,68-1644,Handwritten,no type status
0085_C0342107F.jpg,"Collected by the Rio Negro Summit QMT90'5, 66050'W",N/A,N/A,s.n.,"on branches at summit, 12 July 1979",1979-07-12,N/A,"PROJETO FLORA AMAZÔNICA CRIPTOGAMS OF AMAZONAS, BRAZIL Collected along the Rio Negro between Manaus and Sao Gabriel Hookeriopsis parkeriana (Hook & Grev) Jaeg Slopes and summit of Serra Curicuriari from Igarape Araua' of the Rio Curj curi at summit, QMO90'S, 66O5Q'W ca 450 m at summit",Hookeriopsis parkeriana,Jaeg,N/A,N/A,Brazil,Amazonas,N/A,N/A,"Collected along the Rio Negro between Manaus and Sao Gabriel Slopes and summit of Serra Curicuriari from Igarape Araua' of the Rio Curj curi at summit, ca 450 m at summit",[precise locality unknown],N/A,,ca 450 m at summit,"QMO90'S, 66O5Q'W",1315 5345,Typed,no type status
0056_C2079598F.jpg,"LEG IDROBO EVANS SCHULTES DEC, 1950",L. Idrobo Evans Schultes,N/A,s.n.,"DEC, 1950",1950-12-00,N/A,Isopterygium tenerum (Sw.) Mitt.,Isopterygium tenerum,R. R. Ireland,19 88,Imprecisa del Mosa: afredodores de Villavicencio Alt. 500 m.,Colombia,Meta,Villavicencio,N/A,Imprecisa del Meta: afredodores de Villavicencio,[precise locality unknown],N/A,,Alt. 500 m.,N/A,No. 1055473,Typed,no type status
0031_C2079351F.jpg,Vesicularia amphibola (Spruce) Broth det Bartram,N/A,N/A,s.n.,Nov 26 1901,1901-11-26,N/A,N/A,Vesicularia amphibola,Bartram,Nov 26 1901,N/A,Peru,N/A,N/A,Rio Santiago,Dense forest on log,[precise locality unknown],Dense forest on log,,alt 200 m,N/A,8733307,Handwritten,no type status
0052_C2079598F.jpg,Leg HUERTAS EVAZ ROBERTO Dec 1950,R. HUERTAS EVAZ,N/A,s.n.,Dec 1950,1950-12-00,N/A,Isoptorygium tenerum (Sw) Mitt,Isopterygium tenerum,R R Ireland,1988,N/A,Colombia,Meta,Villavicencio,N/A,Intendencia del Meta alrededores de Villavicencio Alt 500 m,[precise locality unknown],N/A,,Alt 500 m,N/A,No 1055473,Mix of Handwritten and Typed,no type status
0050_C2079596F.jpg,Jaeg,Jaeg,N/A,det R Ochyra 1996,s.d.,N/A,N/A,Isopterygium pulchellum (Brid) Jaeg,Isopterygium pulchellum,R. Ochyra,1996,N/A,N/A,N/A,N/A,N/A,N/A,[precise locality unknown],N/A,,N/A,N/A,1182415,Handwritten,no type status
0046_C2079720F.jpg,E. E. Alcano (Herz.),E. E. Alcano,N/A,1048563,"Det. M. Buck, 1980",1980-00-00,N/A,Bryophyta of Bolivia,Entodon cf. nano-climacium C.M.,M. Buck,1980,N/A,Bolivia,N/A,N/A,N/A,N/A,[precise locality unknown],N/A,,N/A,N/A,1048563,Typed,no type status
0035_C2079351F.jpg,Leg A Bornmuller,A. Bornmuller,N/A,N/A,Nov 26 1901,1901-11-26,N/A,"Field Museum of Natural History, Cryptogamic Herbarium, Plants of Peru",N/A,N/A,N/A,N/A,Peru,N/A,Dpto Junin,near Tarma,"Alt. 200 m, right bank of Rio Santiago, Dense forest on log","right bank of Rio Santiago, Dense forest on log",Dense forest on log,,Alt. 200 m,N/A,8733367,Mix of Handwritten and Typed,no type status
0086_C0341117F.jpg,Leg PAZ Heerwald,P. A. Z. Heerwald,N/A,3,31.8.1971,1971-08-31,N/A,Modiola von Peru,N/A,N/A,N/A,N/A,Peru,N/A,N/A,Chachapoyas,Las Palmas zw. Balsas u. Leimebamba,Las Palmas [precise locality unknown],N/A,,3000 m,N/A,1061647,Handwritten,no type status
0051_C2079721F.jpg,C E Hitchc (Corr),C. E. Hitchc,N/A,1068759,22 March 1979,1979-03-22,N/A,Bryophyta of Bolivia,Entodon nano-climacium,W. R. Buck,Dec 1980,N/A,Bolivia,La Paz,Prov Larecaja,N/A,Very shaky ground along creek in humid shrubs 2500 m Near large red outcrop 2 mi from Sorata down Rio Consata 15° 41' S 68° 43' W,Near large red outcrop 2 miles from Sorata down Rio Consata,Very shaky ground along creek in humid shrubs,,2500 m,15° 41' S 68° 43' W,1068759,Typed,no type status
0061_C2079603F.jpg,"Yvue Mexia, No. 5441",Y. Mexia,N/A,5441,"Dec 5, 1930",1930-12-05,N/A,LAMIACEAE (LABIATAE) Hyptis brevipes Poit. Det. J. Mathew,Hyptis brevipes,J. Mathew,N/A,N/A,Brazil,Minas Gerais,N/A,Tombador Bocca da Matta,"Base of Reisenzinni Mill Abundabut On rotting log, in woods 970 m Legit",Base of Reisenzinni Mill,"On rotting log, in woods",,970 m,N/A,879823,Typed,no type status
0029_C2078928F.jpg,BR Ochyra 1982,B. R. Ochyra,N/A,N/A,Oct E Ochyra 1982,1982-10-00,N/A,Brachythecium calliergonoides Broth,Brachythecium calliergonoides,H. Ochyra,det H Ochyra 1982,N/A,Bolivia,Oruro,Sajama,Rio Janchuma,2 mi down river from Aguas termales de Rio Janchuma Khuchu 4350 m 18º 07' S 69º 00' W in warmish creek,2 miles down river from Aguas termales de Rio Janchuma Khuchu in warmish creek,N/A,,4350 m,18º 07' S 69º 00' W,1049409,Mix of Handwritten and Typed,no type status
0028_C2078927F.jpg,Leg. M. Okhyta,M. Okhyta,N/A,N/A,Det. 8. V. 1982,1982-05-08,N/A,Brachythecium callie-montium Kinth in Harv,Brachythecium callie-montium,L. Hulkhy,25 May 1979,N/A,Bolivia,Oruro Prov Sajama Rio,N/A,N/A,Junthuma Khuchu 2 mi down river from Aguas termales de Rio the thuma Khuchu 4350 m 13º 07' S 69º 00' W In warmish creek,2 miles down river from Aguas termales de Rio the thuma Khuchu In warmish creek,N/A,,4350 m,13º 07' S 69º 00' W,1019407,Typed,no type status
0069_C2000932F.jpg,Gift of Elmer J Richards,E. Bethel,N/A,N/A,Aug 1946,1946-08-00,N/A,Pogonatum urnigerum (L) Pal Beauv & ic,Pogonatum urnigerum,unsure and check,N/A,N/A,N/A,N/A,N/A,N/A,"Mixed spruces-fir climax, Natural History Museum Chicago",[precise locality unknown] Natural History Museum Chicago,N/A,,N/A,N/A,1134391,Typed,no type status
0039_C2079355F.jpg,"From Maclaurgh, Barton",Maclaurgh,Barton,N/A,Jan 8 1932,1932-01-08,N/A,Cysticthalium planum (Brid) Mitt,Pleurochaete squarrosa,N/A,N/A,N/A,Peru,Departamento de Loreto,N/A,Yurimaguas,Above Pumpo de Maseriche Greek Incbee in rotten log,Above Pumpo de Maseriche Greek Incbee in rotten log,N/A,,Alt 315 m,N/A,1029121,Mix of Handwritten and Typed,no type status
0028_C2078931F.jpg,Marko Ćećez no 79-2107,M. Ćećez,N/A,79-2107,25 May 1979,1979-05-25,N/A,Brachythecium calliergonoides Broth in Bor,Brachythecium calliergonoides,R. M. Schutz,Oct 6 1982,N/A,Bolivia,Cochabamba,Ayopaya,Rio Junthuma,Khuchu 2 ml deep river from Aguas termales de Rio Junthuma Khuchu 8850 m 18° 07' N 66° 50' W in warmish creek,Khuchu 2 miles deep river from Aguas termales de Rio Junthuma Khuchu in warmish creek [precise locality unknown],N/A,,8850 m,18° 07' N 66° 50' W,1049404,Mix of Handwritten and Typed,no type status
0003_C0025164F.jpg,Collected and Determined by R M Schuster,R. M. Schuster,N/A,79-488,April 14 1979,1979-04-14,N/A,Frullania asagrayana,Frullania asagrayana,R. M. Schuster,April 14 1979,N/A,United States,Arkansas,Stone County,N/A,Ozark Natl Forest Barkshed Camp ca 10 mi E of Big Flat,"Ozark National Forest, Barkshed Camp, ca. 10 miles East of Big Flat",N/A,,N/A,N/A,No 79-488,Typed,no type status
0029_C2078932F.jpg,Mario Lewis no 79-2119,M. Lewis,N/A,79-2119,25 May 1979,1979-05-25,N/A,Brachythecium callistegionoides BROTH in HERZ,Brachythecium callistegionoides,N/A,N/A,N/A,Bolivia,Jumbuma Khuchu,Rio Jumbuma Khuchu,2 mi down river from Aquas termales de Rio Jumbuma Khuchu 4350 m 18° 07' S 69° 00' W In warmish creek,Depto ORURO PROV SAJAMA Rio Jumbuma Khuchu 2 mi down river from Aguas termales de Rio Jumbuma Khuchu 4350 m 18° 07' S 69° 00' W In warmish creek,2 miles down river from Aguas termales de Rio,In warmish creek,,4350 m,18° 07' S 69° 00' W,1049412,Typed,no type status
0008_C2077568F.jpg,Legit Herrero Hedwig P Beauv,H. P. Beauv.,N/A,79-1134,6 March 1979,1979-03-06,N/A,Hedwigia ciliata (Hedw) P Beauv,Hedwigia ciliata,N/A,N/A,N/A,Bolivia,La Paz,Prov Saavedra,On mountain side directly N of river beneath Nino Karine NNW of Charazani,Humid cliffs and steep stones 3320 m DEPTO LA PAZ PROV SAAVEDRA On mountain side directly N of river beneath Nino Karine NNW of Charazani,"On mountain side directly N of river beneath Nino Karine NNW of Charazani, humid cliffs and steep stones, 3320 meters",N/A,,Humid cliffs and steep stones 3320 m,13 08 S 69 04 W,1032220,Typed,no type status
0039_C2079359F.jpg,Leg Barbara,N/A,N/A,1200,"May 14, 1936",1936-05-14,N/A,"Yoxicularla amphibolla (Spreng) Spoth, in mixture, Cat Barbara",Vecicularia amphibolia,Spoth,N/A,N/A,Peru,La Convencion; upper valley of the Sambaray; affluent of the Vilcanota; on rotten loge in virgin forest,N/A,N/A,"Peru, La Convencion; upper valley of the Sambaray; affluent of the Vilcanota; on rotten loge in virgin forest",Upper valley of the Sambaray; affluent of the Vilcanota; on rotten loge in virgin forest,In virgin forest,,Alt 1800 m,N/A,10339122,Typed,no type status
0064_C2079856F.jpg,The Field Museum Botany Dept So Amer Plants,N/A,N/A,N/A,"July 6, 1936",1936-07-06,N/A,Plants of Brazil Isopterygium tenerum (Sw.) Mitt. Revision R. R. Ireland 1988 National Herbarium of Canada (CANM),Isopterygium tenerum,R. R. Ireland,1988,N/A,Brazil,Minas Gerais,Viçosa,Viçosa,Isopterygium tenerum (Sw.) Mitt. Revision R. R. Ireland 1988 National Herbarium of Canada (CANM),[precise locality unknown],"Cut over woods near base, on rotting log. Abundant.",,ca. 600 m,N/A,87057,Typed,no type status
0018_C2077586F.jpg,"Ynés Mexia, No. 5214",Y. Mexia,N/A,5214,"July 12, 1931",1931-07-12,N/A,Filarium Chlorophyllosum (Mich) Crd Grt Bartram,Filarium chlorophyllosum,"Grt, Bartram",N/A,N/A,Brazil,N/A,N/A,Districto Acará,"Phone Assu, Japanese Colony","Phone Assu, Japanese Colony [precise locality unknown]",rotting log in woods,,about 30 m,N/A,879839,Mix of Handwritten and Typed,no type status
0007_C2077571F.jpg,Nno Mexia,N/A,N/A,9089a,Jan 7 1931,1931-01-07,N/A,PLANTS OF PERU Dept concho de loreto Mussumsudis lerruphyllum L f,Mussunodis leruphyllum,N/A,N/A,N/A,Peru,unsure and check,unsure and check,unsure and check,Streamlet near mouth of Rio Santiago on fallen log,Streamlet near mouth of Rio Santiago on fallen log,N/A,,alt 200 m,N/A,2996478,Typed,no type status
0036_C2079356F.jpg,Above Dingo St Mangoche,N/A,N/A,s.n.,Jan 1963,1963-01-00,N/A,Verbascum virgatum Stokes,Verbascum virgatum,J Hunziker,14 Feb 1964,N/A,Malawi,N/A,N/A,Mangoche,Above Dingo St,[precise locality unknown],N/A,,alt 1540 m,N/A,879880,Handwritten,no type status
0005_C2077569F.jpg,F J Hemann,F. J. Hemann,N/A,25152,December 27 1972,1972-12-27,N/A,Hedwigia ciliata (Hedw) P Beauv,Hedwigia ciliata,N/A,N/A,N/A,Bolivia,Cochabamba,N/A,N/A,Dept de Cochabamba on conglomerate boulder on shrubby NM slope of Mt Tunari near Liriuni Aguas Termales Hotel alt ca 2700 m 28 km NW,"on conglomerate boulder on shrubby NM slope of Mt. Tunari, near Liriuni Aguas Termales Hotel, [precise locality unknown]",N/A,,ca 2700 m,N/A,1040675,Typed,no type status
0049_C2079718F.jpg,L e Vesconte,L. E. Vesconte,N/A,s.n.,"April 01, 1931",1931-04-01,N/A,PLANTS OF BRAZIL State of Minas Geraes Corinto Cat Barbosa Alt. 800 m Fascicle de Diamante Campo Zizirico Base of living tree in shade,Frullania sp.,R. M. Schuster,"April 01, 1931",N/A,Brazil,Minas Gerais,N/A,Corinto,Cat Barbosa Campo Zizirico Base of living tree in shade,Cat Barbosa [precise locality unknown],Base of living tree in shade,,Alt. 800 m,N/A,870848,Mix of Handwritten and Typed,no type status
0007_C2077567F.jpg,"Efrain De Luna, 1992 Duke University Herbarium",E. De Luna,N/A,1992,s.d.,N/A,N/A,Hedwigia ciliata (Hedw.) P Beauv,Hedwigia ciliata,P. Beauv.,s.d.,N/A,Bolivia,La Paz,Prov Larecaja,Near large red outcrop 2 mi from Sorata down Rio Consata,"Near large red outcrop 2 mi from Sorata down Rio Consata, 13° 41' S, 68° 43' W",Near large red outcrop 2 miles from Sorata down Rio Consata,"Bromeliad-grass habitat on exposed cliffs, 2630 m",,2630 m,"13° 41' S, 68° 43' W",1032219,Typed,no type status
0074_C1042257F.jpg,det S Churchill Jun 2004,S. Churchill,N/A,29858,12 May 2004,2004-05-12,N/A,Neckeraceae Neckera scabridens C Müller,Neckeropsis undulata,S. Churchill,Jun 2004,Belisario Boeto | Prumnopitys exigua | Myricanthes,Bolivia,N/A,N/A,Villa Serrano,Chuquisaca Belisario Boeto Monte Grande ca 32 km de Villa Serrano Bosque montano de yungas Con Prumnopitys exigua Podocarpus Myricanthes,"Monte Grande, ca. 32 kilometers from Villa Serrano",Podocarpus forest,,2740 m,"19°43'46""S 64°07'47""W",1193467,Typed,no type status
0048_C2079717F.jpg,Flora of venezuela Bryophytes of the venezuelan paramos,Entodon jamesoni (tayl) Broth,N/A,N/A,N/A,N/A,N/A,"Flora of venezuela Bryophytes of the venezuelan paramos Entodon jamesoni (tayl) Broth Determined by Diana Griffin III Sobre roca + seca, a sombra ESTADO MERIDA: páramo de Los Granates, finca de Los Granates, a lo largo del río de Las Gonzáles y de las lomas cercanas. Alt 3,000-3,100 m, 20 feb 1987",Entodon jamesoni,Diana Griffin III,N/A,"Sobre roca + seca, a sombra",Venezuela,Merida,N/A,N/A,"páramo de Los Granates, finca de Los Granates, a lo largo del río de Las Gonzáles y de las lomas cercanas",[precise locality unknown],N/A,,"Alt 3,000-3,100 m",N/A,1064416,Typed,no type status
0092_C0679858F.jpg,Sch leg Jeannet B et al,B. Sch,Jeannet | et al.,s.n.,s.d.,N/A,N/A,Campylopus brasiliae,Campylopus pilifer,D. M. Vital,in der Strasse No 2 zwischen Serro und Datas südlich Diamantina,N/A,Brazil,unsure and check,unsure and check,unsure and check,in der Strasse No 2 zwischen Serro und Datas südlich Diamantina,[precise locality unknown],offen exponierten zeitweise überrieselten Gesteinblöcken eines lückdichtenreichen Berghanges,,30.7.1977,N/A,1026008,Mix of Handwritten and Typed,no type status
0019_C2077582F.jpg,On rotten logs,N/A,N/A,N/A,"October 1-6, 1931",1931-10-01,1931-10-06,Piloclus chlorophyllus (Hornsch.) C.M.,Piloclus chlorophyllus,"R. A. Crum, 1956","Det. R. A. Crum, 1956",N/A,unsure and check,unsure and check,unsure and check,unsure and check,On rotten logs,[precise locality unknown],N/A,,N/A,N/A,1055491,Typed,no type status
0003_C2077567F.jpg,Det Efraim De Luna 1992 Duke University Herbarium,M. Lewis,no,79-1232,22 March 1979,1979-03-22,N/A,Hedwigia ciliata (Hedw) P Beauv,Hedwigia ciliata,E. De Luna,1992,N/A,Bolivia,La Paz,Prov Larecaja,Near large red outcrop 2 mi. from Sorata down Río Consata,Bromeliad-grass habitat on exposed cliffs 2630 m,Near large red outcrop 2 miles from Sorata down Río Consata bromeliad-grass habitat on exposed cliffs,Bromeliad-grass habitat on exposed cliffs,,2630 m,15° 41' S 68° 43' W,1032219,Typed,no type status
0099_C0341787F.jpg,Herb. Acad. Rheno-Traj.,N/A,N/A,N/A,dd. 24.IX.1976,1976-09-24,N/A,"GALAPAGOS ISLANDS, Isla Florenca. Psidium guajava woodland and pampos east of Grus Farm, on rather dry shaded rocks. am. 250-550 m Leg. S. R. Gradstein & W. A. Weber Assoc. M 58 det. W.A.Weber",Rhacopilus tomentosus (Hedw.)Brid.,W. A. Weber,N/A,N/A,Ecuador,Galápagos Islands,Isla Florenca,N/A,"Psidium guajava woodland and pampos east of Grus Farm, on rather dry shaded rocks.","Psidium guajava woodland and pampos east of Grus Farm, on rather dry shaded rocks.","Psidium guajava woodland and pampos east of Grus Farm, on rather dry shaded rocks.",,am. 250-550 m,N/A,1023912,Typed,no type status
0058_C2079604F.jpg,"H. E. Prain, R. M. Harley, G. L. Smith",H. E. Prain,R. M. Harley | G. L. Smith,11712,Valley of the Rio das Ondas,unsure and check,N/A,Isopterygium tenerum (Sw.) Mitt.,Isopterygium tenerum,R. R. Ireland,1986,N/A,Brazil,N/A,N/A,N/A,"Valley of the Rio das Ondas, On the bark and exposed roots of Capoeirinha sp. and on adjacent soil, at places cut-over gallery forest and adjacent cerrado, ca. 150m W. of Barreiras, elev. ca. 500m.","Valley of the Rio das Ondas, On the bark and exposed roots of Capoeirinha sp. and on adjacent soil, at places cut-over gallery forest and adjacent cerrado, ca. 150 meters W. of Barreiras",cut-over gallery forest and adjacent cerrado,,ca. 500m,N/A,1059328,Typed,no type status
0034_C2079354F.jpg,"Plants of Peru (Departmento de Loreto) Ynes Mexia, No. 6353-a",Y. Mexia,N/A,6353-a,"Jan. 2, 1932",1932-01-02,N/A,CRYPTOCARPHA HERBARIUM FIELD MUSEUM OF NATURAL HISTORY Hertelia capillata,Hertelia capillata,N/A,N/A,N/A,Peru,Loreto,N/A,Iquitos,Above Pongo de Manseriche alt. 210 m.,Above Pongo de Manseriche,On earth collected on inclined tree trunk.,,alt. 210 m.,N/A,873369,Typed,no type status
0012_C2077573F.jpg,J.Florschütz-de Waard & K.Zielman,J. Florschütz-de Waard,K. Zielman,5933,9 - 11 - 1981,1981-11-09,N/A,Pilopogon chlorophyllum (Hornsch.)C.Müll.,Pilopogon chlorophyllum,J. Florschütz-de Waard,9 - 11 - 1981,N/A,Suriname,N/A,Brokopondo,N/A,"Dam project, distr. Brokopondo Dam from road km 39.5, p. 50 294 GH","Dam project, from road km 39.5",Secondary wood with Cecropia (bospapaja) on rotting log,,alt. 0-50 m,N/A,1673523 1040101,Mix of Handwritten and Typed,no type status
0024_C2078913F.jpg,"Dupl ex Naturhistoriska Riksmuseet, Stockholm (S)",N/A,N/A,N/A,22 February 1897,1897-02-22,N/A,Brachythecium albicans (Hedw) Schimp,Brachythecium albicans,P. Dusén 5872,22 February 1897,N/A,Chile,Patagonia occident,Cerro Colorado,N/A,N/A,[precise locality unknown],N/A,,3 ms pr,N/A,2136354,Handwritten,no type status
0083_C0679948F.jpg,J P Frahm,J. P. Frahm,N/A,394,5.9.1982,1982-09-05,N/A,75. Campylopus richardii BRID.,Campylopus exsiccatae,J. P. Frahm,5.9.1982,N/A,Peru,Amazonas Prov,Chachapoyas,Cajamarca km,Straße Chachapoyas - Cajamarca km 413,Straße 413,auf feuchtem Erdboden am Straßenrand 3000m,,3000m,N/A,1053585,Typed,no type status
0082_C2055747F.jpg,P Chiappini & G C Grazzini,P. Chiappini,G. C. Grazzini,N/A,Aprile 1981,1981-04-00,N/A,Erbario Crittogamico Italiano Societa Ottograficolegica Italiana Serie II Fascicolo XXI e XXII Carduus Nutans Aprile 1981,unsure and check,N/A,N/A,N/A,Italy,N/A,N/A,Milano,Milano,[precise locality unknown],N/A,,N/A,N/A,982275,Mix of Handwritten and Typed,no type status
0017_C2077585F.jpg,J Pifano,J. Pifano,N/A,s.n.,Aug 31 1927,1927-08-31,N/A,Pilosum chlorophyllum (Wagl) CM,Pilosum chlorophyllum,C.M.,s.d.,N/A,Brazil,N/A,N/A,Therezina,Therezina on fallen log,on fallen log,N/A,,N/A,N/A,R139,Handwritten,no type status
0043_C2079359F.jpg,N/A,N/A,N/A,N/A,N/A,N/A,N/A,"Vesicularia amphibola (Sprx) Broth in Pittier, Cat Bartram",Vesicularia amphibola,N/A,N/A,N/A,Peru,La Convencion; upper valley of the Sambray; affluent of the Vilcanota; on rotten logs in virgin forest,Cuzco,N/A,La Convencion; upper valley of the Sambray; affluent of the Vilcanota; on rotten logs in virgin forest,[precise locality unknown],on rotten logs in virgin forest,,alt 1800 m,N/A,1089422,Typed,no type status
0060_C2079607F.jpg,Leg. Mertens,Leg. Mertens,N/A,s.n.,"May 12, 1903",1903-05-12,N/A,Fascada de Cresicana Wood ex Krause,Isopterygium tenerum,R. R. Ireland,1988,N/A,Brazil,N/A,N/A,Santa Maria,Laphergeria cuneifolia CJ Mitt ex F Mull,[precise locality unknown],On rotten log,,700 m,N/A,870839,Mix of Handwritten and Typed,no type status
0062_C2079609F.jpg,DONALD RICHARDS 1988,D. Richards,N/A,4649,"March 21, 1988",1988-03-21,N/A,Isopterygium tenerum (Sw) Mitt,Isopterygium tenerum,R.R. Ireland 1988,1988,N/A,Brazil,N/A,N/A,N/A,ROAD to Sao Miguel near to city Miguel 710m distance from margin of road cat tree woods on slope on rotting tree trunk,[precise locality unknown],Near de sao miguel road to city Miguel 710m Cat over woods on slope on rotting tree trunk,,710 m,N/A,1039978,Mix of Handwritten and Typed,no type status
0091_C0679855F.jpg,"Rio de Janeiro, Corcovado 600 m",N/A,N/A,s.n.,4.8.1977,1977-08-04,N/A,Campylopodes brasiliae exsiccatae,Campylopus pilifer Brid.,N/A,N/A,N/A,Brazil,Rio de Janeiro,N/A,Rio de Janeiro,Corcovado 600 m,Corcovado 600 meters,"an feuchten, zeitweise überrieselten W-exponierten Felsen",,N/A,N/A,1026006,Typed,no type status
0041_C2079357F.jpg,Vestcularia aophyella (Spr) Broth Coll J Bartram,J. Bartram,N/A,8377,Jan 3 1938,1938-01-03,N/A,Vesicularia aophyella (Spr) Broth,Vesicularia aophyella,J. Bartram,Jan 3 1938,N/A,Panama,Canal Zone,N/A,Barro Colorado,unsure and check,[precise locality unknown],On rotten log,,Alt 125 m,N/A,870873,Typed,no type status
0063_C2079606F.jpg,Isopterygium tenerum (Sw.) Mitt.,N/A,N/A,N/A,s.d.,N/A,N/A,Isopterygium tenerum (Sw.) Mitt.,Isopterygium tenerum,N/A,N/A,N/A,Brazil,Minas Gerais,Viçosa,Agricultural College land,Viçosa Agricultural College land,[precise locality unknown],N/A,,ca. 700 m,N/A,"4224, July 81, 1930, Det., Bartr.",Typed,no type status
0061_C2079608F.jpg,Donald Richards,D. Richards,N/A,s.n.,"Jul 31, 1930",1930-07-31,N/A,Isopterygium tenerum (Sw) Mitt,Isopterygium tenerum,R. R. Ireland 1988,1988,N/A,Brazil,Minas Gerais,N/A,Vigos Agricultural College lands,"Corriga Hibeiro, Shady streambank, on rotten log","Corriga Hibeiro, shady streambank, on rotten log",N/A,,675 m,N/A,1039977,Mix of Handwritten and Typed,no type status
0020_C2078913F.jpg,"Dupl ex Naturhistoriska Riksmuseet, Stockholm (S)",N/A,N/A,1136354,22 February 1897,1897-02-22,N/A,Brachythecium albicans (Hedw.) Schimp,Brachythecium albicans,P. Daalen 5/97,5/97,N/A,Chile,Patagonia occident,Cerro Colorado,N/A,N/A,[precise locality unknown],N/A,,N/A,N/A,2136354,Typed,no type status
0066_C2079609F.jpg,D H Nicolson,D. H. Nicolson,N/A,2649,"March 31, 1960",1960-03-31,N/A,Asplerygiura curvicoilum (HJ) Mitt,Isopterygium tenerum,R R Ireland,1998,N/A,Brazil,N/A,N/A,N/A,State of Minas Geraia Road to Sao Miguel 3 Km west at Arepuaia On rotting tree trunks,"Road to Sao Miguel, 3 km west at Arepuaia, on rotting tree trunks",On rotting tree trunks,,Alt 710 m,N/A,1039978,Typed,no type status
0064_C2079607F.jpg,Yves Maska,Y. Maska,N/A,4686,"May 14, 1983",1983-05-14,N/A,Vignea pazcuarensis curvisolla (CA) Bitt ex F,Isopterygium tenerum,N/A,19 88,N/A,Brazil,Minas Gerais,N/A,Serra de Ouro,Um rotten log,[precise locality unknown],N/A,,alt 700 m,N/A,870839,Mix of Handwritten and Typed,no type status
0031_C2078930F.jpg,According to 'descriptionis Blatt' v torn,R. Ehrendorfer,N/A,v.73-2118,26 May 1973,1973-05-26,N/A,"Brachtheciellar calliergonoides Broth, in Herz",Brachtheciellar calliergonoides,M. Lewis,30-78-2118,N/A,Bolivia,Rio Junthuma,Oruro prov Sajama,Khuchi 4850 m,"Khuchi 4850 m, 18°07' S, 69°00' W, in warmish creek",[precise locality unknown],N/A,,4850 m,"18°07' S, 69°00' W",1049411,Typed,no type status
0018_C2077579F.jpg,E. Rob-Gladstein,E. Rob-Gladstein,S. S. Gladstein,C076,8 March 1977,1977-03-08,N/A,Bryophyta neotropica exsiccata Fascicle no (1987) edited by E. Rob Gladstein distributed by the Institute of Systematic Botany Utrecht 217 Pilotum chlorophyllum (Hornsch) C Müll det J Florschütz de Waard GUYANA Mabura Hill 180 km S of Georgetown 5°20'N alt 0-50 m On rotting tree base in mixed rain forest H Cornelissen & S S Gladstein C076,Pilotum chlorophyllum,J. Florschütz de Waard,N/A,N/A,Guyana,N/A,N/A,N/A,Mabura Hill 180 km S of Georgetown 5°20'N,Mabura Hill 180 kilometers south of Georgetown,On rotting tree base in mixed rain forest,,alt 0-50 m,5°20'N,1091586,Mix of Handwritten and Typed,no type status
0067_C2079611F.jpg,Revision by R.R. Ireland,R. R. Ireland,N/A,1988,FEB 1952,1952-02-00,N/A,Isopterygium tenerum (Sw.) Mitt,Isopterygium aurantiacum (C. M.) Jaeg,A. J. Sharp,FEB 1952,Neckera,N/A,N/A,N/A,N/A,IN THE CRYPTOGAMIC HERBARIUM CHICAGO NATURAL HISTORY MUSEUM,[precise locality unknown],N/A,,N/A,N/A,1016776,Mix of Handwritten and Typed,no type status
0030_C2078929F.jpg,"Brecht R Ochyra, 1982",R. Ochyra,N/A,79-2117,25 May 1979,1979-05-25,N/A,Brothythecium callichronoiches Broth. in herb.,Bryophyta of Bolivia,N/A,"Oct. R. Ochyra, 1982",N/A,Bolivia,Rio Junthuma,N/A,N/A,"Khuchu, 2 mi. down river from Aguas termales de Rio Junthuma Khuchu, 4350 m., 18° 07' S., 69° 00' W. In warmish creek",[precise locality unknown],N/A,,4350 m,"18° 07' S., 69° 00' W.",1049410,Typed,no type status
0097_C0341739F.jpg,Collected in part by a team from National Geographic Society,Marko Lewis,N/A,83-503,7 Feb 1983,1983-02-07,N/A,Racophyllum tomentorum (Hedw.) Brid,Racophyllum tomentorum,N/A,N/A,N/A,Bolivia,La Paz,Nor Yungas,Coroico,"'Coroico' forest of Coroico along road between Coroico and Yolosa 16°11'S, 67°44'W",Along road between Coroico and Yolosa,On rocks in shady fruit and coffee plantations On rocks in shady fruit orchard,,ca 1650 m,"16°11'S, 67°44'W",1100456,Mix of Handwritten and Typed,no type status
0059_C2079606F.jpg,N/A,N/A,N/A,N/A,N/A,N/A,N/A,Plants of Brazil State of Minas Geraes Isopterygium saprolaxum (C.M.) Mitt Mat Barros,Isopterygium tenerum,S.R. Ireland,1988,N/A,Brazil,Minas Gerais,N/A,N/A,In the Cryptogamic Herbarium Field Museum of Natural History 870845,[precise locality unknown],N/A,,N/A,N/A,4994,Mix of Handwritten and Typed,no type status
0032_C2078931F.jpg,"DEPTO ORURO PROV SAJAMA: Rio Jurikuma Khuchu 2 mi down river from Agues termales de Rio Jurikuma, in Sajama, 4650 m, 18° 07' S, 69° 00' W In warmish creek",Marko Lewis,no 79-2107,no 79-2107,25 May 1979,1979-05-25,N/A,Brachythecium calliergonoides Broth in Herz,Brachythecium calliergonoides,det R Ochyra 1982,24 X 1982,N/A,Bolivia,Oruro,Sajama,N/A,"Rio Jurikuma Khuchu 2 mi down river from Agues termales de Rio Jurikuma, 18° 07' S, 69° 00' W In warmish creek",Rio Jurikuma Khuchu 2 miles down river from Agues termales de Rio Jurikuma In warmish creek,N/A,,4650 m,"18° 07' S, 69° 00' W",1049404,Typed,no type status
0056_C2079602F.jpg,N/A,N/A,N/A,879841,"dec 8, 1950",1950-12-08,N/A,Herbarium Field Museum,Isopterygium tenerum,E B Ireland,1988,N/A,Brazil,Minas Gerais,N/A,Serra dc Pauna,Isopterygium tenerum (Sw)Mitt Plants of Brazil State of Minas Gerais Vic Mesa No 6304 Isopterygium tenerum (Sw) Mitt Cotype det EG Britton Small Plants on roots Vivo Geraes Alt 710m.,[precise locality unknown],on roots,,Alt 710m,N/A,879841,Typed,Cotype
0033_C2078932F.jpg,"Mario Lewis, no. 79-2119",M. Lewis,N/A,79-2119,"Oct. F. cahyra, 1982",1982-10-00,N/A,Brachystelium calicognonioides Brotb in Herz.,Bryophyta of Bolivia,N/A,"Oct. F. cahyra, 1982",N/A,Bolivia,La Paz,N/A,Rio Juntuma Khuchu,"2 mi down river from Aguas termales de Rio Juntuma Khuchu, 4350 m, 18° 07' S, 69° 00' W In warmish creek","2 miles down river from Aguas termales de Rio Juntuma Khuchu, In warmish creek",N/A,,4350 m,"18° 07' S, 69° 00' W",1049412,Typed,no type status
0087_C0679841F.jpg,leg J -P Frahm,J. -P. Frahm,N/A,6 9 1982,unsure and check,unsure and check,N/A,Campylopus heterostachys (Hampe)Jaeg,Campylopus heterostachys,unsure and check,unsure and check,unsure and check,Peru,Amazonas,N/A,Chachapoyas,km 417 6 oberhalb Leimebamba auf Uberwachsenen Steinblock im Nebelwald 3000 m,km 417.6 above Leimebamba on overgrown stone block in cloud forest 3000 meters,N/A,,3000 m,N/A,1053590,Typed,no type status
0080_C2056328F.jpg,P Bauer,P. Bauer,N/A,N/A,N/A,N/A,N/A,Gehechia gigantea (Funb) Boulay 1884,Gehechia gigantea,N/A,N/A,N/A,N/A,N/A,N/A,N/A,Musci europaei exsiccata,[precise locality unknown],N/A,,N/A,N/A,1134438,Mix of Handwritten and Typed,no type status
0004_C0000578F.jpg,John J Engel Matt von Konrat & John E Braggins,J. J. Engel,M. von Konrat | J. E. Braggins,23773,12 February 2003,2003-02-12,N/A,Telaranea lindenbergii var papillata Engel & Merr,Telaranea lindenbergii var papillata,N/A,N/A,"Blechnum novae-zealandiae, Weinmannia, Dicksonia squarrosa",New Zealand,North Island,Auckland Prov,Wharoerino Forest,start of track to Leitch's Hut 280 m 38° 24.5'S 174° 49.8'E Clay banks with Blechnum novae-zealandiae overhang Weinmannia and Dicksonia squarrosa dominat canopy and occasional Leptospermum scoparium,"start of track to Leitch's Hut 280 meters, clay banks with Blechnum novae-zealandiae overhang",Weinmannia and Dicksonia squarrosa dominant canopy and occasional Leptospermum scoparium,,c per + sporo,"38° 24.5'S, 174° 49.8'E",1173554,Typed,no type status
0088_C0399126F.jpg,N/A,N/A,N/A,N/A,APR 1958,1958-04-00,N/A,Chamaecrista mucronata (Spreng) I.&B.,Chamaecrista mucronata,N/A,N/A,N/A,Brazil,Santa Catarina,N/A,N/A,Plantas de SANTA CATARINA - BRASIL,[precise locality unknown],Campo dos Padres 800 metros altitude,,800 metros,N/A,1954,Handwritten,no type status
0062_C2079604F.jpg,"H R Perrin, G L Smith",H. R. Perrin,G. L. Smith,31132,Valley of the Pio das Ondas,N/A,N/A,Isopterygium tenerum (Sw) Mitt,Isopterygium tenerum,Revision by R E Ireland,1986,N/A,Brazil,N/A,N/A,N/A,Valley of the Pio das Ondas,Valley of the Pio das Ondas,"On the bark and exposed roots of Caperalops sp and on adjacent soil, at clearings Cut-over gallery forest and adjacent cerrado, ca 1200 W of Barreiras, elev ca 500m",,elev ca 500m,N/A,1059328,Mix of Handwritten and Typed,no type status
0010_C2077570F.jpg,Ynes Mexia No 6292,Y. Mexia,N/A,6292,Dec 9 1931,1931-12-09,N/A,"Plants of Peru  PLANTS OF PERU  Departmento de Loreto  Picrolemma spruceanum UM, F. D. 1981",Picrolemma spruceanum,unsure and check,"UM, F. D. 1981",Uncaria guianensis,Peru,Loreto,N/A,Iquitos,Above Pango de Manseriche  On fallen log,Above Pango de Manseriche [precise locality unknown],Stragglet poor south of Rio Santiago,,Alt 400 m,N/A,1057692,Mix of Handwritten and Typed,no type status
0079_C2056314F.jpg,"B. Maurr, lhahel europski eyelopeali, Ber. S.",B. Maurr,N/A,1198,AUG 1948,1948-08-00,N/A,CUSCUTA glochuans (Bank) Bensley 1884,Cuscuta glomerata,N/A,N/A,N/A,Croatia,Dalmacija,Hercegovina,N/A,"Dolazi na razne bolje ee izbjeru prsotuenili, jer kako se deri inda cuidls, muere dantus bethzzi, Raner.",[precise locality unknown],N/A,,N/A,N/A,1154335,Typed,no type status
0000_C0000578F.jpg,"John J Engel, Matt von Konrat & John E Braggins",J. J. Engel,M. von Konrat | J. E. Braggins,23773,12 February 2003,2003-02-12,N/A,Telaranea lindenbergii var papillata Engel & Merr,Telaranea lindenbergii var papillata,N/A,N/A,"Blechnum novae-zealandiae, Dicksonia squarrosa, Weinmannia",New Zealand,North Island,Auckland Prov,N/A,"Whareorina Forest, start of track to Leitch's Hut, 280 m, 38° 24.5' S, 174° 49.8' E, clay banks with Blechnum novae-zealandiae overhang","Whareorina Forest, start of track to Leitch's Hut, 280 meters, clay banks with Blechnum novae-zealandiae overhang [precise locality unknown]",occasional Leptospermum scoparium,,c per + sporo,"38° 24.5' S, 174° 49.8' E",1173554,Typed,no type status
