Image Name,verbatimCollectors,collectedBy,secondaryCollectors,recordNumber,verbatimEventDate,minimumEventDate,maximumEventDate,verbatimIdentification,latestScientificName,identifiedBy,verbatimDateIdentified,associatedTaxa,country,firstPoliticalUnit,secondPoliticalUnit,municipality,verbatimLocality,locality,habitat,verbatimElevation,verbatimCoordinates,otherCatalogNumbers,originalMethod,typeStatus,URL
0000_C0268502F_p.jpg,leg. A. Fleischer nr. B 2794,A. Fleischer,N/A,B 2794,25.2.1907,1907-02-25,N/A,Macromitrium,Macromitrium,N/A,N/A,N/A,Rwanda,N/A,N/A,N/A,"Australien: Queensland, Sumundi (Ost. 150 EB nördlich Brisbane), Urwald",[precise locality unknown],Urwald,N/A,N/A,1044981,Typed,no type status,https://fm-digital-assets.fieldmuseum.org/2491/485/C0268502F_p.jpg
0001_C0268508F_p.jpg,leg. W. Fleischer nr. B 2642,W. Fleischer,N/A,B 2642,25.3.1943,1943-03-25,N/A,Macromitrium,Macromitrium,N/A,N/A,N/A,Australia,Queensland,Eumundi,N/A,"(Chr. 750 km nördlich Brisbane), Urwald.",[precise locality unknown],Urwald,N/A,N/A,1076659,Typed,no type status,https://fm-digital-assets.fieldmuseum.org/2491/486/C0268508F_p.jpg
0002_C0268514F_p.jpg,N/A,H. Fleischer,N/A,B 2552,6.4.1903,1903-04-06,N/A,Macromitrium,Macromitrium,N/A,N/A,N/A,Australia,New South Wales,N/A,Blue Mountains bei Sydney,Wentworth Falls,[precise locality unknown],N/A,N/A,N/A,1076824 914.48,Handwritten,no type status,https://fm-digital-assets.fieldmuseum.org/2491/488/C0268514F_p.jpg
0003_C0268520F_p.jpg,N/A,N/A,N/A,N/A,N/A,1969-04-20,N/A,Macromitrium,Macromitrium,N/A,N/A,N/A,Australia,Queensland,N/A,N/A,Rat Brisbane,[precise locality unknown],N/A,N/A,N/A,1043448,Typed,no type status,https://fm-digital-assets.fieldmuseum.org/2491/491/C0268520F_p.jpg
0004_C0268544F.jpg,N/A,N/A,N/A,N/A,N/A,N/A,N/A,Musci Japonici,Macromitrium gymnostomum Sull. et Lesq.,A. Noguchi and Z. Iwatsuki,N/A,N/A,Japan,N/A,N/A,Wakayama Prefecture,"On vertical face of rock, 350 m alt., Ohara, Yura, Oto-mura, Nishimuro-gun, Wakayama Prefecture","On vertical face of rock, 350 meters altitude, Ohara, Yura, Oto-mura, Nishimuro-gun",N/A,350 m alt.,N/A,1043494,Typed,no type status,https://fm-digital-assets.fieldmuseum.org/2303/612/C0268544F.jpg
0005_C0268545F.jpg,"Coll. & det. T. Nakajima, May 4, 1958",T. Nakajima,N/A,s.n.,"May 4, 1958",1958-05-04,N/A,Macromitrium gymnostomum Sull. et Lesq.,Macromitrium gymnostomum,T. Nakajima,"May 4, 1958",N/A,Japan,Nara Prefecture,N/A,Mt. Obako,"On trunks of Fagus crenata, ca. 1200 m. alt., Mt. Obako, Nara Prefecture","On trunks of Fagus crenata, ca. 1200 meters altitude, Mt. Obako",N/A,ca. 1200 m. alt.,N/A,1043492,Typed,no type status,https://fm-digital-assets.fieldmuseum.org/2303/613/C0268545F.jpg
0006_C0268546F.jpg,N/A,N/A,N/A,23 (1986),s.d.,N/A,N/A,Macromitrium gymnostomum Sull. & Lesq.,Macromitrium gymnostomum,A. Noguchi,N/A,N/A,Japan,Shizuoka,Nishimuro-gun,Wakayama Prefecture,"On rocks, ca. 100 m alt., Sotoura, Shirahama-cho, Nishimuro-gun, Wakayama Prefecture","On rocks, ca. 100 meters alt., Sotoura, Shirahama-cho",N/A,ca. 100 m alt.,N/A,1043191,Typed,no type status,https://fm-digital-assets.fieldmuseum.org/2303/614/C0268546F.jpg
0007_C0268548F.jpg,Leg. S. Hattori,S. Hattori,N/A,33,Oct 1948,1948-10-00,N/A,Macromitrium gymnostomum Sull. et Lesq.,Macromitrium gymnostomum,A. Noguchi,N/A,N/A,Japan,Miyazaki,Minaminaka,Sakatani,"KIUSHIU, Miyazaki, Minaminaka, Sakatani",[precise locality unknown],"ad arborum truncos, ca 500 m",ca 500 m,N/A,1285073,Typed,no type status,https://fm-digital-assets.fieldmuseum.org/2303/617/C0268548F.jpg
0008_C0268549F.jpg,N/A,N/A,N/A,N/A,20.4.1898,1898-04-20,N/A,Macromitrium gymnostomum S. L.,Macromitrium gymnostomum,J.B. Ferrie,N/A,N/A,Japan,Iles Liou-Kiou,Centre de l'île,N/A,Iles Liou-Kiou - Centre de l'île,[precise locality unknown],N/A,N/A,N/A,1000415,Handwritten,no type status,https://fm-digital-assets.fieldmuseum.org/2303/619/C0268549F.jpg
0009_C0268550F.jpg,Leg.: R.P. J.B. Ferrié,R. P. J. B. Ferrié,N/A,s.n.,oct.nov.1898,1898-10-00,1898-11-00,Macromitrium gymnostomum S. L.,Macromitrium gymnostomum,M. Theriot,N/A,N/A,Japan,Yaku-Sima,N/A,N/A,Yaku-Sima,[precise locality unknown],N/A,N/A,N/A,1000416,Typed,no type status,https://fm-digital-assets.fieldmuseum.org/2303/621/C0268550F.jpg
0010_C0268554F.jpg,A. Touw No. 14660,A. Touw,N/A,14660,Dat: 9-3- 1975 Alt. c. 20 m.,1975-03-09,N/A,Macromitrium incurvifolium (Hook. & Grev.) Schwägr.,Macromitrium incurvifolium,D.H. Vitt,Det: D.H. Vitt,N/A,New Guinea,Morobe District,N/A,N/A,"Papua New Guinea Morobe Distr., Las. In fork of Plumeria tree in garden.",[precise locality unknown],In fork of Plumeria tree in garden,Alt. c. 20 m.,N/A,1142151,Typed,no type status,https://fm-digital-assets.fieldmuseum.org/2303/629/C0268554F.jpg
0011_C0268557F.jpg,Macromitrium longicaule C. Müll.,D. H. Vitt,N/A,18543,20.5.1975 Alt. 1500 - 1550 m.,1975-05-20,N/A,Macromitrium longicaule C. Müll.,Macromitrium longicaule,D. H. Vitt,Det. D.H. Vitt,N/A,New Guinea,N/A,N/A,N/A,"Papua New Guinea, Morobe Dist. Star Mts. 7°5'S 141°05'E Busilmin, wet forest on slope above Ok Din River, W of Busilmin, on trees along Ok Din River.",[precise locality unknown],"wet forest on slope above Ok Din River, on trees along Ok Din River",Alt. 1500 - 1550 m.,7°5'S 141°05'E,1141855,Typed,no type status,https://fm-digital-assets.fieldmuseum.org/2303/633/C0268557F.jpg
0012_C0268558F.jpg,Det: D.H. Vitt,D. H. Vitt,N/A,17369,8.5. 1975,1975-08-05,N/A,Macromitrium macrosporum Broth.,Macromitrium macrosporum,D. H. Vitt,8.5. 1975,N/A,Papua New Guinea,West Sepik Distr,Star Mts,N/A,"5°S14'09""E NE summit of Mt. Capella; on stems and branches of trees and shrubs in summit scrub.","5°S14'09""E NE summit of Mt. Capella; on stems and branches of trees and shrubs in summit scrub",N/A,Altit. 3900 m.,N/A,1142194,Typed,no type status,https://fm-digital-assets.fieldmuseum.org/2303/635/C0268558F.jpg
0013_C0268559F.jpg,Det. G.H. Vitt,G. H. Vitt,N/A,1142178,17.4.1975,1975-04-17,N/A,Macromitrium macrosporum Broth.,Macromitrium macrosporum,G. H. Vitt,17.4.1975,N/A,Papua New Guinea,West Sepik Dist.,Star Mts.,N/A,S1410°PE Mt. Capella Base Camp,"S1410°PE Mt. Capella Base Camp, 4-5 miles high stunted forest on ridge",On trees and shrubs,Alt. 3600 m.,N/A,1142178,Typed,no type status,https://fm-digital-assets.fieldmuseum.org/2303/637/C0268559F.jpg
0014_C0268560F.jpg,D.H. Vitt,D. H. Vitt,N/A,1142156,Dat. B.S. 1975 Ab.c. 4650 m.,1975-00-00,N/A,Macromitrium macrosporum Broth.,Macromitrium macrosporum,Det. D.H. Vitt,N/A,N/A,New Guinea,N/A,N/A,N/A,"Summit of Mt. Capella c. 5°S141°05'E NE Summit of Mt. Capella, Summit of ridge between Mt. Capella Base Camp and Mt. Capella ridge; on isolated tree.","Summit of Mt. Capella, on isolated tree",N/A,4650 m.,c. 5°S141°05'E,1142156,Typed,no type status,https://fm-digital-assets.fieldmuseum.org/2303/639/C0268560F.jpg
0015_C0268561F.jpg,D. H. Vitt,D. H. Vitt,N/A,19.4.1975,19.4.1975,1975-04-19,N/A,Macromitrium macrosporum Broth.,Macromitrium macrosporum,D. H. Vitt,19.4.1975,N/A,Papua New Guinea,West Sepik District,Star Mts.,N/A,c 5°S141°09'E  Mt. Capella NE summit,Mt. Capella NE summit in deep chasm near the summit on soaking wet bark of trees,N/A,3900 m,c 5°S141°09'E,1142175,Typed,no type status,https://fm-digital-assets.fieldmuseum.org/2303/641/C0268561F.jpg
0016_C0268562F.jpg,D.H. Vitt,D. H. Vitt,N/A,17205,5.5. 1975,1975-05-05,N/A,Macromitrium macrosporum Broth.,Macromitrium macrosporum,D.H. Vitt,5.5. 1975,N/A,Papua New Guinea,West Sepik District,Star Mts.,N/A,"Near Mt. Capella Base Camp, along trail to Tamanagabip; open sub-alpine scrub. At base of limestone rock faces","Near Mt. Capella Base Camp, along trail to Tamanagabip; open sub-alpine scrub, at base of limestone rock faces",Very abundant,Alt.c. 3450 m.,N/A,1141880,Typed,no type status,https://fm-digital-assets.fieldmuseum.org/2303/643/C0268562F.jpg
0017_C0268563F.jpg,Det: D.H. Vitt,D. H. Vitt,N/A,18046,14.5.1975,1975-05-14,N/A,Macromitrium megalocladon Fleisch.,Macromitrium megalocladon,D. H. Vitt,14.5.1975,N/A,Papua New Guinea,West Sepik District,Sur Mts.,N/A,5-7 S 141°19'E Upper montane forest between Telefomin and Atbalmin Airstrip Camp,[precise locality unknown],Pendulous from heavy tree branches and slanting trunks,2500 - 2600 m.,5-7 S 141°19'E,1142187,Typed,no type status,https://fm-digital-assets.fieldmuseum.org/2303/645/C0268563F.jpg
0018_C0268564F.jpg,Vitt,D. H. Vitt,N/A,16555,21.4.1975,1975-04-21,N/A,Macromitrium megalocladon Fleisch.,Macromitrium megalocladon,N/A,N/A,N/A,Papua New Guinea,West Sepik District,Star Mts,N/A,Small kunai (grassfield) SW of Mt. Capella Base Camp on vertical face of moss covered limestone boulder at edge of kunai,[precise locality unknown],on vertical face of moss covered limestone boulder at edge of kunai,c. 3400 m.,N/A,1142432,Typed,no type status,https://fm-digital-assets.fieldmuseum.org/2303/647/C0268564F.jpg
0019_C0268565F.jpg,D.H. Vitt,D. H. Vitt,N/A,15768,7.4. 1975,1975-04-07,N/A,Macromitrium megalocladon Fleisch.,Macromitrium megalocladon,D. H. Vitt,7.4. 1975,N/A,Papua New Guinea,West Sepik District,Star Mts.,N/A,"5°51'41""S 141°05'E Tel Kasim Ridge above Camp 1, 2350 m. Dense moss vegetation covering soil, rocks and the lower portion of shrubs. Dominant.","Tel Kasim Ridge above Camp 1, 2350 meters","Dense moss vegetation covering soil, rocks and the lower portion of shrubs. Dominant.",2350 m.,"5°51'41""S 141°05'E",1142300,Typed,no type status,https://fm-digital-assets.fieldmuseum.org/2303/649/C0268565F.jpg
0020_C0268566F.jpg,leg. S. Hatteri,S. Hatteri,N/A,1 (1947),s.d.,N/A,N/A,Musci japonici,Macromitrium incurvum,A. Noguchi,det. A. Noguchi VIII 1946,N/A,Japan,Miyazaki,Minaminaka,Obi,"KIUSHIU, Miyazaki, Minaminaka, Obi",[precise locality unknown],N/A,N/A,N/A,1225663,Mix of Handwritten and Typed,no type status,https://fm-digital-assets.fieldmuseum.org/2303/651/C0268566F.jpg
0021_C0268569F.jpg,"Coll. K. Mayebara, December 25, 1951",K. Mayebara,N/A,s.n.,"December 25, 1951",1951-12-25,N/A,Macromitrium incurvum (Lindb.) Par.,Macromitrium incurvum,A. Noguchi,Det. A. Noguchi,N/A,Japan,Kumamoto Prefecture,Yatsushiro,N/A,"On exposed rocks, 60 m. above sea, Yoshio, Kumamoto Prefecture","On exposed rocks, 60 meters above sea, Yoshio",N/A,60 m. above sea,N/A,1043529,Typed,no type status,https://fm-digital-assets.fieldmuseum.org/2303/658/C0268569F.jpg
0022_C0268571F.jpg,Coll. K. Miyekawa,K. Miyekawa,N/A,s.n.,"February 11, 1932",1932-02-11,N/A,Macromitrium gymnostomum Sull. et Lesq.,Macromitrium gymnostomum,A. Noguchi,Edited by A. Noguchi & S. Hattori,N/A,Japan,Kumamoto Prefecture,N/A,N/A,"On rocks, ca. 100m. above sea, Koonose, Kumamoto Prefecture","On rocks, ca. 100 meters above sea, Koonose",N/A,ca. 100m. above sea,N/A,1043490,Typed,no type status,https://fm-digital-assets.fieldmuseum.org/2303/661/C0268571F.jpg
0023_C0268572F.jpg,N/A,N/A,N/A,N/A,N/A,N/A,N/A,Macromitrium gymnostomum Sull. et Lesq.,Macromitrium gymnostomum,A. Noguchi,"Mar. 7, 1952",N/A,Japan,Hiroshima Prefecture,Kamo County,"On rocks, ca. 100m. alt., Hirootoko, Kisa-machi",N/A,[precise locality unknown],N/A,N/A,N/A,1043493,Typed,no type status,https://fm-digital-assets.fieldmuseum.org/2303/663/C0268572F.jpg
0024_C0268574F.jpg,H. H. Chung,H. H. Chung,N/A,B.206,March 1932,1932-03-00,N/A,Macromitrium gymnostomum S.& L. Det. Tixier,Macromitrium gymnostomum,Tixier,N/A,N/A,China,Fujian Province,N/A,N/A,Kushan near Foochow,Kushan near Foochow,N/A,N/A,N/A,1422304,Typed,no type status,https://fm-digital-assets.fieldmuseum.org/2303/668/C0268574F.jpg
0025_C0268575F.jpg,Flora of China,N/A,N/A,B.20,N/A,N/A,N/A,Macronitrium gymnostomum Sull. det. Theriot,Macronitrium gymnostomum,Theriot,N/A,N/A,China,N/A,N/A,N/A,On rock in bamboo forest,[precise locality unknown],On rock in bamboo forest,N/A,N/A,1122221,Handwritten,no type status,https://fm-digital-assets.fieldmuseum.org/2303/669/C0268575F.jpg
0026_C0268579F.jpg,Det: Dale H. Vitt 1989,D. H. Vitt,N/A,1142666,23 July 1981,1981-07-23,N/A,Macromitrium longirostre C. Müll.,Macromitrium longirostre,D. H. Vitt,1989,N/A,Papua New Guinea,Morobe Prov.,N/A,N/A,"Lake Wamba 5 km S of Teptep airstrip, Bettner open montane forest with dominating Pandanus trees 1 km S of lake, alt. 2400 m, 6°21'S, 146°35'E, on stump","Lake Wamba 5 kilometers south of Teptep airstrip, Bettner open montane forest with dominating Pandanus trees 1 kilometer south of lake, on stump",open montane forest with dominating Pandanus trees,alt. 2400 m,"6°21'S, 146°35'E",33590,Typed,no type status,https://fm-digital-assets.fieldmuseum.org/2303/676/C0268579F.jpg
0027_C0268581F.jpg,N/A,N/A,N/A,B.4.,s.d.,N/A,N/A,Macromitrium japonicum(Doz. et Mk.)S.M.,Macromitrium japonicum,S. M.,N/A,N/A,China,Fukien Province,N/A,N/A,On shady rocks or bark,[precise locality unknown],On shady rocks or bark,N/A,N/A,1122525,Typed,no type status,https://fm-digital-assets.fieldmuseum.org/2303/680/C0268581F.jpg
0028_C0268585F.jpg,Timo Koponen,T. Koponen,N/A,3571,9 July 1981,1981-07-09,N/A,Myriniopsis macrocarpa Broth,Fabronia neogiunea,N/A,N/A,N/A,Papua New Guinea,Morobe Province,Mt. Sarawaket Southern Range,N/A,"2.5 km S of L. Gwam. Open alpine grassland and ""subalpine"" forest at L. Gwenzoroh E of Mt. Enggom, alt. 3550 m, 6°24'S, 147°07'E",[precise locality unknown],"Open alpine grassland and ""subalpine"" forest",3550 m,"6°24'S, 147°07'E",1142666,Typed,no type status,https://fm-digital-assets.fieldmuseum.org/2303/687/C0268585F.jpg
0029_C0268587F.jpg,Edited by A.Noguchi and K.Iwatsuki,N/A,N/A,1049048,Jan. 30 1977,1977-01-30,N/A,Musci Japonici Exsiccati,Sematophyllum subhumile,N/A,N/A,N/A,Japan,N/A,N/A,N/A,1379. Sematophyllum subhumile Sull. et Lesq.,[precise locality unknown],"HABITAT: Ise, Hiyamizu, Miwai, 1-10 m alt., on tree trunk",1-10 m alt.,N/A,1049048,Typed,no type status,https://fm-digital-assets.fieldmuseum.org/2303/691/C0268587F.jpg
0030_C0268588F.jpg,Fr. Verdoorn,F. Verdoorn,N/A,s.n.,1936,1936-00-00,N/A,MUSCI SELECTI ET CRITICI editi Fr. Verdoorn Series III (1936) Cl. Aug. brevifolia vol. X,Macromitrium incurvum,N/A,N/A,N/A,Japan,Honshu,Musashi,N/A,Musashi,[precise locality unknown],N/A,N/A,N/A,1356480,Typed,no type status,https://fm-digital-assets.fieldmuseum.org/2303/693/C0268588F.jpg
0031_C0268589F.jpg,K. Saito,K. Saito,N/A,s.n.,"April 3, 1979",1979-04-03,N/A,Bryophyta selecta exsiccata 639. Macromitrium gymnostomum Sull. & Lesq,Macromitrium gymnostomum,A. Noguchi,Det. A. Noguchi,N/A,Japan,Sumiyo-mura,Amamioshima,Kagoshima Pref,On tree elevation about 150 m,[precise locality unknown],N/A,elevation about 150 m,N/A,1051109,Typed,no type status,https://fm-digital-assets.fieldmuseum.org/2303/695/C0268589F.jpg
0032_C0268725F.jpg,V. et P. Allorge,V. Allorge,P. Allorge,N/A,11.VI.1937,1937-06-11,N/A,BRYOPHYTA AZORICA,Bryophyta azorica,N/A,N/A,N/A,Portugal,Azores,N/A,N/A,Ile Pico Cavalo vers 700 m.,Pico Cavalo [precise locality unknown],Mousses et hepatiques recoltés en 1937 Iles Açores,vers 700 m.,N/A,1181624,Typed,no type status,https://fm-digital-assets.fieldmuseum.org/2302/601/C0268725F.jpg
0033_C0341037F.jpg,"DEPTO. LA PAZ PROV. LARECAJA: (Tacacoma 2) Between 5-6 km S of Tacacoma along road to Quiabaya, 16-17 km N of Sorata. 15°36'S, 68°39'W ca. 3550 m.",N/A,N/A,83-224,20 Jan 1983,1983-01-20,N/A,Philonotis,Philonotis,N/A,N/A,N/A,Bolivia,La Paz,Larecaja,N/A,"Between 5-6 km S of Tacacoma along road to Quiabaya, 16-17 km N of Sorata.",[precise locality unknown],Sunny humid Ceja de Montaña forests following ravines in small rill in dripping area of small waterfall,ca. 3550 m.,"15°36'S, 68°39'W",1100485,Typed,no type status,https://fm-digital-assets.fieldmuseum.org/2307/796/C0341037F.jpg
0034_C0341038F.jpg,N/A,M. Lewis,N/A,79-1314,29 March 1979,1979-03-29,N/A,Philonotis fide Crum,Philonotis,H. Crum,N/A,N/A,Bolivia,La Paz,Larecaja,Sorata,Along road 1 mi from Sorata towards Achacachi 15° 45' S 68° 42' W,Along road 1 mile from Sorata towards Achacachi,N/A,Eroding bank 2740 m,15° 45' S 68° 42' W,1075795,Typed,no type status,https://fm-digital-assets.fieldmuseum.org/2307/797/C0341038F.jpg
0035_C0341040F.jpg,N/A,M. Lewis,N/A,79-2315,1 June 1979,1979-06-01,N/A,Philonotis,Philonotis,N/A,N/A,N/A,Bolivia,Cochabamba,Chapare,N/A,"Slope of Cerro Khachi, N. of Corani, 3030 m., 17° 11' S., 65° 54' W. On stones and banks of seepy creek in cloud forest ravine, with tree ferns.","Slope of Cerro Khachi, on stones and banks of seepy creek in cloud forest ravine, with tree ferns","cloud forest ravine, with tree ferns",3030 m,"17° 11' S., 65° 54' W",1078739,Typed,no type status,https://fm-digital-assets.fieldmuseum.org/2307/798/C0341040F.jpg
0036_C0341047F.jpg,Collected by B. A. Krukoff,B. A. Krukoff,N/A,10007,15 Oct 1950,1950-10-15,N/A,N/A,N/A,N/A,N/A,N/A,Bolivia,N/A,N/A,N/A,UNDUAVI 10000 ft,Unduavi 10000 feet,N/A,10000 ft,N/A,6967,Typed,no type status,https://fm-digital-assets.fieldmuseum.org/2307/803/C0341047F.jpg
0037_C0341048F.jpg,M. E. Hensold,M. E. Hensold,N/A,6865,13 Oct. 1950,1950-10-13,N/A,Paepalanthus sp.,Paepalanthus sp.,N/A,N/A,N/A,Bolivia,N/A,N/A,N/A,UND:AVI 10000 ft.,[precise locality unknown],N/A,10000 ft.,N/A,2043042,Typed,no type status,https://fm-digital-assets.fieldmuseum.org/2307/804/C0341048F.jpg
0038_C0341051F.jpg,Mario Lewis,M. Lewis,N/A,79-2315,1 June 1979,1979-06-01,N/A,BRYOPHYTA OF BOLIVIA Philonotis,Philonotis,N/A,N/A,N/A,Bolivia,Cochabamba,Chapare,N/A,"Prov. Chapare, Slope of Cerro Khachi, N. of Corani, 3000 m., 17° 11' S., 65° 54' W. On stones and banks of seepy creek in cloud forest ravine, with tree ferns.","Slope of Cerro Khachi, N. of Corani, 3000 meters, 17° 11' S., 65° 54' W. On stones and banks of seepy creek in cloud forest ravine, with tree ferns.",N/A,3000 m.,"17° 11' S., 65° 54' W.",1050327,Typed,no type status,https://fm-digital-assets.fieldmuseum.org/2307/806/C0341051F.jpg
0039_C0341117F.jpg,Leg. P.E. Herwald,P. E. Herwald,N/A,N/A,31.8.1971,1971-08-31,N/A,Moosfloea von Peru,Moosfloea von Peru,N/A,N/A,N/A,Peru,Chachapoyas,N/A,N/A,Las Palmas sw. Balsas u. Leimebamba,Las Palmas southwest of Balsas and Leimebamba,"Fels, Erde, Mauer, Baum, Strauch, Holz, See, Bach",3000 m,N/A,1061647,Handwritten,no type status,https://fm-digital-assets.fieldmuseum.org/2307/879/C0341117F.jpg
0040_C0341152F.jpg,"Det. Elzada U. Clover, 1952 Duke University Herbarium",N/A,N/A,N/A,N/A,N/A,N/A,Fraunia andrenyi Lor,Fraunia andrenyi,N/A,N/A,N/A,Mexico,N/A,N/A,N/A,From the Herbarium of the UNIVERSITY OF TENNESSEE,[precise locality unknown],N/A,Alt. ca. 6300 ft.,N/A,1045263,Typed,no type status,https://fm-digital-assets.fieldmuseum.org/2307/513/C0341152F.jpg
0041_C0341164F.jpg,"Del. Efraim De Luna, 1952 Duke University Herbarium",E. De Luna,N/A,9301,"June 23, 1973",1973-06-23,N/A,Braunia secunda (Hook.) B.S.G.,Braunia secunda,A. J. Sharp,N/A,N/A,Mexico,N/A,N/A,N/A,"Partial shade, moist, road side cliff. Near El Punto on Hwy. 175, Oaxaca",Near El Punto on Highway 175 [precise locality unknown],"Partial shade, moist, road side cliff",2125 m.,N/A,1045248,Typed,no type status,https://fm-digital-assets.fieldmuseum.org/2307/538/C0341164F.jpg
0042_C0341169F.jpg,Collected for a planned book Flora of Mexico Sponsored by the Richards Foundation,A. J. Sharp,N/A,2736,"July 4, 1973",1973-07-04,N/A,Braunia secunda (Hook.) B.S.G.,Braunia secunda,A. J. Sharp,Det. A. J. Sharp,N/A,Mexico,Jalisco,N/A,San Martín Hidalgo,"partial shade, moist, very abundant, El Mirador on hwy. 80, 9 mi. above San Martín Hidalgo, Jalisco, Mexico","El Mirador on highway 80, 9 miles above San Martín Hidalgo [precise locality unknown]","partial shade, moist, very abundant",1750 m.,N/A,1045251,Typed,no type status,https://fm-digital-assets.fieldmuseum.org/2307/547/C0341169F.jpg
0043_C0341179F.jpg,Donald McVean,D. McVean,N/A,N/A,DEC 1945,1945-12-00,N/A,Braunia andrieuxii Lor.,Braunia andrieuxii,N/A,N/A,N/A,Mexico,Jalisco,N/A,N/A,In the Cryptogamic Herbarium Chicago Natural History Museum,[precise locality unknown],N/A,N/A,N/A,1172182,Typed,no type status,https://fm-digital-assets.fieldmuseum.org/2307/568/C0341179F.jpg
0044_C0341180F.jpg,C. G. Pringle,C. G. Pringle,N/A,10627,17. Sept. 1906,1906-09-17,N/A,"Braunia plicata, Mitt.",Braunia plicata,C. G. Pringle,17. Sept. 1906,N/A,Mexico,Hidalgo,N/A,N/A,Hidalgo,[precise locality unknown],N/A,N/A,N/A,1045265,Typed,no type status,https://fm-digital-assets.fieldmuseum.org/2307/570/C0341180F.jpg
0045_C0341205F.jpg,"Det. Elena De Luna, 1992 Duke University Herbarium",N/A,N/A,N/A,N/A,N/A,N/A,Braunia secunda (Hook.) Bruch & Schimp.,Braunia secunda,Elena De Luna,1992,N/A,Mexico,Hidalgo,N/A,N/A,"Maguey Manso, an old site, 500 m altitude",[precise locality unknown],N/A,500 m altitude,N/A,1031423,Typed,no type status,https://fm-digital-assets.fieldmuseum.org/2307/619/C0341205F.jpg
0046_C0341207F.jpg,Donald Richards,D. Richards,N/A,5059,Jan. 1981,1981-01-00,N/A,Braunia secunda (Hook.) Bruch & Schimp.,Braunia secunda,N/A,N/A,N/A,Mexico,N/A,N/A,N/A,BRYOPHYTES OF MEXICO Collected for a national flora of Mexico Supported by the National Foundation,[precise locality unknown],N/A,N/A,N/A,1036945,Typed,no type status,https://fm-digital-assets.fieldmuseum.org/2307/621/C0341207F.jpg
0047_C0341213F.jpg,A. J. Sharp,A. J. Sharp,N/A,142,"July 23, 1941",1941-07-23,N/A,Braunia secunda (Hook.) Bruch & Schump.,Braunia secunda,H.A. Crum,1962 (no exact date given),N/A,Mexico,N/A,N/A,N/A,From the Herbarium of the UNIVERSITY OF TENNESSEE EXPEDITION FOR THE CORRELATION OF FLORA OF THE SOUTHERN APPALACHIANS AND MEXICO-CENTRAL AMERICAN HIGHLANDS,[precise locality unknown],"Siliceous boulder in mts. above Gantepec, MEX.",N/A,N/A,1045239,Typed,no type status,https://fm-digital-assets.fieldmuseum.org/2307/910/C0341213F.jpg
0048_C0341223F.jpg,Collected for a general flora study of Mexico,E. Muell,N/A,4247,"Dec. 19, 1972",1972-12-19,N/A,Braunia squarrulosa (Hampe) C. Muell,Braunia squarrulosa,T. Sowens,N/A,N/A,Mexico,N/A,N/A,N/A,From the Herbarium of the UNIVERSITY OF TENNESSEE,[precise locality unknown],"Parted on rocks, moist, trail side banks, Yerba Buena, Pueblo Nuevo, about 55 km. northeast of Santa Barbara, Chiapas + 6500 ft.",+ 6500 ft.,N/A,1045274,Typed,no type status,https://fm-digital-assets.fieldmuseum.org/2307/712/C0341223F.jpg
0049_C0341228F.jpg,"Det. Brian De Lisle, 1992 Duke University Herbarium",B. De Lisle,N/A,N/A,"Feb.2,1975",1975-02-02,N/A,Braunia squarrulosa (Hampe) Broth.,Braunia squarrulosa,B. De Lisle,1992,N/A,Mexico,N/A,N/A,San Cristobal de las Casas,"On oak trunk in oak-pine woods, alt. 6800 ft., 15 mi. N.E. of San Cristobal de las Casas, Chiapas","On oak trunk in oak-pine woods, 15 miles northeast of San Cristobal de las Casas",oak-pine woods,alt. 6800 ft.,N/A,1052129,Typed,no type status,https://fm-digital-assets.fieldmuseum.org/2307/716/C0341228F.jpg
0050_C0341231F.jpg,"Elzada U. Clover, A.J. Sharp, P.D. Bowers, D.K. Smith, R.A. Hattaway, Paul Somers, Jr.",E. U. Clover,A. J. Sharp | P. D. Bowers | D. K. Smith | R. A. Hattaway | P. Somers Jr.,2960-A,1952,1952-00-00,N/A,Braunia squarrulosa (Hampe) C. Muell.,Braunia squarrulosa,E. De Luna,1992,N/A,Mexico,Oaxaca,N/A,San Pablo Ayutla,"dry, full shade, oak branch, (about 70 km. east of Oaxaca.) Elev. about 10,000 ft.",[precise locality unknown],"dry, full shade, oak branch","about 10,000 ft.",N/A,1045269,Typed,no type status,https://fm-digital-assets.fieldmuseum.org/2307/719/C0341231F.jpg
0051_C0341234F.jpg,"Det. Efrain De Luna, 1992 Duke University Herbarium",E. De Luna,N/A,217,23 July 1946,1946-07-23,N/A,Braunia squarrulosa (Hampe) C. Muell.,Braunia squarrulosa,E. De Luna,1992,N/A,Mexico,Jalisco,N/A,N/A,"On dead limb, fallen, 7300 feet, Oak forest, Slope of La Ferreria, above Manantlan","On dead limb, fallen, Oak forest, Slope of La Ferreria, above Manantlan",Oak forest,7300 feet,N/A,1089541,Typed,no type status,https://fm-digital-assets.fieldmuseum.org/2307/722/C0341234F.jpg
0052_C0341237F.jpg,Donald Richards,D. Richards,N/A,N/A,Dec 1945,1945-12-00,N/A,Braunia squarrulosa (Hampe) C. Muell.,Braunia squarrulosa,N/A,N/A,N/A,Mexico,N/A,N/A,N/A,"Del Tizate De Luna, 1992, Duke University Herbarium",[precise locality unknown],N/A,N/A,N/A,1172449,Typed,no type status,https://fm-digital-assets.fieldmuseum.org/2307/724/C0341237F.jpg
0053_C0341238F.jpg,"Del. Efrain De Luna, 1992 Duke University Herbarium",E. De Luna,N/A,1031467,s.d.,1992-00-00,N/A,Braunia squarrulosa (Hampe) C. Muell.,Braunia squarrulosa,N/A,s.d.,N/A,Mexico,Chiapas,N/A,N/A,AM 100 km ver Sta. Cristobal-San Cristobal,[precise locality unknown],N/A,2250 m,N/A,1031467,Typed,no type status,https://fm-digital-assets.fieldmuseum.org/2307/725/C0341238F.jpg
0054_C0341239F.jpg,Det Efrain De Luna 1992 Duke University Herbarium,N/A,N/A,N/A,N/A,N/A,N/A,Braunia squarrulosa (Hampe) C Muell,Braunia squarrulosa,N/A,N/A,N/A,N/A,N/A,N/A,N/A,N/A,[precise locality unknown],N/A,N/A,N/A,1031495,Typed,no type status,https://fm-digital-assets.fieldmuseum.org/2307/726/C0341239F.jpg
0055_C0341242F.jpg,"Coll. Brouha De Lesse, 1952",B. De Lesse,N/A,s.n.,1952,1952-00-00,N/A,Braunia squarrulosa (Hampe) C. Muell.,Braunia squarrulosa,F. J. Hermann,"February 9, 1972",N/A,Mexico,Chiapas,N/A,N/A,On oak trunk in oak-pine woods Dupl. verif. A.J.Sharp,[precise locality unknown],On oak trunk in oak-pine woods,6800 ft,15 miles SE.,1045277,Typed,no type status,https://fm-digital-assets.fieldmuseum.org/2307/729/C0341242F.jpg
0056_C0341246F.jpg,"Det. Efrain De Luna, 1992 Duke University Herbarium",E. De Luna,N/A,N/A,s.d.,N/A,N/A,Braunia squarrulosa (Hampe) C. Müll.,Braunia squarrulosa,E. De Luna,1992,N/A,Costa Rica,San Jose,N/A,N/A,"En rocas seca, a pleno sol.",[precise locality unknown],"En rocas seca, a pleno sol.","Alt. 2,000 m.",N/A,1029423,Typed,no type status,https://fm-digital-assets.fieldmuseum.org/2307/733/C0341246F.jpg
0057_C0341248F.jpg,Burnet O'Connor,B. O'Connor,N/A,1163435,"Oct. S. Churchill, 2001",2001-10-00,N/A,Hedwigiaceae Braunia exserta C. Müller,Braunia exserta,S. Churchill,4 Ago 2001,N/A,Bolivia,Tarija,Burnet O'Connor,N/A,"35 km oeste de Entre Rios (carretera a Tarija), Bosque montano Tucumano-Boliviano, remanente. <20792-20809>",[precise locality unknown],"Musgo sobre ramas, C.fr.",2100 m,21°25'S 64°13'W,1163435,Typed,no type status,https://fm-digital-assets.fieldmuseum.org/2307/735/C0341248F.jpg
0058_C0341251F.jpg,Leg. B. Sparre,B. Sparre,N/A,s.n.,27 November 1946,1946-11-27,N/A,"Naturhistoriska Riksmuseet, Stockholm (S)",Braunia cirrhifolia,Det. W. R. Buck,N/A,N/A,Argentina,Tucumán,Chicligasta,Rio Cochuna,1000 m.s.s.l.,[precise locality unknown],"Subtropical rainforest, epiphyte",1000 m.s.s.l.,N/A,1136855,Typed,no type status,https://fm-digital-assets.fieldmuseum.org/2307/738/C0341251F.jpg
0059_C0341253F.jpg,"Marko Lewis, no. 79-1625",M. Lewis,N/A,79-1625,6 April 1979,1979-04-06,N/A,Braunia cirrhifolia (Mitt.) Jaeg.,Braunia cirrhifolia,Efraín De Luna,1992,N/A,Bolivia,La Paz,Larecaja,Sorata,"In ravine with waterfall, 3250 m.","In ravine with waterfall, 3250 meters",N/A,3250 m.,"15° 48' S., 68° 36' W.",1032380,Typed,no type status,https://fm-digital-assets.fieldmuseum.org/2307/740/C0341253F.jpg
0060_C0341254F.jpg,Braunia plicata (Mitt.) Jaeg.,N/A,N/A,N/A,s.d.,N/A,N/A,Braunia plicata (Mitt.) Jaeg.,Braunia plicata,Dana Griffin III,1990,N/A,Bolivia,La Paz,N/A,N/A,"Prov. Larecaja: Río Chalusuyu: Along the Río Chalusuyu, a branch of the Río San Cristóbal, 16°44'S, 68°41'W  ca. 2450 m.",[precise locality unknown],"Arid woodland and cliff area, many cacti present. At base of cliff near river amongst a boulder pile in a deep canyon. Small trees, tree cacti and shrubs in shady, protected area.",ca. 2450 m.,"16°44'S, 68°41'W",1091442,Typed,no type status,https://fm-digital-assets.fieldmuseum.org/2307/741/C0341254F.jpg
0061_C0341255F.jpg,"Det. Efrain De Luna, 1992 Duke University Herbarium",M. Lewis,N/A,79-1230,22 March 1979,1979-03-22,N/A,Braunia plicata (Mitt.) Jaeg.,Braunia plicata,E. De Luna,1992,N/A,Bolivia,La Paz,Larecaja,N/A,"Near large red outcrop 2 mi. from Sorata down Rio Consata, 15° 41' S., 68° 43' W.",Near large red outcrop 2 miles from Sorata down Rio Consata,"Abundant on exposed rock face, 2600 m.",2600 m.,"15° 41' S., 68° 43' W.",1032384,Typed,no type status,https://fm-digital-assets.fieldmuseum.org/2307/742/C0341255F.jpg
0062_C0341257F.jpg,"Efrain De Luna, 1979",E. De Luna,N/A,1032341,5 March 1979,1979-03-05,N/A,Braunia plicata (Mitt.) Jaeg.,Braunia plicata,"Efrain De Luna, 1992",Duke University Herbarium,N/A,Bolivia,La Paz,Saavedra,N/A,"Trail between Charazani and Niño Karine, NNW of Chuma, 15° 11' S., 69° 04' W.","Trail between Charazani and Niño Karine, NNW of Chuma [precise locality unknown]","Banks of trail, 3200-3240 m.",3200-3240 m.,"15° 11' S., 69° 04' W.",1032341,Typed,no type status,https://fm-digital-assets.fieldmuseum.org/2307/744/C0341257F.jpg
0063_C0341258F.jpg,"Det. Efraín De Luna, 1992",E. De Luna,N/A,79-940,5 March 1979,1979-03-05,N/A,Braunia plicata (Mitt.) Jaeg.,Braunia plicata,E. De Luna,1992,N/A,Bolivia,La Paz,N/A,N/A,"Trail between Charazani and Nino Karine, NNW of Chuma, 15° 11' S., 69° 04' W.","Trail between Charazani and Nino Karine, NNW of Chuma","Banks of trail, 3200 m.",3200 m.,"15° 11' S., 69° 04' W.",1032381,Typed,no type status,https://fm-digital-assets.fieldmuseum.org/2307/745/C0341258F.jpg
0064_C0341263F.jpg,"Efrain De Luna, Nov. 1979",E. De Luna,N/A,s.n.,Nov. 1979,1979-11-00,N/A,Braunia rupestris (Mitt.) Jaeg.,Braunia rupestris,P. Beauv.,N/A,N/A,Bolivia,La Paz,Saavedra,N/A,"Trail between Charazani and Ñito Karine, NSW of Chuma, 15° 11' S, 68° 04' W","Along bank of trail, 3200 m",Hedwigidium integrifolium (P. Beauv.) Dix.,3200 m.,"15° 11' S, 68° 04' W",1032366,Typed,no type status,https://fm-digital-assets.fieldmuseum.org/2307/750/C0341263F.jpg
0065_C0341264F.jpg,Marko Lewis no. 79-615,M. Lewis,N/A,79-615,10 February 1979,1979-02-10,N/A,Bryophyta of Bolivia Hedwigidium integrifolium (P. Beauv.) Dix.,Hedwigidium integrifolium,N/A,N/A,N/A,Mexico,Puebla,N/A,N/A,"DEPTO. TARIJA, PROV. MENDEZ. 8 mi. NE of Iscayachi, E. slope of mountains (hike from summit of road into canyon N. of Tarija-Iscayachi Hwy.), 21° 27' S., 64° 54' W.",[precise locality unknown],"Dirt bank in Khemna forest, 3350 m.",3350 m.,"21° 27' S., 64° 54' W.",1032358,Typed,no type status,https://fm-digital-assets.fieldmuseum.org/2307/751/C0341264F.jpg
0066_C0341265F.jpg,"W. Dillon, U. Molau, & P. Matekaitis 31280",W. Dillon,U. Molau | P. Matekaitis,31280,28 Jan. 1983,1983-01-28,N/A,Braunia secunda (Hook.) B.S.G.,Braunia secunda,N/A,N/A,N/A,Peru,Ancash,Prov. Yungay,Yungay,"Ca. 25 km NE of Yungay, slopes below Laguna de Llanganuco, + 3380 m. Growing on branches.","Ca. 25 kilometers northeast of Yungay, slopes below Laguna de Llanganuco",Growing on branches,+ 3380 m,N/A,1111862,Typed,no type status,https://fm-digital-assets.fieldmuseum.org/2307/752/C0341265F.jpg
0067_C0341266F.jpg,"Det. Efraín De Luna, 1992 Duke University Herbarium",E. De Luna,N/A,1064157,s.d.,N/A,N/A,Braunia secunda (Hook.) BSG,Braunia secunda,Dora Griffin III,N/A,N/A,Venezuela,Merida,Libertador,N/A,"Sobre roca + seca, a baja luz.",[precise locality unknown],N/A,N/A,N/A,1064157,Typed,no type status,https://fm-digital-assets.fieldmuseum.org/2307/753/C0341266F.jpg
0068_C0341268F.jpg,"Det. Efrain De Luna, 1992 Duke University Herbarium",E. De Luna,N/A,79-489A,2 February 1979,1979-02-02,N/A,Braunia subincana Broth.,Braunia laxifolia,E. De Luna,1992,N/A,Bolivia,Tarija,O'Connor,Castaon,"at summit of mountain above and W. of Entre Rios, along road to Tarija, 21° 28' S, 64° 12' W",[precise locality unknown],"On rocks in dry deciduous forest, 1750 m.",1750 m.,"21° 28' S, 64° 12' W",1032377,Typed,no type status,https://fm-digital-assets.fieldmuseum.org/2307/755/C0341268F.jpg
0069_C0341270F.jpg,"Det Efrain De Luna, 1992 Duke University Herbarium",E. De Luna,N/A,1979,"December 28, 1972",1972-12-28,N/A,Braunia subplicata E.G.Britt.,Braunia subplicata,E. De Luna,1992,N/A,Bolivia,Cochabamba,Chapare,N/A,"From the Province of Chapare, alt. ca. 3500 ft.",From the Province of Chapare [precise locality unknown],N/A,alt. ca. 3500 ft.,N/A,1045267,Typed,no type status,https://fm-digital-assets.fieldmuseum.org/2307/757/C0341270F.jpg
0070_C0341698F.jpg,R.M.Gradstein & M.Lewis 7560,R. M. Gradstein,M. Lewis,7560,12 November 1989,1989-11-12,N/A,"Bryophyta neotropica exsiccata Fascicle V (1990), edited by S. R. Gradstein distributed by the Institute of Systematic Botany, Utrecht 220. Racopilum intermedium Hampe det. R.O. van Zanten",Racopilum intermedium,R. O. van Zanten,N/A,N/A,Bolivia,Dept. Cochabamba,Prov. Chapare,Incachaca,"5 km S of road Cochabamba - Villa Tunari km 95, alt. 2300 m","5 kilometers south of road Cochabamba - Villa Tunari kilometer 95, altitude 2300 meters",On cliff under brush in area of wet meadows and secondary woodlands,alt. 2300 m,N/A,1091583,Typed,no type status,https://fm-digital-assets.fieldmuseum.org/2308/102/C0341698F.jpg
0071_C0341739F.jpg,Marko Lewis 83-503,M. Lewis,N/A,83-503,7 Feb 1983,1983-02-07,N/A,Racophilum tomentosym (Hedw.) Brid.,Racophilum tomentosum,N/A,N/A,N/A,Bolivia,La Paz,Nor Yungas,Coroico,'Coroico' Yungas of Coroico along road between Coroico and Yolosa,along road between Coroico and Yolosa,Fruit and coffee plantations. On rocks in shady fruit orchard.,ca. 1650 m.,N/A,1100456,Typed,no type status,https://fm-digital-assets.fieldmuseum.org/2308/191/C0341739F.jpg
0072_C0341763F.jpg,Ynes Mexia,Y. Mexia,N/A,6281-a,"Nov. 11, 1930",1930-11-11,N/A,Rhyncostelum tomentosum (Hook.) Brid.,Rhyncostelum tomentosum,unsure and check,N/A,N/A,Brazil,N/A,N/A,N/A,Fazenda da F. Lopes. On rotting log.,Fazenda da F. Lopes [precise locality unknown],On rotting log,Alt. 780 m.,N/A,0281-a,Typed,no type status,https://fm-digital-assets.fieldmuseum.org/2308/199/C0341763F.jpg
0073_C0341787F.jpg,"Leg. S. R. Gradstein, W. A. Weber et al. 21.IV.1976",S. R. Gradstein,W. A. Weber,M-58,21.IV.1976,1976-04-21,N/A,Rhacopilus tomentosus (Hedw.)Brid.,Rhacopilum tomentosum,W. A. Weber,M-58,N/A,Ecuador,Galapagos Islands,Isla Floreana,N/A,"Isla Floreana. Frutices guajave woodlands and pampas east of Oras Farm, on rather dry shaded rocks.",[precise locality unknown],"Frutices guajave woodlands and pampas east of Oras Farm, on rather dry shaded rocks",ca. 250-350 m,N/A,1023912,Typed,no type status,https://fm-digital-assets.fieldmuseum.org/2308/207/C0341787F.jpg
0074_C0341789F.jpg,Leg. P. E. Hegewald,P. E. Hegewald,N/A,s.n.,Datum 21.4. 1973,1973-04-21,N/A,Nr. 6726. Racomitrium tomentosus(Hedw.)Brid.,Racomitrium tomentosus,unsure and check,unsure and check,N/A,Peru,Amazonas,Chachapoyas,Leimebamba,Gut Cuellamar sw. Balsas a. Leimebamba.,[precise locality unknown],"Moos auf Baum, Nebelwald, Reg. Suni, Hohe m.",Hohe m.,N/A,1026724,Handwritten,no type status,https://fm-digital-assets.fieldmuseum.org/2308/209/C0341789F.jpg
0075_C0341798F.jpg,J. & P. A. Florschütz,J. Florschütz,P. A. Florschütz,4715,d. d. 18.XII.1975,1975-12-18,N/A,Racoplium tomentosum (Hedw.) Brid.,Racoplium tomentosum,P. A. Florschütz & J. Florschütz-de Waard,Det. P. A. Florschütz & J. Florschütz-de Waard,N/A,Suriname,N/A,N/A,N/A,"Brownsberg, trail to Leo fall. On decaying log.","Brownsberg, trail to Leo fall [precise locality unknown]",On decaying log,N/A,N/A,1028580,Typed,no type status,https://fm-digital-assets.fieldmuseum.org/2308/214/C0341798F.jpg
0076_C0341803F.jpg,"E. Linares, S.R. Gradstein and R.O. van Zanten",E. Linares,S. R. Gradstein | R. O. van Zanten,1543,26 Sept. 1984,1984-09-26,N/A,"BRYOPHYTA NEOTROPICA EXSICCATA Fasciola II (1986), edited by S. Rob Gradstein distributed by the Institute of Systematic Botany, Utrecht 69. BAZZOPILUM TOMENTOSUM (Hedw.) Brid.",Bazzopilum tomentosum,S. Rob Gradstein,1986,N/A,Colombia,Dept. Meta,Villavicencio,Bavaria brewery near río Guatiquía,"Bavaria brewery near río Guatiquía, alt. 600 m. On log in forest.","Bavaria brewery near río Guatiquía, alt. 600 m. On log in forest.",N/A,alt. 600 m.,N/A,No 1065598,Typed,no type status,https://fm-digital-assets.fieldmuseum.org/2308/115/C0341803F.jpg
0077_C0341804F.jpg,Racoplum tomentosun (Hedw.) Brid.,N/A,N/A,1100344,s.d.,N/A,N/A,Racoplum tomentosun (Hedw.) Brid.,Racoplum tomentosun,Marko Lewis 83-511,7 Feb 1983,N/A,Bolivia,La Paz,Nor Yungas,Coroico,"'Coroico' 1 km S of Coroico along road between Coroico and Yolosa. 16°11'S, 67°43'W ca. 1650 m.",1 km S of Coroico along road between Coroico and Yolosa. [precise locality unknown],Fruit and coffee plantations. Bark of fruit trees in orchard.,ca. 1650 m.,"16°11'S, 67°43'W",1100344,Typed,no type status,https://fm-digital-assets.fieldmuseum.org/2308/218/C0341804F.jpg
0078_C0341805F.jpg,"Vigo Mexia, No.8180a",V. Mexia,N/A,8180a,"Sept. 15,1936",1936-09-15,N/A,Rhacopilum tomentosum (Sw.) Brid.,Rhacopilum tomentosum,Hacienda Mercedes,N/A,N/A,Peru,Huanuco,N/A,N/A,Dept. Huanuco: Hacienda Mercedes: Poca Perga: old tree trunk in dense shade.,Hacienda Mercedes: Poca Perga: old tree trunk in dense shade,N/A,Alt. 1500 m.,N/A,51806,Typed,no type status,https://fm-digital-assets.fieldmuseum.org/2308/219/C0341805F.jpg
0079_C0341806F.jpg,"Ynes Mexia, No. 6165a",Y. Mexia,N/A,6165a,"Sept. 9,1936",1936-09-09,N/A,Rhacopilum rosanicum (Sw.) Brid.,Rhacopilum tomentosum,N/A,N/A,N/A,Peru,N/A,N/A,N/A,"Rhacopilum rosanicum (Sw.) Brid. Dept. Huanuco, Prov. Huanuco, Dist. Churubamba; Hacienda Exito; bank of Rio Isabel; on rock in wood",[precise locality unknown],on rock in wood,alt. 1100 m.,N/A,1084804,Typed,no type status,https://fm-digital-assets.fieldmuseum.org/2308/220/C0341806F.jpg
0080_C0341807F.jpg,"Vince Mexia, No. 8168a",V. Mexia,N/A,8168a,"Sept. 9, 1936",1936-09-09,N/A,Rhacopilum tomentorum (Sw.) Brid. det. Bartram,Rhacopilum tomentosum,E. B. Bartram,N/A,N/A,Peru,Huanuco,Distrito Churubamba,Hacienda Exito,bank of Rio Ysabel on rock in woods alt. 1100 m.,bank of Rio Ysabel on rock in woods,N/A,alt. 1100 m.,N/A,1036245,Typed,no type status,https://fm-digital-assets.fieldmuseum.org/2308/221/C0341807F.jpg
0081_C0341828F.jpg,"On wet, fallen log.",R. A. Crum,N/A,16563,"May 19, 1952",1952-05-19,N/A,Leucodon limpichi Spruce ex Mitt.,Leucodon limpichii,N/A,N/A,N/A,Colombia,Amazonas,N/A,N/A,"Rio Miritiparaná: Caño Guacayá, Altitude about 700 feet",Rio Miritiparaná: Caño Guacayá,"On wet, fallen log.",Altitude about 700 feet,"Lat. 0° 50' S, Long. 70° 40' W",1055465,Typed,no type status,https://fm-digital-assets.fieldmuseum.org/2310/761/C0341828F.jpg
0082_C0341834F.jpg,"Sobre raíz a ras del suelo, en Julio-Agosto 1977",D. Griffin,O. Rangel | G. van Reenen,50.286,Julio-Agosto 1977,1977-07-00,1977-08-00,Leucocoprinus liliputianus Spr. ex Henn.,Leucocoprinus liliputianus,D. Griffin III,16-Oct-1978,N/A,Colombia,Magdalena,Parque Nacional de la Sierra Nevada de Santa Marta,Vertiente oriental del Rio Buritaca,Bosque nublado montano bajo,[precise locality unknown],Bosque nublado montano bajo,2100-2600 m.,N/A,1029476,Typed,no type status,https://fm-digital-assets.fieldmuseum.org/2310/772/C0341834F.jpg
0083_C0341890F.jpg,S.P. Churchill et al.,S. P. Churchill,N/A,15466,6 July 1987,1987-07-06,N/A,"BRYOPHYTA NEOTROPICA EXSICCATA Fascicle VII (1996), edited by S. Rob Gradstein distributed by the University of Göttingen Herbarium (GOET) 330. Trachyxyphium tenue (Mitt.) Buck (= Hookeropsis tenue Mitt.)",Trachyxyphium tenue,S. P. Churchill et al.,1996,N/A,Colombia,Antioquia,"Mun. de la Union, Cerro San Miguel",N/A,"Cerro San Miguel, 5°55' N, 75°17' W, alt. 2460-2620 m. In secondary montane forest.","Cerro San Miguel, 5°55' N, 75°17' W, alt. 2460-2620 meters [precise locality unknown]",In secondary montane forest,alt. 2460-2620 m.,"5°55' N, 75°17' W",1139980,Typed,no type status,https://fm-digital-assets.fieldmuseum.org/2311/202/C0341890F.jpg
0084_C0341932F.jpg,Dora Emilia de Retana,D. E. Retana,N/A,212,"Julio 3-4, 1977",1977-07-03,1977-07-04,Hypnella pilifera (Hook. et Wils.) Jaeg.,Hypnella pilifera,Dana Griffin III | Maria Isabel Morales,1977,N/A,Costa Rica,Cartago,N/A,N/A,Reserva Forestal Tapanti vertiente oriental del Rio Macho Bosque muy humedo montano bajo Alt 1 340-1 600 m,[precise locality unknown],On trunk of tree Alt 1 600 m,Alt 1 600 m,N/A,1025621,Typed,no type status,https://fm-digital-assets.fieldmuseum.org/2310/492/C0341932F.jpg
0085_C0342106F.jpg,"KUNHARDT-WITHERBEE CHIMANTA MASSIF EXPEDITION, 1953-54 New York Botanical Garden - American Museum of Natural History",J. Wurdack,N/A,34365,"Feb. 2, 1955",1955-02-02,N/A,Hypnella cymbifolia (Hpe.) Jaeg.,Hypnella cymbifolia,E. B. Bartram,Det. E. B. Bartram,N/A,Venezuela,Bolivar,N/A,N/A,Estado Bolivar,"Frequent on fallen logs in forest between Camps 3 and 2, elev. 1250 - 1800 m.",Slope forest Tirepón-tepui.,elev. 1250 - 1800 m.,N/A,1026297,Typed,no type status,https://fm-digital-assets.fieldmuseum.org/2310/951/C0342106F.jpg
0086_C0342107F.jpg,"Slopes and summit of Serra Curicuriari, from Uaupés, Amazonas, Brazil",W. R. Buck,S. M. Costa | D. M. Vital | O. Yano,2445,12 July 1979,1979-07-12,N/A,Hookeriopsis parkeriana (Hook. & Grev.) Jaeg.,Hookeriopsis parkeriana,unsure and check,N/A,N/A,Brazil,Amazonas,N/A,N/A,"Slopes and summit of Serra Curicuriari, from Uaupés",[precise locality unknown],"On tree trunk in rain forest, ca. 450 m alt. summit: 00°20'S, 66°50'W","ca. 450 m alt. summit: 00°20'S, 66°50'W","summit: 00°20'S, 66°50'W",1320586,Typed,no type status,https://fm-digital-assets.fieldmuseum.org/2310/953/C0342107F.jpg
0087_C0342117F.jpg,BRYOPHYTES OF PERU,N/A,N/A,N/A,N/A,N/A,N/A,HYPNELLA PILIFERA (Hook. & Wils.) Jaeg.,Hypnella pilifera,Robin B. Foster 4722,30 July 1981,N/A,Peru,Pasco,Oxapampa,N/A,"E slope of Cordillera Yanachaga, on Iscozacin-Chuchurras trail, 1900 m., 10°30'S, 75°30'W, in Weinmannia forest.",[precise locality unknown],in Weinmannia forest,1900 m.,"10°30'S, 75°30'W",1059405,Typed,no type status,https://fm-digital-assets.fieldmuseum.org/2310/974/C0342117F.jpg
0088_C0342123F.jpg,Coll. J.W. Fitzpatrick & D.E. Willard s.n.,J. W. Fitzpatrick,D. E. Willard,s.n.,4 Dec. 1981,1981-12-04,N/A,HYPNELLA PILIFERA (Hook. & Wils.) Jaeg.,Hypnella pilifera,N/A,N/A,N/A,Peru,Cuzco,N/A,N/A,"Slopes above Pillahuata, near shallow ravine","Slopes above Pillahuata, near shallow ravine",N/A,"2850 m., 13°11'S, 71°22'W","13°11'S, 71°22'W",1059455,Typed,no type status,https://fm-digital-assets.fieldmuseum.org/2310/987/C0342123F.jpg
0089_C0342153F.jpg,S.P. Churchill et al.,S. P. Churchill,N/A,18335,11 July 1992,1992-07-11,N/A,"BRYOPHYTA NEOTROPICA EXSICCATA Fascicle VII (1996), edited by S. Rob Gradstein, distributed by the University of Göttingen Herbarium (GOET) 312. Hypnella diversifolia (Mitt.) Jaeg. det. S.P. Churchill",Hypnella diversifolia,S. P. Churchill,N/A,N/A,Colombia,Antioquia,Mun. de Valdivia,Pueblo Nuevo,"road to Ventanas, 7°5'N, 75°25'W",road to Ventanas [precise locality unknown],"alt. 1950 m, On tatud, in secondary montane forest",alt. 1950 m,"7°5'N, 75°25'W",1139992,Typed,no type status,https://fm-digital-assets.fieldmuseum.org/2311/048/C0342153F.jpg
0090_C0342159F.jpg,Leg. E. B. Bartram,E. B. Bartram,N/A,10056,"April 2, 1953",1953-04-02,N/A,Hypnella cymbifolia (Hpe.) Jaeg.,Hypnella cymbifolia,John J. Wurdack,"January 7, 1955",N/A,Venezuela,N/A,N/A,N/A,Estado Bolivar,[precise locality unknown],"Fruiting scantily on logs. Occasional in rain-forest between Camp 2 and 3, elev. 1200-1250 m.",1200-1250 m.,N/A,1026299,Typed,no type status,https://fm-digital-assets.fieldmuseum.org/2311/060/C0342159F.jpg
0091_C0342164F.jpg,N/A,R. B. Foster,N/A,4720,30 July 1981,1981-07-30,N/A,BRYOPHYTES OF PERU HYPNELLA PALLESCENS (Hook.) Jaeg.,Hypnella pallescens,N/A,N/A,N/A,Peru,Pasco,N/A,N/A,E slope of Cordillera Yanachaga on Tonqui- Chuchurras trail 1900 m. 10°30'S 75°30'W. in Weinmannia forest,[precise locality unknown],N/A,N/A,10°30'S 75°30'W,1059403,Typed,no type status,https://fm-digital-assets.fieldmuseum.org/2311/071/C0342164F.jpg
0092_C0342165F.jpg,"Kunhardt-Witherbee Chimanta Massif Expedition, 1953-54 New York Botanical Garden - American Museum of Natural History Estado Bolivar, Venezuela",J. Wurdack,N/A,34365,"February 11, 1953",1953-02-11,N/A,Brocchinia cyanifolia (Bak.) Mez,Brocchinia cyanifolia,E. B. Bartram,Oct. 1953,N/A,Venezuela,Bolivar,N/A,N/A,"Frequent on fallen logs in forest between Campo 3 and 2, elev. 1250 - 1200 m.",[precise locality unknown],Slope forest Tirepón-tepui.,elev. 1250 - 1200 m.,N/A,1026300,Typed,no type status,https://fm-digital-assets.fieldmuseum.org/2311/073/C0342165F.jpg
0093_C0342515F.jpg,"T. Husnot, a Cahan, par Athis (Orne)",T. Husnot,N/A,s.n.,s.d.,N/A,N/A,Weisia compacta Brid.,Weisia compacta,N/A,N/A,N/A,France,N/A,N/A,N/A,"Rochers schisteux de la Sarthe, a Fresnaye",[precise locality unknown],Rochers schisteux de la Sarthe,N/A,N/A,1084497,Typed,no type status,https://fm-digital-assets.fieldmuseum.org/2314/809/C0342515F.jpg
0094_C0398471F.jpg,"Around Shirahama, Iriomote Isl., the Ryukyu Isls. On bark of Pinus thunbergii, elevation about 10 m Coll. H. Inoue, Jan. 11, 1973",H. Inoue,N/A,s.n.,"Jan. 11, 1973",1973-01-11,N/A,Macromitrium japonicum Doz. et Molk.,Macromitrium japonicum,Z. Iwatsuki,N/A,N/A,Japan,N/A,N/A,N/A,"Around Shirahama, Iriomote Isl., the Ryukyu Isls. On bark of Pinus thunbergii","Around Shirahama, Iriomote Island, the Ryukyu Islands On bark of Pinus thunbergii",N/A,elevation about 10 m,N/A,1021837,Typed,no type status,https://fm-digital-assets.fieldmuseum.org/2303/929/C0398471F.jpg
0095_C0399126F.jpg,Leg. R. Reitz,R. Reitz,N/A,4454,APR 1956,1956-04-00,N/A,Campylopus arckocarpus (Hornsch.) Mitt.,Campylopus arckocarpus,unsure and check,3-6-1956,N/A,Brazil,Santa Catarina,N/A,N/A,"Campo dos Padres, dom retiro",[precise locality unknown],rupestre,Alt. 1800 msm,N/A,174.1.1,Typed,no type status,https://fm-digital-assets.fieldmuseum.org/2298/760/C0399126F.jpg
0096_C0399179F.jpg,leg. Frahm 22.7.1977,Frahm,N/A,1026026,22.7.1977,1977-07-22,N/A,26. Campylopus arctocarpus (Hornsch.) Mitt.,Campylopus arctocarpus,Frahm,N/A,N/A,Brazil,Serra do Bocaina,Leesette,N/A,in der Strabe Campos da Cunha - Sao José dos Barreiros,[precise locality unknown],epiphytisch im Podocarpus-Wald 1200 msm,1200 msm,N/A,1026026,Typed,no type status,https://fm-digital-assets.fieldmuseum.org/2298/823/C0399179F.jpg
0097_C0399191F.jpg,N/A,N/A,N/A,N/A,APR 1956,1956-04-00,N/A,"Plantas de SANTA CATARINA - BRASIL Familia N. cientifico Campylopus arctocarpus (Hornsch.) Mitt. Ssp.: Var.: Nome vulgar Localidade Serra do Oratorio, Brusque Habitat terrestre Altitude 900 msm Flor (côr, odor, etc.) Fruto (tamanho, odor, côr, etc.) Colecionador J. Dutra N. 4922 Data 4-1956 Determinador Data Observações (usos e econom., abundância, etc.)",Campylopus arctocarpus,N/A,N/A,N/A,Brazil,Santa Catarina,N/A,Brusque,Serra do Oratorio,Serra do Oratorio [precise locality unknown],terrestre,900 msm,N/A,4922,Typed,no type status,https://fm-digital-assets.fieldmuseum.org/2298/847/C0399191F.jpg
0098_C0679833F.jpg,leg. Schäfer-Verwimp,Schäfer-Verwimp,N/A,5.5.1987 no. 9019,5.5.1987,1987-05-05,N/A,Campylopodes exsiccatae,Campylopus gracilis,N/A,N/A,N/A,BRASILIEN,São Paulo,Pedra Grande bei Atibaia,N/A,"Campo-Vegetation im Gipfelbereich, sickerfeuchter Felshang; 1400 msm.",[precise locality unknown],"Campo-Vegetation im Gipfelbereich, sickerfeuchter Felshang",1400 msm.,N/A,1097651,Typed,no type status,https://fm-digital-assets.fieldmuseum.org/2301/652/C0679833F.jpg
0099_C0679841F.jpg,leg. J.-P.Frahm 6.9.1982,J.-P. Frahm,N/A,s.n.,6.9.1982,1982-09-06,N/A,Campylopodes peruvianae exsiccatae,Campylopus heterostachys,G. J. Frahm,11. Campylopus heterostachys (Hampe.)Jaeg.,N/A,Peru,Amazonas,N/A,Chachapoyas,"Leymebamba, auf Ubererdeten Steinblock im Nebelwald 3000 m.","Leymebamba, on overearth stone block in cloud forest at 3000 meters",N/A,3000 m.,N/A,1053590,Typed,no type status,https://fm-digital-assets.fieldmuseum.org/2301/660/C0679841F.jpg
