associatedTaxa,collectedBy,country,firstPoliticalUnit,habitat,identifiedBy,latestScientificName,locality,maximumEventDate,minimumEventDate,municipality,originalMethod,otherCatalogNumbers,recordNumber,secondPoliticalUnit,secondaryCollectors,typeStatus,verbatimCollectors,verbatimCoordinates,verbatimDateIdentified,verbatimElevation,verbatimEventDate,verbatimIdentification,verbatimLocality
N/A,M. Fleischer,Australia,Queensland,Urwald,N/A,Macromitrium ,[precise locality unknown],N/A,1903-03-25,Eumundi ,Mix of Handwritten and Typed,B 27.34 | 1044084,1076713,N/A,N/A,no type status,PASS,N/A,N/A,N/A,25.3.1903,Macromitrium,"(ca. 100 km nördlich Brisbane), Urwald"
N/A,PASS,Australia,Queensland,N/A,N/A,Macromitrium ,"Bumundi, Urwald, about 100 Kilometers north of Brisbane",N/A,1903-03-25,N/A,Mix of Handwritten and Typed,N/A,1076699,N/A,recordNumber: 1076699,no type status ,PASS,N/A,N/A,N/A,25.3.1903,Macromitrium,"Australien: Queensland, Bumundi (ca. 100 Km nördlich Brisbane), Urwald."
N/A,PASS,Australia,New South Wales,N/A,N/A,Macromitrium,"Wentworth Falls, Blue Mountains",N/A,1903-04-06,Sydney,Mix of Handwritten and Typed,1076824,B 2552,N/A,N/A,no type status,PASS,N/A,N/A,N/A,6.4.1903,Macromitrium,"Blue Mountains bei Sydney, Wentworth Falls"
N/A,PASS,Australia,Queensland,N/A,N/A,Macromitrium ,near Brisbane ,N/A,1903-03-20,Brisbane,Handwritten,1076705|104416,B 2697,N/A,N/A,no type status,PASS,N/A,N/A,N/A,20 3 1903,"Macromitrium Australien Queensland, bei Brisbane",bei Brisbane
N/A,T. Nakajima,Japan,Wakayama Prefecture,N/A,T. Nakajima,Macromitrium gymnostomum,"On vertical face of rock 330 meters altitude Ohara, Yuya, Oto-mura, Nishi Muro-gun, Wakayama Prefecture",N/A,1971-03-27,Yuya,Handwritten,1043494,s.n.,N/A,N/A,no type status,PASS,N/A,"Mar. 27, 1971",PASS,"Mar. 27, 1971",Macromitrium gymnostomum Sull. et Lesq. c. fr.,"On vertical face of rock, 330 m alt., Ohara, Yuya, Oto-mura, Nishi Muro-gun, Wakayama Prefecture"
Fagus crenata,PASS,Japan,Nara Prefecture,N/A,PASS,Macromitrium gymnostomum,"On trunks of Fagus crenata, Mount Obako",N/A,1958-05-04,N/A,Mix of Handwritten and Typed,1043492 | C0268654F,s.n.,N/A,N/A,no type status,PASS,N/A,N/A,PASS,"May 4, 1958",714. Macromitrium gymnostomum Sull. et Lesq.,"On trunks of Fagus crenata, ca. 1200 m. alt., Mt. Obako, Nara Prefecture"
N/A,PASS,Japan,Wakayama Prefecture,N/A,PASS,Macromitrium gymnostomum ,On rocks near Syogawa ,N/A,1967-03-28,Shirahama-chō,Typed,1043491,s.n.,Nishimuto-gun,N/A,no type status,PASS,N/A,"March 28, 1967",PASS,"March 28, 1967",Macromitrium gymnostomum Sull & Lesq. c. fr.,"On rocks, ca. 100 m alt. Syogawa,  Nishimiro-gun, Wakayama Prefecture"
N/A,PASS,Japan,KIUSHIU,ad arborum truncos,PASS,Macromitrium gymnostomum,[precise locality unknown],N/A,1946-10-00,"Minaminaka, Sakakani",Handwritten,C0268548F,s.n.,Miyazaki,N/A,no type status ,PASS,N/A,N/A,ca 500 m,X. 1946,33 Macromitrium gymnostomum Sull. et Lesq.,"ad arborum truncos, ca 500 m,"
N/A,R. P. Ferrié,Japan,Iles Liou-Kiou,N/A,Theriot,Macromitrium gymnostomum ,Centre of the island,N/A,1898-04-20,N/A,Typed,1000415,s.n.,Centre,recordNumber: s.n.,no type status,PASS,N/A,N/A,N/A,20.4.1898,Macromitrium gymnostomum  S. L.,Japon : Iles Liou-Kiou - Centre de l'île -
N/A,R. Ferrié,Japan,N/A,N/A,Théirot,Macromitrium gymnostomum ,[precise locality unknown],1898-11-00,1898-10-00,Yaku-Sima,Handwritten,C0268550F,s.n.,N/A,N/A,no type status,PASS,N/A,N/A,N/A,oct.nov.1898,Macromitrium gymnostomum S. L. = M. rupestre Mitt.  Sull. Card.,Japon : Yaku-Sima - 
N/A,PASS,Papua New Guinea,Morobe District,N/A,PASS,Macromitrium incurvifolium,In fork of Plumeria tree in garden,N/A,1975-03-09,Lae,Mix of Handwritten and Typed,1142151,14660,N/A,recordNumber: 14660,no type status,A. Touw,N/A,N/A,Alt: c 20 m,Dat: 9 - 3 - 1975,Macromitrium incurvifolium (Hook. & Grev.) Schwaegr.,"Papua New Guinea, Morobe Distr., Lae. In fork of Plumeria tree in garden."
N/A,PASS,Papua New Guinea,West Sepik,Wet forest on slope above Ok Din River West of Busilimin; on trees along Ok Din River,PASS,Macromitrium longicaule ,"Star Mountains, Wet forest on slope above Ok Din River West of Busilimin; on trees along Ok Din River",N/A,1975-05-20,N/A,Mix of Handwritten and Typed,1141855,18543,N/A,N/A,no type status,A. Touw,c. 5°51'S 141°05'E,N/A,Alt.: c. 1500 - 1550 m,Dat 20.5.1975,Macromitrium longicaule C. Müll. Det: D.H. Vitt,"Papua New Guinea, West Sepik Distr., Star Mts., c. 5°51'S 141°05'E, Busilimin. Wet forest on slope above Ok Din river W of Busilimin; on trees along Ok Din River. "
N/A,PASS,Papua New Guinea,West Sepik District,on stems and branches of trees and shrubs in summit scrub,PASS,Macromitrium macrosporum,NE summit of Mt Capella,N/A,1975-05-08,N/A,Typed,1142194,17369,N/A,N/A,no type status ,A. Touw,"5° 5141'05""E ",N/A,c. 3900 m,8.5.1975,Macromitrium macrosporum Broth,"Papua New Guinea, West Sepik Distr, Star Mts, c. 5° 5141'05""E NE summit of Mt. Capella"
N/A,PASS,Papua New Guinea,West Sepik,on trees and shrubs,PASS,Macromitrium macrosporum,"Star Mountains, Mount Capella Base Camp Limestone ridge near camp  4 - 5 meters high stunted forest on ridge",N/A,1975-04-17,N/A,Mix of Handwritten and Typed,1142178,16376,N/A,N/A,no type status,A. Touw ,"c. 5° 51' 05""E",N/A,Alt: c. 3600 m.,Dat: 17.4.1975,Macromitrium macrosporum Broth. Det. D.H. Vitt. ,"Papua New Guinea. West Sepik Distr., Star Mts., c. 5° 51' 05""E Mt. Capella Base Camp. Limestone ridge near camp; c. 4 - 5 m. high stunted forest on ridge. "
N/A,PASS,Papua New Guinea,West Sepik,N/A,N/A,Macromitrium macrosporum,"Northeast Summit of Mount Capella, Summit of ridge between Mount Capella Base Camp and Mount Capella ridge; on isolated tree ",N/A,1975-05-08,N/A,Mix of Handwritten and Typed,1142156,17312,N/A,N/A,no type status,D.H. Vitt.,c. 5°S141°05'E,N/A,Alt: c. 3650 m.,Dat: 8.5.1975,Macromitrium macrosporum Broth. ,"c. 5°S141°05'E NE Summit of Mt. Capella, Summit of ridge between Mt. Capella Base Camp and Mt. Capella ridge; on isolated tree. "
N/A,PASS,Papua New Guinea,West Sepik,forest remnant in deep chasm near the summit on soaking wet bark of trees.,N/A,Macromitrium macrosporum,"Star Mountains, Mount Capella northeast summit",N/A,1975-04-19,N/A,Typed,1142175,16420,N/A,N/A,no type status,D.H. Vitt,5° S 141°05'E,N/A,c. 3900 m,19. 4. 1975,Macromitrium macrosporum Broth. ,"Papua New Guinea, West Sepik Distr., Star Mts., c. 5° S 141°05'E, Mt. Capella NE summit; "
N/A,PASS,Papua New Guinea,West Sepik ,open sub-alpine scrub. At base of limestone rock faces. Very abundant,PASS,Macromitrium macrosporum,"Near Mount Capella Base Camp, along trail to Tamanagabip",N/A,1975-05-05,N/A,Typed,1141880,17205,N/A,N/A,no type status,A. Touw ,c. 5' S 141°05'E,N/A,c. 3450 m.,5. 5. 1975,Macromitrium macrosporum Broth.,"Papua New Guinea, West Sepik Distr., Star Mts., c. 5' S 141°05'E Near Mt. Capella Base Camp, along trail to Tamanagabip"
N/A,PASS,Papua New Guinea,West Sepik,Upper montane forest. Pendulous from heavy tree branches and slanting trunks,PASS,Macromitrium megalocladon ,"Star Mountains, between Folongonom and Artis' Camp",N/A,1975-05-14,N/A,Typed,1142187,18046,N/A,N/A,no type status,N/A,c. 5° 51' S 141° 05' E,N/A,PASS,14.5.1975,Macromitrium megalocladon Fleisch,"Papua New Guinea, West Sepik Distr, Star Mts, c. 5° 51' S 141° 05' E"
N/A,D. Vitt,Papua New Guinea,West Sepik ,on vertical face of moss covered limestone boulder at edge of kuni,N/A,Macromitrium megalocladon,Small kuni (grassfield) SW of Mt Capella Base Camp; on vertical face of moss covered limestone boulder at edge of kuni,N/A,1975-04-21,Star Mts,Mix of Handwritten and Typed,1142432,16555,municipality: Star Mts,N/A,no type status ,D. H. Vitt,c. 5°S 141°05'E,N/A,Alt: c. 3400 m,Dat: 21. 4. 1975,Macromitrium megalocladon Fleisch.,Papua New Guinea. West Sepik Distr. (Star Mts.). c. 5°S 141°05'E Small kuni (grassfield) SW of Mt. Capella Base Camp; on vertical face of moss covered limestone boulder at edge of kuni
N/A,PASS,Papua New Guinea,West Sepik,"Terrestrial in open shrubbery on ridge. Dense moss vegetation covering soil, rocks, and the lower portion of shrubs. Dominant. ",Fleisch,Macromitrium megalocladon,Tel Basin Ridge above Camp 2,N/A,1975-04-07,Star Mts,Typed,1142300,15768,N/A,N/A,no type status,N/A,c. 5°S141°05'E,N/A,Alt.: c. 3350 m. ,Dat: 7.4. 1975,Macromitrium megalocladon Fleisch,"Papua New Guinea. West Sepik Distr., Star Mts. c. 5°S141°05'E. Tel Basin; Ridge above Camp 2."
N/A,PASS,Japan,Kyushu,"rupicola, photophila, ca. 50 m",PASS,Macromitrium incurvum,"Minaminaka, Obi.",N/A,1946-08-00,Minaminaka ,Typed,C0288586F,s.n. ,Miyazaki ,N/A,no type status,PASS,N/A,Ser. I (1947) ,ca. 50 m,VIII. 1946. ,20. Macromitrium incurvum (Lindb.) Par.,"KIUSHIU, Miyazaki, Minaminaka, Obi, rupicola, photophila, ca. 50 m."
N/A,PASS,Japan,Kumamoto ,N/A,PASS,Macromitrium incurvum,"On exposed rocks, 60 meters above sea, Yoshio, Kumamoto Prefecture",N/A,1951-12-25,Yoshio,Typed,1043529,s.n.,N/A,N/A,no type status,PASS,N/A,N/A,60 m. above sea,"December 25, 1951",Macromitrium incurvum (Lindb.) Par.,"On exposed rocks, 60 m. above sea, Yoshio, Kumamoto Prefecture "
N/A,PASS,Japan,Kumamoto,N/A,PASS,Macromitrium gymnostomum ,"On rocks, circa 100 meters above sea, Konose, Kumamoto Prefecture",N/A,1952-02-11,Konose,Typed,1043490,s.n.,N/A,N/A,no type status,"Coll: K. Mayebara,",N/A,1952,ca. 100 m. above sea,"February 11, 1952",430. Macromitrium gymnostomum Sull. et Lesq.,"On rocks, ca. 100 m. above sea, Konose, Kumamoto Prefecture"
N/A,PASS,Japan,Kumamoto ,N/A,PASS,Macromitrium gymnostomum,On rocks near Hitoyoshi,N/A,1952-03-00,Hitoyoshi,Typed,1043493| C0268572F,s.n.,County,N/A,no type status ,PASS,N/A,N/A,PASS,March 1952,Macromitrium gymnostomum Sull. et Lesq. ,"On rocks, ca. 100m. alt., Hitoyoshi, Kumamoto County "
N/A,H. Chung ,China,Fukien ,"On rock, altitude 500 m.",Thériot,Macromitrium gymnostomum ,Kushan near Foochow ,N/A,1925-08-00,Foochow,Typed ,1122651 | C0268574F,B.206,N/A,N/A,no type status,H. H. CHUNG ,N/A,N/A,500 m,"August, 1925 ",Macromitrium gymnostomum S. & L.  Det. Thériot.,Kushan near Foochow
N/A,PASS,China,Fukien,On rock in bamboo forest,Theriot,Macromitrium gymnostomum,On rock in bamboo forest Chuanchow,N/A,1925-05-02,Chuanchow,Typed,1123721|C0268575F,B.20,N/A,N/A,no type status,H. H. Chung,N/A,N/A,N/A,"May 2, 1925",Macromitrium gymnostomum Sull. det. Theriot,On rock in bamboo forest. CHUANCHOW
N/A,PASS,Papua New Guinea,N/A,Rather open montane forest with dominating Pandanus trees ,PASS,Macromitrium longicaule,5 km S of Teptep airstrip Rather open montane forest with dominating Pandanus trees 1 km S of Lake Wamba on stump,N/A,1981-07-23,N/A,Mix of Handwritten and Typed,1142665 | C0268579F,#33590,Morobe Prov,N/A,no type status,Timo Koponen,"6°01'S, 146°33'E",1989,PASS,23 July 1981,Macromitrium longicaule C Müll,"PAPUA NEW GUINEA Morobe Prov: Lake Wamba 5 km S of Teptep airstrip Rather open montane forest with dominating Pandanus trees 1 km S of lake, alt 2400 m, 6°01'S, 146°33'E, on stump "
N/A,N/A,China,FUKIEN PROVINCE,On shady rocks or bark. ,N/A,Macromitrium japonicum,"Namputo, Amoy",N/A,1925-03-00,Amoy,Typed,C0268581F,B.4.,N/A,N/A,no type status,EX FARLOW HERBARIUM,N/A,N/A,N/A,"March, 1925","Macromitrium japonicum(Dz. & Mk.) C.M.  Syn. ""      incurvum","Namputo, Amoy"
N/A,PASS,Papua New Guinea,Morobe Prov,on bush,PASS,Macromitrium macrosporum,"Southern Range 25 kilometers south of Mount Gwam Open alpine grassland and ""subalpine"" forest at L Kenzorogh east of Mount Enggum",N/A,1981-07-09,N/A,Mix of Handwritten and Typed,1142666 | C0268585F,#32571,N/A,N/A,no type status,Timo Koponen,"6°21'S, 147°07'E",Det: Dale H Vitt 1989,PASS,9 July 1981,Macromitrium macrosporum Broth,"PAPUA NEW GUINEA Morobe Prov: Mt Sarawaket Southern Range 25 km S of Mt Gwam Open alpine grassland and ""subalpine"" forest at L Kenzorogh E of Mt Enggum, alt 3550 m, 6°21'S, 147°07'E"
N/A,M. Mizutani ,Japan,RYUKYU,"1-10 m alt., on tree trunk",Z. Iwatsuki,Macromitrium gymnostomum,"Sonai, on tree trunk",N/A,1975-01-23,Sonai,Typed,C0268587F,1049048,Is. Iriomote,I. Yoshimura ,no type status,Coll: M. Mizutani and I. Yoshimura,N/A,N/A,PASS,"Jan. 23, 1975",Macromitrium gymnostomum Sull. et Lesq.,"RYUKYU: Is. Iriomote, Sonai, 1-10 m alt., on tree trunk."
N/A,PASS,Japan,Honshiu,"rupi.cola, photophila",N/A,Macromitrium incurvum ,near the entrance of Kobutoke,N/A,1932-10-00,Kobutoke,Mix of Handwritten and Typed,1356480,s.n.,Musashi,N/A,no type status,PASS,N/A,N/A,N/A,X. 1932.,Macromitrium incurvum (Lindb.) Paris,"prope fauces d. Kobutoke, rupi.cola, photophila, "
N/A,K. Saito,Japan,Kagoshima ,N/A,A. Noguchi,Macromitrium gymnostomum,"Sumiyo-mura, Isl. Amami-ohshima,  on rock",N/A,1970-04-03,N/A,Mix of Handwritten and Typed,N/A,1051109,N/A,N/A,no type status,PASS,N/A,N/A,about 120 m,"April 3, 1970",639. Macromitrium gymnostomum SULL. & LESQ.   Proc. Am. Ac. Arts. Sci. 4: 278 (1958),"JAPAN: Sumiyo-mura, Isl. Amami-ohshima, Kagoshima Pref.  On rock; elevation about 120 m. "
N/A,PASS,Portugal,Azores,N/A,unsure and check,Pogonatum urnigerum ,talus découvert Salto do Cavalo vers 700 meters S MIGUEL,N/A,1937-06-14,N/A,Typed,1181624,135,N/A,PASS,no type status,V et P Allorge,N/A,N/A,700 m ,14VI1937,Pogonatum urnigerum (Hedw) P.B,talus découvert Salto do Cavalo vers 700 m S.MIGUEL
N/A,PASS,Bolivia,La Paz,Super humid Ceja de Montaña forests following ravines In small rill in dripping area of small waterfall ,N/A,Philonotis,"Between 5-6 kilometers south of Tacacoma along road to Quiabaya, 16-17 kilometers north of Sorata",N/A,1983-01-20,N/A,Mix of Handwritten and Typed,C0341037F,1100485,Larecaja,N/A,no type status,Marko Lewis 83-224 ,"15°36'S, 68°39'W",N/A,ca 3550 m,20 Jan 1983,Philonotis,"Between 5-6 Km S of Tacacoma along road to Quiabaya, 16-17 Km N of Sorata"
N/A,M. Lewis,Bolivia,DEPTO. LA PAZ,Eroding bank,Crum,Philonotis ,Along road 1 mile from Sorata towards Achacachi,N/A,1979-03-29,N/A,Typed,N/A,1078795,PROV. LARECAJA,recordNumber: 1078795,no type status,"Marko Lewis, no. 79-1314",15° 45' S. 68° 42' W.,N/A,2740 m.,29 March 1979,Philonotis fide Crum,Along road 1 mi. from Sorata towards Achacachi
N/A,M. Lewis,Bolivia,COCHABAMBA,"On stones and banks of seepy creek in cloud forest ravine, with tree ferns",N/A,Philonotis,"Cerro Khachi, N. of Corani, On stones and banks of seepy creek in cloud forest ravine, with tree ferns",N/A,1979-06-01,N/A,Mix of Handwritten and Typed,1078769| 1316538,79-2315,CHAPARÉ,N/A,no type status,Marko Lewis,"17° 11' S., 65° 54' W",N/A,3030 m,1 June 1979,Philonotis,"Cerro Khachi, N. of Corani, 3030 m. 17° 11' S., 65° 54' W. On stones and banks of seepy creek in cloud forest ravine, with tree ferns."
N/A,PASS,Bolivia,N/A,,N/A,N/A,,N/A,1950-10-13,N/A,Typed,1013011,6867,N/A,N/A,no type status ,Collector: Miss W. M. A. BROOKE,N/A,N/A,10000 ft,13 Oct. 1950,N/A,UNDUAVI 
N/A,PASS,Bolivia,N/A,N/A,N/A,Philanthus,UNDUAVI 10000 feet,N/A,1950-10-13,N/A,Typed,5013012,6865,N/A,N/A,no type status,Collector: Miss W. M. A. BROOKE,N/A,N/A,10000 ft,13 Oct. 1950,Philanthus,UNDUAVI  10000 ft.
N/A,Marko Lewis,Bolivia,COCHABAMBA,"On stones and banks of seepy creek in cloud forest ravine, with tree ferns",N/A,PHILONOTIS ,"Slope of Cerro Khachi, north of Corani",N/A,1979-06-01,N/A,Mix of Handwritten and Typed,1050327,79-2315,CHAPARÉ,N/A,no type status,,"17° 11’ S, 65° 54’ W",N/A,3030 m,1 June 1979,PHILONOTIS,"DEPTO COCHABAMBA, PROV CHAPARÉ Slope of Cerro Khachi, N of Corani, 3030 m 17° 11’ S, 65° 54’ W"
N/A,E. Hegewald ,Peru,Amazonas,"Fels, Erde, Mauer, Baum, Strauch, Holz, See, Bach",E. Hegewald,Philonotis sphaerocarpа ,PASS,N/A,1973-08-31,N/A,Mix of Handwritten and Typed,1061647,Nr. 6989,Chachapoyas,P. Hegewald,no type status,PASS,N/A,N/A,Höhe: ±5000 m,Datum 31.8.1973,Philonotis sphaerocarpа (Hedw.) Brid.,"Las Palmas zw. Balsas u. Leimebamba. Fels, Erde, Mauer, Baum, Strauch, Holz, See, Bach."
N/A,F. Bowers,Mexico,BAJA CALIFORNIA SUR,N/A,A. Sharp,Braunia secunda ,"Oak-pine and grassland with dry and flowing streams at Sierra de Laguna 15 miles east of Todos Santos On boulder, meso, open valley",N/A,1973-12-25,Todos Santos,Typed,1045263|C0341152F,5166,N/A,C. Delgadillo|P. Somers,no type status,PASS,N/A,N/A,PASS,25 December 1973,Braunia secunda (Hook.) B.S.G. det. A. J. Sharp,"TERR. BAJA CALIFORNIA SUR : Oak-pine and grassland with dry and flowing streams at Sierra de Laguna, 15 miles east of Todos Santos. On boulder, meso, open valley."
N/A,A. J. Sharp,Mexico,Oaxaca,"Partial shade, moist, road side cliff",A. J. Sharp,Braunia secunda ,PASS,N/A,1973-06-23,N/A,Mix of Handwritten and Typed,1045248 | C0341164F,2281,N/A,E. B. Sharp | K. R. Thornburgh | E. C. Clebsch,no type status ,A.J. and E.B. Sharp|K.R. Thornburgh|E.C. Clebsch,N/A,1992,1625 m,"June 23, 1973",Braunia secunda (Hook.) B.S.G.,"Near El Punto on Hwy. 175, Oaxaca, México.  _1625_ m."
N/A,A. Sharp,Mexico,Jalisco,"Partial shade, moist, vert. surface of boulder.",A. Sharp,Braunia secunda,9 miles above San Martín Hidalgo on Highway 80 ,N/A,1973-07-04,San Martín Hidalgo,Handwritten,1045251,2736,N/A,E. Sharp | E. Clebsch | K. Thornburgh,no type status,"A.J. and E.B. Sharp, E.C. Clebsch, K.R. Thornburgh",N/A,N/A,_+_ 1750 m,"July 4, 1973",Braunia secunda (Hook.) B.S.G.,"El Mirador on Hwy 80, 9 mi above San Martín Hidalgo, Jalisco, Mexico.  _+_ 1750 m"
N/A,PASS,Mexico,Jalisco,N/A,Cardot,Braunia andrieuxii,On rocks near Guadalajara,N/A,1908-09-30,Guadalajara,Typed,1172142 | C0341179F,10619,N/A,N/A,no type status,C G PRINGLE,N/A,N/A,"5,000 ft","30, Sept, 1908",Braunia andrieuxii Lor,"On rocks near Guadalajara, 5,000 ft"
N/A,PASS,Mexico,HIDALGO,N/A,Efrain De Luna,Braunia andreuxii,Cuyamaloya,N/A,1908-09-17,N/A,Typed,"1045265, C0341180F",10627,N/A,N/A,no type status ,C G PRINGLE,N/A,1992,N/A,"17 Sept, 1908","Braunia plicata, Mitt, var. canescens, Card. n. var.",Cuyamaloya.
N/A,PASS,Mexico,Veracruz ,N/A,Efrain De Luna,Braunia secunda ,SIERRA MADRE AN DER STR F55 Zw PEROTE + JALAPA KIEFERN-EICHENW,N/A,1979-02-23,N/A,Mix of Handwritten and Typed,1031423,s.n.,N/A,PASS,no type status,LEG EGGERS & FRAHM 23.2.79 (13),N/A,1992,2300 m,23.2.79,Braunia secunda (Hook) B.S.G.,"MEXICO: EDU. VERACRUZ: SIERRA MADRE AN DER STR. F55 Zw. PEROTE + JALAPA, KIEFERN-EICHENW. 2300 m"
N/A,PASS,Mexico,Durango,"Oak-pine forest with Madrono, partial shade, meso, ridge. ",PASS,Braunia secunda,along Highway 10 about 9 miles west of La Cuidad. On boulder,N/A,1973-12-30,La Cuidad,Mix of Handwritten and Typed,1036945,5067,N/A,PASS,no type status,"Coll: Frank D. Bowers, Claudio Delgadillo M., and Paul Somers, Jr.",N/A,unsure and check,PASS,30 December 1973,Braunia secunda (Hook.) B.S.G,"DURANGO: Oak-pine forest with Madrono along Highway 10 about 9 miles west of La Cuidad. On boulder, partial shade, meso, ridge. "
N/A,PASS,Mexico,D.F.,N/A,PASS,Braunia secunda,"Siliceous boulder in Rio, above Contreras",N/A,1941-07-23,N/A,Typed,1045239,114,N/A,N/A,no type status,COLLECTED BY: A. J. SHARP,N/A,N/A,N/A,"July 23, 1941",Braunia secunda (Hook.) BSG,"Siliceous boulder in Rio, above Contreras, D.F., MEXICO. "
N/A,A. Sharp,Mexico,Chiapas,"Partial shade, moist, trail side bank ",F. Bowers,Braunia squarrulosa,"trail side bank Yerba Buena, Pueblo Nuevo (about 55 km northeast of Tuxtla-Gutierrez)",N/A,1972-12-19,N/A,Typed,1045274,42447,N/A,F. Bowers | D. Smith | R. Hattaway | P. Somers,no type status,PASS,N/A,N/A,+ 6800 ft,"Dec. 19, 1972",Braunia squarrulosa (Hampe) Broth,"Partial shade, moist, trail side bank. Yerba Buena, Pueblo Nuevo. (about 55 km. northeast of Tuxtla-Gutierrez)."
N/A,PASS,Mexico,Chiapas,oak-pine woods,Efrain De Luna ,*Braunia squarrulosa*,"On oak trunk in oak-pine woods, 15 miles southeast of San Cristobal de las Casas",N/A,1975-02-09,N/A,Mix of Handwritten and Typed,26429,1052129,N/A,N/A,no type status,F.J. Hermann 26429,N/A,1992,6800 ft.,"Feb.9, 1975",*Braunia squarrulosa* (Hampe) Broth.,"On oak trunk in oak-pine woods, alt. 6800 ft., 15 mi. S.E. of San Cristobal de las Casas."
N/A,A. J. Sharp,Mexico,Oaxaca,"Oak-pine woods, oak branch, dry, full shade. ",A. J. Sharp,Braunia squarrulosa ,Roadside near San Pablo Ayutla (about 70 kilometers east of Oaxaca) Oaxaca.,N/A,1972-12-23,N/A,Typed,1045269,2980-a,N/A,PASS,no type status,PASS,N/A,1992,+6000 ft.,"Dec. 23, 1972",Braunia squarrulosa (Hampe) Broth.,"Oak-pine woods. Roadside near San Pablo Ayutla, (about 70 km. east of Oaxaca.) Oaxaca. "
N/A,PASS,Mexico,Jalisco,"Oak forest, On dead limb, fallen.",Efrain De Luna,Braunia squarrulosa,PASS,N/A,1949-07-23,N/A,Handwritten,1089541 | C0341234F,917,N/A,N/A,no type status,Howard A. Crum,N/A,1992,7300 feet,23 July 1949,Braunia squarrulosa (Hampe) C. Muell,"Slopes of La Ferreria, above Masantlán"
N/A,PASS,Mexico,FEDERAL DISTRICT,N/A,Efrain De Luna,Braunia squarrulosa,"Base of trees, Cima",N/A,1908-07-17,N/A,Typed,1172449 | C0341237F,10550,N/A,N/A,no type status,C G PRINGLE,N/A,1992,"10,000 ft","17, July, 1908",Braunia squarrulosa (Hampe) C Muell,"Base of trees, Cima, 10,000 ft"
N/A,PASS,Mexico,CHIAPAS,EIFCHEN-KIEFERWALD,Efrain De Luna ,Braunia squarrulosa,KM 100 AN DER STR.OCOSINGO-SAN CRISTUBAL,N/A,1979-03-10,N/A,Handwritten,1031467,2250,N/A,PASS,no type status,LEG.EGGERS & FRAHM,N/A,1992,2250 M.S.M.,10.3.1979(29),Braunia squarrulosa (Hamp.) Broth.,"MEXICO:EDO.CHIAPAS, KM 100 AN DER STR.OCOSINGO-SAN CRISTUBAL"
N/A,E. Eggers,MEXICO,CHIAPAS,EICHEN-KIEFERWALD,Efrain De Luna,Braunia squarrulosa,100 kilometers from Ocosingo on the road to San Cristobal,N/A,1979-03-10,N/A,Typed,1031495,10.379(29),N/A,F. Frahm,no type status,LEG.EGGERS & FRAHM,N/A,1992,2250 MSM.,10.3.79(29),Braunia squarrulosa (Hampe) C.Muell.,"MEXICO:EDO.CHIAPAS, KM 100 AN DER STR.OCOSINGO-SAN CRISTOBAL"
N/A,PASS,Mexico,Chiapas,oak-pine woods,PASS,Braunia squarrulosa,"On oak trunk in oak-pine woods along Route 190, 15 miles southeast ",N/A,1975-02-09,SAN CRISTOBAL DE LAS CASAS ,Mix of Handwritten and Typed,1045277,26429 ,N/A,N/A,no type status,F. J. Hermann,N/A,N/A,PASS,"February 9, 1975",Braunia squarrulosa (Hampe) Broth.  verif.  A. J. Sharp  Dupl.,"On oak trunk in oak-pine woods along Route 190, alt. 6800 ft., 15 miles SE. "
N/A,PASS,Costa Rica,N/A,"En roca seca, a pleno sol",Efrain De Luna,Braunia squarrulosa,"Valle de Copey, ca 30 kms al sur de Cartago Bosque primario montano bajo muy humedo y potreros ",N/A,1979-02-04,N/A,Mix of Handwritten and Typed,1029423,2000,Cartago,PASS,primer registro para el país ,"Dana Griffin, III y Maria Isabel Morales",N/A,1992,PASS,4 Feb 1979,Braunia squarrulosa (Hampe) C Muell,"Valle de Copey, ca 30 kms al sur de Cartago Bosque primario montano bajo muy humedo y potreros"
N/A,PASS,Bolivia,Tarija,Musgo sobre ramas,PASS,Braunia exserta ,35 kilometers west of Entre Rios on road to Tarija Serrania Huacayoj Bosque montano Tucumano-Boliviano remanente,N/A,2001-08-04,N/A,Mix of Handwritten and Typed,C0341246F,1183435,N/A,N/A,no type status,Burnet O'Connor,21°25'S 64°19'W,2001,ca 2300 m,4 Ago 2001,Braunia exserta C. Müller,"Serrania Huacayoj, Ca. 35 km oeste de Entre Rios (carretera a Tarija). Bosque montano Tucumano-Boliviano, remanente. <20792-20809>"
N/A,PASS,Argentina,Tucuman,"Subtropical rainforest, epiphyte",PASS,Braunia cirrifolia,Rio Cochuna,N/A,1946-11-27,Rio Cochuna,Mix of Handwritten and Typed,1136355,B11750,Chicligasta,N/A,no type status,B. Sparre,N/A,N/A,1000 m a.s.l.,27 November 1946,Braunia cirrifolia (Mitt) Jaeg,"Argentina, Prov. Tucuman, Chicligasta, Rio Cochuna, 1000 m a.s.l."
N/A,PASS,Bolivia,LA PAZ,In ravine with waterfall,Efrain De Luna,Braunia cirrifolia,"Canyon 1 km east of Cachipa, southeast of Sorata ",N/A,1979-04-06,Cachipa,Mix of Handwritten and Typed,10323380,79-1625,Larecaja,N/A,no type status,"Marko Lewis, no","15° 48' S, 68° 36' W",1992,3250 m,6 April 1979,Braunia cirrifolia (Mitt.) Jaeg,"DEPTO. LA PAZ, PROV. LARECAJA: Canyon 1 km. E. of Cachipa, SE of Sorata"
N/A,PASS,Bolivia,LA PAZ,"Arid woodland and cliff area, many cacti present. At base of cliffs near river amongst a boulder pile in a deep canyon. Small trees, tree cacti and shrubs in shady, protected area. ",Dana Griffin III,Braunia plicata,"'Río Chalusuyu', a branch of the Río San Cristobal, 3 km NW of Sorata",N/A,1982-12-09,LARECAJA,Mix of Handwritten and Typed,1691412,82-303,N/A,N/A,no type status,Marko Lewis,"16°44'S, 68°41'W",1990,ca. 2450 m.,9 Dec 1982,"Braunia plicata (Mitt.) Jaeg. Det. Dana Griffin III, 1990","DEPTO. LA PAZ PROV. LARECAJA: 'Río Chalusuyu', a branch of the Río San Cristobal, 3 km NW of Sorata. "
N/A,PASS,Bolivia,DEPTO LA PAZ,Abundant on exposed rock face,Efrain De Luna,Braunia plicata,Near large red outcrop 2 miles from Sorata down Rio Consata,N/A,1979-03-22,N/A,Mix of Handwritten and Typed,1032384,79-1230 ,PROV L ARECAJA,N/A,No type status,Marko Lewis,"15° 41' S, 68° 43' W",1992,2600 m,22 March 1979,Braunia plicata (Mitt) Jaeg,"DEPTO LA PAZ, PROV L ARECAJA: Near large red outcrop 2 mi from Sorata down Rio Consata"
N/A,PASS,Bolivia,LA PAZ,N/A,Efraín De Luna,Braunia plicata,"Banks of trail between Charasani and Niño Karine, NNW of Chuma",N/A,1979-03-05,Chuma,Mix of Handwritten and Typed,N/A,1032341,SAAVEDRA,N/A,No type status,"Marko Lewis, no. 79-947","15° 11' S, 69° 04' W",1992,3200-3240 m,5 March 1979,Braunia plicata (Mitt.) Jaeg,"Banks of trail, 3200-3240 m. DEPTO. LA PAZ, PROV. SAAVEDRA: Trail between Charasani and Niño Karine, NNW of Chuma, 15° 11' S, 69° 04' W."
N/A,PASS,Bolivia,DEPTO LA PAZ,N/A,Efrain De Luna,Braunia plicata,"Banks of trail, 3200 meters, Charasani and Nino Karine, NNW of Chuma",N/A,1979-03-05,N/A,Mix of Handwritten and Typed,"1032381, C0341258F",79-940,PROV SAAVEDRA,N/A,no type status,Marko Lewis,"15° 11' S, 69° 04' W",1992,3200 m,5 March 1979,Braunia plicata (Mitt) Jaeg,"Banks of trail, 3200 m, Charasani and Nino Karine, NNW of Chuma, 15° 11' S, 69° 04' W."
N/A,PASS,Bolivia,DEPTO LA PAZ,N/A,Efrain De Luna,Hedwigidium integrifolium,"Along bank of trail 3200 meters Trail between Charasani and Niño Karine, North-northwest of Chuma",N/A,1979-03-05,N/A,Mix of Handwritten and Typed,1032366,79-935,PROV. SAAVEDRA,N/A,no type status,"Marko Lewis, no. 79-935","15° 11' S, 69° 04' W",Nov. 1991,3200 m,5 March 1979,Hedwigidium integrifolium (P. Beauv.) Dix,"Along bank of trail, 3200 m. DEPTO. LA PAZ, PROV. SAAVEDRA: Trail between Charasani and Niño Karine, NNW of Chuma, 15° 11' S, 69° 04' W."
N/A,PASS,Bolivia,Tarija,N/A,Efrain De Luna ,Hedwigidium integrifolium ,Dirt bank in Kheñwa forest five miles northeast of Iscayachi on the east slope of mountains (hike from summit of road into canyon north of Tarija-Iscayachi Highway),N/A,1979-02-10,N/A,Mix of Handwritten and Typed,10323358,79-615,Mendez,N/A,no type status,Marko Lewis,"21° 27'S, 64° 54' W",Nov. 1991,3350 m,10 February 1979,Hedwigidium integrifolium (P. Beauv.) Dix.,"Dirt bank in Kheñwa forest, 3350 m. DEPTO. TARIJA, PROV. MENDEZ: 5 mi. NE of Iscayachi. E. slope of mountains (hike from summit of road into canyon N. of Tarija-Iscayachi Hwy), 21° 27'S, 64° 54' W "
N/A,PASS,Peru,Ancash,Growing on branches,Dana Griffin III,Braunia secunda,"25 kilometers Northeast of Yungay, slopes below Laguna de Llanganuco",N/A,1983-01-28,N/A,Handwritten,N/A,1111863,Yungay,PASS,No type status,"M Dillon, U Molau, & P Matekaitis 3128D",N/A,28 Jan 1983,+ 3380 m ,28 Jan 1983,Braunia secunda (Hook) B.S.G Moss,"Dept Ancash: Prov Yungay Ca 25 km NE of Yungay, slopes below Laguna de Llanganuco, + 3380 m Growing on branches"
Espeletia schultzii,PASS,Venezuela,ESTADO MERIDA,"Sobre roca +- seca, a baja luz",PASS,Braunia secunda ,"Quebrada Gavidia, south of Mucuchíes, between la peña La Virgen and the bridge of El Porrerito, near the village of Gavidia, Paramo with Espeletia schultzii ",N/A,1985-03-01,Quebrada Gavidia,Mix of Handwritten and Typed,1064457|PV-1143,3261,N/A,N/A,no type status,PASS,N/A,1992,PASS,1 marzo 1985,Braunia secunda (Hook.) BSG,"ESTADO MERIDA: Quebrada Gavidia, al sur de Mucuchíes, entre la peña La Virgen y el puente de El Porrerito, cerca del pueblo de Gavidia, Paramo con Espeletia schultzii"
N/A,PASS,Bolivia,Tarija ,On rocks in dry deciduous forest,Efrain De Luna,Braunia laxifolia,"at summit of mountain above and west of Entre Rios, along road to Tarija",N/A,1979-02-02,Casteon,Mix of Handwritten and Typed,79-489A | C0341288F,1032377,O’Connor,N/A,no type status ,"Marko Lewis, no. 79-489A","21° 28' S, 64° 12’ W. ",1992,1750 m,2 February 1979,Braunia subincanan Broth,"DEPTO. TARIJA. PROV. O’CONNOR: Casteon, at summit of mountain above and W. of Entre Rios, along road to Tarija"
N/A,PASS,Bolivia,Depto de Cochabamba,N/A,Efrain De Luna,Braunia subplicata ,PASS,N/A,1972-12-24,N/A,Mix of Handwritten and Typed,1045267,25278 ,N/A,N/A,no type status,Ex Herb Fred J Herrmann,N/A,1992,ca 9500 ft,"December 24, 1972",Braunia subplicata E.G.Britt.,"From the Province of Chapare, alt. ca. 9500 ft. Purchased in market at"
N/A,PASS,Bolivia,Depto Cochabamba,On cliff under scrub in area of wet meadows and secondary woodlands. ,PASS,Racopilum intermedium,"5 kilometers South of road Cochabamba - Villa Tunari kilometer 95, Inca corral",N/A,1989-11-12,N/A,Mix of Handwritten and Typed,1691583,7560,Prov Chapare,PASS,no type status,S.R. Gradstein & M. Lewis,N/A,N/A,PASS,12 November 1989,Racopilum intermedium Hampe det. B.O. van Zanten,"BOLIVIA. Dept. Cochabamba, Prov. Chapare, Inca corral, 5 Km S of road Cochabamba - Villa Tunari km 95, alt. 2300 m. "
N/A,PASS,Bolivia,La Paz,Fruit and coffee plantations. On rocks in shady fruit orchard. ,N/A,Racopilum tomentosum,1 kilometer South of Coroico along road between Coroico and Yolosa ,N/A,1983-02-07,Coroico,Typed,1100456,83-503,Nor Yungas,N/A,No type status,Marko Lewis,"16°11'S, 67°43'W ",N/A,ca. 1650 m.,7Feb 1983,Racopilum tomentosum (Hedw.) Brid,"DEPTO. LA PAZ PROV. NOR YUNGAS: 'Coroico' 1 Km S of Coroico along road between Coroico and Yolosa. 16°11'S, 67°43'W "
N/A,PASS,Brazil,Minas Geraes,Cut over woods On rotting log,Bartram,Rhacopilum tomentosum,Fazenda de F. Lopez Cut over woods On rotting log,N/A,1930-11-11,Viçosa,Typed,C0341763F,5281-a,N/A,N/A,no type status,"Ynes Mexia, No.",N/A,N/A,PASS,Nov. 11 1930,Rhacopilum tomentosum (Hedw.) Brid. det. Bartram,Fazenda de F. Lopez. Cut over woods. On rotting log. 
N/A,S. Gradstein,Ecuador,GALAPAGOS ISLANDS,N/A,N/A,Rhacopilum tomentosum,"Psidium guajava woodlands and pampas east of Cruz Farm, on rather dry shaded rocks",N/A,1976-04-24,N/A,Handwritten,M-58,1023912,Isla Floreana,H. Sipman | W. Weber,no type status ,"Leg: S.R. Gradstein, HJM Sipman & W.A. Weber",N/A,N/A,alt: 250-350 m,24.IV.1976,Rhacopilum tomentosum (Hedw.) Brid,"Psidium guajava woodlands and pampas east of Cruz Farm, on rather dry shaded rocks"
N/A,PASS,Peru,Amazonas,"Fels, Erde, Mauer, Baum, morsches Holz, See, Bach.",PASS,Racopilum tomentosum ,Balsas near Leimebamba ,N/A,1973-08-31,Leimebamba,Typed,1026724,6726,Chachapoyas,PASS,no type status,PASS,N/A,N/A,m.,Datum 31. 8. 1973,Racopilum tomentosum(Hedw.) Brid.,Balsas u. Leimebamba.
N/A,J. Florschütz,Suriname ,N/A,On decaying log.,P. A. Florschütz | J. Florschütz-de Waard ,Racopilum tomentosum,"Brownsberg, trail to Leo Fall On decaying log",N/A,1975-12-18,Brownsberg ,Mix of Handwritten and Typed,10285580 ,4715,N/A,P. A. Florschütz,no type status,PASS,N/A,N/A,N/A,d. 18.XII.1975,Racopilum tomentosum (Hedw.) Brid.,"Brownsberg, trail to Leo Fall. On decaying log."
N/A,E. Linares ,Colombia,Meta,On log in forest,N/A,Racopilum tomentosum,forest of the Bavaria brewery near rio Guatiquia,N/A,1984-09-26,N/A,Typed,C0341803F,1065598,Villavicencio,PASS,no type status,"E. Linares, S.R. Gradstein and B.O. van Zanten 1543",N/A,N/A,PASS,26 Sept. 1984,RACOPILUM TOMENTOSUM (Hedw.) Brid,"COLOMBIA. Dept. Meta, Villavicencio, forest of the Bavaria brewery near rio Guatiquia, alt. 600 m. On log in forest. "
N/A,PASS,Bolivia,LA PAZ,Fruit and coffee plantations Bark of fruit trees in orchard,N/A,Racopium tomentosum,1 km S of Coroico along road between Coroico and Yolosa,N/A,1983-02-07,Coroico,Mix of Handwritten and Typed,1100344,83-511,NOR YUNGAS,N/A,no type status,Marko Lewis ,"16°11'S, 67°43'W",N/A,ca 1650 m,7 Feb 1983,Racopium tomentosum (Hedw) Brid,"PROV NOR YUNGAS: 'Coroico' 1 km S of Coroico along road between Coroico and Yolosa 16°11'S, 67°43'W"
N/A,PASS,Peru,Huánuco,old tree trunk in dense shade,Bartram,Rhacopilum tomentosum,Hacienda Mercedes; Poca Ferga; old tree trunk in dense shade ,N/A,1936-09-15,N/A,Typed,C0341805F,No.8190a,N/A,N/A,no type status,Ynes Mexia,N/A,N/A,PASS,"Sept. 15, 1936",Rhacopilum tomentosum (Sw.) Brid. det. Bartram,Departamento and Provincia Huanuco; Distrito Churubamba; Hacienda Mercedes; Poca Ferga; old tree trunk in dense shade. 
N/A,PASS,Peru,Departamento and Provincia Huanuco,on rock in wood,Bartram,Rhacopilum tomentosum,Hacienda Exito; bank of Rio Ysabel; on rock in wood,N/A,1936-09-09,N/A,Typed,1036304 | C0341806F,6165a,Distrito Churubamba,N/A,no type status ,"Ynes Mexia, No. 6165a",N/A,N/A,PASS,"Sept. 9, 1936",Rhacopilum tomentosum (Sw) Brid. det. Bartram,Hacienda Exito; bank of Rio Ysabel; on rock in wood.
N/A,PASS,Peru,Huanuco,on rock in woods,Bartram,Rhacopilum tomentosum,Hacienda Exito; bank of Rio Ysabel; on rock in woods.,N/A,1936-09-08,N/A,Typed,1036248 | C0341807F,8168a,Churubamba,N/A,no type status,Ynes Mexia,N/A,N/A,PASS,"Sept. 8, 1936",Rhacopilum tomentosum (Sw) Brid. det. Bartram,"Departamento and Provincia Huanuco, Distrito Churubamba; Hacienda Exito; bank of Rio Ysabel; on rock in woods"
Leucomium lignicola,R. E. Schultes,Colombia,Amazonas,N/A,H. A. Crum,Callicostella aspera,PASS,N/A,1952-05-19,N/A,Typed,1055465,16563,N/A,I. Cabrera,no type status,"Richard Evans Schultes and Isidoro Cabrera (Collected in Collaboration with Instituto de Ciencias Naturales, Bogotá)","Lat. 0° 30' S, Long. 70° 40' W ",1956,Altitude about 700 feet.,"May 19, 1952",Leucomium lignicola Spruce ex Mitt. & Callicostella aspera (Mitt.) Jaeg.,"Río Miritiparaná; Caño Guacayá. On wet, fallen log. "
N/A,PASS,Colombia,DEPARTAMENTO DE MAGDALENA,N/A,Dana Griffin III,Leucomium lignicola,On roots at ground level.  Parque Nacional de la Sierra Nevada de Santa Marta.  East slope of the Río Buritaca.  Low montane cloud forest,1977-08-00,1977-07-00,N/A,Mix of Handwritten and Typed,1029476,s.n.,N/A,PASS,no type status,"Dana Griffin, III, Orlando Rangel y Guido van Reenen, ",N/A,N/A,1600-1700 m,Julio-Agosto 1977,Leucomium lignicola Spr. ex Mitt,"Sobre raíz a ras del suelo, alt. 1600-1700 m. DEPARTAMENTO DE MAGDALENA: Parque Nacional de la Sierra Nevada de Santa Marta.  Vertiente oriental del Río Buritaca.  Bosque nublado montano bajo. "
Hookeriopsis tenue,PASS,Colombia,ANTIOQUIA,In secondary montane forest,PASS,Trachyxyphium tenue,Cerro San Miguel South of San Miguel,N/A,1987-07-06,Mun. de la Unión,Mix of Handwritten and Typed,1139980,15466 ,N/A,N/A,no type status,S.P. Churchill et al,"5°55' N, 75°17' W",N/A,2460-2620 m,6 July 1987,Trachyxyphium tenue (Mitt.) Buck (= Hookeriopsis tenue Mitt.) det. S.P. Churchill,"COLOMBIA. ANTIOQUIA: Mun. de la Union, Cerro San Miguel S of San Miguel"
N/A,D. Griffin,Costa Rica,Cartago,On trunk of tree,N/A,Hypnella pilifera,"Reserva Forestal Tapanti, vertiente oriental del Rio Macho Bosque muy húmedo montano bajo",1977-07-04,1977-07-03,N/A,Typed,1025621,215,N/A,M. Morales | D. Retaña,no type status ,"Dana Griffin, III, Maria Isabel Morales y Dora Emilia de Retaña ",N/A,N/A,PASS,"Julio 3-4, 1977",Hypnella pilifera (Hook. et Wils.) Jaeg,"Reserva Forestal Tapanti, vertiente oriental del Rio Macho. Bosque muy húmedo montano bajo"
N/A,PASS,Venezuela,Estado Bolívar,Frequent on fallen logs in forest,PASS,Hypnella cymbifolia,PASS,N/A,1953-02-11,N/A,Typed,1026297,34365,N/A,N/A,no type status,John J. Wurdack,N/A,N/A,elev. 1250 - 1200 m,"February 11, 1953",Hypnella cymbifolia (Hpe.) Jaeg.,"Frequent on fallen logs in forest between Camps 3 and 2, elev. 1250 - 1200 m., Slope forest Tirepón-tepu."
N/A,PASS,Brazil,Amazonas,N/A,N/A,Hookeriopsis parkeriana,"Slopes and summit of Serra Curicuriari, from Igarapé Arabú of the Rio Curi Curiart to the summit, approximately 450 meters at summit. On branches at summit. ",1979-07-12,1979-07-09,N/A,Typed,1425884,2445,N/A,recordNumber: 2445,no type status,Collected by William R. Buck,"00°20'S, 66°50'W",N/A,ca. 450 m at summit,9-12 July 1979,Hookeriopsis parkeriana (Hook. & Grev.) Jaeg.,"Slopes and summit of Serra Curicuriari, from Igarapé Arabú of the Rio Curi Curiart to the summit, ca. 450 m at summit; 00°20'S, 66°50'W. On branches at summit."
N/A,R. B. Foster ,Peru,PASCO,N/A,C. W. Steere,Hypnella pilifera ,"E slope of Cordillera Yanachaga, on Tunque-Chuchurras trail In Weinmannia forest",N/A,1981-07-30,N/A,Typed,N/A,1059405,N/A,N/A,no type status,Robin B. Foster 4722,"10°30'S, 75°30'W",N/A,1900 m,30 July 1981,HYPNELLA PILIFERA (Hook. & Wils.) Jaeg.,"DEPTO. PASCO: E slope of Cordillera Yanachaga, on Tunque-Chuchurras trail. 1900 m.  10°30'S, 75°30'W.  In Weinmannia forest. "
N/A,PASS,Peru,CUZCO,Extremely mossy elfin cloud forest near shallow ravine,N/A,Hypnella pilifera,Slopes above Pillahuata near kilometer 126 on Cosñipata Highway Extremely mossy elfin cloud forest near shallow ravine,N/A,1981-12-04,N/A,Mix of Handwritten and Typed,1059455 | C0342123F,s.n.,N/A,PASS,no type status,Coll: J.W. Fitzpatrick & D.E. Willard s.n.,"13°11'S, 71°22'W",N/A,2850 m.,4 Dec 1981,HYPNELLA PILIFERA (Hook. & Wils.) Jaeg.,"DEPTO. CUZCO: Slopes above Pillahuata near km. #126 on Cosñipata Hwy., 2850 m., 13°11'S, 71°22'W. Extremely mossy elfin cloud forest near shallow ravine."
N/A,PASS,Colombia,ANTIOQUIA,"On talud, in secondary montane forest",PASS,Hypnella diversifolia,"road to Pueblo Nuevo, Ventanas, On talud, in secondary montane forest",N/A,1992-07-11,N/A,Mix of Handwritten and Typed,1139992 | C0942153F,18335,N/A,N/A,no type status,S.P. Churchill et al.,"7°5' N, 75°25' W",N/A,PASS,11 July 1992,312. Hypnella diversifolia (Mitt.) Jaeg. det. S.P. Churchill,"COLOMBIA. ANTIOQUIA: Mun. de Valdivia, road to Pueblo Nuevo, Ventanas, 7°5' N, 75°25' W, alt. 1950 m. On talud, in secondary montane forest. "
N/A,PASS,Venezuela,Estado Bolívar,"Fruiting scantily on logs. Occasional in rain-forest between Camps 2 and 3, elev. 1200-1250 m",E. B. Bartram,Hypnella cymbifolia ,[precise locality unknown],N/A,1953-01-07,N/A,Typed,1026299,34056,N/A,N/A,no type status,PASS,N/A,N/A,elev. 1200-1250 m. ,"January 7, 1953",Hypnella cymbifolia (Hpe.) Jaeg. ,"Slope forest Tirepón-tepuí. between Camps 2 and 3, elev. 1200-1250 m. "
N/A,PASS,Peru,PASCO,In Weinmannia forest,unsure and check,Hypnella pallescens,"E slope of Cordillera Yanachaga, on Tingo- Chuchurras trail, In Weinmannia forest.",N/A,1981-07-30,N/A,Mix of Handwritten and Typed,C0342184F,1059403,N/A,N/A,no type status,Robin B. Foster 4720 ,"10°30'S, 75°30'W",N/A,1900 m,30 July 1981,HYPNELLA PALLEScens (Hook.) Jaeg.,"DEPTO. PASCO: E slope of Cordillera Yanachaga, on Tingo- Chuchurras trail, 1900 m., 10°30'S, 75°30'W. In Weinmannia forest."
N/A,PASS,Venezuela,Estado Bolívar,N/A,PASS,Hypnella cymbifolia,"Frequent on fallen logs in forest between Campos 3 and 2,  Slope forest Tirepón-tepuí",N/A,1953-02-11,N/A,Mix of Handwritten and Typed,1026300 | C0342168F,31365,N/A,N/A,no type status,John J. Wurdack,N/A,N/A,elev. 1250 - 1200 m,"February 11, 1953",Hypnella cymbifolia (Hpe.) Jaeg.,"Frequent on fallen logs in forest between Campos 3 and 2, elev. 1250 - 1200 m. Slope forest Tirepón-tepuí."
N/A,PASS,France,N/A,Rochers schisteux,N/A,Weissia compacta,[precise locality unknown],N/A,N/A,Athis,Mix of Handwritten and Typed,1084497 | C0342515F,109,Orne,recordNumber:109,no type status,"T. Husnot,",N/A,N/A,N/A,s.d.,109. Weissia compacta Brid.,"T. Husnot, à Caban, par Athis (Orne)"
Pinus thunbergii,PASS,Japan,Ryukyu Islands,N/A,PASS,Macromitrium japonicum ,"Around Shirahama, Iriomote Island, Ryukyu Islands On bark of Pinus thunbergii elevation about 10 meters",N/A,1973-01-11,N/A,Typed,1021837 | C0398471F,s.n.,N/A,N/A,no type status,PASS,N/A,N/A,about 10 m,"Jan. 11, 1973.","Macromitrium japonicum Doz. et Molk.   Ann. Sci. Nat. Bot. ser. 3, 2: 311 (1844) ","JAPAN: Around Shirahama, Iriomote Isl., the Ryukyu Isls. On bark of Pinus thunbergii; elevation about 10 m. "
N/A,PASS,Brazil,Santa Catarina,Rupestre,PASS,Campylopus arctocarpus ,"Campo dos Padres, Tom Retiro",N/A,1948-12-17,N/A,Handwritten,HB3 5512,2464,N/A,N/A,no type status,F R Reitz,N/A,1949,PASS,17-12-1948,Campylopus arctocarpus (Hornsch) Mitt,"Campo dos Padres, Tom Retiro"
N/A,Frahm,Brazil,Sao Paulo,epiphytischem Podocarpus-Wald ,Frahm,Campylopus arctocarpus,"Serra do Bocaina, Leesette, at the road Campos da Cunha - Sao José dos Bareiros",N/A,1977-07-22,Cunha,Mix of Handwritten and Typed,1026026,s.n.,N/A,N/A,no type status,PASS,N/A,N/A,1200 msm,22.7.1977,Campylopus arctocarpus (Hornsch.) Mitt. ,"Sao Paulo, Serra do Bocaina, Leesette, an der Straße Campos da Cunha - Sao José dos Bareiros"
N/A,R. Reitz,Brazil,Santa Catarina ,N/A,N/A,Campylopus arctocarpus ,"Morro do Bambu, Fraiburgo",N/A,1948-08-29,N/A,Handwritten,C0399191F,2493,N/A,N/A,no type status,N/A,N/A,N/A,900 msm,29 - VIII - 1948,Campylopus arctocarpus (Hornsch.) Mitt.,"Morro do Bambu, Fraiburgo"
N/A,PASS,Brazil,São Paulo,"Campo-Vegetation im Gipfelbereich, sickerfeuchter Felshang",N/A,Campylopus griseus,"Pedra Grande bei Atibaia, Campo-Vegetation im Gipfelbereich, sickerfeuchter Felshang",N/A,1987-09-05,N/A,Mix of Handwritten and Typed,1097651| 9019,5.9.1987 no. 9019,N/A,recordNumber: 5.9.1987 no. 9019,no type status,PASS,N/A,N/A,1400 msm.,5.9.1987,130. Campylopus griseus (HORNSC) JAEG.,"BRASILIEN: São Paulo, Pedra Grande bei Atibaia, Campo-Vegetation im Gipfelbereich, sickerfeuchter Felshang"
N/A,PASS,Peru,Amazonas,auf übererdetem Steinblock im Nebelwald,N/A,Campylopus heterostachys,Straße Cajamarca - Chachapoyas 417.5 kilometers oberhalb Leimebamba ,N/A,1982-09-06,N/A,Mix of Handwritten and Typed,1053590 | C0679941F,2600,N/A,N/A,no type status ,PASS,N/A,N/A,2600 m,6.9.1982,Campylopus heterostachys (Hamp.) Jaeg.,"PERU Dep. Amazonas, Straße Cajamarca - Chachapoyas km 417,5 oberhalb Leimebamba"
