Image,verbatimCollectors,collectedBy,secondaryCollectors,recordNumber,verbatimEventDate,minimumEventDate,maximumEventDate,verbatimIdentification,latestScientificName,identifiedBy,verbatimDateIdentified,associatedTaxa,country,firstPoliticalUnit,secondPoliticalUnit,municipality,verbatimLocality,locality,habitat,verbatimElevation,verbatimCoordinates,otherCatalogNumbers,originalMethod,typeStatus
0000_B%2010%200030420.jpg,"P. J. M. & H. Maas, L. Kollmann",P.J.M. Maas,"H. Maas, L. Kollmann",8833,16 Feb 1999,1999-02-16,N/A,Pseudoxandra sp. nov.,Pseudoxandra spiritus-sancti Maas,P.J.M. Maas,"Utrecht, 2001",N/A,Brazil,Espírito Santo,Santa Teresa,N/A,"Estação Biológica de Santa Lucia, vegetation with high forest on Barro Branco sand",Estação Biológica de Santa Lucia,"High forest, terrestrial and epiphytic Bromeliaceae",850 m,19°58'S 40°32'W,II B 10300420,Typed,Isotype
0001_B%2010%200069251.jpg,Kessler 283,N/A,N/A,283,21.12.1988,1988-12-21,N/A,Mallotus paniculatus,Mallotus paniculatus,Kessler,s.d.,N/A,Malaysia,Sarawak,1st Division,N/A,Base of Gunung Pueh,Base of Gunung Pueh,Secondary vegetation along road,alt. up to 200 m.,N/A,P.K. 283,Typed,no type status
0002_B%2010%200375227.jpg,"X. Cornejo, C. Bonifaz",X. Cornejo,C. Bonifaz,5822,27 Oct. 1997,1997-10-27,N/A,Capparis scerophylla Hitter sp.nov.,Capparis scerophylla,N/A,N/A,"C. heterophylla, C. asciabrada, C.lanocalata y C. cronoides.",Ecuador,Manabí,N/A,N/A,"Bosque seco tropical deciduo, 8 Km. Alrededores de Universidad Católica",8 km around Universidad Católica,"Bosque seco tropical deciduo, fuertemente intervenido",40-45 m,LATITUD -00.46 LONGITUD  -80.32,N/A,Typed,ISOTYPUS
0003_BM000934757.jpg,Wilhelm Suksdorf,W. Suksdorf,N/A,12045,Aug. 1926,1926-08-00,1926-08-00,Solanum triflorum Nutt.,Solanum triflorum Nutt.,T. Särkinen,2014,N/A,United States,Washington,Klickitat,Bingen,High sandy river-bank at Bingen.,High sandy river-bank at Bingen.,High sandy river-bank.,unsure and check,unsure and check,unsure and check,Typed,no type status
0004_C0000578F.jpg,"John J. Engel, Matt von Konrat & John E. Braggins",J.J. Engel,"M. von Konrat, J.E. Braggins",23773,12 February 2003,2003-02-12,N/A,Telaranea lindenbergii var. papillata Engel & Merr.,Telaranea lindenbergii var. papillata Engel & Merr.,N/A,N/A,N/A,New Zealand,Auckland,N/A,N/A,"NORTH ISLAND. AUCKLAND PROV.: Whareorino Forest, start of track to Leitch's Hut.","Whareorino Forest, start of track to Leitch's Hut",On clayey bank,280 m,"38° 24.5' S, 174° 49.8' E",1173554,Typed,HOLOTYPE
0005_C0004430F.jpg,Singer M0517,Singer,N/A,M0517,23 II 1988,1988-02-23,1988-02-23,"HYDROCYBE FUEGIANA Sing (= H. roses, sensu Horak)",HYDROCYBE FUEGIANA Sing,N/A,N/A,"Sphagnum sp., Rubus geoides",Argentina,Tierra del Fuego,Departamento Ushuaia,N/A,"Tierra del Fuego, Departamento Ushuaia, ya. road Ushuaya-Lago Fagnano, SW of highest point","road Ushuaya-Lago Fagnano, southwest of highest point",Gregarious in bog margin,N/A,N/A,F1075922,Typed,HOLOTYPE
0006_C0020034F.jpg,R. M. Schuster,R.M. Schuster,N/A,68-1644,Aug. 17 68,1968-08-17,N/A,Anastrophyllum minutum + gem.,Anastrophyllum minutum,N/A,N/A,Diplophyllum taxifolium + gemmae,Canada,Newfoundland and Labrador,N/A,N/A,"Along Humber R., in Squires Memorial Park, near Rte 1A.","Along Humber River, in Squires Memorial Park, near Route 1A",N/A,N/A,N/A,N/A,Typed,no type status
0007_C0020052F.jpg,R. M. Schuster & K. Damsholt,R.M. Schuster,K. Damsholt,82-1049,July 3.,1982-07-03,N/A,Anastrophylum minutum (SCHREB.) SCHUST. v.grandis (GOTT.) SCHUST.,Anastrophylum minutum var. grandis,N/A,1982,Cephalozia bicuspidata (L.) DUM.,Greenland,South Greenland,N/A,N/A,Frederiksdal,Frederiksdal,N/A,N/A,"60°00'N lat., 44°40'W. long.",S1,Typed,no type status
0008_C0025138F.jpg,R. M. Schuster,R.M. Schuster,N/A,9067,June 30 1951,1951-06-30,1951-06-30,"Frullania asagrayana Mont., male, on per. Plagiochila tridenticulata Dum. (traces)",Frullania asagrayana,N/A,N/A,Plagiochila tridenticulata (traces),United States,North Carolina,N/A,N/A,"Balsam Gap, N.C., ca. 25 mi. n. of Asheville, along Blue Ridge Parkway","Balsam Gap, approximately 25 miles north of Asheville, along Blue Ridge Parkway",on Abies fraseri,5220-5260 feet,N/A,N/A,Typed,no type status
0009_C0025164F.jpg,R. M. Schuster,R.M. Schuster,N/A,79-488,April 14 19 79,1979-04-14,1979-04-14,Frullania asagrayana,Frullania asagrayana,R.M. Schuster,N/A,N/A,United States,Arkansas,Stone County,N/A,"Ozark Natl. Forest. Barkshed Camp, ca. 10 mi E. of Big Flat.","Ozark National Forest, Barkshed Camp, approximately 10 miles East of Big Flat",N/A,N/A,N/A,N/A,Typed,no type status
0010_C0045536F.jpg,Thomas G. Lammers,T.G. Lammers,N/A,10674,9 May 1998,1998-05-09,1998-05-09,Dryopteris carthusiana (Vill.) H.P. Fuchs,Dryopteris carthusiana (Vill.) H.P. Fuchs,N/A,N/A,N/A,United States of America,Illinois,Cook,N/A,"Cook Co.: Palos Twp. Swallow Cliffs Woods Forest Preserve, southwest of the jct. of US Hwy 45 and State Hwy 83. Local in mesic maple-basswood forest on steep slopes of deep ravine south of toboggan run.","Palos Twp. Swallow Cliffs Woods Forest Preserve, southwest of the junction of US Highway 45 and State Highway 83, local in mesic maple-basswood forest on steep slopes of deep ravine south of toboggan run",Mesic maple-basswood forest on steep slopes of deep ravine,N/A,N/A,2228497,Typed,no type status
0011_C0052862F.jpg,G. Follmann,G. Follmann,N/A,s.n.,s.d.,s.d.,s.d.,Abrothallus parmeliarum (SOMM.) ARN. (anam. Vouauxiomycetes santessonii HAWKSW.) Patellariaceae,Abrothallus parmeliarum (SOMM.) ARN.,G. Follmann,(IV/1985),N/A,Deutschland,Rheinland-Pfalz,N/A,N/A,"Deutschland, Rheinland-Pfalz: zerstreut in der Oberinde der Lagerlappen von Hypogymnia physodes (L.) NYL., 450 m, NW – SW, pH 6,0; Heckengürtel am Südfuß des Schwarzheimer Kopfes zwischen Gerolstein und Prüm in der Hocheifel",Südfuß des Schwarzheimer Kopfes zwischen Gerolstein und Prüm in der Hocheifel,"zerstreut in der Oberinde der Lagerlappen von Hypogymnia physodes, Heckengürtel",450 m,N/A,N/A,Typed,no type status
0012_C0052873F.jpg,H.T. Lumbsch & E. Mietzsch,H.T. Lumbsch,E. Mietzsch,5135 D,24.5.1987,1987-05-24,N/A,Buellia punctata (Hoffm.) Massal.,Amandinea punctata (Hoffm.) Coppins & Scheid.,R.J. Salm,3 July 2019,N/A,Germany,Rheinland-Pfalz,Landkreis Mainz/Bingen,N/A,"BRD, Rheinland-Pfalz, Landkreis Mainz/Bingen, TK 25: 6013 Bingen, Ockenheimer Hörnchen",Ockenheimer Hörnchen,An Populus.,N/A,N/A,N/A,Typed,no type status
0013_C0052970F.jpg,Shirley Tucker,S. Tucker,N/A,16863,"March 17, 1977",1977-03-17,1977-03-17,Buellia punctata (Hoffm.) Mass.,Amandinea punctata (Hoffm.) Coppins & Scheid.,R. J. Salm,3 July 2019,Taxodium,United States,Louisiana,St. Tammany Parish,N/A,"Fontainebleau State Park, north shore of Lake Pontchartrain, St. Tammany Parish","Fontainebleau State Park, north shore of Lake Pontchartrain",Common on Taxodium,N/A,"30°20'N, 90°03'W",N/A,Typed,no type status
0014_C0053210F.jpg,H.T. Lumbsch & E. Mietzsch,H.T. Lumbsch,E. Mietzsch,5127 a,24.5.1987,1987-05-24,N/A,Aspicilia contorta,"Circinaria contorta (Hoffm.) A. Nordin, Savic & Tibell",N/A,N/A,N/A,Germany,Rheinland-Pfalz,Landkreis Mainz-Bingen,Ingelheim am Rhein,"BRD, Rheinland-Pfalz, Landkreis Mainz-Bingen, Tk 25: 6014 Ingelheim am Rhein, Weg von Gau-Algesheim zum Ockenheimer Hörnchen. An Mörtel.","Tk 25: 6014 Ingelheim am Rhein, Weg von Gau-Algesheim zum Ockenheimer Hörnchen. An Mörtel.",An Mörtel.,N/A,N/A,N/A,Typed,no type status
0015_C0053622F.jpg,Edward M. Wheeler,E.M. Wheeler,N/A,s.n.,7 Jan 1989,1989-01-07,1989-01-07,Buellia bahiana Malme on Ilex glabra,Hafellia bahiana (Malme) Sheard,R.J. Salm,20 August 2015,Ilex glabra,United States,Florida,Polk County,N/A,"POLK COUNTY: Tiger Creek Preserve, just to right of Wakeford Road Entrance","Tiger Creek Preserve, just to the right of Wakeford Road Entrance",N/A,N/A,N/A,Lumbsch - 9401,Typed,no type status
0016_C0055249F.jpg,H. Mietzsch,H. Mietzsch,N/A,6246,27.8.1988,1988-08-27,1988-08-27,Baeomyces fungoides Sw.,Baeomyces fungoides Sw.,N/A,N/A,N/A,Switzerland,Graubünden,Unterengadin,Zernez,"Schweiz, Graubünden, Unterengadin, TK 25: 1218 Zernez, Marangun, Sursass","TK 25: Marangun, Sursass",Auf Erde,2150-2300 m alt.,N/A,N/A,Typed,no type status
0017_C0089982F.jpg,H. Mietszsch,H. Mietszsch,N/A,6983,26.8.1989,1989-08-26,N/A,Xanthoparmelia somloensis (Gyelnik) Hale,Xanthoparmelia somloensis (Gyelnik) Hale,N/A,N/A,N/A,Switzerland,Graubünden,N/A,Savognin,"Albulatal, TK 25: 1236 Savognin, Straße von Latsch nach Stugl","Albulatal, TK 25, road from Latsch to Stugl",N/A,1600 m alt.,N/A,N/A,Typed,no type status
0018_C0090059F.jpg,leg. Aino Henssen,A. Henssen,N/A,21 931 a,29.8.1971,1971-08-29,N/A,Xanthoria elegans (Link) Th. Fr.,Xanthoria elegans (Link) Th. Fr.,N/A,N/A,N/A,Switzerland,Graubünden,N/A,N/A,"Graubünden, Albula Pass, auf Dolomit","Graubünden, Albula Pass, on dolomite",N/A,2000 m ü.M.,N/A,N/A,Typed,no type status
0019_C0090105F.jpg,H.T. Lumbsch,H.T. Lumbsch,N/A,12159,26.08.2001,2001-08-26,2001-08-26,Arctoparmelia centrifuga,Arctoparmelia centrifuga,N/A,N/A,N/A,Norway,Sogn og Fjordane,N/A,N/A,"NORWEGEN. Sogn og Fjordane. Jotunheimen, alpine Matten an der Straße 55 zwischen Turtegrö und Hervassbu","Jotunheimen, alpine Matten along road 55 between Turtegrö and Hervassbu",Auf Silikatgestein,1400 m alt.,N/A,N/A,Typed,no type status
0020_C0090117F.jpg,H. T. Lumbsch,H. T. Lumbsch,N/A,10566 b,14.7.1994,1994-07-14,1994-07-14,Acarospora,Acarospora,N/A,N/A,N/A,USA,Arizona,Gila Co.,San Carlos Lake,"San Carlos Lake, E exposed slopes above dam, just N of Coolidge 33°11'N, 110°32'W","East exposed slopes above dam, just north of Coolidge",On siliceous rocks,N/A,"33°11'N, 110°32'W",Nr. 10566 b,Typed,no type status
0021_C0090185F.jpg,"H.T. Lumbsch, E. Mietzsch & C.",H.T. Lumbsch,E. Mietzsch & C.,7103 f,19.11.1989,1989-11-19,N/A,Xanthoparmelia conspersa (Ach.) Hale,Xanthoparmelia conspersa (Ach.) Hale,N/A,N/A,N/A,Germany,Hessen,Stadt Wiesbaden,Dotzheim,"TK 25: 5925 Wiesbaden, Dotzheim, Felsiger am Weilburger Bach. An Silikatgestein","TK 25: 5925 Wiesbaden, Dotzheim, Felsiger at Weilburger Bach",Silicate rock,N/A,N/A,N/A,Typed,no type status
0022_C0090341F.jpg,"leg. T. FEURER, H. HERTEL & H. KILLIAS",T. Feurer,"H. Hertel, H. Killias",No. 282,12.X.1977,1977-10-12,1977-10-12,Buellia schaereri DNOT.,Buellia schaereri,N/A,s.d.,N/A,Italy,Südtirol,N/A,N/A,"Dolomiten, Rosengarten-Gruppe Purgetsch-Tal (an der Autostfraße zwischen Nigerpaß und Tiers), nahe der Abzweigung des Sträßchens ins Tscharmin-Tal bei Runggun, 1220 m.","Dolomiten, Rosengarten-Gruppe Purgetsch-Tal near the branching of the road into Tscharmin-Tal by Runggun",Lichter Lärchen-Bestand auf Almgelände. An der Stammbasis und an leicht geneigten Stämmen von Lärchen (Larix decidua) in Menge.,1220 m.,N/A,s.n.,Typed,no type status
0023_C0090513F.jpg,HENRY A. IMSHAUG & FREDERICK H. IMSHAUG,H.A. Imshaug,F.H. Imshaug,31340,21 September 1963,1963-09-21,1963-09-21,Bemblyiospora chloritis (Nyl.) Zahlbr.,Bemblyiospora chloritis (Nyl.) Zahlbr.,N/A,N/A,N/A,Tobago,N/A,N/A,N/A,"Main Ridge along ""Mt. St. George - Castara Track"" (near Castara)","Main Ridge along ""Mt. St. George - Castara Track"" (near Castara)",Scattered cultivations in clearings of rain forest,ca. 1200 ft.,N/A,N/A,Typed,no type status
0024_C0090526F.jpg,H.T. Lumbsch,H.T. Lumbsch,N/A,8890,10.5.1983,1983-05-10,N/A,Bellemerea,Bellemerea,N/A,N/A,N/A,Italy,Südtirol,N/A,N/A,"Italien, Südtirol, Vinschgau, Gomagoi, E des Ortes","Italy, Südtirol, Vinschgau, Gomagoi, east of the place",An Silikatgestein,N/A,N/A,N/A,Typed,no type status
0025_C0095075F.jpg,Henry A. Imshaug,H.A. Imshaug,N/A,60155,3 October 1976,1976-10-03,N/A,Xanthoria fallax (Hepp) Arn.,Xanthoria fallax (Hepp) Arn.,N/A,N/A,N/A,United States,Michigan,Chippewa County,Drummond Island,"CHIPEWA COUNTY (DRUMMOND ISLAND): Along road at Drummond airport, Sec. 25, T. 42 N., R. 5 E.","Along road at Drummond airport, Section 25, Township 42 North, Range 5 East",on Acer,N/A,46° 01' N and 83° 44' W.,N/A,Typed,no type status
0026_C0095081F.jpg,H. Imshaug & K. Ohlsson,H. Imshaug,K. Ohlsson,49793,9 October 1971,1971-10-09,1971-10-09,Xanthoparmelia mougeotii (Schaer.) Hale,Xanthoparmelia mougeotii (Schaer.) Hale,N/A,N/A,"Anthobryum, Berberis",Chile,Magallanes,N/A,N/A,Scattered Anthobryum and Berberis on low hill near Primera Angostura,low hill near Primera Angostura,N/A,N/A,"52° 27' S, 69° 36' W",N/A,Typed,no type status
0027_C0095120F.jpg,W. L. Culberson & R. Ornduff,W. L. Culberson,R. Ornduff,22493,"September 3, 1998",1998-09-03,N/A,"Xanthoria parietina (L.) Th.Fr. in N. Acta Reg. Soc. Sc. Upsal., ser. 3,3:67. 1861. ",Xanthoria parietina (L.) Th.Fr.,W. L. Culberson,N/A,Zyophyllum sp.,South Africa,Western Cape,N/A,N/A,"15 km SE of Oudtshoorn, on the road above Blossoms.","15 kilometers Southeast of Oudtshoorn, on the road above Blossoms",On twigs of Zyophyllum sp.,N/A,N/A,N/A,Typed,no type status
0028_C0095147F.jpg,William L. Culberson,W.L. Culberson,N/A,s.n.,9.VIII.1996,1996-08-09,1996-08-09,Xanthoria polycarpa (Ehrh.) Riebcr,"Polycauliona polycarpa (Hoffmann) Frödén, Arup & Søchting",A.Johnson & C.F. Culberson,N/A,Pinus ponderosa,United States of America,Washington,Spokane County,Spokane,"In urbe Spokane, loco Riverside State Park. Ad ramunculos fruticis in Pineto (Pinus ponderosa).",Riverside State Park,Ramunculos fruticis in Pineto,N/A,N/A,22403,Typed,no type status
0029_C0209265F_3143.jpg,P. Ponce de Leon,P. Ponce de Leon,N/A,296,"September 21, 1978",1978-09-21,1978-09-21,Amanita,Amanita,N/A,N/A,N/A,United States of America,Alaska,N/A,N/A,"At or above timberline, windswept slopes of mountains about 20-30 miles north of Mt. McKinley","At or above timberline, windswept slopes of mountains about 20-30 miles north of Mount McKinley","with mosses, lichens, Vaccinium spp. and other Ericads",N/A,N/A,C0209265F,Typed,no type status
0030_C0225578F_7209.jpg,P. Ponce de Leon,P. Ponce de Leon,N/A,303,"September 21, 1978",1978-09-21,N/A,Lycoperdon,Lycoperdon,N/A,N/A,N/A,United States,Alaska,N/A,N/A,"Alaska. At or above timberline, windswept slopes of mountains 20-30 miles north of Mt. McKinley. With mosses. lichens, Vaccinium spp. and other Ericads.","At or above timberline, windswept slopes of mountains 20-30 miles north of Mt. McKinley",Cream color. On high slopes above timberline.,N/A,N/A,C0225578F,Typed,no type status
0031_C0227005F_7903.jpg,P. Ponce de Leon,P. Ponce de Leon,N/A,267,"September 20, 1978",1978-09-20,N/A,Agaricaceae,Agaricaceae,N/A,N/A,Albies; Prunus; Betula; Alnus species,United States,Alaska,N/A,N/A,"Boggy area south of Yukon, just below the Chatanika River, about 25 miles north of Fairbanks, Alaska","Boggy area south of Yukon, just below the Chatanika River, about 25 miles north of Fairbanks","In hummocks composed of grasses, lichens, mosses and Ericads, under Albies, Prunus, Betula and Alnus species",N/A,N/A,F 1075800,Typed,no type status
0032_C0237407F_12659.jpg,"Leg. Chr. King, det. Singer",C. King,N/A,s.n.,1988,1988-00-00,1988-00-00,Psilocybe muliercula Sing. & Smith,Psilocybe muliercula Sing. & Smith,Singer,N/A,N/A,New Zealand,South Island,N/A,N/A,N/A,[precise locality unknown],N/A,N/A,N/A,F 1089947,Typed,no type status
0033_C0264367F.jpg,W.G. Bramley,W.G. Bramley,N/A,s.n.,s.d.,0000-00-00,0000-00-00,Nectria cinnabarina (Tode ex Fr.) Fr. with Tubercularia vulgaris,Nectria cinnabarina (Tode ex Fr.) Fr.,T. Petch,10 Jan. 1938,Tubercularia vulgaris,United Kingdom,N/A,N/A,N/A,"On Crataegus, Bolton Percy, Yorkshire.","Bolton Percy, Yorkshire",On Crataegus,N/A,N/A,C0264367F,Typed,no type status
0034_C0272218F_%201.jpg,H. E. Parks and J. P. Tracy,H. E. Parks,J. P. Tracy,s.n.,"Sept. 15, 1930",1930-09-15,1930-09-15,Exobasidium Vaccinii (Fckl.) Wor.,Exobasidium Vaccinii (Fckl.) Wor.,N/A,N/A,Arbutus Menziesii Pursh.,United States,California,Humboldt County,N/A,"Kneeland, Bald Hills","Kneeland, Bald Hills","[precisely as on the label ""Seriously affecting the young shoots.""]",N/A,N/A,C0272218F,Typed,no type status
0035_C0272225F_%201.jpg,Harold E. Parks and Joseph P. Tracy,H.E. Parks,J.P. Tracy,13207,"June 3, 1934",1934-06-03,1934-06-03,Exobasidium Vaccinii (Fuckl.) Wor.,Exobasidium Vaccinii (Fuckl.) Wor.,N/A,N/A,Vaccinium ovatum Pursh,United States,California,Humboldt County,Trinidad,Trinidad,Trinidad,N/A,N/A,N/A,C0272225F,Typed,no type status
0036_C0272229F_%201.jpg,Lee Bonar,L. Bonar,N/A,890,21 August 1954,1954-08-21,1954-08-21,Exobasidium Vaccinii (Fckl.) Wor.,Exobasidium Vaccinii (Fckl.) Wor.,N/A,N/A,On Arctostaphylos patula Greene.,United States,California,Shasta County,N/A,"Manzanita Lake, Lassen National Park, Shasta County.","Manzanita Lake, Lassen National Park",N/A,N/A,N/A,C0272229F,Typed,no type status
0037_C0272257F.jpg,leg. H. et P. Sydow,H. Sydow,P. Sydow,67,14. 8. 1903.,1903-08-14,N/A,"Entyloma crastophilum Sacc. Michelia I, p. 540; Sacc. Syll. VII, p. 491.",Entyloma crastophilum Sacc.,N/A,N/A,N/A,Germany,Sachsen,N/A,N/A,"Sachsen: am Grossen Winterberge, ""Zwiesel bei Schmilka.","Grosser Winterberg, Zwiesel bei Schmilka",Auf Blättern von Holcus lanatus.,N/A,N/A,C0272257F,Typed,no type status
0038_C0272323F.jpg,"Leg: O. Mattirolo, comm. G. Lagerheim",O. Mattirolo,N/A,s.n.,27/9 1895,1895-09-27,1895-09-27,Neovossia Moliniae (Thüm.) Körn.,Neovossia Moliniae (Thüm.) Körn.,N/A,N/A,Molinia coerulea,Italy,Como,N/A,Rodero,"Italia: Rodero, prov. Como in ovaris Moliniae coeruleae","Rodero, in ovaries of Molinia caerulea",N/A,N/A,N/A,C0272323F,Typed,no type status
0039_C0272329F.jpg,"Richard W. Pohl, Gerrit Davidse",R.W. Pohl,G. Davidse,11146,25 September 1968,1968-09-25,N/A,Oplismenus setarius (Lam.) Roem. & Schult.,Oplismenus setarius (Lam.) Roem. & Schult.,N/A,N/A,N/A,Costa Rica,Puntarenas,N/A,N/A,5 KM NW of the Carretera Interamericana in Boruca area,5 kilometers northwest of the Carretera Interamericana in Boruca area,Carpeting the ground at the margin of forest and savanna,elev. 450 m.,N/A,C0272329F,Typed,no type status
0040_C0272400F.jpg,E. W. D. Holway,E.W.D. Holway,N/A,s.n.,"Aug. 8, 1901.",1901-08-08,N/A,"Tuburcinia Clintoniae, Kom. 1899: Fungi Rossiae, p. 260. On Streptopus rosens.",Tuburcinia Clintoniae Kom.,F. Bartholomew,N/A,Streptopus rosens,Canada,British Columbia,N/A,N/A,"Glacier, Brit. Columbia,",Glacier,N/A,N/A,N/A,C0272400F,Typed,no type status
0041_C0272404F.jpg,F. Bubak,F. Bubak,N/A,3239,Majo.,1900-05-00,1900-05-00,Tuburcinia anemones (Pers.) Liros.,Tuburcinia anemones (Pers.) Liros.,N/A,N/A,Anemones nemorosae,Czech Republic,Bohemia,N/A,Poděbrady,"Bohemia: ad folia viva Anemones nemorosae ad Poděbrad, m.",Bohemia: near Anemones nemorosae at Poděbrad,N/A,N/A,N/A,CO272404F,Typed,no type status
0042_C0291873F.jpg,E. W. D. Holway,E.W.D. Holway,N/A,27,"Jan. 27, 1915",1915-01-27,1915-01-27,Ravenelia appendiculata Lagerh. & Diet. on Phyllanthus sp.,Ravenelia appendiculata Lagerh. & Diet.,E.B. Mains,"Jan. 27, 1915",Phyllanthus sp.,Guatemala,Solola,N/A,N/A,"Solola, Guatemala",Solola,N/A,N/A,N/A,C0291873F,Typed,no type status
0043_C0356535F.jpg,H. St. John,H. St. John,N/A,16662,"Aug. 26, 1934",1934-08-26,1934-08-26,Humata banksii Alston,Humata banksii Alston,E.B. Copeland,s.d.,N/A,Rarotonga,Cook Islands,N/A,N/A,"Northwest slope of Teire, Terei woods","Northwest slope of Teire, Terei woods","Epi phyto. Fronds mostly pendant, coriaceous.",altitude 350 meters,N/A,1435764,Typed,no type status
0044_C0358423F.jpg,G.J. Chamberlain,G.J. Chamberlain,N/A,s.n.,"Oct. 15, 1911",1911-10-15,N/A,Trichomanes reniforme,Trichomanes reniforme,N/A,N/A,N/A,New Zealand,N/A,N/A,Ohakune,Ohakune,[precise locality unknown],N/A,N/A,N/A,1407795,Typed,no type status
0045_C0359489F.jpg,S. López P.,S. López,N/A,s.n.,4 Dic. 1969,1969-12-04,1969-12-04,Lophosoria quadripinnata (J.F. Gmel.) C. Chr. var quadripinnata,Lophosoria quadripinnata var. quadripinnata,M. Véliz,22/IV/2005,N/A,Guatemala,Jalapa,N/A,N/A,"Jalapa, Aldea San Raymundo, Finca Los Manzanillos","Aldea San Raymundo, Finca Los Manzanillos",Creciendo dentro de bosque de Quercus sp.,2308 msnm,"14° 38' 43"" N; 90° 06' 07"" O",2298970,Typed,no type status
0046_C0363828F.jpg,T. G. Yuncker,T.G. Yuncker,N/A,"17,429","Nov. 17, 1957",1957-11-17,N/A,Lycopodium cernuum L.,Lycopodium cernuum L.,N/A,N/A,N/A,Jamaica,St. Andrew,N/A,N/A,"Scrambling over side of cut, along trail near Bellevue",trail near Bellevue,Scrambling over side of cut,Alt. 3000-4000 ft.,N/A,1482756,Typed,no type status
0047_C0363985F.jpg,Carvalho 2092,Carvalho,N/A,2092,25-IV-1986,1986-04-25,N/A,Lycopodiella cernua (L.) Pic. Serm.,Lycopodiella cernua (L.) Pic. Serm.,J. Fernández Casas,1991,N/A,Equatorial Guinea,Bioko,N/A,Basile,"Malabo - Basile, km 13, cerca de Basile, 32NMK7809, mrgenes de la carretera, Carvalho 2092, 25-IV-1986.","Malabo - Basile, km 13, near Basile",Margins of the road,390 m.,32NMK7809,2201362,Typed,no type status
0048_C0364207F.jpg,Father M. Vanoverbergh,M. Vanoverbergh,N/A,3591,April 13,1913-04-13,N/A,Asplenium contiguum Kaulf.,Asplenium contiguum Kaulf.,N/A,N/A,N/A,Philippines,Bontoc Subprovince,N/A,N/A,"Bontoc Subprovince, Luzon","Bontoc Subprovince, Luzon",N/A,N/A,N/A,395249,Typed,no type status
0049_C0364726F.jpg,W. Takeuchi & J.B. Kinabak,W. Takeuchi,J.B. Kinabak,9366,"February 5, 1994",1994-02-05,N/A,Blechnum ledermannii Brause,Blechnum ledermannii Brause,N/A,N/A,N/A,Papua New Guinea,New Ireland,N/A,N/A,"New Ireland; Hans Meyer Range, Site 4 on the expedition report","Hans Meyer Range, Site 4","Montane rainforest, forest dominated by bryohtye, pspteridophyte regrowth",c. 1800 m.,4°25' x 152°36'E,2262543,Typed,no type status
0050_C0366013F.jpg,Tagawa & Iwatsuki 888,M. Tagawa,K. Iwatsuki,888,"May 20, 1956",1956-05-20,1956-05-20,Dryopteris crassirhizoma Nakai,Dryopteris crassirhizoma Nakai,N/A,N/A,N/A,Japan,N/A,N/A,N/A,N/A,[precise locality unknown],N/A,N/A,N/A,1475001,Typed,no type status
0051_C0366453F.jpg,J. Ohwi,J. Ohwi,N/A,s.n.,April 1951,1951-04-00,1951-04-00,Polystichum tripteron Presl,Polystichum tripteron Presl,N/A,N/A,N/A,Japan,Honshu,N/A,N/A,"Otsuki, in Sagami","Otsuki, in Sagami",N/A,N/A,N/A,1464206,Typed,no type status
0052_C0368029F.jpg,L. & A. Fay,L. Fay,A. Fay,1206,11 Apr 1985,1985-04-11,N/A,Drynaria laurentii (Christ.) Hieron.,Drynaria laurentii (Christ.) Hieron.,N/A,N/A,N/A,Liberia,N/A,N/A,N/A,Cuttington University College,Cuttington University College,"On tree trunk about 10' from ground; common in groves of rubber trees, on trunks.",Alt. 250 m.,N/A,2111378,Typed,no type status
0053_C0376117F.jpg,R.B. & A.J.Faden,R.B. Faden,A.J. Faden,77/53,5 Jan. 1977,1977-01-05,N/A,Pyrossia lanceolata (L.) Farw.,Pyrossia lanceolata (L.) Farw.,D.B. Lellinger,1979,N/A,Sri Lanka,Doduwa Province,Kurunegala,Mawathagama,"North Western Province, Kurunegala District, near Dambukanda Hill, ca. 7°37'N, 80°24'30""E.","North Western Province, Kurunegala District, near Dambukanda Hill",Forest,Alt. 600 m,"ca. 7°37'N, 80°24'30""E.",2014294,Typed,no type status
0054_C0378283F.jpg,M. Togawa & K. Iwatuki,M. Togawa,K. Iwatuki,11550,"July 23, 1956",1956-07-23,N/A,Diplazium umbilicatum (Poir.) Hieron.,Diplazium umbilicatum (Poir.) Hieron.,N/A,N/A,N/A,Japan,Kagoshima,N/A,N/A,"Kyushu, Pref. Kagoshima: western slope of Mt. Koyoshi, south of Kanoyacity","Kyushu, western slope of Mt. Koyoshi, south of Kanoya",Wet rocky slope in densely wooded ravine,N/A,N/A,1475055,Typed,no type status
0055_C0383180F.jpg,A. Carestia,A. Carestia,N/A,s.n.,1871,1871-00-00,1871-00-00,Lycopodium complanatum L.,Lycopodium complanatum L.,Joan H. Wlce,1962,N/A,Italy,N/A,N/A,N/A,Salita alla Boscarella presso Sospel,Salita alla Boscarella near Sospel,N/A,N/A,N/A,8028302,Typed,no type status
0056_C0383576F.jpg,T. G. Yuncker,T.G. Yuncker,N/A,"18,561","Mar. 30, 1958",1958-03-30,N/A,Selaginella plana (Diver.) Hieron.,Selaginella plana (Diver.) Hieron.,N/A,N/A,N/A,Jamaica,Portland,N/A,N/A,"On wet embankment along trail, rain forest, John Crow Mts., 1-5/2 miles southwest of Ecclesdown","On wet embankment along trail, John Crow Mountains, 1.5-2 miles southwest of Ecclesdown",Rain forest,Alt. 1500-2500 ft.,N/A,1481935,Typed,no type status
0057_C0616676F.jpg,J. Dorantes,J. Dorantes,N/A,455,01/01/1972,1972-01-01,1972-01-01,Woodardia spinulosa Mart. & Gal.,Woodardia spinulosa Mart. & Gal.,N/A,N/A,N/A,Mexico,Veracruz,Jalapa,Llave,"Llave ""Llto del Gato""","Llave ""Llto del Gato""","Bosque caudicuflolio, suelo rojo arcilloso",N/A,N/A,P005051,Typed,no type status
0058_C0626158F.jpg,"Louis O. Williams, Antonio Molina R., Terua P. Williams, Darsey H. Gibson, and Chester Lamborn",L.O. Williams,"A. Molina R., T.P. Williams, D.H. Gibson, C. Lamborn",27621,"15 de Agosto, 1966",1966-08-15,N/A,Polypodium blepharodes Maxon,Grammitis blepharodes (Maxon) Seymour,R. Stolze,1965,N/A,Nicaragua,Matagalpa,N/A,Dipilto,"Montane rain-forest, -- cloud forest, Dipilto de Potter, Sta. María de Ostuma, Cordillera Central de Nicaragua, Department of Matagalpa, 1400m","cloud forest, Dipilto de Potter, Sta. María de Ostuma","Montane rain-forest, cloud forest",1400m,N/A,1626179,Typed,no type status
0059_C0627900F.jpg,A. Molina R. & Albertina R. Molina,A. Molina R.,A. R. Molina,121562,"Mayo 22, 1963",1963-05-22,N/A,Polypodium montigenum Maxon,Polypodium montigenum Maxon,A. Molina R.,N/A,N/A,El Salvador,Santa Ana,N/A,N/A,Bosque abierto de Montaña Montecristo,Montecristo,Epífita. Bosque abierto de Montaña Montecristo,Alt. 2000 m,N/A,1661895,Typed,no type status
0060_C0636906F.jpg,Antonio Molina R.,A. Molina R.,N/A,1427,"Nov. 4, 1948",1948-11-04,N/A,Thelypteris piloso-hispida (Hook) Morton,Thelypteris rudis (Kunze) Proctor,A. R. Smith,1974,N/A,Honduras,Department of Morazan,N/A,N/A,"""Drainage of the Río Yeguare, about latitude 87°W. and latitude 14°N., Department of Morazan""",Drainage of the Río Yeguare,"Helécho arbóreo. Bosque lluvioso. Norte de la Mt. Uyuca, caminos latomibles, labranza y huertos abajo del puesto ""La Labranza""",Alt. 1800 m.,87°W. and 14°N.,1394536,Typed,no type status
0061_C0637474F.jpg,J.I. Calzada,J.I. Calzada,N/A,5759,27-enero-1980,1980-01-27,N/A,Diplazium franzii Liebm.,Diplazium franzii Liebm.,R.G. Stolze,1983,Liquidambar styraciflua; Quercus sp.; Alnus sp.,México,Veracruz,Xico,N/A,Ranchería de Coateitlán,Ranchería de Coateitlán,Bosque Caducifolio muy húmedo,1800 m.s.n.m.,19°29' N y 97°04' W,1894963,Typed,no type status
0062_C0639123F.jpg,"Louis O. Williams, Antonio Molina R., Terua P. Williams",L.O. Williams,"A. Molina R., T. P. Williams",23634,s.d.,s.d.,s.d.,Lycopodium clavatum L.,Lycopodium clavatum L.,C. V. Morton & D. B. Lellinger,1964,N/A,Nicaragua,Matagalpa,N/A,Matagalpa,"Cloud forest area, Sta. Maria de Ostuma, Cordillera Central de Nicaragua, between Matagalpa & Jinotega, Department of Matagalpa, 1300-1800 meters","Cloud forest area, Sta. Maria de Ostuma, Cordillera Central de Nicaragua, between Matagalpa & Jinotega",Terrestrial on open bank,1300-1800 meters,N/A,1604388,Typed,no type status
0063_C0644079F.jpg,"A. Monteagudo, C. Mateo, G. Ortiz",A. Monteagudo,"C. Mateo, G. Ortiz",4909,10 Abril 2003,2003-04-10,2003-04-10,Blechnum occidentale L.,Blechnum occidentale L.,H. van der Werff,2005,N/A,Peru,Pasco,Oxapampa,Distrito Pozuzo,"Parque Nacional Yanachaga Chemillén Pozuzo Sector Pan de Azúcar, Zona de Recuperación","Parque Nacional Yanachaga Chemillén, Sector Pan de Azúcar, Zona de Recuperación",Bosque ribereño,1100-1250m,10°15' 75°13'W,N° 2287355,Typed,no type status
0064_C0658238F.jpg,Ynes Mexia,Y. Mexia,N/A,8066,"May 14, 1936",1936-05-14,1936-05-14,Adiantum pulverulentum L.,Adiantum pulverulentum L.,E.B. Copeland,"1936 (from determination label ""Det. R. Tryon 1957"")",N/A,Peru,Cuzco,La Convención,Vilcabamba,Departamento Cuzco. Provincia La Convención; upper valley of Rio Sanmbay; western affluent of Vilcabamba; along stream in virgin forest.,"Upper valley of Rio Sanmbay, western affluent of Vilcabamba, along stream in virgin forest","Virgin forest, along stream",Alt. about 1800 m.,N/A,1005396,Typed,no type status
0065_C0662992F.jpg,"R. L. Dunn, H. A. Hespenheide, D. R. Wiseman",R.L. Dunn,"H.A. Hespenheide, D.R. Wiseman",N/A,2 August 1964,1964-08-02,N/A,Cnemidaria grandifolia (Willd.) Proctor var. grandifolia,Cnemidaria grandifolia (Willd.) Proctor var. grandifolia,R. L. Wilbur,1966,N/A,Dominica,St. Paul,N/A,N/A,Parish of St. Paul: Disturbed rainforest in the upper Layou Valley about 2.5 miles from Clarke Hall towards Pont Cassé.,upper Layou Valley about 2.5 miles from Clarke Hall towards Pont Cassé,Disturbed rainforest,N/A,N/A,1670026,Typed,no type status
0066_C0665657F.jpg,Ken Young & Mark Eisenberg,K. Young,M. Eisenberg,265,20 April 1981,1981-04-20,1981-04-20,Thelypteris (subg. Amauropelta) smithii (Kunze) R.M. Tryon,Thelypteris (subg. Amauropelta) smithii (Kunze) R.M. Tryon,A.R. Smith,N/A,N/A,Peru,Cuzco,Prov. La Convencion,N/A,"Dept. Cuzco, Prov. La Convencion. Just east of Quillabamba. Finca Chichima; coca coffee yuca, mango, bananas, corn crops 9COWH.","Just east of Quillabamba, Finca Chichima",Terrestrial,Alt. 1300-1400 m.,N/A,2038794,Handwritten,no type status
0067_C0665739F.jpg,"Bl.León, Young & Illauyapa",Bl. León,Young & Illauyapa,2911,10 setiembre 1991,1991-09-10,N/A,Thelypteris euscleris (Sod.) Rend,Thelypteris euscleros (Sod.) Rend,R. C. Moran,19 92,N/A,Peru,Cuzco,Paucartambo,N/A,"Región de Nubes, Río La Unión. ","Región de Nubes, near Río La Unión","El arb, zona más o menos abierta,hojas 1.5 metro, pinanes reducidos en base,sector último",1700-1800 m,N/A,N/A,Typed,no type status
0068_C0666112F.jpg,E. C. Ogden and W. H. Hatheway,E.C. Ogden,W.H. Hatheway,5202,"Aug. 13, 1956",1956-08-13,N/A,Thelypteris opulenta (Kaulf.) Fosberg,Thelypteris opulenta (Kaulf.) Fosberg,A.R. Smith,"1979 , 1990",N/A,Peru,Loreto,Maynas,N/A,"Rio Itaya, 10 km. S. of Iquitos.","Rio Itaya, 10 kilometers south of Iquitos","In old banana planting. Fertile leaf, sterile pinnae, fertile pinnae.",N/A,N/A,1587072,Typed,no type status
0069_C0666202F.jpg,J. J. Wurdack No. 7015,J.J. Wurdack,N/A,7015,June 1962,1962-06-00,1962-06-00,Thelypteris (Thelypteris) pavoniana (Klotzsch),Thelypteris pavoniana (Klotzsch) Tryon,A.R. Smith,"1979, 1989",N/A,Peru,Amazonas,Provincia de Chachapoyas,N/A,"On banks, Upper slopes of Puma-urcu east-southeast of Chachapoyas, elev. 2700-3000 m.",Upper slopes of Puma-urcu east-southeast of Chachapoyas,On banks,elev. 2700-3000 m.,N/A,1647265,Typed,no type status
0070_C0666362F.jpg,Rolla M. & Alice F. Tryon,R.M. Tryon,A.F. Tryon,6566,23 October 1965,1965-10-23,1965-10-23,"Thelypteris rudis (Poir.) A.R. Smith, ined., sensu proaing:","Thelypteris rudis (Poir.) A.R. Smith, ined.",A.R. Smith,"1979, 1982",N/A,Peru,Ancash,N/A,N/A,"Road from Huaras to Cusma, west valley.","Road from Huaras to Cusma, west valley.",damp shaded rocks,2800 m.,N/A,1833066,Typed,no type status
0071_C0675553F.jpg,"John T. Atwood, Jr.",J.T. Atwood,N/A,77105,8 Feb. 1977,1977-02-08,1977-02-08,Adiantum trapeziforme L.,Adiantum ochraceum (Christ) McCarthy & Hickey,M.R. McCarthy,2012,N/A,Nicaragua,Granada,N/A,N/A,"Volcan Mombacho, Lower cloud forest near Finca Curite.","Volcan Mombacho, lower cloud forest near Finca Curite",Lower cloud forest,N/A,N/A,1868242,Typed,no type status
0072_C0675619F.jpg,G.B. Hinton et al.,G.B. Hinton,N/A,7644,April 21-25,2000-04-21,2000-04-25,Adiantum trapeziforme L.,Adiantaceae ebracteata Mickel & Beitel,M.R. McCarthy,2012,N/A,Mexico,Guerrero,Temascaltepec,N/A,Patzcuaro,Patzcuaro,Dry barranca,N/A,N/A,954869,Typed,no type status
0073_C1042257F.jpg,S. Churchill et al.,S. Churchill,N/A,22858,12 May 2004,2004-05-12,2004-05-12,Neckera scabridens C. Müller,Neckera scabridens C. Müller,S. Churchill,Jun 2004,N/A,Bolivia,Chuquisaca,Belisario Boeto,Villa Serrano,"Monte Grande, ca. 32 km de Villa Serrano.","Monte Grande, ca. 32 km de Villa Serrano","Bosque montano de yungas con Purnopitys exigua, Podocarpus, Myrcianthes",2740 m,"18°43'S 64°29'07""W",1183467,Typed,no type status
0074_C2000932F.jpg,C. Maler Frh.,C. Maler Frh.,N/A,s.n.,9. Sept. 1905,1905-09-09,1905-09-09,Polytrichum juniperinum (L.) P. Beauv. c. fr.,Polytrichum juniperinum (L.) P. Beauv. c. fr.,N/A,N/A,N/A,Germany,Sachsen,N/A,N/A,Sachsen: Räume auf Erde in Feldmäumen zwischen Bärenklau und Seebeck am Folgeberg.,Sachsen zwischen Bärenklau und Seebeck am Folgeberg,Räume auf Erde in Feldmäumen,ca. 120 m,N/A,1123491,Handwritten,no type status
0075_C2000934F.jpg,leg. Zd. Pilous,Z. Pilous,N/A,s.n.,V.1946,1946-05-00,N/A,Polytrichum juniperinum Willd.,Polytrichum juniperinum Willd.,N/A,N/A,Musci Xeniophylli onusti,Czech Republic,N/A,N/A,N/A,"Bohemia, montes Krkonose, in declivibus graminosis silvaticis prope pagum Horní Vrchlabí, ca 580 m","Bohemia, montes Krkonose, in grassy wooded slopes near the town of Horní Vrchlabí",grassy wooded slopes,ca 580 m,N/A,JJJ 1048,Typed,no type status
0076_C2000943F.jpg,C. Jensen,C. Jensen,N/A,s.n.,25/10 1901,1901-10-25,1901-10-25,Pogonatum urnigerum (Hedw.) P. Beauv.,Pogonatum urnigerum (Hedw.) P. Beauv.,N/A,N/A,N/A,Denmark,No first-order administrative division provided,N/A,N/A,"Sjælland, Maglebrækmosen by Kirke Saaby in a gravel-pit","Sjælland, Maglebrækmosen by Kirke Saaby in a gravel-pit",In a gravel-pit,N/A,N/A,Apr 1953,Typed,no type status
0077_C2010620F.jpg,Jos. Schlenker u. Stizenberger,J. Schlenker,Stizenberger,s.n.,23. August 1850,1850-08-23,N/A,Poa annua L.,Poa annua L.,N/A,N/A,N/A,Austria,N/A,N/A,N/A,An Waìlfahrtsort bei Salwey.,An Waìlfahrtsort bei Salwey,N/A,N/A,N/A,10548383,Typed,no type status
0078_C2010622F.jpg,Dr. Ule,N/A,N/A,s.n.,17 Oktober 1902,1902-10-17,1902-10-17,"995 B. Pogonatum urnigerum, XXI. (L.) Pal. Beauv.",Pogonatum urnigerum,N/A,N/A,N/A,Brazil,N/A,N/A,N/A,Am oberen Waldande auf rothem Sandsteingebirge oberhalb Desterro,At the upper edge of the forest on red sandstone mountains above Desterro,Am oberen Waldande auf rothem Sandsteingebirge,N/A,N/A,1054981,Typed,no type status
0079_C2010624F.jpg,A. L. Schlagintweit u. Schlagintweit,A.L. Schlagintweit,u. Schlagintweit,9683,September 1852,1852-09-00,N/A,Pogonatum urnigerum (L.) P. Beauv.,Pogonatum urnigerum (L.) P. Beauv.,N/A,N/A,N/A,India,N/A,N/A,N/A,Serchu,Serchu,N/A,N/A,N/A,1055060,Typed,no type status
0080_C2010626F.jpg,C. Jensen,C. Jensen,N/A,s.n.,"November 21, 1904",1904-11-21,1904-11-21,BRYOPHYTA DANICA EXSICCATA 104. Pogonatum urnigerum (Hedw.) P. C. F.,Pogonatum urnigerum (Hedw.) P. C. F.,C. Jensen,N/A,N/A,New Zealand,N/A,N/A,N/A,sandy soil in Magnaestrovsken south of Hvolsö,sandy soil in Magnaestrovsken south of Hvolsö,sandy soil,N/A,N/A,N/A,Typed,no type status
0081_C2010974F.jpg,P. Allorge,P. Allorge,N/A,s.n.,"Paris, Mai 1928",1928-05-00,1928-05-00,Bryotheca Iberica,Bryotheca Iberica,N/A,N/A,N/A,Spain,N/A,N/A,Paris,Paris,Paris,N/A,N/A,N/A,1200129,Typed,no type status
0082_C2010976F.jpg,leg. Zd. Pilous,Z. Pilous,N/A,1025,VII.1949,1949-07-00,1949-07-00,Pogonatum urnigerum Pal. var. nanum Bríd.,Pogonatum urnigerum var. nanum,N/A,N/A,N/A,Slovakia,N/A,N/A,N/A,"Montes Nízké Tatry: In terra montis Ďumbier, c. 1840 m",Montes Nízké Tatry: In terra montis Ďumbier,N/A,c. 1840 m,N/A,135087,Handwritten,no type status
0083_C2077563F.jpg,"L. Benoist, et L. Emery",L. Benoist,L. Emery,4659,s.d.,s.d.,s.d.,Hedwigia albicans (Web.) Lindb.,Hedwigia ciliata (Hedw.) P. Beauv.,E. de Luna,1992,N/A,Ecuador,N/A,N/A,N/A,environs de Quito,environs de Quito,N/A,N/A,N/A,N/A,Typed,no type status
0084_C2077566F.jpg,Marko Lewis,M. Lewis,N/A,79-1237A,22 March 1979,1979-03-22,N/A,Hedwigia ciliata (Hedw.) P. Beauv.,Hedwigia ciliata (Hedw.) P. Beauv.,E. Lincoln,1979,N/A,Bolivia,La Paz,Larecaja,Sorata,"DEPTO. LA PAZ, PROV. LARECAJA: Near large red out-crop 2 mi. from Sorata town Rio Consata",Near large red outcrop 2 miles from Sorata town by Rio Consata,Bromeliad habitat. Abundant on rock faces of exposed cliffs,2630 m.,N/A,1032221,Typed,no type status
0085_C2077567F.jpg,"Marko Lewis, no. 79-1232",M. Lewis,N/A,79-1232,22 March 1979,1979-03-22,N/A,Hedwigia ciliata (Hedw.) P. Beauv.,Hedwigia ciliata (Hedw.) P. Beauv.,E. De Luna,1982,N/A,Bolivia,La Paz,Larecaja,N/A,"DEPTO. LA PAZ, PROV. LARECAJA: Near large red outcrop 2 mi. from Sorata down Rio Consata, 15° 41' S, 68° 43' W.",Near large red outcrop 2 miles from Sorata down Rio Consata,"Bromeliad-grass habitat on exposed cliffs, 2630 m.",2630 m.,"15° 41' S, 68° 43' W",1032219,Typed,no type status
0086_C2077568F.jpg,Marko Lewis,M. Lewis,N/A,79-1114,6 March 1979,1979-03-06,N/A,Hedwigia ciliata (Hedw.) P. Beauv.,Hedwigia ciliata (Hedw.) P. Beauv.,E. De Luna,1992,N/A,Bolivia,La Paz,Saavedra,N/A,"DEPTO. LA PAZ, PROV. SAAVEDRA: On mountain side directly N. of river, beneath Niño Kariña, NW of Chuma","On mountain side directly north of river, beneath Niño Kariña, northwest of Chuma",Humid cliffs and steep slopes,3320 m,"15°08’ S, 69°03’ W",1032220,Typed,no type status
0087_C2077569F.jpg,F. J. Hermann,F.J. Hermann,N/A,25152,"December 27, 1972",1972-12-27,N/A,Hedwigia ciliata (Hedw.) P. Beauv.,Hedwigia ciliata (Hedw.) P. Beauv.,Erin M. Lina,1982,N/A,Bolivia,Cochabamba,N/A,N/A,"On conglomerate boulder on shrubby NW slope of Mt. Tunari, near Liriuni Aguas Termales Hotel","On conglomerate boulder on northwestern slope of Mount Tunari, near Liriuni Aguas Termales Hotel",N/A,ca. 2700 m.,N/A,1040675,Mix of Handwritten and Typed,no type status
0088_C2077570F.jpg,Ynes Mexia,Y. Mexia,N/A,6804,"Dec. 2, 1931",1931-12-02,N/A,Pilotrichum subthyrsothyrsus Calv.,Pilotrichum subthyrsothyrsus Calv.,Det. Bartram,N/A,N/A,Peru,Loreto,N/A,N/A,Above Pongo de Manseriche. Streamlet near mouth of Rio Santiago.,"Above Pongo de Manseriche, streamlet near mouth of Rio Santiago",On fallen log.,Alt. 400 m.,N/A,1057692,Typed,no type status
0089_C2077571F.jpg,Ynes Mexia,Y. Mexia,N/A,6804,"Dec. 9, 1931",1931-12-09,N/A,Philonotis subflabelligerula Broth. det. Bartram,Philonotis subflabelligerula,Bartram,N/A,N/A,Peru,Loreto,N/A,N/A,"Above Pongo de Manseriche, Streamlet near mouth of Rio Santiago, On fallen logs","Above Pongo de Manseriche, Streamlet near mouth of Rio Santiago, On fallen logs",On fallen logs,Alt. 400 m.,N/A,N/A,Typed,no type status
0090_C2077573F.jpg,J. Fluorschütz-de Waard & Röellman,J. Fluorschütz-de Waard,Röellman,5315,5-12-1981,1981-12-05,N/A,Pilosium chlorophyllum (Hornsch. ex Brid.) Willd. Garr.,Pilosium chlorophyllum (Hornsch. ex Brid.) Willd. Garr.,N/A,N/A,Geocarpia (bopapaja),Suriname,Nickerie,N/A,s.n.,"area of Kabalebo Dam project, distr. Nickerie, line NW from road km 39,5, p. Second guyana bos (bopapaja)","area of Kabalebo Dam project, line northwest from road kilometer 39.5",On rotting log,ALT. 0-50 m,N/A,1073523,Typed,no type status
0091_C2077574F.jpg,J. F. E. Florackhtte-de Waard & R. Zielman,J. F. E. Florackhtte-de Waard,R. Zielman,5254,3-11-1981,1981-11-03,N/A,Pilosium chlorophyllum(stenochlaena) J.C.MILL.,Pilosium chlorophyllum(stenochlaena) J.C.MILL.,R. Zielman,N/A,N/A,Suriname,N/A,N/A,N/A,"area of Kabalebo Dam project, distr. Nickerie, line NW from road km 39.5, P. 51 SW qu., SE, Savanna forest, on rotting logs","area of Kabalebo Dam project, distr. Nickerie, line northwest from road kilometer 39.5, Savanna forest, on rotting logs","Savanna forest, on rotting logs",0 - 50 m.,N/A,1073529,Typed,no type status
0092_C2077575F.jpg,J. Fluorichts-de Waard & R. Zieman,J. Fluorichts-de Waard,R. Zieman,5098,3-10-1981,1981-10-03,N/A,Pilosium chlorophyllum (Hornsch.) M. Menz,Pilosium chlorophyllum (Hornsch.) M. Menz,R. Zieman,3-10-1981,N/A,Suriname,Nickerie,N/A,N/A,"Aves of Kabalebo Dam Project, distr. Nickerie, line W from road 34 km, P. SWN 69u, SE, Rainforest, on rotting logs,","Aves of Kabalebo Dam Project, line West from road 34 kilometers","Rainforest, on rotting logs","0 - 50 m,",N/A,1073528,Typed,no type status
0093_C2077576F.jpg,"J.C. Lindeman, A.A. Pulle, G.M. van Hijn, J.C. Jansen-Jacobs & A.A. Gerretsche-de Hollander",J.C. Lindeman,"A.A. Pulle, G.M. van Hijn, J.C. Jansen-Jacobs, A.A. Gerretsche-de Hollander",243 A,3-7-1980,1980-07-03,1980-07-03,Philonotis chlorophylla (Hornsch.) C. Müll.,Philonotis chlorophylla (Hornsch.) C. Müll.,N/A,N/A,N/A,Suriname,Nickerie,N/A,N/A,"Area of Kabalebo Dam Project, distr. Nickerie",Area of Kabalebo Dam Project,"Forest of km 28, Epiphyte on tree trunk",Alt. 30 - 130 m.,"4° 50' N, 57° 30' W",N/A,Typed,no type status
0094_C2077577F.jpg,J. Florschütz-de Waard and R. Zielman,J. Florschütz-de Waard,R. Zielman,5141,31 October 1981,1981-10-31,N/A,Pilotrichum chlomophyllum (Hornsch.) C. Müll.,Pilotrichum chlomophyllum (Hornsch.) C. Müll.,R. Ziemann,N/A,Astrocaryum,Suriname,Nickerie,Kabalebo river area,N/A,"Distr. Nickerie, Kabalebo river area, 1 km W. from road km 34","Distr. Nickerie, Kabalebo river area, 1 kilometer west from road kilometer 34",Marsh forest,alt. 0-50 m,s.n.,4763623,Typed,no type status
0095_C2077578F.jpg,J. and P.A. Florschütz,J. Florschütz,P.A. Florschütz,4690,18 December 1975,1975-12-18,1975-12-18,Pilotrichum chlorophyllum (Horw.) C. Muell.,Pilotrichum chlorophyllum (Horw.) C. Muell.,R. Ziemmeck and J. Florschütz-de Waard,N/A,N/A,Suriname,Brownsberg,N/A,N/A,"Brownsberg, trail to Leo Val",trail to Leo Val,On rotting log in rainforest.,alt. ca. 500 m.,N/A,N° 1065613,Typed,no type status
0096_C2077579F.jpg,H. Cornelissen & S. R. Gradstein,H. Cornelissen,S. R. Gradstein,C076,8 March 1977,1977-03-08,1977-03-08,Pilotrichum chlorophyllum (Hornsch.) C. Müll.,Pilotrichum chlorophyllum (Hornsch.) C. Müll.,J. Florschütz-de Waard,s.d.,N/A,Guyana,N/A,N/A,N/A,"Mabura Hill, 180 km S of Georgetown, '520'N 5840'W, alt. 0-50 m","Mabura Hill, 180 kilometers south of Georgetown",On rotting tree base in mixed rain forest,alt. 0-50 m,520'N 5840'W,1691586,Typed,no type status
0097_C2077582F.jpg,Richard Evans Schultes et Isidoro Cabrera,R.E. Schultes,I. Cabrera,14394,"October 4-6, 1951",1951-10-04,1951-10-06,Pilotrichum chlorophyllum (Hornsch.) C. Mü.,Pilotrichum chlorophyllum (Hornsch.) C. Mü.,"E. A. Cumm. (most likely meant to be E. A. Cummins or similar, but exact spelling uncertain because part of the text is missing)",1956,N/A,Colombia,Vaupés,N/A,N/A,"Rio Kuduyarí (affluent of Rio Vaupés), Yapobodá, quartzite savannah. ","Rio Kuduyarí (affluent of Rio Vaupés), Yapobodá",Quartzite savannah.,N/A,N/A,N/A,Typed,no type status
0098_C2077584F.jpg,Richard Evans Schultes,R.E. Schultes,N/A,11128,Dec. 1950,1950-12-00,1950-12-00,Pilotium chlrophyllum (Hedw.) C. Muell. in Broth.,Pilotium chlrophyllum (Hedw.) C. Muell. in Broth.,D.A. Griffin III,N/A,N/A,Colombia,N/A,N/A,San José del Guaviare,San José del Guaviare,San José del Guaviare,N/A,N/A,N/A,1055489,Typed,no type status
0099_C2077585F.jpg,Ynes Mexia,Y. Mexia,N/A,6014,"Aug. 31, 1931",1931-08-31,1931-08-31,Pilosium chlorophyllum (Hitchc.) C. Chr.,Pilosium chlorophyllum (Hitchc.) C. Chr.,N/A,N/A,N/A,Brazil,N/A,N/A,N/A,"Districto Acré, (""Thomé Assú"", down Rio Acré 3 km.","Thomé Assú, down Rio Acre 3 kilometers",On fallen log.,Alt. 35 m.,N/A,N/A,Typed,no type status
0100_C2077586F.jpg,Ynes Mexia,Y. Mexia,N/A,5914,"July 16,",s.d.,s.d.,Filicinophyta: Chlorophyllidum (Bachr.) Ching.,Chlorophyllidum (Bachr.) Ching,N/A,N/A,N/A,Brazil,Pará,N/A,N/A,"Districto Acará, Thoma Açu, Japanese Colony.","Districto Acará, Thoma Açu, Japanese Colony",On rotting log in woods,Alt. about 30 m,N/A,870829,Typed,no type status
0101_C2078862F.jpg,"D. Griffin III, M. López",D. Griffin III,M. López,PV-1525,s.d.,s.d.,N/A,Brachythecium plumosum (Hedw.) BSG,Brachythecium plumosum (Hedw.) BSG,N/A,N/A,N/A,Venezuela,Trujillo,N/A,N/A,"páramo de Guirigay, arriba del pueblo de La Piedrita. Entre las Quebradas El Banco.","páramo de Guirigay, arriba del pueblo de La Piedrita. Entre las Quebradas El Banco","Sobre roca húmeda, lecho de riachuelo, a sol.","3,200 m",N/A,1064449,Typed,no type status
0102_C2078913F.jpg,P. Dusén,P. Dusén,N/A,5872,22 February 1897,1897-02-22,1897-02-22,Brachythecium albicans (Hedw.) Schimp.,Brachythecium albicans (Hedw.) Schimp.,W. R. Buck,s.d.,N/A,Chile,Patagonia occidental,N/A,N/A,Cerro Colorado,Cerro Colorado,N/A,s.d.,s.d.,811749,Typed,no type status
0103_C2078924F.jpg,Ynes Mexia,Y. Mexia,N/A,8001,"April 10, 1936",1936-04-10,N/A,Brachythecium austro-glareosum (C. Muell.) Kindb.,Brachythecium austro-glareosum (C. Muell.) Kindb.,K. D. McFarland,Sept 1982,N/A,Chile,Magallanes,N/A,N/A,Territorio Magallanes; Last Hope Inlet; Peninsula Antonio Vargas; Dampings in Nothofagus wood in moist earth.,Last Hope Inlet; Peninsula Antonio Vargas; Dampings in Nothofagus wood,Dampings in Nothofagus wood in moist earth,Alt. 25 m.,N/A,N/A,Typed,no type status
0104_C2078925F.jpg,"Marko Lewis, no.79-2108",M. Lewis,N/A,79-2108,25 May 1979,1979-05-25,1979-05-25,Brachythecium cf. sellowii Broth. in Herz.,Brachythecium cf. sellowii Broth. in Herz.,R. Ochyra,February 1982,N/A,Bolivia,Oruro,N/A,Sajama,"DEPTO. ORURO, PROV. SAJAMA: Rio Juntuma Khuchu, 2 mi. down from Aguas termales de Rio Juntuma Khuchu","Rio Juntuma Khuchu, 2 miles down from Aguas termales de Rio Juntuma Khuchu",In Warnish creek,4350 m.,"18°07' S, 69°00' W",1049405,Typed,no type status
0105_C2078926F.jpg,Marko Lewis,M. Lewis,N/A,79-2109,25 May 1979,1979-05-25,N/A,Brachythecium callirigeonides in Herz.,Brachythecium callirigeonides Broth.,R. Ochyra,1982,N/A,Bolivia,Oruro,Sajama,N/A,"DEPTO. ORURO, PROV. SAJAMA: Rio Juntuma Khuchu, 2 mi. down river from Aguas termales de Rio Juntuma Khuchu, 18° 07' S, 69° 00' W. In warmish creek.","Rio Juntuma Khuchu, 2 miles down river from Aguas termales de Rio Juntuma Khuchu",In warmish creek,4350 m,"18° 07' S, 69° 00' W",1049406,Typed,no type status
0106_C2078927F.jpg,Marko Lewis,M. Lewis,N/A,79-2112,25 May 1979,1979-05-25,1979-05-25,Brachythecium camillifolionde Broth. in Herz.,Brachythecium camillifolionde Broth.,E. Ochyra,1982,N/A,Bolivia,Oruro,N/A,N/A,"DPTO. ORURO, PROV. SAJAMA: Rio Jhuhuma khuchu Z m. down river from Aguas termales de Rio Jhuchumakhuchu, 4350-4380 m.",Rio Jhuhuma khuchu 2 meters down river from Aguas termales de Rio Jhuchumakhuchu,In warmish creek.,4350-4380 m.,"18°07' S, 69°00' W",1049407,Typed,no type status
0107_C2078928F.jpg,Marko Lewis,M. Lewis,N/A,79-2115,25 May 1979,1979-05-25,N/A,Brachythecium callirgoneoides Broth. in Herz.,Brachythecium callirgoneoides Broth. in Herz.,R. Ochyra,1982,N/A,Bolivia,Oruro,N/A,N/A,"DEPTO. ORURO, PROV. SAJAMA: Río Jhunthuma Khuchu, 2 mi. down river from Aguas termales de Río Jhunthuma Khuchu, 450 m.","Río Jhunthuma Khuchu, 2 miles down river from Aguas termales de Río Jhunthuma Khuchu",In warmish creek,N/A,"17° 05' S, 69° 00' W",1049409,Typed,no type status
0108_C2078929F.jpg,Marko Lewis,M. Lewis,N/A,79-2117,25 May 1979,1979-05-25,1979-05-25,Brachythecium oalligeronoides Broth. in Herz.,Brachythecium oalligeronoides Broth. in Herz.,R. Ochyra,1982,N/A,Bolivia,Oruro,Sajama,N/A,"DEPTO. ORURO, PROV. SAJAMA: Rio Jhutuma Khuchu, 2 mi. down river from Aguas termales de Rio Juntuma Khuchu","Rio Jhutuma Khuchu, 2 miles down river from Aguas termales de Rio Juntuma Khuchu",In warmish creek,N/A,N/A,1049410,Typed,no type status
0109_C2078930F.jpg,"Marko Lewis, no. 79-2118",M. Lewis,N/A,79-2118,25 May 1979,1979-05-25,1979-05-25,Brachythecium calliergonoides Broth. in Herz.,Brachythecium calliergonoides,E. Ochyra,1982,N/A,Bolivia,Oruro,N/A,N/A,"DEPTO. ORURO, PROV. SAJAMA: Rio Juntuma kkmhu 2, km. down river from Aguas termales de Río Juntuma, Churcchura, 4350 m. 18° 07' S, 69° 00' W. In warmish creek.","Rio Juntuma kkmhu 2, kilometers down river from Aguas termales de Río Juntuma, Churcchura",In warmish creek,4350 m.,"18° 07' S, 69° 00' W",1049411,Typed,no type status
0110_C2078931F.jpg,Marko Lewis,M. Lewis,N/A,79-2107,25 May 1979,1979-05-25,1979-05-25,Brachythecium callirgoneoides Broth. in Herz.,Brachythecium callirgoneoides Broth. in Herz.,R. Ochyra,1982,N/A,Bolivia,Oruro,N/A,N/A,"DEPTO. ORURO, PROV. SAJAMA: Río Juntuma Khuchu, 2 mi. down river from Aguas termales de Río Juntuma Khuchu","Río Juntuma Khuchu, 2 miles down river from Aguas termales de Río Juntuma Khuchu",In warmish creek,4350 m.,"18° 07' S, 69° 00' W",N° 1049404,Typed,no type status
0111_C2078932F.jpg,Marko Lewis,M. Lewis,N/A,79-2119,25 May 1979,1979-05-25,N/A,Brachythecium callirgonoides Broth. in Herz.,Brachythecium callirgonoides Broth. in Herz.,R. Ochyra,1982,N/A,Bolivia,Oruro,Sajama,N/A,"DEPTO. ORURO, PROV. SAJAMA: Rio Jhuthuma Khuchu, 2 mi. down river from Aguas termales de Rio Juncal Khuchu, 4350 m. In warmish creek.","Rio Jhuthuma Khuchu, 2 miles down river from Aguas termales de Rio Juncal Khuchu",In warmish creek,4350 m,N/A,1049412,Typed,no type status
0112_C2079350F.jpg,Ynes Mexia,Y. Mexia,N/A,6149,"Nov. 23, 1931",1931-11-23,N/A,Vesicularia amphibiola (Spr.) Broth.,Vesicularia amphibiola (Spr.) Broth.,A. Bartholomew,N/A,N/A,Peru,Departamento de Loreto,N/A,N/A,"Above Pongo de Manseriche, Left bank of Rio Santiago","Above Pongo de Manseriche, left bank of Rio Santiago, On stone in overflow forest",On stone in overflow forest,Alt. 200 m.,N/A,N/A,Typed,no type status
0113_C2079351F.jpg,N/A,N/A,N/A,6160,"May 25, 1931",1931-05-25,N/A,Vesicularia semipolita (Spr.) Broth.,Vesicularia semipolita (Spr.) Broth.,N/A,N/A,N/A,Peru,Loreto,N/A,N/A,"Above Pongo de Manseriche, Right bank of Río Santiago","Above Pongo de Manseriche, right bank of Rio Santiago",Dense forest on log,Alt. 200,N/A,873367,Typed,no type status
0114_C2079352F.jpg,Ynes Mexia,Y. Mexia,N/A,6217-a,"Dec. 4, 1931",1931-12-04,1931-12-04,Vesicularia amphipoda (Spr.) Broth.,Vesicularia amphipoda (Spr.) Broth.,Bartram,N/A,N/A,Peru,Loreto,N/A,N/A,"Above Pongo Manseriche, Streamlet on right bank of Rio Santiago","Above Pongo Manseriche, right bank of Rio Santiago",On rocks wet by spray,Alt. 250 m.,N/A,N/A,Typed,no type status
0115_C2079353F.jpg,Ynes Mexia,Y. Mexia,N/A,6250,"Dec. 12, 1931",1931-12-12,N/A,Vesicularia amphibia (Spruce) Broth.,Vesicularia amphibia (Spruce) Broth.,E. Bartram,N/A,N/A,Peru,Loreto,N/A,N/A,"Above Pongo de Manseriche. Crooked Carapacha. ""08 in forests.""","Above Pongo de Manseriche, Crooked Carapacha",In forests,Alt. 215 m.,N/A,870867,Typed,no type status
0116_C2079354F.jpg,J.F. Macbride,J.F. Macbride,N/A,6356,"Jan. 3, 1935",1935-01-03,N/A,Vesicularia subaphibola (Spr.) Broth.,Vesicularia subaphibola (Spr.) Broth.,Bartram,N/A,N/A,Peru,Departamento de Loreto,N/A,N/A,Above Pongo de Manseriche,Above Pongo de Manseriche,N/A,Alt. 215 m.,N/A,873369,Typed,no type status
0117_C2079355F.jpg,Ynes Mexia,Y. Mexia,N/A,6375a,"Jan. 3, 1932",1932-01-03,1932-01-03,Vezallonaria amphibola (Spr.) Broth. On sterile log. +Taxithelium planum (Brid.) Mitt.,Taxithelium planum (Brid.) Mitt.,N/A,N/A,N/A,Peru,Loreto,N/A,N/A,"Above Pongo de Manseriche, Creek Tinche.","Above Pongo de Manseriche, Creek Tinche. On sterile log.",N/A,Alt. 215 m.,N/A,1039121,Typed,no type status
0118_C2079356F.jpg,Ynes Mexia,Y. Mexia,N/A,6378,"June 3, 1938",1938-06-03,N/A,Vestia lycioides (Cav.) Walp.,Vestia lycioides (Cav.) Walp.,N/A,N/A,N/A,Peru,Loreto,N/A,N/A,Above Pongo de Manseriche,Above Pongo de Manseriche,On rotted logs.,Alt. 215 m.,N/A,370880,Typed,no type status
0119_C2079357F.jpg,Ynes Mexia,Y. Mexia,N/A,8377,"Jan. 3, 1932",1932-01-03,1932-01-03,Vesicularia amphibia (Spr.) Broth.,Vesicularia amphibia (Spr.) Broth.,N/A,N/A,N/A,Peru,Departamento de Loreto,N/A,N/A,Above Pongo de Manseriche. Crook Inche.,"Above Pongo de Manseriche, Crook Inche.",On rotten log.,Alt. 215 m.,N/A,S70873,Typed,no type status
0120_C2079358F.jpg,Ynes Mexia,Y. Mexia,N/A,8070,"May 14,1936",1936-05-14,1936-05-14,Vestiaria amphicola (Spr.) Broth.,Vestiaria amphicola (Spr.) Broth.,Det. Bartram,N/A,N/A,Peru,Cuzco,La Convencion,N/A,upper valley of the Sambay; affluent of the Vilcanota; on rotten log in virgin forest,"upper valley of the Sambay, affluent of the Vilcanota, on rotten log in virgin forest",Virgin forest,Alt. 1800 m.,N/A,1036838,Typed,no type status
0121_C2079359F.jpg,Ynes Mexia No. 8070,Y. Mexia,N/A,8070,"May 14,1936",1936-05-14,1936-05-14,Vestigularia amphibia (Spr.) Broth. in mixture,Vestigularia amphibia (Spr.) Broth.,Bartram,N/A,N/A,Peru,Cuzco,La Convencion,N/A,Department: Cuzco. Province: La Convencion; upper valley of the Sambay; affluent of the Vilcanota,"upper valley of the Sambay, affluent of the Vilcanota",on rotten logs in virgin forest,1600 m,N/A,1039122,Typed,no type status
0122_C2079360F.jpg,Baitz,N/A,N/A,s.n.,Apr 1956,1956-04-00,1956-04-00,Hypnum schleicheri (Schwaegr.) Brot.,Hypnum schleicheri (Schwaegr.) Brot.,N/A,1948,N/A,Brasil,Santa Catarina,N/A,N/A,"""Ramboja"" Braço",Ramboja Braço,Formação de mata virgem,550 meters,N/A,N/A,Typed,no type status
0123_C2079362F.jpg,RICHARD EVANS SCHULTES,R.E. Schultes,N/A,11107,"Dec., 1950",1950-12-00,1950-12-00,Vesicularia vesicularis (Schwgr.) Broth.,Vesicularia vesicularis (Schwgr.) Broth.,D.A. Griffin III,"Dec., 1950",N/A,Colombia,Intendencias,N/A,N/A,alrededores de Villavicencio,alrededores de Villavicencio,N/A,Alt 500 m.,N/A,1055509,Typed,no type status
0124_C2079595F.jpg,H. Roivainen,H. Roivainen,N/A,s.n.,25.I.1970,1970-01-25,N/A,Isopterygium pulchellum (Hedw.) Jaeg.,Isopterygium pulchellum (Hedw.) Jaeg.,R. Ochyra,1996,Nothofagus pumilio,Argentina,Tierra del Fuego,N/A,Ushuaia,"Tierra del Fuego australis, Ushuaia, Arroyo Grande (54°47'S, 68°18'W), en fisuras de roca y en raíces humoso-arcillosos de Nothofagus pumilio, en orilla de la cascada",Arroyo Grande,"en fisuras de roca y en raíces humoso-arcillosos de Nothofagus pumilio, en orilla de la cascada",150 m.,"54°47'S, 68°18'W",1182417,Typed,no type status
0125_C2079596F.jpg,H. Roivainen,H. Roivainen,N/A,1352,21.12.1969,1969-12-21,1969-12-21,Isopterygium pulchellum (Hedw.) Jaeg.,Isopterygium pulchellum (Hedw.) Jaeg.,R. Ochyra,1996,N/A,Argentina,Tierra del Fuego,Ushuaia,N/A,Valle del río Pipo,Valle del río Pipo,"suelo humoso húmedo en el pendiente del río, bastante conspissamente",300 m s.m.,"54°46'S, 68°20'W",1182415,Handwritten,no type status
0126_C2079597F.jpg,E. P. Killip & A. C. Smith,E.P. Killip,A.C. Smith,14981,"November 29, 1926",1926-11-29,N/A,Isoterygium stipitocarpum (C. M.) Par.,Isoterygium tenerum (Sw.) Mitt.,N/A,1988,N/A,Colombia,Santander,N/A,N/A,"Dept. Santander, between Puerto Wilches and Puerto Santos, railroad 110-115 km","Dept. Santander, between Puerto Wilches and Puerto Santos, railroad 110-115 kilometers","On district of Cali !!!, Venezuela; Herb. W. C. Brown Comp. 878 Richards",N/A,N/A,1040009,Mix of Handwritten and Typed,no type status
0127_C2079598F.jpg,RICHARD EVANS SCHULTES,R.E. Schultes,N/A,11110,"Dec., 1950",1950-12-00,1950-12-00,Isoperygium tenerum (Sw.) Mitt.,Isoperygium tenerum (Sw.) Mitt.,B.A. Griffin III,N/A,N/A,Colombia,Meta,N/A,Villavicencio,Intendencia del Meta: alrededores de Villavicencio,Intendencia del Meta: alrededores de Villavicencio,"[habitat description not specified on the label, hence unknown]",Alt. 500 m.,N/A,N° 1055473,Typed,no type status
0128_C2079599F.jpg,D.C. Geijskes,D.C. Geijskes,N/A,s.n.,29-9-1952,1952-09-29,1952-09-29,Isopterygium tenerum (Sw.) Mitt.,Isopterygium tenerum (Sw.) Mitt.,H.R. Zielman,N/A,N/A,Suriname,N/A,N/A,N/A,Marowijne River; Amina Falls rainforest,"Marowijne River, Amina Falls rainforest","On roots and rocks on bank of river, shrub",N/A,N/A,1073518,Typed,no type status
0129_C2079600F.jpg,Ynes Mexia,Y. Mexia,N/A,8418,"July 6, 1930",1930-07-06,1930-07-06,Isopterygium brasiliense (Müll. Hal.) Mitt. ex Broth. det. Cardot,Isopterygium tenerum (Sw.) Mitt.,R.R. Ireland,1988,N/A,Brazil,Minas Gerais,N/A,Viçosa,"Agricultural College land, Horticultural Hill","Agricultural College land, Horticultural Hill",On old woods near base. Abundant,Alt. 670 m,N/A,1039979,Typed,no type status
0130_C2079601F.jpg,Ynes Mexia,Y. Mexia,N/A,8488,"July 21, 1930",1930-07-21,N/A,Isoperygmium laxum (Hpe.) Broth.,Isoterygium tenerum (Sw.) Mitt.,R.R. Ireland,1988,N/A,Brazil,Minas Gerais,N/A,Viçosa,Viçosa Agricultural College bank,Agricultural College bank,"Corriga Ribeiros, Shady streambank, On rotten wood",Alt. 675 m.,N/A,87365,Typed,no type status
0131_C2079602F.jpg,Ynes Mexia,Y. Mexia,N/A,8536,"Dec. 9, 1930",1930-12-09,1930-12-09,Isopterygium brasiliense (Sw.) Mitt. Degonia,Isopterygium tenerum (Sw.) Mitt.,R.R. Ireland,1988,N/A,Brazil,Minas Gerais (State of Minas Gerais),N/A,N/A,Vicosa. Road to So Lourenco,"Vicosa, Road to Sao Lourenco",Dense forest On rotten log In fruit,Alt. 710 m.,N/A,870841,Handwritten,no type status
0132_C2079603F.jpg,Ynes Mexia,Y. Mexia,N/A,54421,"Dec. 23, 1930",1930-12-23,1930-12-23,Isoterygium tenereum (Sw.) Mitt.,Isoterygium tenereum (Sw.) Mitt.,R.R. Ireland,1988,N/A,Brazil,Minas Gerais,N/A,N/A,Viçosa Agricultural Collegelands,Base of Horticultural Hill,On rotting logs in woods,Alt. 670 m.,N/A,3708283,Typed,no type status
0133_C2079604F.jpg,"H. S. Irwin, R. M. Harley, G. L. Smith",H. S. Irwin,"R. M. Harley, G. L. Smith",31332,2 March 1971,1971-03-02,N/A,Isoterygium tenerum (Sw.) Mitt.,Isoterygium tenerum (Sw.) Mitt.,R. R. Ireland,1988,N/A,Brazil,Goiás,N/A,Barreiras,Valley of the Rio das Ondas,Valley of the Rio das Ondas,"On the bark and exposed roots of Coccoloba sp., and on adjacent soil, at river bank, Cerrado-gallery forest and adjacent out-curve, ca. 10km W. of Barreiras",ca. 500m.,N/A,1059328,Typed,no type status
0134_C2079606F.jpg,Ynes Mexia,Y. Mexia,N/A,4884,"July 21, 1929",1929-07-21,1929-07-21,Isopterygium tenerum (Sw.) Mitt.,Isopterygium tenerum (Sw.) Mitt.,R.R. Ireland,1988,N/A,Brazil,Minas Gerais,N/A,N/A,"Vicosa Agricultural College lands, Corrego Felizbino","Vicosa Agricultural College lands, Corrego Felizbino","Shady streambank, on rotten logs",Alt. 675 m.,N/A,830845,Typed,no type status
0135_C2079607F.jpg,Ynes Mexia,Y. Mexia,N/A,4690,"May 14, 1930",1930-05-14,1930-05-14,Isoptrygium curvifolium (Sw.) Mitt. ExP.,Isoptrygium tenerum (Sw.) Mitt.,R. R. Ireland,1988,N/A,Brazil,Minas Gerais,N/A,Viçosa,Fazenda de Crosstuma.,Fazenda de Crosstuma. Wood on slope. On rotten log.,Wood on slope. On rotten log.,Alt. 700 m.,N/A,870839,Mix of Handwritten and Typed,no type status
0136_C2079608F.jpg,Ynes Mexia,Y. Mexia,N/A,4884,"July 21, 1930",1930-07-21,1930-07-21,Isopterygium cumulicolaum (C. Muell.) Mitt.,Isopterygium tenerum (Sw.) Mitt.,R.R. Ireland,1988,N/A,Brazil,Minas Gerais,N/A,N/A,Viçosa Agricultural College lands. Corrego Ribeirao.,Viçosa Agricultural College lands. Corrego Ribeirao.,"Shady streambank, on rotten log.",Alt. 675 m.,N/A,1039977,Typed,no type status
0137_C2079609F.jpg,Ynes Mexia,Y. Mexia,N/A,4545,"March 31, 1930",1930-03-31,N/A,Isopterygium tenerum (Sw.) Mitt.,Isopterygium tenerum (Sw.) Mitt.,R.R. Ireland,1988,N/A,Brazil,State of Minas Gerais,N/A,Vicos,"Road to Sao Miguel, near stream ""Turvo.""","Road to Sao Miguel, near stream Turvo",Out over woods on slope. On rotting tree trunk,Alt. 710 m,N/A,N/A,Typed,no type status
0138_C2079611F.jpg,W. Seiffert,W. Seiffert,N/A,2898,s.d.,N/A,N/A,Isopterygium araucanianum (Müll. Hal.) Broth.,Isopterygium tenerum (Sw.) Mitt.,R. R. Ireland,1988,N/A,Brazil,Sao Paulo,N/A,N/A,"prope urbem Cerqueira-Cesar, in planitie, 650 m. s. m.","prope urbem Cerqueira-Cesar, in planitie, 650 meters",N/A,650 m. s. m.,N/A,102476,Typed,no type status
0139_C2079715F.jpg,"J.P. Frahm, P. Geissler, S.R. Gradstein, G. Philippi, W. Schulze-Motel",J.P. Frahm,"P. Geissler, S.R. Gradstein, G. Philippi, W. Schulze-Motel",875,4.9.1982,1982-09-04,N/A,Entodon jamesonii (Tayl.) Mitt.,Entodon jamesonii (Tayl.) Mitt.,W. Schulze-Motel,N/A,N/A,Peru,Amazonas,Chachapoyas,N/A,"Prov. Chachapoyas, Straße Chachapoyas Cajamarca oberhalb Leimebamba km 417, sexponierter Hang, hochandiner Regenwald auf Kalkstein","Prov. Chachapoyas, Straße Chachapoyas Cajamarca above Leimebamba at km 417, exposed slope, high Andean rainforest on limestone",high Andean rainforest on limestone,2800 msn.,N/A,1767822,Typed,no type status
0140_C2079716F.jpg,J. Kenneth Wright,J.K. Wright,N/A,4806,1 April 1964,1964-04-01,1964-04-01,"Entodon jamesonii (Tayl.) Mitt. dupl. det. E. Robinson, 1966",Entodon jamesonii (Tayl.) Mitt.,E. Robinson,1966,N/A,Peru,Department of Amazonas,Province of Chachapoyas,N/A,"Cerros Calla Calla, east side, 5 km. above Leimebamba on the road to Balsas, at San Miguel (no buildings at this locality).","Cerros Calla Calla, east side, 5 kilometers above Leimebamba on the road to Balsas, at San Miguel",Altitude 3100 m.,Altitude 3100 m.,N/A,1021821,Typed,no type status
0141_C2079717F.jpg,leg. Dan Griffin III,D. Griffin III,N/A,PV-966,30 Jan. 1963.,1963-01-30,1963-01-30,Entodon jamesoni (Tayl.) Broth.,Entodon jamesoni (Tayl.) Broth.,Dana Griffin III,N/A,N/A,Venezuela,Estado Merida,N/A,N/A,"Finca de Los Granates, finca de Los Granates, a lo largo del río de Los Granates y en las zonas anexas",Finca de Los Granates,"Sobre roca + seca, a sombra.","3,000-3,300 m",N/A,106416,Typed,no type status
0142_C2079718F.jpg,Ynes Mexia,Y. Mexia,N/A,5697,"April 21, 1931",1931-04-21,1931-04-21,Entodon Lindbergii Hedw.,Entodon Lindbergii Hedw.,A. L. Andrews,N/A,N/A,Brazil,Minas Gerais,N/A,Cordisburgo,Fazenda do Diamante. Campo limpio,"Fazenda do Diamante, campo limpio",Base of living tree in shade.,Alt. 500 m.,N/A,N/A,Typed,no type status
0143_C2079720F.jpg,Marko Lewis,M. Lewis,N/A,79-590,8 February 1979,1979-02-08,N/A,Entodon cf. noro-climacium C. Muell.,Entodon cf. noro-climacium C. Muell.,M. Buck,1980,N/A,Bolivia,Tarija,Prov. Méndez,N/A,"DEPTO. TARIJA, PROV. MÉNDEZ,PROV. CER-CADIOJJAPO, AVILÉS, Canyon 5 mi. SW of Táblada, SW of Camajo​","Canyon 5 miles southwest of Táblada, southwest of Camajo",Bank of creek.,2160 m.,"21° 36' 46"" S, 64° 50' W",N/A,Typed,no type status
0144_C2079721F.jpg,Marko Lewis,M. Lewis,N/A,79-1220,22 March 1979,1979-03-22,N/A,Entodon nano-climacium C.M. (E. micans Herz.),Entodon nano-climacium C.M. (synonym: E. micans Herz.),W. Buck,1980,N/A,Bolivia,La Paz,N/A,Sorata,Near large red out-crop 2 mi. from Sorata down Rio Consata,Near large red outcrop 2 miles from Sorata down Rio Consata,Very shady ground along creek in humid shrubs,2600 m.,N/A,1 674 879,Typed,no type status
0145_C2079723F.jpg,Marko Lewis,M. Lewis,N/A,79-1346,1 April 1979,1979-04-01,1979-04-01,cf. Entodon polycarpus,cf. Entodon polycarpus,W. Buck,1980,N/A,Bolivia,La Paz,N/A,N/A,"DEPTO. LA PAZ, PROV. LARECAJA: Between Abra Huallata and waterfall at Millipaya",Between Abra Huallata and waterfall at Millipaya,"Waterfall ravine, highest extension of shrubs.",3780 m.,"15° 51' S, 68° 39' W",1086785,Typed,no type status
0146_C2079856F.jpg,Ynes Mexia,Y. Mexia,N/A,4641,"July 6, 1930",1930-07-06,1930-07-06,Isopterygium brachyneuron (Griff.) Mitt. teste B.M.,Isopterygium tenerum (Sw.) Mitt.,R.R. Ireland,1988,N/A,Brazil,Minas Gerais,N/A,N/A,Viçosa Agricultural College lands.,Viçosa Agricultural College lands,Horticultural area. On rotting wood near base. Cut over logs. Abundant.,alt. 670 m.,N/A,870601-1,Typed,no type status
0147_E00570050.jpg,"M. Valiño, M.J.H. seed 2.14",M. Valiño,N/A,s.n.,23 marzo 12,2012-03-23,2012-03-23,Mimulus peregrinus,Mimulus peregrinus Walsh-Marín,M.J.H. Walsh-Marín,N/A,N/A,Scotland,N/A,N/A,N/A,"Old Loch Fyne, Inverarary","Old Loch Fyne, Inverarary",Growing on the banks of a stream on a substrate of sand and silt/clim,N/A,N/A,E00576906,Typed,HOLOTYPE
0148_K000263710.jpg,"J.J. de Wilde, B.J.M. Breteler, F.J. Breteler, W.J.J.O. de Wilde, Sosef, & van Nek",J.J. de Wilde,"B.J.M. Breteler, F.J. Breteler, W.J.J.O. de Wilde, Sosef, van Nek",10130,22-1-1991,1991-01-22,N/A,Rhynchostigma gabonensis Jongkind,Rhynchostigma gabonensis Jongkind,N/A,N/A,N/A,Gabon,N/A,N/A,N/A,"Fougamou km. on the road from Libreville to Koulamoutou, Gabon",Fougamou km on the road from Libreville to Koulamoutou,"Vine, 7 m long in tree in roadside",alt: 580 m.,N/A,K000236710,Typed,ISOTYPE
0149_K000964719.jpg,W. Hoehne,W. Hoehne,N/A,s.n.,s.d.,1903-10-18,N/A,Cestrum corymbosum Schltdl.,Cestrum corymbosum Schltdl.,Kuhlmann,N/A,N/A,Brazil,São Paulo,Cantareira,N/A,"Cantareira, São Paulo, ...",Cantareira,N/A,Alt. -,N/A,10228,Typed,no type status
0150_K001046329.jpg,G. Pabst,G. Pabst,N/A,2211,7-9-60,1960-09-07,1960-09-09,"Avicennia tomentosa Jacq. ""Mangue""",Avicennia tomentosa Jacq.,A. P. Duarte,s.d.,N/A,Brazil,N/A,N/A,N/A,"Brasil; Guanabara, Ilha do Governador",Ilha do Governador,Arbusto a pequena árvore de flores brancas,N/A,N/A,N/A,Handwritten,no type status
0151_K001207911.jpg,G. Hatschbach & J. Cordeiro,G. Hatschbach,J. Cordeiro,55406,2-12-1971,1971-12-02,N/A,Platycyamus regnellii Benth.,Platycyamus regnellii Benth.,O. P. Monteiro,N/A,N/A,Brazil,Paraná,N/A,N/A,Rio Iguaçu prox. a barr. do Perdido (mun. Lages de Sul Paraná),Rio Iguaçu proximidades a barragem do Perdido,Em terreno arenoso margens de rio,s.n.,s.n.,s.n.,Typed,no type status
0152_V0075820F.jpg,T. R. Dudley,T.R. Dudley,N/A,s.n.,4 July 1968,1968-07-04,N/A,Thelypteris dudleyi R. A. Smith / Thelypteris subg. Amauropelta not reognized; undescribed? / Thelypteris Linkii (C. Chr.) Aldon,Thelypteris dudleyi R. A. Smith,A. R. Smith,1989,N/A,Peru,Cuzco,La Convencion,N/A,"In full sun on old open landslide, just above the cloud forest, between camp 4&5; almost to Camp 5; at c. 2825 m; one of the commonest colonizers of landslide.","In full sun on an old open landslide, just above the cloud forest, between camp 4 and 5, almost to Camp 5.","In full sun on old open landslide, just above the cloud forest.",c. 2825 m,12° 37'; 73° 32',1719861,Mix of Handwritten and Typed,ISOTYPE
0153_V0075836F.jpg,S. Knapp,S. Knapp,N/A,5881,8 July 1982,1982-07-08,1982-07-08,Trichipteris pinnata Stolze,Trichipteris pinnata Stolze,R. C. Stolze,1984,N/A,Panama,Colón,N/A,N/A,"Santa Rita Ridge road, 21-26 km from Transisthmian Highway.",Santa Rita Ridge road,Tropical wet forest,500-550 m.,"9º2'25""N, 79º37'W",1932768,Mix of Handwritten and Typed,Holotype
0154_V0078059F.jpg,Ruiz & Pavon,H. Ruiz,J. Pavon,s.n.,(1777-1788),1777-00-00,1788-00-00,"Nolana spathulata Ruiz & Pav. Peruviana; 2; 1; Taba 1 rara, P.P.",Nolana spathulata Ruiz & Pav.,M. Weigend,N/A,N/A,Peru,N/A,N/A,N/A,in vice-regno Peruvi.ano et Chilensi lectae,[precise locality unknown],N/A,N/A,N/A,845155,Typed,ISOLECTOTYPE
0155_V0081497F.jpg,M. O. Dillon & D. Dillon,M.O. Dillon,D. Dillon,3776,1 Nov 1983,1983-11-01,1983-11-01,Galvezia fruticosa Gmel.,Galvezia eilisensii M.O. Dillon & Quipuscoa,M.O. Dillon & Quipuscoa,N/A,N/A,Peru,Arequipa,Caraveli,Atiquipa,"Lomas of Atiquipa, ca. 105 km N of turn-off to Atiquipa, km 584 S of Lima","Lomas of Atiquipa, about 105 kilometers north of turn-off to Atiquipa, kilometer 584 south of Lima","Erect, glutinous shrub to 0.75 m; flws. red.",ca. 150-200 m,N/A,1940835,Typed,HOLOTYPE
0156_V0082645F.jpg,M. O. Dillon,M.O. Dillon,N/A,5376,21 Dec 1987,1987-12-21,N/A,Notholaena mollis Kunze,Notholaena mollis Kunze,N/A,N/A,N/A,Chile,Antofagasta,N/A,N/A,"Cerro Perales, ca. 8.5 km E of Taltal","Cerro Perales, approximately 8.5 kilometers east of Taltal","Terrestrial, growing in rock crevices",600-850 m,"(25° 25' S, 70° 25' W)",2010984,Typed,no type status
0157_V0092855F.jpg,Jose Campos O. y D. Diaz,J. Campos,D. Diaz,2490,9 Febrero 1996,1996-02-09,1996-02-09,Amorimia camporum W.R. Anderson,Amorimia camporum W.R. Anderson,W.R. Anderson,Novon 16(2): 179. 2006,N/A,Peru,Cajamarca,San Ignacio Province,s.n.,Distrito Chirinos: Entre La Catuaga y Tablón.,Entre La Catuaga y Tablón,Trepadora; flor amarilla,550 - 650,05°19'S; 078°47'W,2296033,Typed,Isotype
0158_V0092864F.jpg,Camilo Díaz y Antonio Peña,C. Díaz,A. Peña,8808,4 Diciembre 1996,1996-12-04,1996-12-04,Symplocos ovata Stahl,Symplocos ovata Stahl,B. Stahl,9-III-98; 4-AB-2010,N/A,Peru,Amazonas,Luya Province,Camporedondo,"Camporedondo, Tullanya, Pascana ""Pajaro Tigre""","Camporedondo, Tullanya, Pascana ""Pajaro Tigre""",N/A,2850–2360 m,N/A,2296023,Typed,Isotype
0159_V0092900F.jpg,Ruiz et Pavón,N/A,N/A,s.n.,1775-1788,1775-00-00,1788-00-00,Bomarea purpurea (R. & P.) Herb.,Bomarea purpurea (Ruiz & Pavón) Herb.,Hofreiter,2007,N/A,Peru,N/A,N/A,N/A,in vice-regno Peruviâno et Chilensi lectae,[precise locality unknown],N/A,N/A,N/A,916119,Typed,Isotype
0160_V0092906F.jpg,"V. Quipuscoa S., A. Sagástegui A., S. Leiva G. & M. Bejarano C.",V. Quipuscoa,"A. Sagástegui, S. Leiva, M. Bejarano",13778,20 agostos 1998,1998-08-20,1998-08-20,Lithospermum cinerascens (A.DC.) Johnst.,"Lithospermum leymebambense WEIGEND & NÜRK, sp. nov. inded.",M. Weigend,N/A,N/A,Peru,Amazonas,Luya,N/A,"Dtto. Leymebamba, Carretera a Celendin, entre Ishpingo - Pomacocha. Bosque montano fragmentado.","Dtto. Leymebamba, Carretera a Celendin, entre Ishpingo - Pomacocha. Bosque montano fragmentado.",Bosque montano fragmentado,2800-3000 m,N/A,2211679,Typed,Isotype
0161_V0152152F.jpg,Manuel Rimachi Y.,M. Rimachi,N/A,4268,"February 8, 1979",1979-02-08,N/A,Nectandra krukovii (A.C. Smith) Kosterm.,Nectandra krukovii (A.C. Smith) Kosterm.,N/A,N/A,N/A,Peru,Loreto,Requena,N/A,"Requena. Dtto. Saquena. Rio Ucayali, Quebrada de Aucayacu, above Genaro Herrera, marginal rain forest, ""muena,"" 8 m fr. green.","Rio Ucayali, Quebrada de Aucayacu, above Genaro Herrera","marginal rain forest, ""muena""",N/A,N/A,N° 2058606,Typed,no type status
0162_V0190732F.jpg,Robin B. Foster,R.B. Foster,N/A,8752,13 Sept. 1982,1982-09-13,N/A,Aciotis venezuelanus (Pax & K. Hoffm.) Webster,Aciotis venezuelanus (Pax & K. Hoffm.) Webster,M.J. Huft,1983,N/A,Peru,Huánuco,N/A,N/A,"Pachitea; Puerto Inca to Sungaro, Forest trail between Rio Pachitea and Rio Sungaro, Forested low hills and ravines, alt. 250-300 m. Tingo María to Pucallpa.","Pachitea; Puerto Inca to Sungaro, forest trail between Rio Pachitea and Rio Sungaro",Forested low hills and ravines,alt. 250-300 m.,N/A,N° 1921102,Typed,no type status
0163_V0195906F.jpg,Percy Nuñez & S. Walsh,P. Nuñez,S. Walsh,s.n.,29 October 1986,1986-10-29,1986-10-29,Euphorbia heterophylla L.,Euphorbia heterophylla L.,M. J. Huft,1987,N/A,Peru,Cuzco,La Convención,N/A,"Quillabamba, Salsipampa","Quillabamba, Salsipampa",Herb 0.6 m; fruits green.,Alt. 1110 m,N/A,1982606,Typed,no type status
0164_V0201636F.jpg,"G. Tosi, Luna J., Ruiz R.",G. Tosi,"Luna J., Ruiz R.",138,18–8–81,1981-08-18,N/A,Ficus maxima P. Miller,Ficus maxima P. Miller,William C. Burger,1982,N/A,Peru,Loreto,N/A,N/A,"Quioscocha, 14 Km north of Iquitos",[precise locality unknown],N/A,600m elev,N/A,1923146,Typed,no type status
0165_V0239614F.jpg,Magda Chanco with Michelle McMahon and Larry Hufford,M. Chanco,"M. McMahon, L. Hufford",s.n.,14 April 2003,2003-04-14,2003-04-14,Abutilon sp.,Abutilon sp.,N/A,N/A,N/A,Peru,Cajamarca,N/A,Chilet,DEPTO. CAJAMARCA: Chilet-San Pablo road about 15 km from Chilet.,DEPTO. CAJAMARCA: Chilet-San Pablo road about 15 kilometers from Chilet,N/A,3614 feet elevation,N/A,2253555,Typed,no type status
0166_V0290180F.jpg,Jose Schunke,J. Schunke,N/A,9560,30 Mayo 1977,1977-05-30,N/A,"Palicourea ""Marco-Sueño""",Palicourea faxlucens Jacq.,D. Dyer,1980,N/A,Peru,San Martín,Mariscal Caceres,N/A,"San Patricio. Alonso de Alvarado. San Juan de Pacai sapo, km. 72 carretera Tarapoto-Yorongos.","Alonso de Alvarado, San Juan de Pacaisapo, km 72 on the Tarapoto-Yorongos road.","zona de bosque secundario, con abundante luz solar.",1000-1050 m,N/A,1872133,Typed,no type status
0167_V0414961F.jpg,Marcos Rios,M. Rios,N/A,4399,13 octubre 2014,2014-10-13,N/A,Andira macrothyrsa Ducke,Andira macrothyrsa Ducke,N/A,N/A,N/A,Peru,Loreto,Requena,Soplín,"Prov. Requena, Dto. de Soplín, Quebrada Yanayacu-Río Blanco, Campamento Wisuwëndë of inventario rápido 27, de la región Tampico-Blanco.","Prov. Requena, Dto. de Soplín, Quebrada Yanayacu-Río Blanco, Campamento Wisuwëndë of inventario rápido 27, de la región Tampico-Blanco.",Bosque de Planicie inundable aguas blancas,A.W. 90m,"05°33'S; 73°15'33""W",N° 2818558,Typed,no type status
0168_V0414962F.jpg,"Marcos Rios, Tony Mori, Nigel Pitman, Luis Torres, Corine Vriesendorp",M. Rios,"T. Mori, N. Pitman, L. Torres, C. Vriesendorp",499,13 octubre 2014,2014-10-13,N/A,Andira macrothyrsa Duke,Andira macrothyrsa Duke,N/A,N/A,N/A,Peru,Loreto,Requena,Quebrada Yanayacu-Río Blanco,"Prov Requena, Dtto de Soplin, Quebrada Yanayacu-Río Blanco, Campamento Wistincho del internado ríbalo #27, de la región Ticuna-Blanco","Prov Requena, Dtto de Soplin, Quebrada Yanayacu-Río Blanco, Campamento Wistincho del internado ríbalo #27, de la región Ticuna-Blanco",Bosque de Palme inundable de aguas blancas,Alt. 90m,"04°53'43""S 73°13'53""W",2318557,Typed,no type status
0169_V0441679F.jpg,D. R. Simpson & José Schunke V.,D.R. Simpson,J. Schunke V.,565,"January 4, 1968",1968-01-04,N/A,"Ipomoea carnea Jacq. (det. D. R. Simpson, Jan. 1969)",Ipomoea carnea Jacq.,D.R. Simpson,Jan. 1969,N/A,Peru,Depto. Tumbes,Prov. Tumbes,N/A,"Bosque Nacional de Tumbes: Región de ""bosque muy seco tropical"" (sensu Tosi, 1960) cerca de El Caucho entre El Caucho y Pampa de Hospital.","Bosque Nacional de Tumbes, near El Caucho between El Caucho and Pampa de Hospital","Common from the dry, deciduous forest zone, downward into the very dry thorn-scrub. Along the road about 10 km. northwest of El Caucho",N/A,N/A,1897948,Typed,no type status
0170_V0460617F.jpg,"J. Farfán, L. Valenzuela, I. Huamantupa, A. Carazas, L. Aragónía 1262",J. Farfán,"L. Valenzuela, I. Huamantupa, A. Carazas, L. Aragonia",1262,23 Octubre 2006,2006-10-23,N/A,Anthurium clavigerum Poepp.,Anthurium clavigerum Poepp.,Thomas B. Croat,2008,N/A,Peru,Cusco,La Convención,N/A,"Dist. Vilcabamba, Chuanguiri camino a Rioamba, Bosque secundario","Dist. Vilcabamba, Chuanguiri road to Rioamba, secondary forest","Bosque Secundario. Epífita, hasta 70 cm, espatice rojo, espata verde.",1009 m,"12°47'15""S 073°10'10""W",N°: 2315782,Typed,no type status
0171_V0462893F.jpg,Ynes Mexia,Y. Mexia,N/A,8265,"Oct. 9, 1936",1936-10-09,1936-10-09,Piper aduncum Ruiz & Pavon,Piper aduncum Ruiz & Pavon,N/A,s.d.,N/A,Peru,Huanuco,N/A,N/A,Near confluence Rio Chinchao with Huallaga; forested slope above road.,"Near confluence Rio Chinchao with Huallaga, forested slope above road",Forested slope above road,805 meters,N/A,1066596,Typed,no type status
0172_V0462895F.jpg,M. O. Dillon & A. P. D. de Dillon,M. O. Dillon,A. P. Dillon,6517,"Nov. 24, 1981",1981-11-24,N/A,Piper callosum Ruiz & Pav.,Piper callosum Ruiz & Pav.,Trelease,N/A,N/A,Peru,Departamento de Loreto,N/A,N/A,Above Pongo de Manseriche. Right bank of mouth of Río Santiago; dense forest.,Above Pongo de Manseriche. Right bank of mouth of Río Santiago,Dense forest,Alt. 200 meters,N/A,872277,Typed,no type status
0173_V0469643F.jpg,Thomas B. Croat,T.B. Croat,N/A,28120,"July 18, 1972",1972-07-18,N/A,Agave americana L.,Agave americana L.,N/A,N/A,N/A,Peru,Loreto,N/A,N/A,Sandy area 12-15 km. SW of Iquitos on road to Lago Quisto-cocha,Sandy area 12 to 15 kilometers southwest of Iquitos on road to Lago Quisto-cocha,From grass,N/A,N/A,1759629,Typed,no type status
0174_V0566108F.jpg,Ennin Abdo,E. Abdo,N/A,1026,1999,1999-00-00,N/A,Uvaria versicolor Pierre,Uvaria versicolor Pierre,N/A,N/A,N/A,Ghana,N/A,N/A,N/A,N/A,[precise locality unknown],N/A,N/A,N/A,2325285,Typed,no type status
0175_V0567164F.jpg,A. A. Enti,A.A. Enti,N/A,398,22 11/19,1919-11-22,1919-11-22,Pentarrhinum insipidum,Pentarrhinum insipidum,A.A. Enti,19 71,N/A,Ghana,N/A,N/A,N/A,Awu - Winneba road.,Awu - Winneba road,A climber among grasses.,Altitude:,N/A,1753348,Typed,no type status
0176_V0567306F.jpg,Sue A. Thompson,S.A. Thompson,N/A,1522,9 July 1984,1984-07-09,N/A,Impatiens macroptera Hook. f.,Impatiens macroptera Hook. f.,N/A,N/A,N/A,Cameroon,Prov. Sud-Ouest,Dept. Fako,Bakimililly,"Prov. Sud-Ouest, Dept. Fako: Bakimililly",Trail up Mt. Cameroon,growing on wet rocks,Alt. 50-250 m.,"4°04'N, 9°02'E",N° 2086046,Typed,no type status
0177_V0570110F.jpg,J. M. Fay 8271,J.M. Fay,N/A,8271,28 February 1988,1988-02-28,1988-02-28,Combretum smeathmannii G. Don,Combretum smeathmannii G. Don,Ake Assi,1988,N/A,Cameroon,N/A,N/A,N/A,"Along the Sangha River adjacent to the island of Kilonai. In riparian forest adjacent to seasonally flooded forest with Irvingia, Elaeis guineensis, and Berlinia spp. Prec: 1400 mm",Along the Sangha River adjacent to the island of Kilona,In riparian forest adjacent to seasonally flooded forest,N/A,02°21'N 16°09'E 385 m,2041248,Typed,no type status
0178_V0572217F.jpg,J. Deaw,J. Deaw,N/A,s.n.,"4, 1, 79",1979-01-04,N/A,Eugenia coronata,Eugenia coronata,N/A,N/A,N/A,Ghana,N/A,N/A,Accra,Accra,Accra,N/A,N/A,N/A,N/A,Typed,no type status
0179_V0574226F.jpg,J.M. Fay,J.M. Fay,N/A,8294,4 March 1988,1988-03-04,1988-03-04,Millettia zechiana Harms,Millettia zechiana Harms,De Assis,1998,N/A,Cameroon,N/A,N/A,N/A,"On the Sangha River across from Makao gorilla study area In seasonally flooded forest with Guibourtia demeusei, Pericopsis sp.",On the Sangha River across from Makao gorilla study area,"In seasonally flooded forest with Guibourtia demeusei, Pericopsis sp.",385 m,02°20'N 16°08'E,N/A,Typed,no type status
0180_V0574490F.jpg,Gordon McPherson,G. McPherson,N/A,13781,20 Mars 1989,1989-03-20,1989-03-20,Corynanthe mayumbensis (R. Good) N. Hallé,Corynanthe mayumbensis (R. Good) N. Hallé,N/A,N/A,N/A,Gabon,Ogooué-Ivindo,N/A,Reserve de Lope; au sud d'Ayem,Chantier SOGARA,Chantier SOGARA,N/A,c. 200 m,0°25'S 11°30'E,LF:4665-0223-G; RB:4665-0224-H; WD:4665-0225-I.,Typed,no type status
0181_V0577013F.jpg,M. de Wilde,M. de Wilde,N/A,20125,s.d.,N/A,N/A,Bulbophyllum scaberulum (Rolfe) Bolus var. scaberulum,Bulbophyllum scaberulum (Rolfe) Bolus var. scaberulum,Olga Kosenkovsky,2011,N/A,Gabon,N/A,N/A,N/A,"Primary rain forest, ca 6 km NW of Oveny, chantier Rougier Océan. 0°41'N x 11°07'E","Primary rain forest, approximately 6 kilometers northwest of Oveny, chantier Rougier Océan","Epiphytic orchid, growing in big clumps on the tree",N/A,0°41'N x 11°07'E,2310219,Handwritten,no type status
0182_V0577681F.jpg,C.J.P. Seegeler,C.J.P. Seegeler,N/A,2806,d.d.: 23 October 1972,1972-10-23,1972-10-23,Vernonia amygdalina Del.,Vernonia amygdalina Del.,G.J.H. Amshoff,1982,N/A,Ethiopia,N/A,N/A,Nazareth,"Ethiopian : Sidamo, 3 km from Matahara, on road to Nazareth, In full sun on a clay rock.","Ethiopian: Sidamo, 3 km from Matahara, on road to Nazareth",In full sun on a clay rock,925m,"8° 35'N, 39° 55'E",2302805,Typed,no type status
0183_V0577892F.jpg,Carvalho 2102,N/A,N/A,2102,26-VII-1980,1980-07-26,N/A,Mariscus alternifolius Vahl,Mariscus alternifolius Vahl,C. Cebolla & M.A. Rivas Ponce (UAM),1995,N/A,Equatorial Guinea,Bioco,N/A,N/A,"""Bioco: <<Malabo, finca las Carboneras, 32NMK7415, m. Bosque secundario y terrenos incultos. Herbácea, 20-30 cm>>, Carvalho 2102, 26-VII-1980.""","Malabo, finca las Carboneras",Bosque secundario y terrenos incultos,N/A,32NMK7415,N/A,Typed,no type status
0184_V0578553F.jpg,C. Cebolla & M.A. Rova Ponce,C. Cebolla,M.A. Rova Ponce,s.n.,5-11-1989,1989-11-05,N/A,Agrostis manii (Hooker fil.) Stapf,Agrostis manii (Hooker fil.) Stapf,C. Cebolla & M.A. Rova Ponce,1993,N/A,Equatorial Guinea,Bioco,N/A,N/A,"cumbr de pico Basilé, 32NMJ7396, 2370 m, márgenes de la pista, Fernández Casas 1/200, 5-11-1989.",cumbre de pico Basile,N/A,2370 m,32NMJ7396,2200806,Typed,no type status
0185_V0578764F.jpg,E. B. Hennipman & F. N. Hepper,E.B. Hennipman,F.N. Hepper,2,"June 5-8, 1977",1977-06-05,1977-06-08,N/A,N/A,N/A,N/A,N/A,Kenya,Nairobi,N/A,Mathiaga,"Mathiaga, near Nairobi","Mathiaga, near Nairobi",N/A,alt. 1700 meters,N/A,2074762,Typed,no type status
0186_V0580026F.jpg,H. Callens,H. Callens,N/A,s.n.,Juillet 1958,1958-07-00,1958-07-00,Aidia micrantha (Hochst.) Dyer,Aidia micrantha (Hochst.) Dyer,H. Callens,1/9/58,N/A,"Congo (current name of the country may vary depending on the specific area referred to in 1958, as Congo has undergone significant political changes since then. It may either refer to the Democratic Republic of Congo or the Republic of Congo.)",N/A,N/A,Kisantu,Kisantu,Kisantu,N/A,N/A,N/A,1584065,Typed,no type status
0187_V0580516F.jpg,G. Troupin,G. Troupin,N/A,6333,10/7/1958,1958-07-10,N/A,Microglossa pyrifolia (Lam.) Kuntze,Microglossa pyrifolia (Lam.) Kuntze,N/A,N/A,N/A,Democratic Republic of the Congo,Kivu,Rutshuru,Kilambo,"Territ. Rutshuru, près du 119e pylône Kaminia-Kilambo, relais T.S.F.C.","near the 119th pylon between Kaminia and Kilambo, TSFC relay",Forêt ombrophile,Alt. 1950 m,N/A,1543353,Typed,no type status
0188_V0580728F.jpg,F. N. Hepper,F.N. Hepper,N/A,199,29.vii.1959,1959-07-29,N/A,Phaseolus lunatus L.,Phaseolus lunatus L.,N/A,N/A,N/A,Cameroon,N/A,N/A,N/A,"South West of Crater Lake. Clearing in wood, scrambling over herbage",South West of Crater Lake,"Clearing in wood, scrambling over herbage",N/A,N/A,N/A,Typed,no type status
0189_V0591661F.jpg,D.W. Thomas,D.W. Thomas,N/A,6680,1987,1987-00-00,N/A,Cola flavovelutina K. Schum,Cola flavovelutina K. Schum,D.W. Thomas,1987,N/A,Cameroon,Southwest,N/A,N/A,"PRCV, Southwest; Korup National Park. Primary rain forest","Korup National Park, primary rain forest",Primary rain forest,600 m,05°02'N 08°50'E,2041255,Typed,no type status
0190_V0594158F.jpg,A. Leonard,A. Leonard,N/A,3149,29/5/1959,1959-05-29,N/A,Oxyanthus speciosus DC. subsp. stenocarpus (Engl.) Bridson,Oxyanthus speciosus DC. subsp. stenocarpus (Engl.) Bridson,Bridson,30.XI.1989,N/A,Democratic Republic of the Congo,Haut-Uele,N/A,N/A,Wamba,Wamba,Vieille forêt secondaire,1900m,N/A,N/A,Typed,no type status
0191_V0594376F.jpg,J.M. Fay,J.M. Fay,N/A,8017,25 May 1987,1987-05-25,N/A,Burkea africana Hook.,Burkea africana Hook.,J.M. Fay,N/A,N/A,Central African Republic,N/A,N/A,N/A,Park Manovo-Gounda-St. Floris. Vicinity of Camp Koumbala.,[precise locality unknown],N/A,600 m,08°29'N 21°12'E,Field number 1999188,Typed,no type status
0192_V0597275F.jpg,P.C.M. Jansen,P.C.M. Jansen,N/A,s.n.,s.d.,s.d.,N/A,Cirsium vulgare (Savi) Ten.,Cirsium vulgare (Savi) Ten.,C.C.H. Jongkind,d.d. 14 April 1976,N/A,Ethiopia,Harerge,N/A,around Damota Village,"ETHIOPIA, HARERGE, around Damota Village, near Alema Brewery, between chat and sorghum fields.","around Damota Village, near Alema Brewery, between chat and sorghum fields",N/A,c. 2040m,N/A,N° 2302849,Typed,no type status
0193_V0597626F.jpg,"Amanda Koch, Wilson Sadoka, AK61",A. Koch,W. Sadoka,AK61,"October 22, 2003",2003-10-22,N/A,Acacia reficiens merissa (Vatke) Brenan,Acacia reficiens merissa (Vatke) Brenan,P. Muthoka,"November 02, 2003",N/A,Kenya,Kajiado District,N/A,Oloishobor,Kenya: Kajiado District:Oloishobor,Oloishobor,Dry bushland,N/A,N/A,2309478,Handwritten,No type status
0194_V0601010F.jpg,James T. Allen,J.T. Allen,N/A,41,"September 23, 1996",1996-09-23,1996-09-23,Dissotis rotundifolia (Sm.) Triana,Dissotis rotundifolia (Sm.) Triana,N/A,N/A,N/A,Ghana,Volta Region,N/A,N/A,Larteh; Center for Scientific Research into Plant Medicine (CSRPM) farm,Larteh; Center for Scientific Research into Plant Medicine (CSRPM) farm,N/A,N/A,N/A,2200652,Typed,no type status
0195_V0601406F.jpg,T.C. Wrigley & Hukinsville,T.C. Wrigley,Hukinsville,52,19 July 1959,1959-07-19,1959-07-19,Cassipourea malosana (Bak.f.) Alston,Cassipourea malosana (Bak.f.) Alston,A.W. Exell,1961,N/A,Cameroon,N/A,N/A,N/A,"ARTHROBI Ridge west of Crater Lake, Alt 1200ft",Ridge west of Crater Lake,Open woodland,Alt 1200ft,N/A,1624568,Typed,no type status
0196_V0602418F.jpg,J. E. Amoah,J.E. Amoah,N/A,5632,March 1952,1952-03-00,1952-03-00,Chaesophyllum perpulchrum Mildbr.,Chaesophyllum perpulchrum Mildbr.,N/A,N/A,N/A,Ghana,Ashanti Region,Kumasi District,N/A,Kumasi Township Forest Reserve,Kumasi Township Forest Reserve,N/A,N/A,N/A,1601919,Typed,no type status
0197_V0603038F.jpg,F. Szafranski,F. Szafranski,N/A,1378,5.2.1988,1988-02-05,1988-02-05,Commelina clavata (Roxb.) Hassk.,Commelina clavata (Roxb.) Hassk.,N/A,N/A,N/A,Democratic Republic of the Congo,Haut-Zaïre,N/A,Isiro,"Haut-Zaïre, S-Reg. Haut-Uele, Isiro",Isiro,bas fond marécageux près de la route aux environs de l'usine SOCODIA,N/A,N/A,N/A,Typed,no type status
0198_V0604513F.jpg,J. Nemba & D.W. Thomas,J. Nemba,D.W. Thomas,s.n.,15 June 1987,1987-06-15,N/A,Donella welwitschii Pierre ex Engl.,Donella welwitschii Pierre ex Engl.,D.W. Thomas,1987,N/A,Cameroon,Southwest,N/A,N/A,Secondary growth and old growth forest along Kumba-Mamfe road at the 14 & 15 km.,Secondary growth and old growth forest along Kumba-Mamfe road at the 14 and 15 kilometers,Secondary growth and old growth forest,200 m,04°44'N 09°29'E,NCI Leaves: Stems 066/0052-L,Typed,no type status
0199_V0605928F.jpg,Sue A. Thompson & John E. Rawlins,S.A. Thompson,J.E. Rawlins,1333,3 June 1984,1984-06-03,N/A,Avicennia africana P. Beauv.,Avicennia africana P. Beauv.,N/A,N/A,N/A,Cameroon,Sud-Ouest,Fako,Bakingili,Prov. Sud-Ouest; Dept. Fako: Bakingili;,Prov. Sud-Ouest; Dept. Fako: Bakingili,Seaside,Alt. 0 m.,N/A,2088074,Typed,no type status
0200_V0606178F.jpg,R.B. & A.J. Faden,R.B. Faden,A.J. Faden,77/111,7 March 1977,1977-03-07,N/A,Toddaliopsis bremekampii (Engl.) B. Engl. confirmed J.O. Kokwaro,Toddaliopsis bremekampii (Engl.) B. Engl.,J.O. Kokwaro,N/A,N/A,Kenya,Kwale District,N/A,N/A,"Kwale District, Chale Peninsula, ca. 4°25'S, 39°32'E",Chale Peninsula,Coastal rag forest,ca. 5m,N/A,2153520,Typed,no type status
0201_V0607965F.jpg,D.W. Thomas,D.W. Thomas,N/A,6988,18 May 1987,1987-05-18,N/A,Taphura africana Oliv.,Taphura africana Oliv.,D.W. Thomas,1987,N/A,Cameroon,Southwest,N/A,N/A,"Degraded forest at Barombi Kang, Kumba",[precise locality unknown],Degraded forest,150 m,04°36'N 09°27'E,2040825,Typed,no type status