Image,verbatimCollectors,collectedBy,secondaryCollectors,recordNumber,verbatimEventDate,minimumEventDate,maximumEventDate,verbatimIdentification,latestScientificName,identifiedBy,verbatimDateIdentified,associatedTaxa,country,firstPoliticalUnit,secondPoliticalUnit,municipality,verbatimLocality,locality,habitat,verbatimElevation,verbatimCoordinates,otherCatalogNumbers,originalMethod,typeStatus
0000_C0020034F.jpg,R. M. Schuster,R. M. Schuster,N/A,68-1644,Aug. 17 68,1968-08-17,N/A,Anastrophylum minutum + gemm.,Anastrophylum minutum,R. M. Schuster,s.d.,Diplophyllum taxifolium,Canada,Newfoundland and Labrador,N/A,N/A,"Along Humber R., in Squires Memorial Park, near Rte 1A.","Along Humber River, in Squires Memorial Park, near Route 1A",[No habitat information provided],[No elevation information provided],[No coordinates provided],N/A,Typed,no type status
0001_C0020052F.jpg,R. M. Schuster & K. Damsholt,R. M. Schuster,K. Damsholt,82-1049,July 3.,1982-07-03,N/A,Anastrophylum minutum (SCHREB.)SCHUST. v.grandis (GOTT.)SCHUST.,Anastrophylum minutum,R. M. Schuster,1982,Cephalozia bicuspidata,Greenland,N/A,N/A,Frederiksdal,"Frederiksdal 60°00'N lat., 44°40'W. long.",[precise locality unknown],N/A,N/A,"60°00'N lat., 44°40'W. long.",S1,Typed,no type status
0002_C0025138F.jpg,R. M. Schuster,R. M. Schuster,N/A,9067,June 30 19 51,1951-06-30,N/A,"Frullania asagrayana Mont., male, can per. Plagiochila tridenticulata Dum. (traces)",Frullania asagrayana | Plagiochila tridenticulata,N/A,N/A,N/A,United States of America,North Carolina,N/A,N/A,"Balsam Gap, N.C., ca. 25 mi. n. of Asheville, along Blue Ridge Parkway","Balsam Gap, approximately 25 miles north of Asheville, along Blue Ridge Parkway",on Abies fraseri,5220-5260 feet,N/A,N/A,Typed,no type status
0003_C0025164F.jpg,R. M. Schuster,R. M. Schuster,N/A,79-488,April 14 79,1979-04-14,N/A,Frullania asagrayana,Frullania asagrayana,R. M. Schuster,N/A,N/A,United States of America,Arkansas,Stone,Big Flat,"Ozark Natl. Forest. Barkshed Camp, ca. 10 mi E. of Big Flat.","Ozark National Forest, Barkshed Camp, approximately 10 miles east of Big Flat",N/A,N/A,N/A,N/A,Typed,no type status
0004_C0000578F.jpg,"John J. Engel, Matt von Konrat & John E. Braggins",J. J. Engel,M. von Konrat | J. E. Braggins,23773,12 February 2003,2003-02-12,N/A,Telaranea lindenbergii var. papillata Engel & Merr.,Telaranea lindenbergii var. papillata,Engel & Merr.,N/A,Blechnum novae-zelandiae | Weinmannia | Dicksonia squarrosa | Leptospermum scoparium,New Zealand,Auckland,N/A,s.n.,"NORTH ISLAND, AUCKLAND PROV.: Whareorino Forest, start of track to Leitch's Hut","Whareorino Forest, start of track to Leitch's Hut",On clayey bank,280 m,"38° 24.5' S, 174° 49.8' E",1173554,Typed,holotype
0005_C2077563F.jpg,E. Andre,E. Andre,N/A,4659,s.d.,s.d.,N/A,Hedwigia ciliata (Hedw.) P. Beauv.,Hedwigia ciliata,Efrain De Luna,1992,N/A,Ecuador,N/A,N/A,N/A,environs de Quito,environs de Quito,N/A,s.n.,s.n.,1039453,Typed,no type status
0006_C2077566F.jpg,Marko Lewis,M. Lewis,N/A,no. 79-1237A,22 March 1979,1979-03-22,N/A,Hedwigia ciliata (Hedw.) P. Beauv.,Hedwigia ciliata,E. De Luna,1992,N/A,Bolivia,La Paz,Larecaja,Sorata,Near large red out-crop 2 mi. from Sorata town Rio Consata,near large red outcrop 2 miles from Sorata town Rio Consata,Bromeliad habitat. Abundant on rock faces of exposed cliffs,2630 m.,N/A,1032221,Typed,no type status
0007_C2077567F.jpg,Marko Lewis,M. Lewis,N/A,79-1232,22 March 1979,1979-03-22,N/A,Hedwigia ciliata (Hedw.) P. Beauv.,Hedwigia ciliata,E. De Luna,1982,N/A,Bolivia,La Paz,Larecaja,Sorata,"DEPTO. LA PAZ, PROV. LARECAJA: Near large red outcrop 2 mi. from Sorata down Río Consata, ""15° 41' S, 68° 43' W.""",Near large red outcrop 2 miles from Sorata down Río Consata,Bromeliad-grass habitat on exposed cliffs,2630 m.,"""15° 41' S, 68° 43' W.""",1032219,Typed,no type status
0008_C2077568F.jpg,Marko Lewis,M. Lewis,N/A,79-1114,6 March 1979,1979-03-06,N/A,Hedwigia ciliata (Hedw.) P. Beauv.,Hedwigia ciliata,E. De Luna,1992,N/A,Bolivia,La Paz,Saavedra,N/A,"On mountain side directly N. of river, beneath Nino Kariñe, NW of Chuma, 15° 08' S., 69° 03' W.","On mountain side directly north of river, beneath Nino Kariñe, northwest of Chuma",Humid cliffs and steep slopes,3320 m,"15° 08' S., 69° 03' W.",1032220,Typed,no type status
0009_C2077569F.jpg,F. J. Hermann,F. J. Hermann,N/A,25152,"December 27, 1972",1972-12-27,N/A,Hedwigia ciliata (Hedw.) P. Beauv.,Hedwigia ciliata,E. A. Luna,1982,N/A,Bolivia,Cochabamba,N/A,N/A,"On conglomerate boulder on shrubby NW slope of Mt. Tunari, near Liriuni Aguas Termales Hotel, alt. ca. 2700 m., 28 km. NW. Cochabamba","On conglomerate boulder on shrubby northwest slope of Mount Tunari, near Liriuni Aguas Termales Hotel",On conglomerate boulder on shrubby northwest slope,ca. 2700 m.,N/A,1040675,Typed,no type status
0010_C2077570F.jpg,Ynes Mexia,Y. Mexia,N/A,6804,"Dec. 2, 1931",1931-12-02,N/A,Philonotis subtheriophyllum C. Müll.,Philonotis subtheriophyllum,N/A,N/A,N/A,Peru,Loreto,N/A,N/A,Above Pongo de Manseriche. Streamlet near mouth of Rio Santiago.,"Above Pongo de Manseriche, streamlet near mouth of Rio Santiago",On fallen log,Alt. 400 m.,N/A,1057692,Typed,no type status
0011_C2077571F.jpg,Ynes Mexia,Y. Mexia,N/A,6804,"Dec. 9, 1931",1931-12-09,N/A,Philonotis subulata (Schwägr.) Brid. det. Bartram,Philonotis subulata,N/A,N/A,N/A,Peru,Loreto,N/A,N/A,Above Pongo de Manseriche,Above Pongo de Manseriche,[precise locality unknown],Alt. 400 m.,N/A,N/A,Typed,no type status
0012_C2077573F.jpg,J. Fluorschütz-de Waard & R. Zielman,J. Fluorschütz-de Waard,R. Zielman,s.n.,5-12-1981,1981-12-05,N/A,Pilotrichum ochrophyllum (Hornsch.) C. Müll.,Pilotrichum ochrophyllum,N/A,N/A,Cecropia (boopapaja),Suriname,Nickerie,N/A,N/A,"area of Kabalebo Dam project, distr. Nickerie, SW from road km 39.5, p. Second quarry","area of Kabalebo Dam project, southwest from road kilometer 39.5, point Second quarry",on rotting log,ALT. 0-50 m,N/A,1075252,Typed,no type status
0013_C2077574F.jpg,J. Florschütz-de Waard & R. Ziemann,J. Florschütz-de Waard,R. Ziemann,5254,3-11-1981,1981-11-03,N/A,Pilotrichum chlorophyllum (Hornsch.) C. Müll.,Pilotrichum chlorophyllum,Ziemann,s.d.,N/A,Suriname,N/A,N/A,N/A,"area of Kabalebo Dam project, altavr. Mickerie, line NW from road km 39.5, P. 51 SWQ, SE, Savanna forest, on rotting log.","area of Kabalebo Dam project, line Northwest from road kilometer 39.5","Savanna forest, on rotting log",0 - 50 m,N/A,1073529,Typed,no type status
0014_C2077575F.jpg,J. Fluweelchtst-de Waard & R. Zielman,J. Fluweelchtst-de Waard,R. Zielman,s.n.,3-10-1981,1981-10-03,N/A,Pilotrichum chlorophyllum (Hornsch.) Mitt.,Pilotrichum chlorophyllum,R. Zielman,3-10-1981,N/A,Suriname,Nickerie,N/A,N/A,"Area of Kabalebo Dam Project, distr. Nickerie, line W from road 34 km, P. 5°N 60 cp, SE, Rainforest, on rotting log.","Area of Kabalebo Dam Project, line West from road 34 kilometers","Rainforest, on rotting log",0 - 50 m.,"5°N 60 cp, SE",1073528 | 1001008,Typed,no type status
0015_C2077576F.jpg,"J. C. Lindeman, R. A. A. Oldeman, M. Jansen-Jacobs & A. L. Stoffers",J. C. Lindeman,R. A. A. Oldeman | M. Jansen-Jacobs | A. L. Stoffers,243 A,3-II-1980,1980-02-03,N/A,Philonotis chlorophylla (Hornsch.) C. Müll.,Philonotis chlorophylla,E. T. St. L.,27-II-1980,N/A,Suriname,Nickerie,N/A,N/A,"Area of Kabalebo Dam Project, distr. Nickerie",area of Kabalebo Dam Project,"Forest at km 28, epiphyte on tree trunk",Alt.; 30 - 130 m.,"4°50' N, 57°30' W",1073527,Typed,no type status
0016_C2077577F.jpg,J. Fluorschütz-de Waard and R. Zielman 5141,J. Fluorschütz-de Waard,R. Zielman,5141,31 October 1981,1981-10-31,N/A,Pilotum chlorophyllum (Hornsch.) C. Müll.,Pilotum chlorophyllum,R. Zielman,N/A,N/A,Suriname,Distr. Nickerie,N/A,Kabalebo river area,"1 line W. on from road km 34, 58W",1 line west on from road kilometer 34,Decaying log in marsh forest with Astrocaryum,alt. 0-50 m.,"5N, 58W",1 679863,Typed,no type status
0017_C2077578F.jpg,J. and P.A. Florschütz,J. Florschütz,P.A. Florschütz,4690,18 December 1975,1975-12-18,N/A,Pilosium chlorophyllum (Hornsch.) C. Muell.,Pilosium chlorophyllum,R. Ziemann | J. Florschütz-de Weard,N/A,N/A,Suriname,Brokopondo,N/A,N/A,"Brownsberg, trail to Leo Val","Brownsberg, trail to Leo Val",On rotting log in rainforest.,ca. 500 m.,N/A,N/A,Typed,no type status
0018_C2077579F.jpg,H. Cornelissen & S. R. Gradstein,H. Cornelissen,S. R. Gradstein,C076,8 March 1977,1977-03-08,N/A,Pilotrichum chlorophyllum (Hornsch.) C. Müll.,Pilotrichum chlorophyllum,J. Florschütz-de Waard,det. J. Florschütz-de Waard,N/A,Guyana,N/A,N/A,N/A,"Mahdia Hill, 180 km S of Georgetown, 5°20'N 58°40'W, alt. 0-50 m","Mahdia Hill, 180 kilometers south of Georgetown",On rotting tree base in mixed rain forest,alt. 0-50 m,5°20'N 58°40'W,1601586,Typed,no type status
0019_C2077582F.jpg,Richard Evans Schultes et Isidoro Cabrera,R. E. Schultes,I. Cabrera,14934,"October 4-6, 1951",1951-10-04,1951-10-06,Pilotrichum chlorophyllum (Hornsch.) C. Muell.,Pilotrichum chlorophyllum,H. A. Crum,1956,N/A,Colombia,Vaupés,N/A,N/A,"Rio Kuduyari (affluent of Rio Vaupés), Yapobodá, quartzite savannah.","Rio Kuduyari, Yapobodá",quartzite savannah,N/A,N/A,N/A,Typed,no type status
0020_C2077584F.jpg,Richard Evans Schultes,R. E. Schultes,N/A,11228,Dec. 1950,1950-12-00,N/A,Pilotrichum clorophylum (Hnsch.) C. Muell. in Broth.,Pilotrichum chlorophyllum,D. G. Griffin III,N/A,N/A,Colombia,N/A,N/A,San Jose del Guaviare,San Jose del Guaviare,San Jose del Guaviare,N/A,N/A,N/A,1055489,Typed,no type status
0021_C2077585F.jpg,Ynes Mexia,Y. Mexia,N/A,6014,"Aug. 31, 1931",1931-08-31,N/A,Tillandsia chlorophylla (Hitchc.) C.B.T. Smith,Tillandsia chlorophylla,N/A,N/A,N/A,Brazil,Acre,N/A,N/A,"Districto Acre, Thaumaturgo, down Rio Acre","Districto Acre, Thaumaturgo, down Rio Acre",On fallen log,N/A,N/A,N/A,Handwritten,no type status
0022_C2077586F.jpg,Ynes Mexia,Y. Mexia,N/A,5914,"July 16, 1931",1931-07-16,N/A,Pilotrichum chlorophyllum (Schwgr.) C. Muell.,Pilotrichum chlorophyllum,N/A,N/A,N/A,Brazil,Pará,N/A,N/A,"District of Açú, Thorn Assoc., Japanese Colony.","District of Açú, Thorn Association, Japanese Colony",On rotting log in woods,Alt. about 30 m,N/A,870829,Typed,no type status
0023_C2078862F.jpg,"Dana Griffin III, Manuel Lopez",D. Griffin III,M. Lopez,PV-1525,30 marzo 1985,1985-03-30,N/A,Brachythecium plumosum (Hedw.) BSG,Brachythecium plumosum,N/A,N/A,N/A,Venezuela,Trujillo,N/A,N/A,"Páramo de Guirigay, arriba del pueblo de La Placita. Entre las Quebradas La Hacienda, Las Tapias y El Barro, el páramo de Guirigay","Páramo de Guirigay, above the town of La Placita, between Quebradas La Hacienda, Las Tapias, and El Barro, the paramo of Guirigay","Sobre roca húmeda, lecho de riachuelo, a sol",N/A,N/A,1064449,Typed,no type status
0024_C2078913F.jpg,P. Dusén,P. Dusén,N/A,5872,22 February 1897,1897-02-22,N/A,Brachythecium albicans (Hedw.) Schimp.,Brachythecium albicans,W. R. Buck,N/A,N/A,Chile,Patagonia occidental,N/A,Cerro Colorado,"Patagonia occidental, Cerro Colorado",Cerro Colorado,N/A,N/A,N/A,B11749,Typed,no type status
0025_C2078924F.jpg,Ynes Mexia,Y. Mexia,N/A,s.n.,"April 10, 1936",1936-04-10,N/A,Brachythecium australe-cinerascens (C. Muell.) Kindb.,Brachythecium australe-cinerascens,K. D. McFarland,Sept 1982,N/A,Chile,Magallanes,N/A,N/A,"Territorio Magallanes, Last Hope Inlet; Peninsula Antonio Varas; Openings in Nothofagus wood in moist earth",[precise locality unknown],Openings in Nothofagus wood in moist earth,Alt. 25 m.,N/A,1038758,Typed,no type status
0026_C2078925F.jpg,Marko Lewis,M. Lewis,N/A,79-2108,25 May 1979,1979-05-25,N/A,Brachythecium cf. colligonoides Broth. in Herz.,Brachythecium colligonoides,R. Ochyra,February 1982,N/A,Bolivia,Oruro,Sajama,N/A,"DEPTO. ORURO, PROV. SAJAMA: Rio Juntuma Khuchu, 2 mi. down river from Aguas termales de Rio Juntuma Khuchu.","Rio Juntuma Khuchu, 2 miles down river from Aguas termales de Rio Juntuma Khuchu",N/A,4350 m,"18°07' S, 69°00' W",1049405,Typed,no type status
0027_C2078926F.jpg,Marko Lewis,M. Lewis,N/A,79-2109,25 May 1979,1979-05-25,N/A,Brachythecium calliogonoides Broth.,Brachythecium calliogonoides,R. Ochyra,1982,N/A,Bolivia,Oruro,N/A,N/A,"DEPTO. ORURO, PROV. SAJAMA: Rio Juntuma Khuchu, 2 mi. down river from Aguas Termales de Rio Juntuma Khuchu","Rio Juntuma Khuchu, 2 miles down river from Aguas Termales de Rio Juntuma Khuchu",In warmish creek,4350 m,N/A,1049406,Typed,no type status
0028_C2078927F.jpg,Marko Lewis,M. Lewis,N/A,79-2112,25 May 1979,1979-05-25,N/A,Brachythecium camptoneuron Broth. in Herz.,Brachythecium camptoneuron,E. Ochyra,1982,N/A,Bolivia,Oruro,N/A,N/A,"DEPTO. ORURO, PROV. SAJAMA: Rio Juntuma khuchu, 2 mi. down river from Aguas termales de Rio Juntuma Khuchu, 4350 m. 18°07' S, 69°00' W. In warmish creek.","Rio Juntuma Khuchu, 2 miles down river from Aguas termales de Rio Juntuma Khuchu",In warmish creek,4350 m,"18°07' S, 69°00' W",1049407,Typed,no type status
0029_C2078928F.jpg,"Marko Lewis, n°79-2115",M. Lewis,N/A,79-2115,25 May 1979,1979-05-25,N/A,Brachythecium callirgoneoides Broth. in Herz.,Brachythecium callirgoneoides,R. Ochyra,1982,N/A,Bolivia,Oruro,N/A,Sajama,"DEPTO. ORURO, PROV. SAJAMA: Río Jhuntuuma Khuchu, 2 mi. down river from Aguas termales de Rio Jhuntuuma Khuchu, 4350 m, 18°07' S, 69°00' W. In warmish creek.","Río Jhuntuuma Khuchu, 2 miles down river from Aguas termales de Rio Jhuntuuma Khuchu, in warmish creek",N/A,4350 m,"18°07' S, 69°00' W",1049409,Typed,no type status
0030_C2078929F.jpg,Marko Lewis,M. Lewis,N/A,79-2117,25 May 1979,1979-05-25,N/A,Brachythecium calliergonoides Broth. in Herz.,Brachythecium calliergonoides,R. Ochyra,1982,N/A,Bolivia,Oruro,N/A,N/A,"DEPTO. ORURO, PROV. SAJAMA: Rio Jhutuma Khuchu, 2 mi. down river from Aguas termales De Rio Juchuma Khuchu, 4350 m.","Rio Jhutuma Khuchu, 2 miles down river from Aguas termales De Rio Juchuma Khuchu",In warmish creek,4350 m.,"18°07' S, 69°00' W",1049410,Typed,no type status
0031_C2078930F.jpg,"Marko Lewis, nro-79-2118",M. Lewis,N/A,nro-79-2118,25 May 1979,1979-05-25,N/A,Brachythecium calliergonoides Broth. in Herz.,Brachythecium calliergonoides,E. Ochyra,1982,N/A,Bolivia,Oruro,N/A,N/A,"DEPTO. ORURO, PROV. SAJAMA: Rio Juntuma khumo, 2 km. down river from Aguas termales de Rio Juntuma khuchu, 4350 m.; 18° 07' S, 69° 00' W. In wirsh marsh creek.","Rio Juntuma khumo, 2 kilometers down river from Aguas termales de Rio Juntuma khuchu, in wirsh marsh creek.",N/A,4350 m.,"18° 07' S, 69° 00' W",1049411,Typed,no type status
0032_C2078931F.jpg,Marko Lewis,M. Lewis,N/A,79-2107,25 May 1979,1979-05-25,N/A,Brachythecium callirgonoides Broth. in Herz.,Brachythecium callirgonoides,R. Ochyra,1982,N/A,Bolivia,Oruro,N/A,N/A,"DEPTO. ORURO, PROV. SAJAMA: Río Juntuma Khuchu, 2 mi. down river from Aguas termales de Río Juntuma Khuchu","Río Juntuma Khuchu, 2 miles down river from Aguas termales de Río Juntuma Khuchu",In warmish creek,4350 m.,"18° 07' S, 69° 00' W",1049404,Typed,no type status
0033_C2078932F.jpg,"Marko Lewis, leg. 79-2119",M. Lewis,N/A,79-2119,25 May 1979,1979-05-25,N/A,Brachythecium callitrichoides Broth. in Herz.,Brachythecium callitrichoides,R. Ochyra,1982,N/A,Bolivia,Oruro,N/A,N/A,"DEPTO. ORURO, PROV. SAJAMA: Rio Juthuma Khuchu, 2 mi. down river from Aguas termales de Rio Juchuma Khuchu","Rio Juthuma Khuchu, 2 miles down river from Aguas termales de Rio Juchuma Khuchu",In warnish creek,4380 m.,"17° 05', 69° 00' W",1049412,Typed,no type status
0034_C2079350F.jpg,Ynes Mexia,Y. Mexia,N/A,6149,"Nov. 23, 1931",1931-11-23,N/A,Vesicularia amphipholia (Spr.) Broth.,Vesicularia amphipholia,N/A,N/A,N/A,Peru,Loreto,N/A,N/A,Above Pongo de Manseriche. Left bank of Rio Santiago.,"Above Pongo de Manseriche, left bank of Rio Santiago",On stone in overflow forest,Alt. 200 m.,N/A,873368,Typed,no type status
0035_C2079351F.jpg,N/A,N/A,N/A,s.n.,s.d.,1931-10-25,N/A,Vesicularia umbilicata (Spr.) Broth.,Vesicularia umbilicata,E. Bartram,N/A,N/A,Peru,Loreto,N/A,N/A,"Above Pongo de Manseriche, Right bank of Rio Santiago.","Above Pongo de Manseriche, right bank of Rio Santiago",Dense forest on log.,Alt. 200 m.,N/A,873367,Typed,no type status
0036_C2079352F.jpg,Ynes Mexia,Y. Mexia,N/A,6217-a,"Dec 4, 1931",1931-12-04,N/A,Vesicularia amphipoda (Spr.) Broth.,Vesicularia amphipoda,N/A,N/A,N/A,Peru,Loreto,N/A,N/A,Above Pongo de Manseriche. Streamlet on right bank of Rio Santiago.,"Above Pongo de Manseriche, streamlet on right bank of Rio Santiago.",On rocks wet by spray.,Alt. 250 m.,N/A,N/A,Typed,no type status
0037_C2079353F.jpg,Ynes Mexia,Y. Mexia,N/A,s.n.,"Dec. 12, 1931",1931-12-12,N/A,Vesicularia denticulata (Brid.) Broth.,Vesicularia denticulata,Bartram,N/A,N/A,Peru,Loreto,N/A,N/A,"Above Pongo de Manseriche, Grocet Carapasbas, ""OG in forests.""","Above Pongo de Manseriche, Grocet Carapasbas, in forests",In forests,Alt. 215 m.,N/A,870867,Mix of Handwritten and Typed,no type status
0038_C2079354F.jpg,Ynes Mexia,Y. Mexia,N/A,6354,"Jan. 3, 1932",1932-01-03,N/A,Vesicularia sphagnicola (Spr.) Broth.,Vesicularia sphagnicola,J. Bartram,N/A,N/A,Peru,Loreto,N/A,N/A,"Above Pongo de Manseriche, Crece Inchino","Above Pongo de Manseriche, On earth collected on inclined tree trunk",Crece Inchino,Alt. 215 m.,N/A,873369,Typed,no type status
0039_C2079355F.jpg,Ynes Mexia,Y. Mexia,N/A,6375A,"Jan. 3, 1932",1932-01-03,N/A,Vesicularia amphibola (Spr.) Broth. +Taxithelium planum (Brid.) Mitt.,Vesicularia amphibola,N/A,N/A,Taxithelium planum,Peru,Loreto,N/A,s.n.,"Above Pongo de Manseriche, Dreek Inche.","Above Pongo de Manseriche, Creek Inche, on rotten log.",on rotten log.,Alt. 215 m.,N/A,1039121,Typed,no type status
0040_C2079356F.jpg,Ynes Mexia,Y. Mexia,N/A,6379a,"Jan. 3, 1939.",1939-01-03,N/A,Fuscoletium dimorphotrichum (Spruce) Burch,Fuscoletium dimorphotrichum,Burch,N/A,Orthotrichum plenum (Spruc.) Mitt.,Peru,Loreto,N/A,N/A,Above Pongo de Manseriche,Above Pongo de Manseriche,On rotten log,Alt. 215 m.,N/A,570880,Typed,no type status
0041_C2079357F.jpg,Ynes Mexia,Y. Mexia,N/A,8377,"Jan. 3, 1932",1932-01-03,N/A,Vesicularia dubyana (Spreng.) Broth.,Vesicularia dubyana,N/A,N/A,N/A,Peru,Loreto,N/A,N/A,"Above Pongo de Manseriche, Crook Inche, On rotten log.","Above Pongo de Manseriche, Crook Inche, on a rotten log",On rotten log,Alt. 215 m.,N/A,870873,Typed,no type status
0042_C2079358F.jpg,Ynes Mexia,Y. Mexia,N/A,8070,"May 14,1936",1936-05-14,N/A,Vesicularia amphibia (Spr.) Broth. — determinavit B. Bartram,Vesicularia amphibia,B. Bartram,N/A,N/A,Peru,Cuzco,La Convencion,N/A,Provincia La Convencion; upper valley of the Sambray; affluent of the Vilcanota; on rotten logs in virgin forest.,upper valley of the Sambray; on rotten logs,virgin forest,Alt. 1800 m.,N/A,1006398,Typed,no type status
0043_C2079359F.jpg,Ynes Mexia No. 8070,Y. Mexia,N/A,8070,"May 14, 1936",1936-05-14,N/A,Vestigularia amphipoda (Spr.) Broth. in mixture det. Bartram,Vestigularia amphipoda,Bartram,N/A,N/A,Peru,Cuzco,La Convencion,N/A,upper valley of the Sambay; affluent of the Vilcanota,upper valley of the Sambay; affluent of the Vilcanota,on rotten logs in virgin forest,Alt. 1600 m.,N/A,1039122,Typed,no type status
0044_C2079360F.jpg,Leitz,Leitz,N/A,s.n.,Apr 1956,1956-04-00,N/A,Vesicularia vesicularis (Schwagr.) Broth.,Vesicularia vesicularis,N/A,N/A,N/A,Brazil,Santa Catarina,N/A,N/A,"Xaxim, Norte","Xaxim, Norte","""HAMAÇA"" DE MATA VIRGEM",550 m.,N/A,N/A,Typed,no type status
0045_C2079362F.jpg,Richard Evans Schultes,R. E. Schultes,N/A,11107,"Dec., 1950",1950-12-00,N/A,Vesicularia vesicularis (Schwgr.) Broth.,Vesicularia vesicularis,W. D. Reese,"Dec., 1950",N/A,Colombia,Meta,N/A,N/A,alrededores de Villavicencio.,alrededores de Villavicencio,N/A,Alt 500 m.,N/A,1055509,Typed,no type status
0046_C2079715F.jpg,"J.P. Frahm, P. Geissler, S.R. Gradstein, G. Philippi, W. Schulze-Motel",J. P. Frahm,P. Geissler | S. R. Gradstein | G. Philippi | W. Schulze-Motel,875,4.9.1982,1982-09-04,N/A,Entodon jamesonii (Tayl.) Mitt.,Entodon jamesonii,W. Schulze-Motel,N/A,N/A,Peru,Amazonas,Chachapoyas,N/A,"Prov. Chachapoyas, Straße Chachapoyas Cajamarca oberhalb Leimebamba km 417, sexponierter Hang, hochandiner Regenwald auf Kalkstein",Straße Chachapoyas Cajamarca above Leimebamba km 417,"sexponierter Hang, hochandiner Regenwald auf Kalkstein",2800 msn.,N/A,1767822,Typed,no type status
0047_C2079716F.jpg,J. Kenneth Wright,J. K. Wright,N/A,4806,1 April 1964,1964-04-01,N/A,"Entodon jamesonii (Tayl.) Mitt. dupl. det. E. Holz., 1966",Entodon jamesonii,E. Holz.,1966,N/A,Peru,Amazonas,Chachapoyas,N/A,"Cerros Calla Calla, ca. side km. above Leimebamba on the road to Balsas, at San Miguel (no buildings at this locality).","Cerros Calla Calla, side kilometers above Leimebamba on the road to Balsas, at San Miguel","Province of Chachapoyas, Department of Amazonas",Altitude 1400 m.,N/A,1021861,Typed,no type status
0048_C2079717F.jpg,Leg. Dan Griffin III,D. Griffin III,N/A,PV-966,30 Jan. 1985.,1985-01-30,N/A,Entodon jamesoni (Tayl.) Broth.,Entodon jamesoni,Dana Griffin III,N/A,N/A,Venezuela,Merida,N/A,N/A,"Páramo de Los Granates, finca de Los Granates, a lo largo del rio de Los Granates en las lomas arenosas.","Páramo de Los Granates, finca de Los Granates, along the river of Los Granates in the sandy hills","Sobre roca + seca, a sombra.","3,000-3,120 m.",N/A,N/A,Typed,no type status
0049_C2079718F.jpg,Ynes Mexia,Y. Mexia,N/A,8697,"April 21, 1931",1931-04-21,N/A,Entodon lindbergii Hpe.,Entodon lindbergii,A. L. Smith,N/A,N/A,Brazil,Minas Gerais,N/A,Cordisburgo,"Fazenda do Diamante, Campo ruim, Base of living tree in shade","Fazenda do Diamante, Campo ruim, base of living tree in shade",Base of living tree in shade,Alt. 500 m.,N/A,N/A,Typed,no type status
0050_C2079720F.jpg,Marko Lewis,M. Lewis,N/A,79-590,8 February 1979,1979-02-08,N/A,Entodon cf. nanceclimacium C.M. (E. e M. Banks 1982.),Entodon nanceclimacium,W. Buck,1980,N/A,Bolivia,Tarija,Prov. Méndez,N/A,"DEPTO. TARIJA, PROV. MÉNDEZPROV. CERCADO/PROV. AVILÉS: Cañyon 5 mi. SW of Tablada, SW of Tarija; 316.46 m.",Canyon 5 miles southwest of Tablada,Bank of creek,2160 m.,21°30' S; 64°50' W,1978758,Typed,no type status
0051_C2079721F.jpg,Marko Lewis,M. Lewis,N/A,79-1220,22 March 1979,1979-03-22,N/A,Entodon nano-climacium C. M. (E. micans Herz.),Entodon nano-climacium,M. Buck,1980,N/A,Bolivia,La Paz,N/A,Sorata,"DEPTO. LA PAZ, PROV. LARECAJA: Near large red out-crop 2 mi. from Sorata down Rio Consata, 15° 41' S., 68° 43' W.",Near large red outcrop 2 miles from Sorata down Rio Consata,Very shady ground along creek in humid shrubs.,2600 m.,"15° 41' S., 68° 43' W.",1677859,Typed,no type status
0052_C2079723F.jpg,Marko Lewis,M. Lewis,N/A,79-1346,1 April 1979,1979-04-01,N/A,cf. Entodon polycarpus,Entodon polycarpus,W. Buck,1980,N/A,Bolivia,La Paz,Larecaja,N/A,"DEPLO. LA PAZ, PROV. LARECAJA: Between Abra Huallatani and waterfall at Millipaya",Between Abra Huallatani and waterfall at Millipaya,"Waterfall ravine, highest extension of shrubs.",3780 m.,"15° 51' S, 68° 39' W",N/A,Typed,no type status
0053_C2079595F.jpg,H. Roivainen,H. Roivainen,N/A,2095,25.I.1970,1970-01-25,N/A,Isopterygium pulchellum (Hedw.) Jaeg.,Isopterygium pulchellum,R. Ochyra,1996,Nothofagus pumilio,Argentina,Tierra del Fuego,N/A,Ushuaia,"Ushuaia, Arroyo Grande","Ushuaia, Arroyo Grande, on rocks and in humus-clay soil of Nothofagus pumilio, on edge of the waterfall","On rocks and in humus-clay soil of Nothofagus pumilio, on edge of the waterfall",150 m.,"54°47'S, 68°18'W",1182417,Typed,no type status
0054_C2079596F.jpg,H. Roivainen,H. Roivainen,N/A,1352,21.12.1969,1969-12-21,N/A,Isopterygium pulchellum (Brid.) Jaeg.,Isopterygium pulchellum,O. Ochyra,1996,N/A,Argentina,Tierra del Fuego,N/A,N/A,"Tierra del Fuego australis, Valle del río Pipo",Valle del río Pipo,suelo humoso húmedo en el pendiente del río,300 m s.m.,"54°46'S, 68°20'W",1182415,Typed,no type status
0055_C2079597F.jpg,E. P. Killip & A. C. Smith,E. P. Killip,A. C. Smith,14971,"November 29, 1926",1926-11-29,N/A,Isoterygium pilosum (Hedw.) Broth.,Isoterygium tenerum,R. R. Ireland,1988,N/A,Colombia,Santander,N/A,N/A,"Dept. Santander, between Puerto Wilches and Puerto Santos, Trail to ""Las Conchas""","between Puerto Wilches and Puerto Santos, trail to ""Las Conchas""","Over district to open ground, on area c. 5 Km wide & 20 Km long",150-115 meters,N/A,N/A,Typed,no type status
0056_C2079598F.jpg,RICHARD EVANS SCHULTES,R. E. Schultes,N/A,111110,"Dec., 1950",1950-12-00,N/A,Isoterygium tenerrum (Sw.) Mitt.,Isoterygium tenerrum,R. R. Ireland,1988,N/A,Colombia,Meta,N/A,N/A,Intendencia del Meta: alrededores de Villavicencio,alrededores de Villavicencio,N/A,Alt. 500 m.,N/A,1055473,Typed,no type status
0057_C2079599F.jpg,D.C. Geijskes,D. C. Geijskes,N/A,s.n.,29-9-1952,1952-09-29,N/A,Isopterygium tenerum (Sw.) Mitt.,Isopterygium tenerum,H. R. Z. Ziemann,N/A,N/A,Suriname,N/A,N/A,N/A,Marowijne River; Armina Falls Rainforest On roots and rocks on bank of river; shai.,[precise locality unknown],Rainforest on roots and rocks on bank of river,N/A,N/A,1073518,Typed,no type status
0058_C2079600F.jpg,Ynes Mexia,Y. Mexia,N/A,8431,7 July 1930,1930-07-07,N/A,Isopterygium brasiliense Müll. Hal. ex Mitten var. elegans,Isopterygium tenerum,R. R. Ireland,1988,N/A,Brazil,Minas Gerais,N/A,Viçosa,"Agricultural College land, Horticultural Hill.","Agricultural College land, Horticultural Hill, on rotten woods near base.",On rotten woods near base.,Alt. 870 meters,N/A,1039979,Typed,no type status
0059_C2079601F.jpg,Ynes Mexia,Y. Mexia,N/A,4888,"July 21, 1930",1930-07-21,N/A,Isoptrygium laxum Aubl. Broth.,Isopterygium tenerum,R. R. Ireland,1988,N/A,Brazil,Minas Gerais,N/A,N/A,"Viçosa Agricultural College, Corrego Ribeirao.","Viçosa Agricultural College, Corrego Ribeirao","Shady streambanks, On rotten wood.",Alt. 675 m,N/A,873765,Typed,no type status
0060_C2079602F.jpg,"Ynes Mexia, No. 8130",Y. Mexia,N/A,8130,"Dec. 9, 1930",1930-12-09,N/A,Isopterygium brasiliense (C. Muell.) Mitt. Viosca.,Isopterygium tenerum,R. R. Ireland,1988,N/A,Brazil,Minas Gerais,N/A,N/A,About km. 43.,About kilometer 43,Dense forest On rotten log In fruits,Alt. 710m,N/A,870841,Typed,no type status
0061_C2079603F.jpg,Ynes Mexia,Y. Mexia,N/A,5441,"Dec. 23, 1930",1930-12-23,N/A,Isopterygium tenerum (Sw.) Mitt.,Isopterygium tenerum,R. R. Ireland,1988,N/A,Brazil,Minas Gerais,N/A,N/A,"Viçosa Agricultural College lands, Base of Horticulture Hill.","Viçosa Agricultural College lands, Base of Horticulture Hill","On rotting logs, in woods",Alt. 670 m.,N/A,C0376083F,Typed,no type status
0062_C2079604F.jpg,"H. S. Irwin, R. M. Harley, G. L. Smith",H. S. Irwin,R. M. Harley | G. L. Smith,31332,2 March 1971,1971-03-02,N/A,Isoterygium tenerum (Sw.) Mitt.,Isoterygium tenerum,R. R. Ireland,1988,N/A,Brasil,N/A,N/A,N/A,Valley of the Rio das Ondas,"On the bark and exposed roots of CoccoLoba sp., and on adjacent soil, at river bank, Curvado gallery forest, and adjacent outer-arc, ca. 10km W. of Barreiras","On the bark and exposed roots of CoccoLoba sp., and on adjacent soil, at river bank, Curvado gallery forest, and adjacent outer-arc",ca. 500m,N/A,1059328,Typed,no type status
0063_C2079606F.jpg,Ynes Mexia,Y. Mexia,N/A,4844,"July 21, 0192",1922-07-21,N/A,Isopterygium tenerum (Sw.) Mitt.,Isopterygium tenerum,R. R. Ireland,1988,N/A,Brazil,Minas Gerais,N/A,N/A,"Vicosa Agricultural College lands, Corrego Teixeira","Vicosa Agricultural College lands, Corrego Teixeira","Shady streambank, on rotten log",Alt 675 m.,N/A,830845,Typed,no type status
0064_C2079607F.jpg,Ynes Mexia,Y. Mexia,N/A,4690,"May 14, 1930",1930-05-14,N/A,Isoptrygium curvifolium (Sw.) Mitt. Ex p.,Isoptrygium tenerum,R. R. Ireland,1988,N/A,Brazil,Minas Gerais,N/A,Vicosa,"Fazenda de Crosarium, Wood on slope, On rotten logs","Fazenda de Crosarium, woodland slope, on rotten logs","Wood on slope, On rotten logs",Alt. 700 m.,N/A,870839,Typed,no type status
0065_C2079608F.jpg,Ynes Mexia,Y. Mexia,N/A,4884,"July 21, 1930",1930-07-21,N/A,Isopterygium cumulicola (Hampe) Mitt.,Isopterygium tenerum,Revision by R. R. Ireland,1988,N/A,Brazil,Minas Gerais,N/A,N/A,Viçosa Agricultural College lands. Corrego Ribeirao.,"Viçosa Agricultural College lands, Corrego Ribeirao","Shady streambank, on rotten log",Alt. 675 m,N/A,1039977,Typed,no type status
0066_C2079609F.jpg,Ynes Mexia,Y. Mexia,N/A,4545,"March 31, 1930",1930-03-31,N/A,Isopterygium tenerum (Sw.) Mitt.,Isopterygium tenerum,B. E. Bartram,N/A,N/A,Brazil,Mato Grosso,N/A,N/A,"Road to São Miguel, near stream ""Turba"".","Road to São Miguel, near stream Turba",Out over woods on slope. On rotting tree trunk.,Alt. 710 m.,N/A,1039978,Typed,no type status
0067_C2079611F.jpg,W. Schäffer,W. Schäffer,N/A,2898,Feb 6-7,1952-02-06,1952-02-07,Isoptrygium aurantiacum (Mitt.) Jaeg.,Isoptrygium tenerum,R. R. Ireland,1988,N/A,Brazil,São Paulo,N/A,N/A,"prope urbem Cerqueira-Cesar, in palude","prope urbem Cerqueira-Cesar, in palude",In palude,650 m,N/A,1012176,Typed,no type status
0068_C2079856F.jpg,Ynes Mexia,Y. Mexia,N/A,4641,"July 6, 1930",1930-07-06,N/A,Isoterygium brachyphyllum (C. Müll.) Mitt. ex P. de la Varde,Isoterygium tenerum,R. R. Ireland,1988,N/A,Brazil,Minas Gerais,N/A,N/A,Viçosa Agricultural College lands.,Viçosa Agricultural College lands,Cut over woods near base. On rotting logs.,alt. 670 m.,N/A,870840,Typed,no type status
0069_C2000932F.jpg,C. Maler Früh.,C. Maler Früh,N/A,s.n.,9. Sept. 1905,1905-09-09,N/A,476. Pogonatum urnigerum (L.) Pal. Beauv. c. fr.,Pogonatum urnigerum,N/A,N/A,N/A,Germany,Thuringia,N/A,N/A,Seebach: Bahlen auf Erde in Felsritzen zwischen Binken und Seebeck am Falkenberg,Binken and Seebeck at Falkenberg,On soil in rock crevices,circa 1240 w. N.,N/A,1123491,Handwritten,no type status
0070_C2000934F.jpg,leg. Zd. Pilous,Zd. Pilous,N/A,s.n.,V.1946,1946-05-00,N/A,Peqomatum umbrionum P.B.,Peqomatum umbrionum,N/A,N/A,Musci Xerophilnovati exsiccati | Edit. Zd. Pilous,Czech Republic,Bohemia,N/A,Vrchlabí,"in declivibus graminosis silvaticis prope pagum Horní Vrchlabí, ca 580 m","in grassy woodland slopes near the village of Horní Vrchlabí, approximately 580 meters",N/A,ca 580 m,N/A,N/A,Typed,no type status
0071_C2000943F.jpg,C. Jensen,C. Jensen,N/A,s.n.,25/10 1901,1901-10-25,N/A,Pogonatum urnigerum (Hedw.) P.B.,Pogonatum urnigerum,N/A,N/A,N/A,Denmark,Sjælland,N/A,N/A,Maglebrækkobv bn Bjælsök in a gravel=pit,Maglebrækkobv bn Bjælsök in a gravel pit,N/A,N/A,N/A,N/A,Typed,no type status
0072_C2010620F.jpg,N/A,N/A,N/A,s.n.,23. August 1850,1850-08-23,N/A,Pogonatum urnigerum (L.) P. Beauv.,Pogonatum urnigerum,N/A,N/A,N/A,Austria,Tyrol,N/A,N/A,An Wasserfällen bei Salurn.,[precise locality unknown],An Wasserfällen,N/A,N/A,1054838,Typed,no type status
0073_C2010622F.jpg,Dr. Hupp,Hupp,N/A,995B,17 October 1962,1962-10-17,N/A,Pogonatum urnigerum (L.) P. Beauv.,Pogonatum urnigerum,N/A,N/A,N/A,Austria,Steiermark,N/A,N/A,Am Gipfel des Waldord an der roten Bandstreich oberhalb Dorfgastein,Am Gipfel des Waldord an der roten Bandstreich oberhalb Dorfgastein,N/A,N/A,N/A,10549881,Typed,no type status
0074_C2010624F.jpg,L. Krahulcová in Schathausen,L. Krahulcová,N/A,9683 d,September 1962,1962-09-00,N/A,Pogonatum urnigerum (L.) P. Beauv.,Pogonatum urnigerum,N/A,N/A,N/A,N/A,N/A,N/A,Schathausen,N/A,[precise locality unknown],N/A,N/A,N/A,1055061,Typed,no type status
0075_C2010626F.jpg,Coll. and determ. C. Jensen,C. Jensen,N/A,s.n.,"November 21, 1904",1904-11-21,N/A,BRYOPHYTA DANICA EXSICCATA 104. Pogonatum urnigerum (Hedw.) P. c. f.,Pogonatum urnigerum,C. Jensen,s.d.,N/A,New Zealand,N/A,N/A,N/A,Zealand; sandy soil in Maglestrøvgskoven south of Hvalsø,sandy soil in Maglestrøvgskoven south of Hvalsø,sandy soil,N/A,N/A,N/A,Typed,no type status
0076_C2010974F.jpg,P. Allorge,P. Allorge,N/A,s.n.,"Verano, 1928",1928-00-00,N/A,"Bryotheca Iberica 49. Pogonatum urnigerum (Lind. SP. Plant. II, p. 1490, n. 133, sub Polytrichum, Palot de Beauvois Prod., 1804, s. V.; Span. - Phyt. Europ. III, Lief. 17; Sehnimp. 1853, etc.)",Pogonatum urnigerum,N/A,N/A,N/A,Spain,Navarra,N/A,Puerto de Ibañeta,"Disfr. -de Pyrenees, Santander (Km.), versant S. de ""port d'Ibaneta"" sur Espagne. Plaines et montages de l'Europe Cent. et Boreale.– Galliciae, Andalusiae, Cantabriae, Asturiae, et. ","Santander, versant S. ""port d'Ibaneta""","Disfr. -de Pyrenees, Plaines et montages de l'Europe Cent. et Boreale.– Galliciae, Andalusiae, Cantabriae, Asturiae",N/A,N/A,N/A,Mix of Handwritten and Typed,no type status
0077_C2010976F.jpg,leg. Zd. Pilous,Zd. Pilous,N/A,1025,VII.1949,1949-07-00,N/A,Potentilla uniflora Pal. var. humile Bríd.,Potentilla uniflora var. humile,N/A,N/A,N/A,Slovakia,N/A,N/A,[precise locality unknown],"Slovacia, Montes Mala Fatra: In terra montis Dumbier, ca. 1840 m",Montes Mala Fatra: In terra montis Dumbier,N/A,ca. 1840 m,N/A,N/A,Typed,no type status