Image,verbatimCollectors,collectedBy,secondaryCollectors,recordNumber,verbatimEventDate,minimumEventDate,maximumEventDate,verbatimIdentification,latestScientificName,identifiedBy,verbatimDateIdentified,associatedTaxa,country,firstPoliticalUnit,secondPoliticalUnit,municipality,verbatimLocality,locality,habitat,verbatimElevation,verbatimCoordinates,otherCatalogNumbers,originalMethod,typeStatus
0000_C0020034F.jpg,Collected and Determined by R. M. Schuster,R. M. Schuster,N/A,68-1644,Aug. 17 1968,1968-08-17,N/A,Anastrophyllum minutum + gem.,Anastrophyllum minutum,R. M. Schuster,N/A,Diplophyllum taxifolium + gemmae,Canada,Newfoundland and Labrador,N/A,N/A,"Along Humber R., in Squires Memorial Park, near Rte 1A.","Along Humber River, in Squires Memorial Park, near Route 1A",N/A,N/A,N/A,68-1644a,Typed,no type status
0001_C0020052F.jpg,R. M. Schuster & K. Damsholt,R. M. Schuster,K. Damsholt,82-1049,July 3.,1982-07-03,N/A,Anastrophyllum minutum (SCHREB.) SCHUST. v. grandis (GOTT.) SCHUST.,Anastrophyllum minutum,R. M. Schuster | K. Damsholt,1982,Cephalozia bicuspidata,Greenland,N/A,N/A,N/A,Frederiksdal,Frederiksdal,N/A,N/A,"60°00'N lat., 44°40'W. long.",S1,Typed,no type status
0002_C0025138F.jpg,Collected by R. M. Schuster,R. M. Schuster,N/A,9067,June 30 1951,1951-06-30,N/A,"Frullania asagrayana Mont., male, can per. Plagiochila tridenticulata Dum. (traces)",Frullania asagrayana,N/A,N/A,Abies fraseri,United States,North Carolina,N/A,N/A,"Balsam Gap, N.C., ca. 25 mi. n. of Asheville, along Blue Ridge Parkway, 5220-5260 feet","Balsam Gap, approximately 25 miles north of Asheville, along Blue Ridge Parkway",N/A,5220-5260 feet,N/A,N/A,Typed,no type status
0003_C0025164F.jpg,Collected and Determined by R. M. Schuster,R. M. Schuster,N/A,79-488,April 14 19 79,1979-04-14,N/A,Frullania asagrayana,Frullania asagrayana,R. M. Schuster,N/A,N/A,United States,Arkansas,Stone,N/A,"Ozark Natl. Forest. Barkshed Camp, ca. 10 mi E. of Big Flat.","Ozark National Forest, Barkshed Camp, approximately 10 miles east of Big Flat",N/A,N/A,N/A,N/A,Typed,no type status
0004_C0000578F.jpg,"John J. Engel, Matt von Konrat & John E. Braggins",J. J. Engel,M. von Konrat | J. E. Braggins,23773,12 February 2003,2003-02-12,N/A,Telaranea lindenbergii var. papillata Engel & Merr.,Telaranea lindenbergii var. papillata,unsure and check,unsure and check,Blechnum novae-zelandiae | Weinmannia | Dicksonia squarrosa | Leptospermum scoparium,New Zealand,Auckland,N/A,N/A,"Wharerino Forest, start of track to Leitch's Hut. 280 m., 38° 24.5' S., 174° 49.8' E.","Wharerino Forest, start of track to Leitch's Hut","On clayey bank. Clay banks with Blechnum novae-zelandiae overhang, Weinmannia and Dicksonia squarrosa dominant canopy and occasional Leptospermum scoparium",280 m.,"38° 24.5' S., 174° 49.8' E.",1173554,Typed,holotype
0005_C2077563F.jpg,"Leg. L. Dusenot, n° 4659 pp.",L. Dusenot,N/A,4659 pp.,N/A,0000-00-00,N/A,Hedwigia ciliata (Hedw.) P. Beauv.,Hedwigia ciliata,E. De Luna,1992,N/A,Ecuador,Pichincha,N/A,Quito,environs de Quito,Environs of Quito,N/A,N/A,N/A,2077591,Mix of Handwritten and Typed,no type status
0006_C2077566F.jpg,Marko Lewis,M. Lewis,N/A,79-1237A,22 March 1979,1979-03-22,N/A,Hedwigia ciliata (Hedw.) P. Beauv.,Hedwigia ciliata,B. De Luna,1992,N/A,Bolivia,La Paz,Larecaja,N/A,Near large red outcrop 2 mi. from Sorata down Rio Consata,Near large red outcrop 2 miles from Sorata down Rio Consata,Bromeliad habitat. Abundant on rock faces of exposed cliffs,2630 m,"15° 41' S., 68° 43' W.",1033221,Typed,no type status
0007_C2077567F.jpg,Marko Lewis,M. Lewis,N/A,79-1232,22 March 1979,1979-03-22,N/A,Hedwigia ciliata (Hedw.) P. Beauv.,Hedwigia ciliata,E. De Luna,1992,N/A,Bolivia,La Paz,Larecaja,N/A,Near large red outcrop 2 mi. from Sorata down Rio Consata,Near large red outcrop 2 miles from Sorata down Rio Consata,Bromeliad-grass habitat on exposed cliffs,2630 m,15 41' S. 68 43' w.,1032219,Typed,no type status
0008_C2077568F.jpg,Marko Lewis,M. Lewis,N/A,79-1114,6 March 1979,1979-03-06,N/A,Hedwigia ciliata (Hedw.) P. Beauv.,Hedwigia ciliata,E. De Luna,1992,N/A,Bolivia,La Paz,Saavedra,N/A,On mountain side directly N. of river beneath Niño Karire NNW of Chuma,On mountain side directly north of river beneath Niño Karire north-northwest of Chuma,Humid cliffs and steep slopes,3320 m,15° 08' S 69° 03' W,1032220,Mix of Handwritten and Typed,no type status
0009_C2077569F.jpg,F. J. Hermann,F. J. Hermann,N/A,25152,"December 27, 1972",1972-12-27,N/A,Hedwigia ciliata (Hedw.) Beauv.,Hedwigia ciliata,E. De Luna,1992,N/A,Bolivia,Cochabamba,N/A,N/A,"On conglomerate boulder on shrubby NW slope of Mt. Tunari, near Liriuni Aguas Termales Hotel, alt. ca. 2700 m., 28 km. NW. COCHABAMBA","On conglomerate boulder on shrubby northwest slope of Mount Tunari, near Liriuni Aguas Termales Hotel, approximately 28 kilometers northwest of Cochabamba",On conglomerate boulder on shrubby northwest slope,alt. ca. 2700 m.,N/A,1040675,Typed,no type status
0010_C2077570F.jpg,Ynes Mexia,Y. Mexia,N/A,6204,"Dec. 2, 1931",1931-12-02,N/A,Plagiochila subchlorophyllosa C. M.,Plagiochila subchlorophyllosa,Bartram,N/A,N/A,Peru,Loreto,N/A,N/A,Above Pongo de Manseriche Streamlet near mouth of Rio Santiago,Above Pongo de Manseriche Streamlet near mouth of Rio Santiago,On fallen log,Alt. 400 m,N/A,1057692,Typed,no type status
0011_C2077571F.jpg,Ynes Mexia,Y. Mexia,N/A,6804,"Dec. 2, 1931",1931-12-02,N/A,Pilotrichella chlorophyllosa,Pilotrichella chlorophyllosa,Bartram,N/A,N/A,Peru,Loreto,N/A,N/A,Above Pongo de Manseriche Streamlet near mouth of Rio Santiago On fallen logs,Above Pongo de Manseriche Streamlet near mouth of Rio Santiago,On fallen logs,Alt. 400 m,N/A,C2075711F,Typed,no type status
0012_C2077573F.jpg,J. Florschütz-de Waard & R. Zielman,J. Florschütz-de Waard,R. Zielman,5135,d.d. 5 - 11 - 1981,1981-11-05,N/A,Pilotrichum chlorophyllum (Hornsch.)C.Müll. Oer.,Pilotrichum chlorophyllum,R. Zijlstra,N/A,Cecropia,Suriname,Nickerie,N/A,N/A,area of Kabalebo Dam project distr. Nickerie line NW from road km 39.5 p. SN 58W,area of Kabalebo Dam project line northwest from road kilometer 39.5 point SN 58W,Secondary wood with Cecropia (boeappaja) on rotting log,ALT. 0-50 m,N/A,1073523,Typed,no type status
0013_C2077574F.jpg,J. Florschütz-de Waard & R. Zijlmans,J. Florschütz-de Waard,R. Zijlmans,5254,d.d. 3-11-1991,1991-11-03,N/A,Plagiochila chlorophyllum (Hornsch.) J.C. Mill.,Plagiochila chlorophyllum,R. Zijlmans,N/A,N/A,Suriname,Nickerie,N/A,N/A,area of Kabalebo Dam project distr. Nickerie line NW from road km 39.5 p. 5H 5W qu. 5D,area of Kabalebo Dam project line northwest from road kilometer 39.5,Savanna forest on rotting log,Alt.: 0 - 50 m,N/A,1140152,Typed,no type status
0014_C2077575F.jpg,J. Florschütz-de Waard & R. Zijlman,J. Florschütz-de Waard,R. Zijlman,5098,30-10-1981,1981-10-30,N/A,Pilotrichum chlorophyllum (Hornsch.) Mitt.,Pilotrichum chlorophyllum,R. Zijlman,N/A,N/A,Suriname,Nickerie,N/A,N/A,Area of Kabalebo Dam project distr. Nickerie line W from road 34 km Dr. 5N 58W qu. SB,Area of Kabalebo Dam project line West from road 34 kilometers,Rainforest on rotting log,Alt. 0 - 50 m,N/A,1073528,Typed,no type status
0015_C2077576F.jpg,"J. C. Lindeman, A. A. Gorts-van Rijn, M. Jansen-Jacobs, A. L. Stoffers, C. Reijnders",J. C. Lindeman,A. A. Gorts-van Rijn | M. Jansen-Jacobs | A. L. Stoffers | C. Reijnders,243 A,3-XI-1980,1980-11-03,N/A,Pilotricum chlorophyllum (Hornsch.) C. Müll.,Pilotricum chlorophyllum,H. Zijlstra,N/A,N/A,Suriname,Nickerie,N/A,N/A,"Area of Kabalebo Dam project, distr. Nickerie, Forest S of km 28.7","Area of Kabalebo Dam project, Forest South of kilometer 28.7","Forest South of kilometer 28.7, epiphyte on tree trunk",Alt. 30 - 130 m.,"4°50'N, 57°30'50""W",10735527,Typed,no type status
0016_C2077577F.jpg,J. Florschütz-de Waard and R. Zijlman,J. Florschütz-de Waard,R. Zijlman,5141,31 October 1981,1981-10-31,N/A,Pilotrichum chlorophyllum (Hornsch.) C. Müll.,Pilotrichum chlorophyllum,R. Zijlman,N/A,Astrocarpum,Suriname,Nickerie,N/A,N/A,"Kabalebo river area, line W. from road km 34, 5°N, 58°W","Kabalebo river area, line W. from road km 34",On decaying log in marsh forest,alt. 0-50 m,"5°N, 58°W",1079833,Typed,no type status
0017_C2077578F.jpg,J. and P.A. Florschütz,J. Florschütz,P. A. Florschütz,4690,18 December 1975,1975-12-18,N/A,Pilostium chlorophyllum (Hornsch.) C. Muell.,Pilostium chlorophyllum,R. Zielman | J. Florschütz-de Waard,N/A,N/A,Suriname,Brownsberg,N/A,N/A,trail to Leo Val,trail to Leo Val,On rotting log in rainforest,alt. ca. 500 m,N/A,C2075796F,Typed,no type status
0018_C2077579F.jpg,H. Cornelissen & S. R. Gradstein,H. Cornelissen,S. R. Gradstein,C076,8 March 1977,1977-03-08,N/A,Pilotrichella chlorophyllum (Hornsch.) C. Müll.,Pilotrichella chlorophyllum,J. Florschütz-de Waard,N/A,N/A,Guyana,N/A,N/A,N/A,Mabura Hill 180 km S of Georgetown 5°20'N 58°40'W,Mabura Hill 180 kilometers south of Georgetown,On rotting tree base in mixed rain forest,alt. 0-50 m,5°20'N 58°40'W,1021586,Typed,no type status
0019_C2077582F.jpg,Richard Evans Schultes et Isidoro Cabrera,R. E. Schultes,I. Cabrera,14294,"October 4-6, 1951",1951-10-04,1951-10-06,Pilotrichum chlorophyllum (Hornsch.) C.M.,Pilotrichum chlorophyllum,H. A. Crum,1956,N/A,Colombia,Vaupés,N/A,N/A,"Rio Kuduyari (affluent of Rio Vaupés), Yapobodi, quartzite savanna","Rio Kuduyari, Yapobodi, quartzite savanna",On rotten logs,N/A,N/A,C2077561F,Typed,no type status
0020_C2077584F.jpg,Leg: Richard Evans Schultes,R. E. Schultes,N/A,11128,N/A,0000-00-00,N/A,Pilosium chlorophyllum (Hsch.) C.M. in Broth.,Pilosium chlorophyllum,D. Griffin,Dec. 1950,N/A,Colombia,Guaviare,N/A,San Jose del Guaviare,San Jose del Guaviare,San Jose del Guaviare,N/A,N/A,N/A,1055489,Typed,no type status
0021_C2077585F.jpg,Ynes Mexia,Y. Mexia,N/A,5014a,"Aug. 31, 1931",1931-08-31,N/A,Pilotrichum chlorophyllum (Hsch.) A.M.,Pilotrichum chlorophyllum,J. M. Bartram,N/A,N/A,Brazil,Para,N/A,N/A,Thomé Assú down Rio Acará 3 km. On fallen log.,Thomé Assú down Rio Acará 3 kilometers. On fallen log.,N/A,Alt. 35 m.,N/A,N/A,Typed,no type status
0022_C2077586F.jpg,Ynes Mexia,Y. Mexia,N/A,5014,"July 16, 1931",1931-07-16,N/A,Pilotrichum chlorophyllosum (Besch.) C. Muell.,Pilotrichum chlorophyllosum,Bartram,N/A,N/A,Brazil,Pará,N/A,N/A,Districto Acará. Thomé Assú. Japanese Colony.,Districto Acará. Thomé Assú. Japanese Colony.,On rotting log in woods. Abundant.,Alt. about 30 m.,N/A,870829,Typed,no type status
0023_C2078862F.jpg,"leg. Dana Griffin III, Manuel López F.",D. Griffin,M. López F.,PV-1525,14 marzo 1985,1985-03-14,N/A,Brachythecium plumosum (Hedw.) BSG,Brachythecium plumosum,D. Griffin III,N/A,N/A,Venezuela,Trujillo,N/A,N/A,"páramo de Guirigay, arriba del pueblo de La Puerta. Entre el río Barro y Pozo Blanco","Páramo de Guirigay, above the town of La Puerta. Between the Barro River and Pozo Blanco","Sobre roca húmeda, lecho de riachuelo, a sol.",3200-3300 m,N/A,1064449,Typed,no type status
0024_C2078913F.jpg,P. Dusén,P. Dusén,N/A,5872,22 February 1897,1897-02-22,N/A,Brachythecium albicans (Hedw.) Schimp.,Brachythecium albicans,W. R. Buck,N/A,N/A,Chile,Patagonia,N/A,N/A,Cerra Colorado,Cerra Colorado,N/A,N/A,N/A,B11749,Typed,no type status
0025_C2078924F.jpg,Ynes Mexia,Y. Mexia,N/A,8001,"April 10, 1936",1936-04-10,N/A,Brachythecium subpilosum (Hpe. & Wils.) Jaeg.,Brachythecium austro-glareosum,K. D. McFarland,Sept. 1987,Nothofagus,Chile,Magallanes,N/A,N/A,Last Hope Inlet; Peninsula Antonio Varas,Last Hope Inlet; Peninsula Antonio Varas,Openings in Nothofagus wood in moist earth. Common; scattered in small tufts.,Alt. 25 m,N/A,430729,Typed,no type status
0026_C2078925F.jpg,Marko Lewis,M. Lewis,N/A,79-2108,25 May 1979,1979-05-25,N/A,Brachythecium calliergonioides Broth. in Herz.,Brachythecium calliergonioides,R. Ochyra,1982,N/A,Bolivia,Oruro,Sajama,N/A,Rio Junthuma Khucha 2 mi. down river from Aguas termales de Rio Junthuma Khucha,Rio Junthuma Khucha 2 miles down river from Aguas termales de Rio Junthuma Khucha,In warmish creek,4350 m,18°07' S. 69°00' W.,1049405,Mix of Handwritten and Typed,no type status
0027_C2078926F.jpg,Marko Lewis,M. Lewis,N/A,79-2109,25 May 1979,1979-05-25,N/A,Brachythecium calliergonioides Broth. in Herz.,Brachythecium calliergonioides,R. Ochyra,1982,N/A,Bolivia,Oruro,Sajama,N/A,Rio Junthuma Khuchu 2 mi. down river from Aguas termales de Rio Junthuma Khuchu,Rio Junthuma Khuchu 2 miles down river from Aguas termales de Rio Junthuma Khuchu,In warmish creek,4350 m,"18° 07' S., 69° 00' W.",1049406,Typed,no type status
0028_C2078927F.jpg,Marko Lewis,M. Lewis,N/A,79-2112,25 May 1979,1979-05-25,N/A,Brachythecium calliergonioides Broth. in Herz.,Brachythecium calliergonioides,R. Ochyra,1982,N/A,Bolivia,Oruro,Sajama,N/A,Rio Junthuma Khuchu 2 mi. down river from Aguas termales de Rio Junthuma Khuchu,Rio Junthuma Khuchu 2 miles down river from Aguas termales de Rio Junthuma Khuchu,In warmish creek,4350 m,"18° 07' S, 69° 00' W",1049407,Typed,no type status
0029_C2078928F.jpg,Marko Lewis,M. Lewis,N/A,2115,25 May 1979,1979-05-25,N/A,Brachythecium calliergonioides Broth. in Herz.,Brachythecium calliergonioides,R. Ochyra,1982,N/A,Bolivia,Oruro,Sajama,N/A,Rio Junthuma Khuchu 2 mi down river from Aguas termales de Rio Junthuma Khuchu,Rio Junthuma Khuchu 2 miles down river from Aguas termales de Rio Junthuma Khuchu,In warmish creek,4350 m,18° 07' S 69° 00' W,1049409,Typed,no type status
0030_C2078929F.jpg,Marko Lewis,M. Lewis,N/A,79-2117,25 May 1979,1979-05-25,N/A,Brachythecium calliergonioides Broth. in Herz.,Brachythecium calliergonioides,R. Ochyra,1982,N/A,Bolivia,Oruro,Sajama,N/A,Rio Junthuma Khuchu 2 mi. down river from Aguas termales de Rio Junthuma Khuchu,Rio Junthuma Khuchu 2 miles down river from Aguas termales de Rio Junthuma Khuchu,In warmish creek,4350 m.,18° 07' S 69° 00' W,1049410,Typed,no type status
0031_C2078930F.jpg,Marko Lewis,M. Lewis,N/A,2118,25 May 1979,1979-05-25,N/A,Brachythecium calliergonioides Broth. in Herz.,Brachythecium calliergonioides,K. Ochyra,1982,N/A,Bolivia,Oruro,Sajama,N/A,Rio Junthuma Khucha 2 mi. down river from Aguas termales de Rio Junthuma Khucha,Rio Junthuma Khucha 2 miles down river from Aguas termales de Rio Junthuma Khucha,In warmish creek,4350 m,18° 07' S 69° 00' W,1049411,Typed,no type status
0032_C2078931F.jpg,Marko Lewis,M. Lewis,N/A,79-2107,25 May 1979,1979-05-25,N/A,Brachythecium calliergonioides Broth. in Herz.,Brachythecium calliergonioides,R. Ochyra,1982,N/A,Bolivia,Oruro,Sajama,N/A,Rio Junthuma Khuchu 2 mi. down river from Aguas termales de Rio Junthuma Khuchu,Rio Junthuma Khuchu 2 miles down river from Aguas termales de Rio Junthuma Khuchu,In warmish creek,4350 m.,18° 07' S. 69° 00' W.,1049404,Typed,no type status
0033_C2078932F.jpg,Marko Lewis,M. Lewis,N/A,79-2119,25 May 1979,1979-05-25,N/A,Brachythecium calliergonioides Broth. in Herz.,Brachythecium calliergonioides,R. Ochyra,1982,N/A,Bolivia,Oruro,Sajama,N/A,Río Junthuma Khuchu 2 mi. down river from Aguas termales de Río Junthuma Khuchu,Río Junthuma Khuchu 2 miles down river from Aguas termales de Río Junthuma Khuchu,In warmish creek,4350 m.,18° 07' S. 69° 00' W.,1049412,Typed,no type status
0034_C2079350F.jpg,Ynes Mexia,Y. Mexia,N/A,6149,"Nov. 23, 1931",1931-11-23,N/A,Vesicularia amphibola (Spr.) Broth.,Vesicularia amphibola,Bartram,N/A,N/A,Peru,Loreto,N/A,N/A,Above Pongo de Manseriche Left bank of Rio Santiago,Above Pongo de Manseriche Left bank of Rio Santiago,On stone in overflow forest,Alt. 200 m.,N/A,873368,Typed,no type status
0035_C2079351F.jpg,Ynes Mexia No. 16160,Y. Mexia,N/A,16160,"Nov. 25, 1931",1931-11-25,N/A,Vesicularia amphibia (Sp.) Broth.,Vesicularia amphibia,Bartram,N/A,N/A,Peru,Loreto,N/A,N/A,Above Pongo de Manseriche Right bank of Rio Santiago,Above Pongo de Manseriche Right bank of Rio Santiago,Dense forest on log,alt. 200 m.,N/A,873367,Typed,no type status
0036_C2079352F.jpg,Ynes Mexia,Y. Mexia,N/A,6217-a,"Dec. 4, 1931",1931-12-04,N/A,Vesicularia amphibia (Spr.) Broth.,Vesicularia amphibia,Bartram,N/A,N/A,Peru,Loreto,N/A,N/A,Above Pongo de Manseriche Streamlet on right bank of Rio Santiago,Above Pongo de Manseriche Streamlet on right bank of Rio Santiago,On rocks wet by spray,Alt. 250 m.,N/A,870879,Typed,no type status
0037_C2079353F.jpg,Ynes Mexia,Y. Mexia,N/A,6259,"Dec. 12, 1931",1931-12-12,N/A,Vestiaira amphibia (Spr.) Broth.,Vestiaira amphibia,G. K. Bartram,N/A,N/A,Peru,Loreto,N/A,N/A,Above Pongo de Manseriche,Above Pongo de Manseriche,Creek Carapisa bog in forest,Alt. 215 m.,N/A,870867,Typed,no type status
0038_C2079354F.jpg,Ynes Mexia,Y. Mexia,N/A,6354-a,"Jan. 3, 1938",1938-01-03,N/A,Vesicularia amphibola (Spr.) Broth.,Vesicularia amphibola,Bartram,N/A,N/A,Peru,Loreto,N/A,N/A,Above Pongo de Manseriche Crost Inchio,Above Pongo de Manseriche Crost Inchio,On earth collected on inclined tree trunk,Alt. 215 m,N/A,873369,Typed,no type status
0039_C2079355F.jpg,Ynes Mexia,Y. Mexia,N/A,6375a,"Jan. 3, 1932",1932-01-03,N/A,Vesicularia amphibia (Spr.) Broth.,Vesicularia amphibia,Bartram,N/A,Taxithelium planum,Peru,Loreto,N/A,N/A,Above Pongo de Manseriche Creek Inche. On rotten log.,Above Pongo de Manseriche Creek Inche,On rotten log. Sterile.,Alt. 215 m.,N/A,1039121,Typed,no type status
0040_C2079356F.jpg,Yves Mexia,Y. Mexia,N/A,6378a,"Jan. 3, 1938",1938-01-03,N/A,Vestiaularia amphibia (Spr.) Broth.,Vestiaularia amphibia,J. L. Darb.,s.d.,N/A,Peru,Loreto,N/A,N/A,Above Pongo de Manseriche,Above Pongo de Manseriche,Crook inlets on rotten logs,alt. 215 m.,N/A,370880,Typed,no type status
0041_C2079357F.jpg,Yves Mexia,Y. Mexia,N/A,6377,"Jan. 3, 1932",1932-01-03,N/A,Vesicularia amphibia (Spr.) Broth.,Vesicularia amphibia,E. B. Bartram,N/A,N/A,Peru,Loreto,N/A,N/A,Above Pongo de Manseriche Creek Imche,Above Pongo de Manseriche Creek Imche,On rotten log,Alt. 215 m,N/A,870873,Typed,no type status
0042_C2079358F.jpg,Ynes Mexia,Y. Mexia,N/A,8070,"May 14, 1936",1936-05-14,N/A,Vesicularia amphibia (Spr.) Broth.,Vesicularia amphibia,Bartram,N/A,N/A,Peru,Cuzco,La Convencion,N/A,upper valley of the Sambray; affluent of the Vilcanota; on rotten logs in virgin forest,upper valley of the Sambray; affluent of the Vilcanota; on rotten logs in virgin forest,on rotten logs in virgin forest,Alt. 1800 m,N/A,C2077509F,Typed,no type status
0043_C2079359F.jpg,Ynes Mexia,Y. Mexia,N/A,8070,"May 14, 1936",1936-05-14,N/A,Vesicularia amphibia (Spr.) Broth. in mixture,Vesicularia amphibia,E. Bartram,N/A,N/A,Peru,Cuzco,La Convencion,N/A,upper valley of the Sambray; affluent of the Vilcanota; on rotten logs in virgin forest,upper valley of the Sambray; affluent of the Vilcanota; on rotten logs in virgin forest,on rotten logs in virgin forest,Alt. 1800 m,N/A,1039122,Typed,no type status
0044_C2079360F.jpg,L. Reitz,L. Reitz,N/A,"2,222",20.9.1961,1961-09-20,N/A,Vesicularia vesicularis (Schwager.) Broth.,Vesicularia vesicularis,H. B. S. Magill,1944,N/A,Brazil,Santa Catarina,Brusque,Azambuja,"Azambuja, Brusque",Azambuja,Epífito de mata virgem,50 msm,N/A,5463,Typed,no type status
0045_C2079362F.jpg,Leg: Richard Evans Schultes,R. E. Schultes,N/A,11107,"Dec., 1950",1950-12-00,N/A,Vesicularia vesicularis (Schw.) Broth.,Vesicularia vesicularis,D. Griffin III,N/A,N/A,Colombia,Meta,N/A,N/A,alrededores de Villavicencio,Alrededores de Villavicencio,N/A,Alt 500 m,N/A,1055509,Typed,No type status
0046_C2079715F.jpg,"leg. J. P. Frahm, P. Geissler, S. R. Gradstein, G. Philippi, W. Schultze-Motel",J. P. Frahm,P. Geissler | S. R. Gradstein | G. Philippi | W. Schultze-Motel,875,4.9.1982,1982-09-04,N/A,Entodon jamesonii (Tayl.) Mitt.,Entodon jamesonii,W. Schultze-Motel,N/A,N/A,Peru,Amazonas,Chachapoyas,N/A,"Straße Chachapoyas-Cajamarca oberhalb Leimebamba km 417, s-exponierter Hang, hochandiner Regenwald auf Kalkstein","Straße Chachapoyas-Cajamarca above Leimebamba kilometer 417, south-exposed slope, high Andean rainforest on limestone",hochandiner Regenwald auf Kalkstein,2800 msm,N/A,1076822,Typed,no type status
0047_C2079716F.jpg,Paul C. Hutchison J. Kenneth Wright,P. C. Hutchison,J. K. Wright,1806,1 April 1964,1964-04-01,N/A,Entodon jamesonii (Tayl.) Mitt.,Entodon jamesonii,H. Robinson,1966,N/A,Peru,Chachapoyas,Amazonas,N/A,Cerros Calla Calla east side 5 km above Leimebamba on the road to Balsas at San Miguel (no buildings at this locality),Cerros Calla Calla east side 5 kilometers above Leimebamba on the road to Balsas at San Miguel (no buildings at this locality),N/A,Altitude 1400 m,N/A,1012131,Typed,no type status
0048_C2079717F.jpg,leg. Dana Griffin III,D. Griffin,N/A,20,28 Oct. 1989,1989-10-28,N/A,Entodon jamesoni (tayl.) Broth.,Entodon jamesoni,D. Griffin,N/A,N/A,Venezuela,Merida,N/A,N/A,páramo de Los Granates finca de Los Granates a lo largo del río de Los Granates y en las lomas cercanas,Paramo de Los Granates finca de Los Granates along the river of Los Granates and in the nearby hills,Sobre roca + seca a sombra,3000-3100 m,N/A,PV-966,Typed,no type status
0049_C2079718F.jpg,Ynes Mexia,Y. Mexia,N/A,5687,"April 21, 1931",1931-04-21,N/A,Entodon Ludwigii C. Müll. Det. Bertram,Entodon Ludwigii,Bertram,N/A,N/A,Brazil,Minas Gerais,N/A,Corinto,Fazenda do Diamante Campo Tiritas,Fazenda do Diamante Campo Tiritas,Base of living tree in shade,Alt. 500 m,N/A,870818,Typed,no type status
0050_C2079720F.jpg,Marko Lewis,M. Lewis,N/A,79-590,8 February 1979,1979-02-08,N/A,Entodon cf. nano-climacium C. M. (E. E. micans Herz.),Entodon nano-climacium,W. Buck,1980,N/A,Bolivia,Tarija,Méndez,N/A,"Prov. Méndez/Prov. Cercado/Prov. Aviles. Canyon 5 mi. SW of Tablada, SW of Tarija","Canyon 5 miles southwest of Tablada, southwest of Tarija",Bank of creek,2160 m,"21° 36' S, 64° 48' W",1078783,Typed,no type status
0051_C2079721F.jpg,Marko Lewis,M. Lewis,N/A,79-1220,22 March 1979,1979-03-22,N/A,Entodon nano-climacium C.M. (= E. micans Herz.),Entodon nano-climacium,W. Buck,1980,N/A,Bolivia,La Paz,Larecaja,N/A,Near large red outcrop 2 mi. from Sorata down Rio Consata,Near large red outcrop 2 miles from Sorata down Rio Consata,Very shady ground along creek in humid shrubs,2600 m.,"15° 41' S., 68° 43' W.",1078759,Typed,no type status
0052_C2079723F.jpg,Marko Lewis no. 79-1346,M. Lewis,N/A,79-1346,1 April 1979,1979-04-01,N/A,cf. Entodon polycarpus,Entodon polycarpus,W. Buck,1980,N/A,Bolivia,La Paz,Larecaja,N/A,Between Abra Huallata and waterfall at Millipaya 16° 51' S. 68° 39' W.,Between Abra Huallata and waterfall at Millipaya,Waterfall ravine highest extension of shrubs,3780 m.,16° 51' S. 68° 39' W.,1078757,Typed,no type status
0053_C2079595F.jpg,H. Roivainen,H. Roivainen,N/A,2095,25.1.1970,1970-01-25,N/A,Isopterygium pulchellum (Hedw.) Jaeg.,Isopterygium pulchellum,R. Ochyra,1996,Nothofagus pumilio,Argentina,Tierra del Fuego,N/A,Ushuaia,Arroyo Grande (54°47.5'S 68°17'W) en fisuras de roca y en raices humoso-arcillosos de Nothofagus pumilio en orilla de la cascada 150 m s.m.bastante copiosamente,Arroyo Grande in rock fissures and in humus-clay roots of Nothofagus pumilio on the edge of the waterfall 150 meters above sea level,en fisuras de roca y en raices humoso-arcillosos de Nothofagus pumilio en orilla de la cascada 150 m s.m.bastante copiosamente,150 m s.m.,54°47.5'S 68°17'W,1132417,Typed,no type status
0054_C2079596F.jpg,H. Roivainen,H. Roivainen,N/A,1352,24.12.1969,1969-12-24,N/A,Isopterygium pulchellum (Brid.) Jaeg.,Isopterygium pulchellum,R. Ochyra,1996,N/A,Argentina,Tierra del Fuego,N/A,Ushuaia,"Valle del río pipo (5°46'S, 68°20'W), suelo humoso húmedo en el pendiente del río","Valle del río pipo, Ushuaia","Suelo humoso húmedo en el pendiente del río, bastante copiosamente",300 m s.n.m.,"5°46'S, 68°20'W",1132415,Typed,no type status
0055_C2079597F.jpg,leg. B. P. Phillip & A. C. Smith,B. P. Phillip,A. C. Smith,14871,"November 29, 1926",1926-11-29,N/A,Isopterygium stigmosum (C. M.) Par.,Isopterygium tenerum,R. R. Ireland,1988,N/A,Colombia,Santander,N/A,N/A,between Puerto Wilches and Puerto Santos,between Puerto Wilches and Puerto Santos,N/A,alt. 110-115 m,N/A,1040009,Mix of Handwritten and Typed,no type status
0056_C2079598F.jpg,Leg. Richard Evans Schultes,R. E. Schultes,N/A,Nollillo,"Dec., 1950",1950-12-00,N/A,Isopterygium tenerum (Sw.) Mitt.,Isopterygium tenerum,D. Griffin III,N/A,N/A,Colombia,Meta,N/A,Villavicencio,alrededores de Villavicencio,Alrededores de Villavicencio,N/A,Alt. 500 m.,N/A,1055473,Mix of Handwritten and Typed,no type status
0057_C2079599F.jpg,Leg.: D. C. Geijskes,D. C. Geijskes,N/A,s.n.,29-9-1952,1952-09-29,N/A,Isopterygium tenerum (Sw.) Mitt.,Isopterygium tenerum,H. R. Zielman,N/A,N/A,Suriname,N/A,N/A,N/A,Jodensavanne,Jodensavanne,"On roots and rocks on bank of river, shaded",N/A,N/A,1073518,Typed,no type status
0058_C2079600F.jpg,Ynes Mexia,Y. Mexia,N/A,4812,July 9 1930,1930-07-09,N/A,Isopterygium brachypus (C.M.) Mitt. c. fr.,Isopterygium tenerum,R. R. Ireland,1988,N/A,Brazil,Minas Gerais,N/A,Vicosa,Agricultural College land Horticultural Hill Cut over woods near base,Agricultural College land Horticultural Hill Cut over woods near base,On rotting log Abundant,Alt. 970 m,N/A,1039979,Typed,no type status
0059_C2079601F.jpg,Ynes Mexia,Y. Mexia,N/A,4888,"July 21, 1930",1930-07-21,N/A,Isopterygium laxum (Hpe.) Broth.,Isopterygium tenerum,R. R. Ireland,1988,N/A,Brazil,Minas Gerais,N/A,N/A,Viçosa Agricultural College lands Corriga Ribeiro,Viçosa Agricultural College lands Corriga Ribeiro,Shady streambank On rotten wood,Alt. 675 m,N/A,82365,Typed,no type status
0060_C2079602F.jpg,Ynes Mexia,Y. Mexia,N/A,5380,"Dec. 6, 1930",1930-12-06,N/A,Isopterygium brachypus (Schwägr.) Mitt.,Isopterygium tenerum,R. R. Ireland,1988,N/A,Brazil,Minas Gerais,N/A,N/A,road to São Miguel About km 4,road to São Miguel About 4 kilometers,Dense forest On rotten log,Alt. 710 m,N/A,870841,Typed,no type status
0061_C2079603F.jpg,Ynes Mexia,Y. Mexia,N/A,5441,"Dec. 23, 1930",1930-12-23,N/A,Isopterygium tenerum (Sw.) Mitt.,Isopterygium tenerum,R. R. Ireland,1988,N/A,Brazil,Minas Gerais,N/A,N/A,Viçosa Agricultural College lands Base of Horticultural Hill,Viçosa Agricultural College lands Base of Horticultural Hill,On rotting log in woods Abundant,Alt. 670 m,N/A,870823,Typed,no type status
0062_C2079604F.jpg,"H. S. Irwin, R. M. Harley, G. L. Smith",H. S. Irwin,R. M. Harley | G. L. Smith,31332,2 March 1971,1971-03-02,N/A,Isopterygium tenerum (Sw.) Mitt.,Isopterygium tenerum,R. R. Ireland,1988,Coccoloba,Brazil,Bahia,N/A,N/A,Valley of the Rio das Ondas,Valley of the Rio das Ondas,On the bark and exposed roots of Coccoloba sp. and on adjacent soil at river bank. Cut-over gallery forest and adjacent cerrado ca. 10km W. of Barreiras,elev. ca. 500m,N/A,1059328,Mix of Handwritten and Typed,no type status
0063_C2079606F.jpg,Ynes Mexia,Y. Mexia,N/A,4884,"July 21, 1929",1929-07-21,N/A,Isopterygium tenerum (Sw.) Mitt.,Isopterygium tenerum,R. R. Ireland,1988,N/A,Brazil,Minas Gerais,N/A,Viçosa,Viçosa Agricultural College lands. Córrego Hidroforo,Viçosa Agricultural College lands. Córrego Hidroforo,Shady streambank on rotten log. Abundant,Alt. 675 m.,N/A,870845,Typed,no type status
0064_C2079607F.jpg,Yves Mexia,Y. Mexia,N/A,4698,"May 14, 1930",1930-05-14,N/A,Isopterygium curvifolium (L.) Mitt. ex. p.,Isopterygium tenerum,Bartram,N/A,N/A,Brazil,Minas Gerais,N/A,N/A,Fazenda de Cresiuma,Fazenda de Cresiuma,Wood on slope On rotten log,Alt. 700 m,N/A,870839,Typed,no type status
0065_C2079608F.jpg,Ynes Mexia,Y. Mexia,N/A,4884,"July 21, 1930",1930-07-21,N/A,Isopterygium curvicolium (Sch.) Mitt.,Isopterygium tenerum,Bartram,N/A,N/A,Brazil,Minas Gerais,N/A,N/A,"Viçosa Agricultural College lands. Corrigo Ribeiro. Shady streambank, on rotten log.",Viçosa Agricultural College lands. Corrigo Ribeiro.,"Shady streambank, on rotten log. Abundant.",Alt. 675 m.,N/A,1039977,Typed,no type status
0066_C2079609F.jpg,Ynes Mexia,Y. Mexia,N/A,4545,"March 31, 1930",1930-03-31,N/A,Isopterygium curvifolium (C. M.) Mitt.,Isopterygium tenerum,Bartram | R. R. Ireland,1988,N/A,Brazil,Minas Gerais,N/A,N/A,Road to São Miguel Near stream Turvo,Road to São Miguel Near stream Turvo,Cut over woods on slope On rotting tree trunk,Alt. 710 m.,N/A,1039978,Typed,no type status
0067_C2079611F.jpg,leg. V. Schiffner,V. Schiffner,N/A,2898,Dec. 65-67 m. Jul. fr.,1865-12-00,1867-07-00,Isopterygium auranticum (M. X. Bosch),Isopterygium tenerum,R. R. Ireland,1988,N/A,Brazil,Sao Paulo,N/A,N/A,prope Urbem Cerqueira Cesar,prope Urbem Cerqueira Cesar,N/A,500-800 m,N/A,C2071914F,Mix of Handwritten and Typed,no type status
0068_C2079856F.jpg,Ynes Mexia,Y. Mexia,N/A,4841,"July 6, 1950",1950-07-06,N/A,Isopterygium brachymucron (C. Müll.) Mitt. exp. det. Bartram,Isopterygium tenerum,R. R. Ireland,1988,N/A,Brazil,Minas Gerais,N/A,N/A,Vicosa Agricultural College lands Horticultural Hill Cut over woods near base On rotting log,Vicosa Agricultural College lands Horticultural Hill Cut over woods near base On rotting log,Cut over woods near base On rotting log Abundant,Alt. 670 m,N/A,870887,Typed,no type status
0069_C2000932F.jpg,C. Müller Frib.,C. Müller Frib.,N/A,476,9. Sept. 1905,1905-09-09,N/A,Pogonatum urnigerum (L.) Pal. Beauv. c. fr.,Pogonatum urnigerum,unsure and check,unsure and check,N/A,Germany,Baden-Württemberg,N/A,N/A,Seebuck an Feldberg,Seebuck an Feldberg,auf Erde in Felstrümmern zwischen Hinken und Seebuck an Feldberg etwa 1250 m s. m.,etwa 1250 m s. m.,N/A,1134291,Typed,no type status
0070_C2000934F.jpg,leg. Zd. Pilous,Z. Pilous,N/A,s.n.,V.1946,1946-05-00,N/A,Pogonatum urnigerum P. B.,Pogonatum urnigerum,N/A,N/A,N/A,Czech Republic,Bohemia,Krkonose,N/A,In declivis graminosis silvaticis prope pagum Horni Vrchlabi ca 580 m,Near the village of Horni Vrchlabi approximately 580 meters,In grassy forested slopes,ca 580 m,N/A,1279015,Typed,no type status
0071_C2000943F.jpg,C. Jensen,C. Jensen,N/A,s.n.,25/10 1901,1901-10-25,N/A,Pogonatum urnigerum (Hedw.) P. Beauv.,Pogonatum urnigerum,C. Jensen,N/A,N/A,Denmark,Sjælland,N/A,N/A,Magistratskovene by Hvalsø in a gravel-pit,Magistratskovene by Hvalsø in a gravel-pit,in a gravel-pit,N/A,N/A,C0000931F,Typed,no type status
0072_C2010620F.jpg,"Jack, Leiner u. Stizenberger",N/A,N/A,986A,25. August 1850,1850-08-25,N/A,Pogonatum urnigerum (L.) Pal. Beauv.,Pogonatum urnigerum,N/A,N/A,N/A,Germany,N/A,N/A,N/A,b. Am Waldrabinen bei Salem,Am Waldrabinen near Salem,N/A,N/A,N/A,1054839,Typed,no type status
0073_C2010622F.jpg,Dr. Hepp,Dr. Hepp,N/A,9868,17 October 1862,1862-10-17,N/A,B. Pogonatum urnigerum (L.) Pal. Beauv.,Pogonatum urnigerum,N/A,N/A,N/A,Germany,Bavaria,Degerfeld,N/A,An einer Waldwiese auf der roten Sandsteinbuchen oberhalb Degerfelds,An einer Waldwiese auf der roten Sandsteinbuchen oberhalb Degerfelds,N/A,N/A,N/A,1054981,Typed,no type status
0074_C2010624F.jpg,"Jack, Leiner u. Steineberger, kryptogamen Badens, Phor. XXI.",J. Jack,L. Leiner | U. Steineberger,9658 b,September 1862,1862-09-00,N/A,Pogonatum urnigerum (L.) Pal. Beauv.,Pogonatum urnigerum,N/A,N/A,N/A,Germany,Baden-Württemberg,N/A,N/A,In Rheinbergen bei Schaffhausen,In Rheinbergen near Schaffhausen,N/A,N/A,N/A,1055060,Typed,no type status
0075_C2010626F.jpg,Coll. and decern. C. Jensen,C. Jensen,N/A,s.n.,"November 21, 1904",1904-11-21,N/A,Pogonatum urnigerum (Hedw.) P. Beauv. c. fr.,Pogonatum urnigerum,C. Jensen,N/A,N/A,Denmark,Zealand,N/A,N/A,sandy soil in Magistratskovene south of Hvalsø,Magistratskovene south of Hvalsø,sandy soil,N/A,N/A,N/A,Typed,no type status
0076_C2010974F.jpg,P. Allorge,P. Allorge,N/A,49,22. VIII. 1927,1927-08-22,N/A,"Pogonatum urnigerum (Linde Sp. Plant. II p. 1090, N. 3, 1735, sub Polytrichum), Palisot de Beauvois Prodr. p. 88, 1805, et",Pogonatum urnigerum,P. Allorge,mai 1928,N/A,Spain,Santander,N/A,N/A,Picos de Europa,Picos de Europa,talus argileux schisteux avec Dicranum scoparium (L.) Hedw. | Andreaea petrophila Ehrh. | Grimmia pulvinata (L.) Sm. | Polytrichum juniperinum Willd. | Racomitrium lanuginosum (Hedw.) Brid. | Schistidium apocarpum (Hedw.) B.S.G. | Tortula ruralis (Hedw.) Gaertn. | Dicranoweisia cirrata (Hedw.) Lindb. | Antitrichia curtipendula (Hedw.) Brid. | Hypnum cupressiforme Hedw. | Hylocomium splendens (Hedw.) B.S.G. | Rhytidiadelphus loreus (Hedw.) Warnst. | Rhytidiadelphus triquetrus (Hedw.) Warnst.,"ca 1,050 m",N/A,12001229,Typed,no type status
0077_C2010976F.jpg,leg. Zdeněk Pilous,Z. Pilous,N/A,1025,VII.1949,1949-07-00,N/A,Pogonatum urnigerum Pal. var. humile Brid.,Pogonatum urnigerum,N/A,N/A,N/A,Slovakia,N/A,N/A,N/A,"Montg Nízké Tatry: In terra montis Dumbier, ca 1840 m",Montg Nízké Tatry: In terra montis Dumbier,N/A,ca 1840 m,N/A,1350887,Typed,no type status
0078_C1042257F.jpg,S. Churchill et al.,S. Churchill,N. Huaylla | R. Lozano | M. Serrano,22853,12 May 2004,2004-05-12,N/A,Neckera scabrisens C. Müller,Neckera scabrisens,S. Churchill,Jun 2004,N. chilensis | C. serrano,Bolivia,Chuquisaca,Belisario Boeto,Monte Grande,Monte Grande ca. 32 km de Villa Serrano Bosque montano de yungas Con Prumnopitys exigua Podocarpus Myrcianthes,Monte Grande approximately 32 kilometers from Villa Serrano,Bosque montano de yungas,2740 m,"18°43'43""S 64°29'07""W",1183467,Mix of Handwritten and Typed,no type status
0079_C2020438F.jpg,Collected by WILLIAM R. BUCK,W. R. Buck,N/A,6060,16 Aug 1981,1981-08-16,N/A,HYPNUM CUPRESSIFORME var. LACUNOSUM Brid.,Hypnum cupressiforme,Unsure and check,Unsure and check,Eucalyptus,Australia,Victoria,N/A,N/A,ca. 5 mi W of Beaufort on Hwy 8,ca. 5 miles West of Beaufort on Highway 8,Eucalyptus forest flooded after rains,500m,N/A,1052208,Typed,no type status
0080_C0268725F.jpg,V. et P. Allorge,V. Allorge,P. Allorge,133,14.VI.1937,1937-06-14,N/A,Poconoium uniferum (Hedw.) P.B.,Poconoium uniferum,unsure and check,unsure and check,N/A,Portugal,Azores,N/A,S. Miguel,talus découvert Salto do Cavalo vers 700 m,Salto do Cavalo,talus découvert,vers 700 m,N/A,1181624,Mix of Handwritten and Typed,no type status
0081_C0342515F.jpg,"T. Husnot, à Cahan, par Athis (Orne)",T. Husnot,N/A,s.n.,N/A,0000-00-00,N/A,Weisia compacta Brid.,Weisia compacta,N/A,N/A,N/A,France,Orne,N/A,Athis,Rochers schisteux de la Solentiere (Lamberthe),Rochers schisteux de la Solentiere (Lamberthe),N/A,N/A,N/A,1084497,Mix of Handwritten and Typed,no type status
0082_C2056314F.jpg,N/A,N/A,N/A,276,18 Juli 1900,1900-07-18,N/A,Sphaerella fimetum (Funk) Boulay 1884,Sphaerella fimetum,N/A,N/A,N/A,Italy,Como,N/A,N/A,Prov. Como Stravalle bei Torno auf nassen Wiesen etwa 500 m s.m.,Stravalle bei Torno on wet meadows about 500 meters above sea level,Mein verehrter Freund Dr. Levier hat die Pflanze unter einem Wasserfalle bei Campello Monti prachtvoll entwickelt und in Massen bereits vor Jahren gesammelt ich habe sie dort leider nicht mehr finden können,etwa 500 m s.m.,N/A,1134435,Typed,no type status
0083_C2056763F.jpg,A. Piccone,A. Piccone,N/A,256,Settembre 1871,1871-09-00,N/A,Philonotis fontana var. falcata,Philonotis fontana,N/A,N/A,N/A,Italy,Piedmont,N/A,N/A,Alle sorgenti del Sesia (Monte Rosa),Alle sorgenti del Sesia Monte Rosa,N/A,N/A,N/A,982325,Mix of Handwritten and Typed,no type status
0084_C2055747F.jpg,N. Pedicino e G. G. Giordano,N. Pedicino,G. G. Giordano,s.n.,Giugno 1869,1869-06-00,N/A,AMBLYSTEGIUM COMMUTATUM (Hedw.) De Not.,Amblystegium commutatum,N/A,N/A,N/A,Italy,Campania,Salerno,Vietri,N/A,Vietri di Salerno,Su ripi irrigate,N/A,N/A,982275,Typed,no type status
0085_C0679948F.jpg,leg. J.-P. Frahm,J.-P. Frahm,N/A,384,5.9.1982,1982-09-05,N/A,Campylopus richardii BRID.,Campylopus richardii,Frahm,N/A,N/A,Peru,Amazonas,Chachapoyas,N/A,Straße Chachapoyas - Cajamarca km 413,Straße Chachapoyas - Cajamarca km 413,auf feuchtem Erdboden am Straßenrand,3000m,N/A,N/A,Typed,no type status
0086_C0341828F.jpg,Richard Evans Schultes et Isidoro Cabrera,R. E. Schultes,I. Cabrera,15653,"May 19, 1952",1952-05-19,N/A,Leucoloma lignicola Spruce ex Mitt. & Callicostella apera (Mitt.) Jaeg.,Leucoloma lignicola,H. A. Crum,1956,N/A,Colombia,Amazonas,N/A,N/A,Rio Miritiparaná: Caño Guacayá,Rio Miritiparaná: Caño Guacayá,On wet fallen log,Altitude about 700 feet,Lat. 0° 05' S Long. 70° 40' W,1055465,Typed,no type status
0087_C0342107F.jpg,William R. Buck,W. R. Buck,N/A,2445,9-12 July 1979,1979-07-09,1979-07-12,Hookeriopsis parkeriana (Hook. & Grev.) Jaeg.,Hookeriopsis parkeriana,N/A,N/A,N/A,Brazil,Amazonas,N/A,N/A,Slopes and summit of Serra Curicuriari from Igarapé Arabú of the Rio Curicuriari to the summit,Slopes and summit of Serra Curicuriari from Igarapé Arabú of the Rio Curicuriari to the summit,On branches at summit,ca. 450 m at summit,"00°02'S, 66°50'W",112861,Typed,no type status
0088_C0341117F.jpg,leg. P. & P. Hegewald,P. Hegewald,P. Hegewald,6989,Datum 31.8.1973,1973-08-31,N/A,Philonotis sphaerocarpa (Hedw.) Brid.,Philonotis sphaerocarpa,Dana Griffin III,N/A,N/A,Peru,Amazonas,Chachapoyas,N/A,Las Palmas zw. Balsas u. Leimebamba,Las Palmas between Balsas and Leimebamba,"Fels, Erde, Mauer, Baum, Strauch, Holz, See, Bach",3000 m,N/A,1061647,Typed,no type status
0089_C0679841F.jpg,leg. J.-P. Frahm,J.-P. Frahm,N/A,s.n.,6.9.1982,1982-09-06,N/A,Campylopus heterostachys (Hamp.) Jaeg.,Campylopus heterostachys,unsure and check,unsure and check,N/A,Peru,Amazonas,N/A,N/A,"Straße Cajamarca - Chachapoyas km 417,5 oberhalb Leimebamba, auf überedem Steinblock in Nebelwald",Straße Cajamarca - Chachapoyas km 417.5 above Leimebamba on a stone block in cloud forest,auf überedem Steinblock in Nebelwald,2600 m,N/A,1053590,Typed,no type status
0090_C0399126F.jpg,L. R. Reitz,L. R. Reitz,N/A,2464,17.12.1948,1948-12-17,N/A,Campylopus arctocarpus (Hornsch.) Mitt.,Campylopus arctocarpus,E. B. Reimers,1949,N/A,Brazil,Santa Catarina,N/A,N/A,"Campo dos Padres, Bom Retiro","Campo dos Padres, Bom Retiro",Rupestre,2000 msm,N/A,5512,Typed,No type status
0091_C0399179F.jpg,leg. Frahm,N. Frahm,N/A,s.n.,Frahm 22.7.1977,1977-07-22,N/A,Campylopus arctocarpus (Hornsch.) Mitt.,Campylopus arctocarpus,N/A,N/A,N/A,Brazil,Sao Paulo,N/A,Sao Jose dos Barreiros,Serra do Bocaina Leesite an der Straße Campos da Cunha,Serra do Bocaina Leesite on the road Campos da Cunha,epiphytisch im Podocarpus-Wald,1200 m,N/A,1026026,Typed,no type status
0092_C0399191F.jpg,N/A,N/A,N/A,993,Data 29-1-1958,1958-01-29,N/A,Campylopus arctocarpus (Hornsch.) Mitt.,Campylopus arctocarpus,N/A,N/A,N/A,Brazil,Santa Catarina,N/A,N/A,"Morro do San, Itajai","Morro do San, Itajai",N/A,Alt. 600 msm,N/A,N/A,Typed,no type status
0093_C0679855F.jpg,leg. Frahm,N. Frahm,N/A,s.n.,4.8.1977,1977-08-04,N/A,Campylopus pilifer Brid. (=C. polytrichoides De Not.),Campylopus pilifer,N. Frahm,N/A,N/A,Brazil,Rio de Janeiro,N/A,N/A,Corcovado 600 m,Corcovado,an feuchten zeitweise überrieselten w-exponierten Felsen,600 m,N/A,1026006,Typed,no type status
0094_C0679858F.jpg,leg. Frahm,N. Frahm,N/A,s.n.,30.7.1977,1977-07-30,N/A,Campylopus pilifer Brid.,Campylopus pilifer,N. Frahm,N/A,N/A,Brazil,Minas Gerais,N/A,N/A,an der Straße MG 2 zwischen Serro und Datas südlich Diamantina,on the road MG 2 between Serro and Datas south of Diamantina,an offen exponierten zeitweise überrieselten Gesteinsblöcken eines sukkulentreichen Berghanges,N/A,N/A,1026008,Typed,no type status
0095_C0679833F.jpg,leg. Schäfer-Verwimp,Schäfer-Verwimp,N/A,9019,5.9.1987,1987-09-05,N/A,Campylopus griseus (Hornsch.) Jaeg.,Campylopus griseus,Schäfer-Verwimp,N/A,N/A,Brazil,São Paulo,N/A,N/A,"Pedra Grande bei Atibaia Campo-Vegetation im Gipfelbereich, schieferfächer Felshang 1400 msm",Pedra Grande near Atibaia,"Campo-Vegetation in the summit area, slate fan rock slope",1400 msm,N/A,1097651,Typed,no type status
0096_C0679848F.jpg,Reitz & Klein,R. Reitz,R. Klein,N. 3.235,4.5.1956,1956-05-04,N/A,Campylopus penicillatus (Hedw.) Jaeg.,Campylopus penicillatus,E. Bartram,1957,N/A,Brazil,Santa Catarina,N/A,Palhoça,Pilões Palhoça,Pilões Palhoça,Mata,Alti. 300 m,N/A,2001426,Typed,no type status
0097_C2032310F.jpg,B. Leland and E. W. B. Chase,B. Leland,E. W. B. Chase,270,February 1910,1910-02-00,N/A,Rhacopilum confusum Cardot in herb.,Rhacopilum confusum,unsure and check,unsure and check,N/A,New Zealand,N/A,N/A,N/A,"Te Aroha, New Zealand","Te Aroha, New Zealand",N/A,N/A,N/A,1023785,Typed,no type status
0098_C2032321F.jpg,John Child,J. Child,N/A,M 4147,11 Jul 1973,1973-07-11,N/A,Rhacopilum,Rhacopilum,unsure and check,N/A,N/A,New Zealand,North Auckland,N/A,N/A,Track to Mahuta Waipoua,Track to Mahuta Waipoua,Epiphyte on tree in Kauri forest,ca. 1000 ft,35°40'S 173°30'E,1066095,Typed,no type status
0099_C0341739F.jpg,Marko Lewis,M. Lewis,N/A,83-503,7 Feb 1983,1983-02-07,N/A,Racopilum tomentosum (Hedw.) Brid.,Racopilum tomentosum,unsure and check,unsure and check,N/A,Bolivia,La Paz,Nor Yungas,Coroico,1 km S of Coroico along road between Coroico and Yolosa,1 kilometer south of Coroico along road between Coroico and Yolosa,Fruit and coffee plantations. On rocks in shady fruit orchard.,ca. 1650 m,"16°11'S, 67°43'W",1100456,Typed,no type status
