associatedTaxa,collectedBy,country,firstPoliticalUnit,habitat,identifiedBy,latestScientificName,locality,maximumEventDate,minimumEventDate,municipality,originalMethod,otherCatalogNumbers,recordNumber,secondPoliticalUnit,secondaryCollectors,typeStatus,verbatimCollectors,verbatimCoordinates,verbatimDateIdentified,verbatimElevation,verbatimEventDate,verbatimIdentification,verbatimLocality
N/A,M. Fleischer,Australia,Queensland,Urwald,unsure and check,Macromitrium,Bumundi (approximately 100 kilometers north of Brisbane),N/A,1903-03-25,N/A,Typed,1076713,B 2754,N/A,N/A,no type status,PASS,N/A,N/A,N/A,25.3.1903,Macromitrium,Bumundi (ca. 100 km nördlich Brisbane) Urwald
N/A,M. Fleischer,Australia,Queensland,Urwald,unsure and check,Macromitrium,Eumundi (approximately 100 kilometers north of Brisbane),N/A,1903-03-25,Eumundi,Typed,1076699,B 2692,N/A,N/A,no type status,PASS,N/A,N/A,N/A,25.3.1903,Macromitrium,Eumundi (ca. 100 km nördlich Brisbane) Urwald
N/A,M. Fleischer,Australia,New South Wales,N/A,unsure and check,Macromitrium,Blue Mountains near Sydney Wentworth Falls,N/A,1903-04-06,N/A,Typed,1076824,B 2552,N/A,N/A,no type status,PASS,N/A,unsure and check,N/A,6.4.1903,Macromitrium,Blue Mountains bei Sydney Wentworth Falls
N/A,M. Fleischer,Australia,Queensland,N/A,unsure and check,Macromitrium,Brisbane,N/A,1903-03-20,N/A,Typed,1076705,B 2697,N/A,N/A,no type status,PASS,N/A,N/A,N/A,20.3.1903,Macromitrium,bei Brisbane
N/A,T. Nakajima,Japan,Wakayama,On vertical face of rock,T. Nakajima,Macromitrium gymnostomum,"Ohara, Yuya, Oto-mura",N/A,1971-03-27,N/A,Typed,1043494,1229,N/A,N/A,no type status,PASS,N/A,N/A,PASS,"Mar. 27, 1971",Macromitrium gymnostomum Sull. et Lesq. e. fr.,"Ohara, Yuya, Oto-mura, Nishimuro-gun"
Fagus crenata,T. Nakajima,Japan,Nara,On trunks of Fagus crenata,T. Nakajima,Macromitrium gymnostomum,Mt. Ohako,N/A,1968-05-04,N/A,Typed,1043492,714,N/A,N/A,no type status,PASS,N/A,N/A,ca. 1200 m,"May 4, 1968",Macromitrium gymnostomum Sull. et Lesq.,Mt. Ohako
N/A,T. Nakajima,Japan,Wakayama,"On rocks, ca. 100 meters alt.",T. Nakajima,Macromitrium gymnostomum,"Sūgawa, Shirahama-chō",N/A,1967-03-28,Shirahama-chō,Typed,10434191,s.n.,N/A,N/A,no type status,PASS,N/A,N/A,PASS,"March 28, 1967",Macromitrium gymnostomum Sull. & Lesq.,"Sūgawa, Shirahama-chō, Nishimuro-gun, Wakayama Prefecture"
N/A,S. Hattori,Japan,Miyazaki,ad arborum truncos,A. Noguchi,Macromitrium gymnostomum,"KIUSHIU, Miyazaki, Minaminaka, Sakatani",N/A,1946-07-00,N/A,Typed,1285073,s.n.,N/A,N/A,no type status,PASS,N/A,N/A,ca 500 m,LXX. 1946,Macromitrium gymnostomum Sull. et Lesq.,"KIUSHIU, Miyazaki, Minaminaka, Sakatani"
N/A,J. B. Berrié,Japan,N/A,N/A,Thériot,Macromitrium gymnostomum,Centre de l'Ile,N/A,1898-04-20,N/A,Typed,1000415,s.n.,N/A,N/A,no type status,R.P. J.B. Berrié,N/A,N/A,N/A,20.4.1898,Macromitrium gymnostomum S. L.,Iles Liou-Kiou - Centre de l'Ile
N/A,R. P. Ferrié,Japan,Kagoshima,N/A,Thériot,Macromitrium gymnostomum,Yaku-Sima,1898-11-00,1898-10-00,N/A,Typed,1000416,s.n.,N/A,J. B. Ferrié,no type status,PASS,N/A,N/A,N/A,oct. - nov. 1898,Macromitrium gymnostomum S. L. = m. rupestre Mitt Sull. Card.,Yaku-Sima
N/A,A. Touw,Papua New Guinea,Morobe,N/A,D. H. Vitt,Macromitrium incurvifolium,In fork of Plumeria tree in garden.,N/A,1975-03-09,Lae,Typed,1142151,14660,N/A,N/A,no type status,A. Touw,N/A,N/A,c. 20 m.,9-3-1975,Macromitrium incurvifolium (Hook. & Grev.) Schwager.,In fork of Plumeria tree in garden.
N/A,A. Touw,Papua New Guinea,West Sepik,Wet forest on slope above Ok Din river on trees along Ok Din River,D. H. Vitt,Macromitrium longicaule,Wet forest on slope above Ok Din river west of Busilmin on trees along Ok Din River,N/A,1975-05-20,Busilmin,Typed,1141855,18543,Star Mts.,N/A,no type status,A. Touw,c. 5°41'S 141°05'E,N/A,c. 1500 - 1550 m,20.5.1975,Macromitrium longicaule C. Müll.,Wet forest on slope above Ok Din river W of Busilmin on trees along Ok Din River
N/A,N/A,Papua New Guinea,West Sepik,On stems and branches of trees and shrubs in summit scrub.,D. H. Vitt,Macromitrium macrosporum,NE summit of Mount Capella,N/A,1975-05-08,N/A,Typed,1142194,17369,Star Mts.,N/A,no type status,N/A,c. 5°14'S 141°05'E,N/A,c. 3900 m,8.5.1975,Macromitrium macrosporum Broth.,NE summit of Mt. Capella; on stems and branches of trees and shrubs in summit scrub.
N/A,A. Town,Papua New Guinea,West Sepik,c. 4-5 m high stunted forest on ridge on trees and shrubs,D. H. Vitt,Macromitrium macrosporum,Mt. Capella Base Camp Limestone ridge near camp,N/A,1975-04-17,N/A,Typed,1142178,16376,N/A,N/A,no type status,A. Town,c. 5° S 141° 05' E,N/A,c. 3600 m,17.4.1975,Macromitrium macrosporum Broth.,Mt. Capella Base Camp Limestone ridge near camp
N/A,A. Touw,Papua New Guinea,West Sepik,N/A,D. H. Vitt,Macromitrium macrosporum,Star Mountains northeast summit of Mount Capella. Summit of ridge between Mount Capella Base Camp and Mount Capella ridge; on isolated tree.,N/A,1975-05-08,N/A,Typed,1142156,17312,N/A,N/A,no type status,A. Touw,"c. 5°14'05"" NE",N/A,c. 3650 m,8.5.1975,Macromitrium macrosporum Broth.,"Star Mts. c. 5°14'05"" NE Summit of Mt. Capella. Summit of ridge between Mt. Capella Base Camp and Mt. Capella ridge; on isolated tree."
N/A,A. Touw,Papua New Guinea,West Sepik,Forest remnant in deep chasm near the summit on soaking wet bark of trees,D. H. Vitt,Macromitrium macrosporum,Star Mountains approximately 5 degrees South 141 degrees 05 minutes East Mount Capella Northeast summit,N/A,1975-04-19,N/A,Typed,1142175,16420,N/A,N/A,no type status,A. Touw,c. 5°S 141°05'E,N/A,c. 3900 m,19.4.1975,Macromitrium macrosporum Broth.,Star Mts. c. 5°S 141°05'E Mt. Capella NE summit
N/A,A. Town,Papua New Guinea,West Sepik,Open subalpine scrub At base of limestone rock faces,D. H. Vitt,Macromitrium macrosporum,Near Mt. Capella Base Camp along trail to Tamanagabip,N/A,1975-05-05,N/A,Typed,1141880,17205,Star Mts.,N/A,no type status,A. Town No. 17205,c. 5°41'05''E,N/A,c. 3450 m.,5.5.1975,Macromitrium macrosporum Broth.,Near Mt. Capella Base Camp along trail to Tamanagabip open subalpine scrub At base of limestone rock faces
N/A,A. Town,Papua New Guinea,West Sepik,Pendulous from heavy tree branches and slanting trunks,D. H. Vitt,Macromitrium megalocladon,Star Mountains Upper montane forest between Folongonom and Arits' Camp,N/A,1975-05-14,N/A,Typed,1142187,18046,N/A,N/A,no type status,A. Town,c. 5°S 141°05'E,N/A,c. 2500 - 2600 m.,14.5.1975,Macromitrium megalocladon Fleisch.,Star Mts. c. 5°S 141°05'E Upper montane forest between Folongonom and Arits' Camp
N/A,A. Touw,Papua New Guinea,West Sepik,N/A,D. H. Vitt,Macromitrium megalocladon,Small kuni (grassfield) southwest of Mount Capella Base Camp; on vertical face of moss covered limestone boulder at edge of kuni,N/A,1975-04-21,N/A,Typed,1142432,16555,Star Mts.,N/A,no type status,A. Touw,c. 5°41'S 141°0'E,N/A,c. 3400 m,21.4.1975,Macromitrium megalocladon Fleisch.,Small kuni (grassfield) SW of Mt. Capella Base Camp; on vertical face of moss covered limestone boulder at edge of kuni
N/A,A. Touw,Papua New Guinea,West Sepik,"Terrestrial in open shrubbery on ridge. Dense moss vegetation covering soil, rocks and the lower portion of shrubs. Dominant.",D. H. Vitt,Macromitrium megalocladon,Star Mountains Tel Basin Ridge above Camp 2,N/A,1975-04-07,N/A,Typed,1142300,15768,N/A,N/A,no type status,A. Touw,c. 5° 41' S 141° 07' E,N/A,c. 3350 m,7.4.1975,Macromitrium megalocladon Fleisch.,Star Mts. c. 5° 41' S 141° 07' E Tel Basin; Ridge above Camp 2
N/A,S. Hattori,Japan,Miyazaki,rupicolous photophilous ca 50 m,A. Noguchi,Macromitrium incurvum,Obi,N/A,1946-08-00,Obi,Typed,4235066,s.n.,Minaminaka,N/A,no type status,PASS,N/A,Ser. I (1947),ca 50 m,VIII. 1946,Macromitrium incurvum (Lindb.) Par.,KIUSHIU Miyazaki Minaminaka Obi
N/A,K. Mayebara,Japan,Kumamoto,N/A,A. Noguchi,Macromitrium incurvum,On exposed rocks 60 meters above sea Yoshio,N/A,1951-12-25,Yoshio,Typed,1043529,s.n.,N/A,N/A,no type status,PASS,N/A,N/A,60 m. above sea,"December 25, 1951",Macromitrium incurvum (Lindb.) Par.,On exposed rocks 60 m. above sea Yoshio Kumamoto Prefecture
N/A,A. Mayebara,Japan,Kumamoto,On rocks,A. Noguchi,Macromitrium gymnostomum,On rocks approximately 100 meters above sea level Koonose,N/A,1952-02-11,Koonose,Typed,1043490,430,N/A,N/A,no type status,PASS,N/A,N/A,ca. 100 m. above sea,"February 11, 1952",Macromitrium gymnostomum Sull. et Lesq.,On rocks ca. 100 m. above sea Koonose Kumamoto Prefecture
N/A,K. Mayahara,Japan,Kumamoto,N/A,A. Noguchi,Macromitrium gymnostomum,On rocks approximately 100 meters altitude,N/A,1952-03-00,Hitoyoshi,Typed,1043493,s.n.,N/A,N/A,no type status,K. Mayahara,N/A,N/A,PASS,March 1952,Macromitrium gymnostomum Sull. & Lesq.,On rocks ca. 100m. alt. Hitoyoshi Kumamoto County
N/A,H. H. Cow,China,Fujian,"On rock, shaded",Theriot,Macromitrium gymnostomum,Kushan near Foochow,N/A,1925-08-00,N/A,Typed,N/A,B.206,N/A,N/A,no type status,H. H. Cow,N/A,N/A,500 m.,"August, 1925",Macromitrium gymnostomum S. & L.,Kushan near Foochow
N/A,H. H. Chung,China,Fujian,Bamboo forest,Theriot,Macromitrium gymnostomum,On rock in bamboo forest,N/A,1928-05-02,N/A,Typed,1122721,B.20,N/A,N/A,no type status,H. H. Chung,N/A,N/A,N/A,"May 2, 1928",Macromitrium gymnostomum Sull.,On rock in bamboo forest
Pandanus,T. Koponen,Papua New Guinea,Morobe,Rather open montane forest with dominating Pandanus trees,D. H. Vitt,Macromitrium longicaule,Lake Wamba 5 kilometers south of Teptep airstrip 1 kilometer south of lake,N/A,1981-07-23,N/A,Typed,1142665,33590,N/A,N/A,no type status,Timo Koponen,6°01'S 146°33'E,1989,2400 m,23 July 1981,Macromitrium longicaule C. Mull.,Lake Wamba 5 km S of Teptep airstrip Rather open montane forest with dominating Pandanus trees 1 km S of lake
N/A,H. H. Chow,China,Fujian,On shady rocks or bark,N/A,Macromitrium japonicum,"Nampota, Amoy",N/A,1928-03-00,N/A,Typed,1122615,B.4.,N/A,N/A,no type status,H. H. Chow,N/A,N/A,N/A,March 1928,Macromitrium japonicum (Dz. & Mb.) C. M.,"Nampota, Amoy"
N/A,T. Koponen,Papua New Guinea,Morobe,"Open alpine grassland and ""subalpine"" forest",Dale H. Vitt,Macromitrium macrosporum,Mt. Sarawaket Southern Range 2.5 kilometers south of L. Gwama east of Mt. Enggum,N/A,1981-07-09,N/A,Typed,1142666,32571,N/A,N/A,no type status,Timo Koponen,6°21'S 147°08'E,1989,3550 m,9 July 1981,Macromitrium macrosporum Broth.,"Mt. Sarawaket Southern Range 2.5 km S of L. Gwama open alpine grassland and ""subalpine"" forest at L. Kenoroh E of Mt. Enggum"
N/A,M. Mizutani,Japan,Okinawa,on tree trunk,Z. I.,Macromitrium synoicum,"Iriomote, Sonai",N/A,1975-01-23,N/A,Typed,1379,s.n.,N/A,I. Yoshimura,no type status,PASS,N/A,s.d.,PASS,"Jan. 23, 1975",Macromitrium synoicum Sull. et Lesq.,"Iriomote, Sonai"
N/A,C. K. Sakurai,Japan,Honshu,N/A,N/A,Macromitrium incurvum,prope fluvios et Robikioke rupiola photophila,N/A,1932-10-00,N/A,Typed,1356480,X. 1932,Musashi,N/A,no type status,PASS,N/A,N/A,N/A,X. 1932,Macromitrium incurvum (Lindb.) Paris,prope fluvios et Robikioke rupiola photophila
N/A,K. Sato,Japan,Kagoshima,On rock,A. Noguchi,Macromitrium gymnostomum,Isl. Amami-oshima,N/A,1970-04-03,Sumiyo-mura,Typed,639,s.n.,N/A,N/A,no type status,PASS,N/A,N/A,elevation about 120 m,"April 3, 1970",Macromitrium gymnostomum Sull. & Lesq.,Isl. Amami-oshima Kagoshima Pref.
N/A,V. Allorge,Portugal,Azores,talus découvert,unsure and check,Poconatum urnigerum,Salto do Cavalo,N/A,1937-06-14,S. Miguel,Typed,1181624,133,N/A,P. Allorge,no type status,V. et P. Allorge,N/A,N/A,vers 700 m,14.VI.1937,Poconatum urnigerum (Hedw.) P.B.,talus découvert Salto do Cavalo vers 700 m
N/A,M. Lewis,Bolivia,La Paz,Super humid Ceja de Montaña forests following ravines In small rill in dripping area of small waterfall,unsure and check,Philonotis,Tacacoma 3 Between 5-6 kilometers south of Tacacoma along road to Quiabaya 16-17 kilometers north of Sorata,N/A,1983-01-20,N/A,Typed,1100485,83-224,Larecaja,N/A,no type status,Marko Lewis,15°36'S 68°39'W,unsure and check,ca 3550 m,20 Jan 1983,Philonotis,Tacacoma 3 Between 5-6 km S of Tacacoma along road to Quiabaya 16-17 km N of Sorata
N/A,M. Lewis,Bolivia,La Paz,Eroding bank,unsure and check,Philonotis,Along road 1 miles from Sorata towards Achacachi,N/A,1979-03-29,N/A,Typed,110674,79-1314,Larecaja,N/A,no type status,Marko Lewis,"15° 45' S, 68° 42' W",unsure and check,2740 m.,29 March 1979,Philonotis fide Crum,Along road 1 mi. from Sorata towards Achacachi
N/A,M. Lewis,Bolivia,Cochabamba,On stones and banks of seepy creek in cloud forest ravine with tree ferns,unsure and check,Philonotis,Slope of Cerro Khachi North of Corani,N/A,1979-06-01,N/A,Typed,113558,79-2315,Chapare,N/A,no type status,Marko Lewis,17° 11' S 65° 54' W,unsure and check,3030 m,1 June 1979,Philonotis,Slope of Cerro Khachi N. of Corani 3030 m
N/A,A. W. M. Brunn,Bolivia,N/A,N/A,unsure and check,Philonotis,Unduavi,N/A,1950-10-13,N/A,Typed,1013011,6867,N/A,N/A,no type status,Collector: Alice W. M. A. M. Brunn,N/A,unsure and check,10000 ft.,13 Oct. 1950,Philonotis,Unduavi
N/A,W. M. A. Brookes,Bolivia,N/A,N/A,unsure and check,Phleobothis,Unduavi,N/A,1950-10-13,N/A,Typed,1013012,6865,N/A,N/A,no type status,Miss W. M. A. Brookes,N/A,unsure and check,10000 ft.,13 Oct. 1950,Phleobothis,Unduavi
N/A,M. Lewis,Bolivia,Cochabamba,On stones and banks of seepy creek in cloud forest ravine with tree ferns,unsure and check,Philonotis,Slope of Cerro Khachi North of Corani 3030 meters,N/A,1979-06-01,N/A,Typed,1050327,79-2315,Chapare,N/A,no type status,Marko Lewis,17° 11' S 66° 54' W,unsure and check,3030 m,1 June 1979,Philonotis,Slope of Cerro Khachi N of Corani 3030 m On stones and banks of seepy creek in cloud forest ravine with tree ferns
N/A,P.-F. Hegewald,Peru,Amazonas,"Fels, Erde, Mauer, Baum, Strauch, Holz, See, Bach",Dana Griffin III,Philonotis sphaerocarpa,Las Palmas between Balsas and Leimebamba,N/A,1973-08-31,N/A,Typed,1061647,6989,Chachapoyas,N/A,no type status,PASS,N/A,N/A,3000 m,31.8.1973,Philonotis sphaerocarpa (Hedw.) Brid.,Las Palmas zw. Balsas u. Leimebamba
N/A,F. D. Bowers,Mexico,Baja California Sur,"Oak-pine and grassland with dry and flowing streams On boulder, mesa, open valley",A. J. Sharp,Braunia secunda,Sierra de Laguna 15 miles east of Todos Santos,N/A,1973-12-25,N/A,Typed,1045263,5166,N/A,"P. Somers, Jr. | C. Delgadillo M. | J. ",no type status,PASS,N/A,N/A,PASS,25 December 1973,Braunia secunda (Hook.) B.S.G.,Sierra de Laguna 15 miles east of Todos Santos
N/A,A. J. Sharp,Mexico,Oaxaca,"Partial shade, moist, road side cliff",Efrain De Luna,Braunia secunda,Near El Punto on Highway 175,N/A,1973-06-23,N/A,Typed,1045248,2681,N/A,E. B. Sharp | E. C. Cleach | K. R. Thornburgh,no type status,"A. J. and E. B. Sharp, E. C. Cleach, K. R. Thornburgh",N/A,1992,1625 m,"June 23, 1973",Braunia secunda (Hook.) B.S.G.,"Near El Punto on Hwy. 175, Oaxaca, México"
N/A,A. J. Sharp,Mexico,Jalisco,"Partial shade, moist, vert. surface of boulder",B. De Luna,Braunia andrieuxii,"El Mirador on Highway 80, 9 miles above San Martín",N/A,1973-07-01,San Martín,Typed,1045251,2736,Hidalgo,E. B. Sharp | E. C. Clebsch | K. I. Hornburgh,no type status,"A. J. and E. B. Sharp, E. C. Clebsch, K. I. Hornburgh",N/A,1992,1750 m,"July 1, 1973",Braunia secunda (Hook.) B.S.G.,"El Mirador on Hwy. 80, 9 mi. above San Martín Hidalgo, Jalisco, Mexico"
N/A,C. G. Pringle,Mexico,Jalisco,N/A,E. De Luna,Braunia Andrieuxii,On rocks near Guadalajara,N/A,1896-09-30,N/A,Typed,1172142,10619,N/A,N/A,no type status,C. G. Pringle,N/A,1992,5000 ft.,"30 Sept., 1896","Braunia Andrieuxii, Lorentz.",On rocks near Guadalajara
N/A,C. G. Pringle,Mexico,Hidalgo,N/A,E. De Luna,Braunia andrieuxii,Cuyamaloya,N/A,1908-09-17,N/A,Typed,1045265,10627,N/A,N/A,no type status,C. G. Pringle,N/A,1992,N/A,"17, Sept., 1908","Braunia plicata, Mitt., var. canescens, Card. n. var.",Cuyamaloya
N/A,N. Eggers,Mexico,Veracruz,Pine-oak forest,E. De Luna,Braunia secunda,Sierra Madre on the road 555 to Perote - Jalapa,N/A,1991-07-25,N/A,Typed,1031423,25001,N/A,G. Frahm,no type status,PASS,N/A,1992,N/A,25.7.1991,Braunia secunda (Hook.) B.S.G.,Sierra Madre an der Str. 555 Z. Perote - Jalapa Kiefern-Eichenw.
N/A,F. P. Bowler,Mexico,Durango,"On boulder, partial shade",A. J. Sharp,Braunia secunda,Oak-pine forest with Alnus along Highway 40 about 5 miles west of El Salto,N/A,1970-12-30,N/A,Typed,1036945,5067,N/A,C. Delgadillo M. | P. S. Somers,no type status,PASS,N/A,N/A,PASS,30 December 1970,Braunia secunda (Hook.) B.S.G.,Oak-pine forest with Alnus along Highway 40 about 5 miles west of El Salto
N/A,A. J. Sharp,Mexico,Distrito Federal,Siliceous boulder in water,H. A. Crum | H. Crum,Braunia secunda,Above Cantreras,N/A,1941-07-23,N/A,Typed,1045239,116,N/A,N/A,no type status,A. J. Sharp,N/A,N/A,N/A,"July 23, 1941",Braunia secunda (Hook.) Bruch & Schimp.,"Siliceous boulder in H2O, above Cantreras"
N/A,A. J. Sharp,Mexico,Chiapas,"Partial shade, moist, trail side bank",F. Bowers,Braunia squarrulosa,"Yerba Buena, Pueblo Nuevo, about 55 kilometers northeast of Tuxtla-Gutiérrez",N/A,1972-12-19,N/A,Typed,1045274,4217,N/A,"T. D. Bowers | D. K. Smith | R. A. Hattaway | Paul Sorrie, Jr.",no type status,"A. J. Sharp, T. D. Bowers, D. K. Smith, R. A. Hattaway, Paul Sorrie, Jr.",N/A,N/A,6600 ft.,"Dec. 19, 1972",Braunia squarrulosa (Hampe) Broth.,"Yerba Buena, Pueblo Nuevo, (about 55 km. northeast of Tuxtla-Gutiérrez)"
N/A,P. J. Hermann,Mexico,Chiapas,On oak trunk in oak-pine woods,E. De Luna,Braunia squarrosa,15 miles southeast of San Cristobal de las Casas,N/A,1975-02-09,San Cristobal de las Casas,Typed,1052129,26429,N/A,N/A,no type status,PASS,N/A,1992,PASS,"Feb.9,1975",Braunia squarrosa (Hampe) Broth.,15 mi. S.E. of San Cristobal de las Casas Chiapas Mexico
N/A,A. J. Sharp,Mexico,Oaxaca,"Dry, full shade, oak branch. Oak-pine woods",A. J. Sharp,Braunia squarrulosa,Roadside near San Pablo Ayutla about 70 kilometers east of Oaxaca,N/A,1972-12-23,San Pablo Ayutla,Typed,1045269,2980-a,N/A,"F. D. Bowers | D. K. Smith | R. A. Hattaway | Paul Somers, Jr.",no type status,"A.J. Sharp, F.D. Bowers, D.K. Smith, R.A. Hattaway, Paul Somers, Jr.",N/A,N/A,4600 ft.,"Dec. 23, 1972",Braunia squarrulosa (Hampe) Broth.,Roadside near San Pablo Ayutla (about 70 km. east of Oaxaca) Oaxaca
N/A,H. A. Crum,Mexico,Jalisco,"On dead limb, fallen, oak forest",E. De Luna,Braunia squarrosa,"Slopes of La Ferreria, above Manantlan",N/A,1949-07-23,N/A,Typed,1039541,971,N/A,N/A,no type status,Howard A. Crum,N/A,1992,7300 feet,23 July 1949,Braunia squarrosa (Hampe) Broth.,"Slopes of La Ferreria, above Manantlan"
N/A,C. G. Pringle,Mexico,Federal District,N/A,E. De Luna,Braunia squarrulosa,"Base of trees, Cuautla",N/A,1906-07-17,N/A,Typed,1172249,10550,N/A,N/A,no type status,C. G. Pringle,N/A,1992,10000 ft.,"17, July, 1906",Braunia squarrulosa (Hpe.) Broth.,"Base of trees, Cuautla"
N/A,N. Eggers,Mexico,Chiapas,Oak-pine forest,B. De Luna,Braunia squarrosa,Kilometer 100 on the road Ocosingo-San Cristobal,N/A,0000-00-00,N/A,Typed,1031467,10.5.10/249,N/A,K. Kramm,no type status,LEG. EGGERS & KRAMM,N/A,1992,2050 m,N/A,Braunia squarrosa (Hampe) Broth.,Km 100 an der Str. Ocosingo-San Cristobal Eichen-Kiefernwald 2050 m
N/A,E. Eggers,Mexico,Chiapas,Oak-pine forest,E. De Luna,Braunia squarrosa,Kilometer 100 on the road Ocosingo-San Cristobal,N/A,1979-03-10,N/A,Mix of Handwritten and Typed,1031495,10.3.79(29),N/A,N. Frahm,no type status,LEG.EGGERS & FRAHM,N/A,1992,2250 M,10.3.79(29),Braunia squarrosa (Hampe) Broth,KM 100 AN DER STR. OCOSINGO-SAN CRISTOBAL EICHEN-KIEFERNWALD 2250 M
N/A,F. J. Hermann,Mexico,Chiapas,On oak trunk in oak-pine woods,E. De Luna,Braunia squarrosa,"along Route 190, 15 miles southeast of San Cristobal De Las Casas",N/A,1975-02-09,N/A,Typed,1045277,26429,N/A,N/A,no type status,F. J. Hermann,N/A,1992,PASS,"February 9, 1975",Braunia squarrosa (Hampe) Broth.,"along Route 190, alt. 6800 ft., 15 miles SE San Cristobal De Las Casas"
N/A,D. Griffin,Costa Rica,San Jose,Bosque primaria montano bajo muy húmedo y potreros,D. Griffin III,Braunia squarrulosa,"Valle de Copey, approximately 30 kilometers south of Cartago",N/A,1979-02-04,N/A,Typed,1029423,97,N/A,M. I. Morales,no type status,PASS,N/A,N/A,PASS,4. feb. 1979,Braunia squarrulosa (Hampe) C. Muell.,"Valle de Copey, ca. 30 kms al sur de Cartago. Bosque primaria montano bajo muy húmedo y potreros. Alt. 2000 m."
N/A,S. Churchill,Bolivia,Tarija,Bosque montano Tucumano-Boliviano remanente Musgo sobre ramas,S. Churchill,Braunia exserta,Serrania HuacayoJ approximately 35 kilometers west of Entre Rios (road to Tarija),N/A,2001-08-04,N/A,Typed,1183435,20792,Burnet O'Connor,N/A,no type status,S. Churchill 20792,21°25'S 64°19'W,2001,2300 m,4 Ago 2001,Braunia exserta C. Müller,Serrania HuacayoJ Ca. 35 km oeste de Entre Rios (carretera a Tarija) Bosque montano Tucumano-Boliviano remanente <27092-28009> Musgo sobre ramas C. frr.
N/A,B. Sparre,Argentina,Tucuman,Subtropical rainforest epiphyte,W. R. Buck,Braunia cirrhifolia,Rio Cochuna,N/A,1946-11-27,N/A,Typed,1136255,B11750,Chicligasta,N/A,no type status,B. Sparre,N/A,N/A,1000 m a.s.l.,27 November 1946,Braunia cirrhifolia (Mitt.) Jaeg.,Rio Cochuna 1000 m a.s.l.
N/A,M. Lewis,Bolivia,La Paz,In ravine with waterfall,E. De Luna,Braunia cirrhifolia,"Canyon 1 kilometer east of Cachipata, southeast of Sorata",N/A,1979-04-06,N/A,Mix of Handwritten and Typed,1032380,79-1625,Larecaja,N/A,no type status,Marko Lewis no. 79-1625,"15° 48' S, 68° 36' W",1992,3250 m,6 April 1979,Braunia cirrhifolia (Mitt.) Wils. ex Jaeg.,"Canyon 1 km. E. of Cachipata, SE of Sorata, 3250 m, 15° 48' S, 68° 36' W"
N/A,M. Lewis,Bolivia,La Paz,"Arid woodland and cliff area, many cacti present. At base of cliffs near river amongst a boulder pile in a deep canyon. Small trees, tree cacti and shrubs in shady, protected area.",D. Griffin III,Braunia plicata,"Along the Río Chalusuyu, a branch of the Río San Cristóbal, 3 kilometers west of Sorata",N/A,1982-12-09,N/A,Typed,1091412,82-303,Larecaja,N/A,no type status,Marko Lewis,"16°44'S, 68°41'W",1990,ca. 2450 m,9 Dec 1982,Braunia plicata (Mitt.) Jaeg.,"Along the Río Chalusuyu, a branch of the Río San Cristóbal, 3 km W of Sorata"
N/A,M. Lewis,Bolivia,La Paz,Abundant on exposed rock face,E. De Luna,Braunia plicata,Near large red outcrop 2 miles from Sorata down Rio Consata,N/A,1979-03-22,N/A,Typed,1032384,79-1230,Larecaja,N/A,no type status,Marko Lewis,15° 41' S. 68° 43' W.,1992,2600 m,22 March 1979,Braunia plicata (Mitt.) Jaeg.,Near large red outcrop 2 mi. from Sorata down Rio Consata
N/A,M. Lewis,Bolivia,La Paz,Banks of trail,E. De Luna,Braunia plicata,Trail between Charasani and Niño Karine NNW of Chuma,N/A,1979-03-05,N/A,Typed,1032341,79-947,Saavedra,N/A,no type status,Marko Lewis,15° 11' S 69° 04' W,1992,3200-3240 m,5 March 1979,Braunia plicata (Mitt.) Jaeg.,Trail between Charasani and Niño Karine NNW of Chuma 15° 11' S 69° 04' W
N/A,M. Lewis,Bolivia,La Paz,Banks of trail,E. De Luna,Braunia plicata,Trail between Charasani and Nito Karine NNW of Chuma,N/A,1979-03-05,N/A,Typed,1032381,79-940,Saavedra,N/A,no type status,Marko Lewis,15° 11' S 69° 04' W,1992,3200 m,5 March 1979,Braunia plicata (Mitt.) Jaeg.,Trail between Charasani and Nito Karine NNW of Chuma 15° 11' S 69° 04' W
N/A,M. Lewis,Bolivia,La Paz,Along bank of trail,E. De Luna,Hedwigidium integrifolium,Trail between Charasani and Niko Karine NNW of Chuma,N/A,1979-03-05,N/A,Typed,1032366,79-935,Saavedra,N/A,no type status,Marko Lewis,15° 11' S 69° 04' W,Nov. 1991,3200 m,5 March 1979,Hedwigidium integrifolium (P. Beauv.) Dix.,Trail between Charasani and Niko Karine NNW of Chuma
N/A,M. Lewis,Bolivia,Tarija,Dirt bank in Kheñwa forest,E. De Luna,Hedwigidium integrifolium,5 miles northeast of Iscayachi. East slope of mountains (hike from summit of road into canyon north of Tarija-Iscayachi Highway),N/A,1979-02-10,N/A,Typed,1032358,79-615,Méndez,N/A,no type status,Marko Lewis,"21° 27' S., 64° 54' W.",Nov. 1991,3350 m,10 February 1979,Hedwigidium integrifolium (P. Beauv.) Dix.,5 mi. NE of Iscayachi. E. slope of mountains (hike from summit of road into canyon N. of Tarija-Iscayachi Hwy.)
N/A,M. Dillon,Peru,Ancash,Growing on branches,Dana Griffin III,Braunia secunda,"Slopes below Laguna de Llanganuco, approximately 25 kilometers northeast of Yungay",N/A,1983-01-28,N/A,Typed,1111863,3128D,Yungay,U. Molau | P. Matekaitis,no type status,"M. Dillon, U. Molau & P. Matekaitis",N/A,28 Jan. 1983,± 3380 m,28 Jan. 1983,Braunia secunda (Hook.) B.S.G.,"Ca. 25 km NE of Yungay, slopes below Laguna de Llanganuco"
N/A,D. Griffin,Venezuela,Merida,Sobre roca seca a baja luz,D. Griffin,Braunia secunda,Quebrada Gavilan south of Mucuchies between La Virgen Rock and El Paramo Bridge near Bavila Paramo with horses,N/A,1988-03-11,N/A,Typed,PV-1133,577,N/A,N/A,no type status,PASS,N/A,11 mayo 1988,PASS,11 marzo 1988,Braunia secunda (Hook.) BSG,Quebrada Gavilan al sur de Mucuchies entre la pena La Virgen y el puente de El Paramo cerca de Bavila Paramo con caballos
N/A,M. Lewis,Bolivia,Tarija,On rocks in dry deciduous forest,B. De Luna,Braunia subincana,"Cañeton, at summit of mountain above and west of Entre Rios, along road to Tarija",N/A,1979-02-02,N/A,Typed,1032377,79-489A,O'Connor,N/A,no type status,Marko Lewis,"21° 8' S, 64° 12' W",1992,1750 m,2 February 1979,Braunia laxifolia Herz.,"Cañeton, at summit of mountain above and W. of Entre Rios, along road to Tarija, 21° 8' S, 64° 12' W"
N/A,F. J. Hermann,Bolivia,Cochabamba,N/A,Efrain De Luna,Braunia subplicata,From the Province of Chaparé Purchased in market at Cochabamba,N/A,1972-12-24,Cochabamba,Typed,1045267,25278,Chaparé,N/A,no type status,F. J. Hermann,N/A,1992,PASS,"December 24, 1972",Braunia subplicata E.G.Britt.,From the Province of Chaparé Purchased in market at Cochabamba
N/A,S. R. Gradstein,Bolivia,Cochabamba,On cliff under scrub in area of wet meadows and secondary woodlands,B. O. van Zanten,Racopilum intermedium,5 kilometers south of road Cochabamba - Villa Tunari kilometer 95,N/A,1989-11-12,Incacorral,Typed,1091583,7560,Chapare,M. Lewis,no type status,S.R. Gradstein & M. Lewis,N/A,N/A,PASS,12 November 1989,Racopilum intermedium Hampe,5 Km S of road Cochabamba - Villa Tunari km 95
N/A,M. Lewis,Bolivia,La Paz,Fruit and coffee plantations. On rocks in shady fruit orchard.,unsure and check,Racopilum tomentosum,1 kilometers south of Coroico along road between Coroico and Yolosa,N/A,1983-02-07,Coroico,Typed,1100456,83-503,Nor Yungas,N/A,no type status,Marko Lewis,"16°11'S, 67°43'W",unsure and check,ca. 1650 m,7 Feb 1983,Racopilum tomentosum (Hedw.) Brid.,1 km S of Coroico along road between Coroico and Yolosa
N/A,Y. Mexia,Brazil,Minas Gerais,Cut over woods. On rotting log.,Bartram,Rhacopilum tomentosum,Fazenda de F. Lopez,N/A,1930-11-11,Viçosa,Typed,C0541763F,5281a,N/A,N/A,no type status,Ynes Mexia,N/A,N/A,PASS,"Nov. 11, 1930",Rhacopilum tomentosum (Hedw.) Brid.,Fazenda de F. Lopez. Cut over woods. On rotting log.
N/A,S. R. Gradstein,Ecuador,Galapagos Islands,Paidium guayavas woodlands and pampas on rather dry shaded rocks,W. A. Weber,Rhacopilum tomentosum,Isla Floreana east of Cruz Farm,N/A,1976-04-24,N/A,Typed,1023912,M-58,N/A,N/A,no type status,S. R. Gradstein,N/A,N/A,at 250-350 m,24.IV.1976,Rhacopilum tomentosum (Hedw.) Brid.,Isla Floreana Paidium guayavas woodlands and pampas east of Cruz Farm on rather dry shaded rocks
N/A,P.-H. Hegewald,Peru,Amazonas,Fels Erde Mauer Baum Strauch Holz Sec Bach,E. Hegewald,Racopilum tomentosum,Saulamur between Balsas and Leimebamba,N/A,1973-08-31,N/A,Typed,1026724,6726,Chachapoyas,N/A,no type status,PASS,N/A,N/A,N/A,Datum 31.8.1973,Racopilum tomentosum (Hedw.) Brid.,Saulamur zw. Balsas u. Leimebamba
N/A,J. Florschütz,Suriname,N/A,On decaying log,P. A. Florschütz | J. Florschütz-de Waard,Racopilum tomentosum,Brownsberg trail to Leo fall,N/A,1975-12-18,N/A,Typed,1028580,4715,N/A,P. A. Florschütz,no type status,PASS,N/A,N/A,N/A,18.XII.1975,Racopilum tomentosum (Hedw.) Brid.,Brownsberg trail to Leo fall
N/A,E. Linares,Colombia,Meta,"forest of the Bavaria brewery near río Guatiquía, on log in forest",unsure and check,Racopilum tomentosum,"forest of the Bavaria brewery near río Guatiquía, on log in forest",N/A,1984-09-26,N/A,Typed,1065598,1543,Villavicencio,S. R. Gradstein | B. O. van Zanten,no type status,"E. Linares, S.R. Gradstein and B.O. van Zanten",N/A,unsure and check,PASS,26 Sept. 1984,Racopilum tomentosum (Hedw.) Brid.,"forest of the Bavaria brewery near río Guatiquía, on log in forest"
N/A,M. Lewis,Bolivia,La Paz,Fruit and coffee plantations. Bark of fruit trees in orchard.,unsure and check,Racopilum tomentosum,1 kilometers south of Coroico along road between Coroico and Yolosa,N/A,1983-02-07,Coroico,Typed,1100344,83-511,Nor Yungas,N/A,no type status,Marko Lewis,"16°11'S, 67°43'W",unsure and check,ca. 1650 m,7 Feb 1983,Racopilum tomentosum (Hedw.) Brid.,1 km S of Coroico along road between Coroico and Yolosa
N/A,Y. Mexia,Peru,Huanuco,Dense shade,Bartram,Rhacopilum tomentosum,Hacienda Mercedes; Pocon Perga; old tree trunk in dense shade,N/A,1936-09-15,N/A,Typed,C0341885F,8190a,Churubamba,N/A,no type status,Ynes Mexia,N/A,N/A,PASS,"Sept. 15, 1936",Rhacopilum tomentosum (Sw.) Brid.,Hacienda Mercedes; Pocon Perga; old tree trunk in dense shade
N/A,Y. Mexia,Peru,Huanuco,on rock in wood,Bartram,Rhaecopilum tomentosum,Hacienda Exito; bank of Rio Ysabel; on rock in wood,N/A,1936-09-09,N/A,Typed,N/A,8165a,Churubamba,N/A,no type status,Ynes Mexia,N/A,N/A,PASS,"Sept. 9, 1936",Rhaecopilum tomentosum (Sw.) Brid.,Hacienda Exito; bank of Rio Ysabel; on rock in wood
N/A,Y. Mexia,Peru,Huanuco,On rock in woods,Bartram,Rhacopilum tomentosum,Hacienda Exito; bank of Rio Yasabel; on rock in woods,N/A,1936-09-09,N/A,Typed,1036248,8168a,Churubamba,N/A,no type status,Ynes Mexia,N/A,N/A,PASS,"Sept. 9, 1936",Rhacopilum tomentosum (Sw.) Brid.,Hacienda Exito; bank of Rio Yasabel; on rock in woods
N/A,R. E. Schultes,Colombia,Amazonas,On wet fallen log,H. A. Crum,Leucoloma lignicola,Rio Miritiparaná: Caño Guacayá,N/A,1952-05-19,N/A,Typed,1055465,16563,N/A,I. Cabrera,no type status,Richard Evans Schultes et Isidoro Cabrera,Lat. 0° 05' S Long. 70° 40' W,1956,Altitude about 700 feet,"May 19, 1952",Leucoloma lignicola Spruce ex Mitt. & Callicostella apera (Mitt.) Jaeg.,Rio Miritiparaná: Caño Guacayá
N/A,D. Griffin,Colombia,Magdalena,Bosque nublado montano bajo,D. Griffin,Leucoloma limicola,Parque Nacional de la Sierra Nevada de Santa Marta Vertiente oriental del Río Buritaca,1977-08-00,1977-07-00,N/A,Typed,1029476,50.186,N/A,O. Rangel | G. van Reenen,no type status,Dana Griffin III Orlando Rangel y Guido van Reenen,N/A,N/A,PASS,Julio-Agosto 1977,Leucoloma limicola Spr. ex Mitt.,Parque Nacional de la Sierra Nevada de Santa Marta Vertiente oriental del Río Buritaca
N/A,S. P. Churchill,Colombia,Antioquia,In secondary montane forest,S. P. Churchill,Trachyxypyhium tenue,Cerro San Miguel South of San Miguel,N/A,1987-07-06,N/A,Typed,1139980,15466,N/A,et al.,no type status,S.P. Churchill et al.,"5°55'N, 75°17'W",N/A,2460-2620 m,6 July 1987,Trachyxypyhium tenue (Mitt.) Buck (= Hookeriopsis tenue Mitt.),"Mun. de la Union, Cerro San Miguel S of San Miguel"
N/A,D. Griffin,Costa Rica,Cartago,Bosque muy húmedo montano bajo,N/A,Hypnella pilifera,"Reserva Forestal Tapantí, eastern slope of Río Macho",1977-07-04,1977-07-03,N/A,Typed,1025621,215,N/A,M. I. Morales | D. E. de Retana,no type status,"Dana Griffin, III, María Isabel Morales y Dora Emilia de Retana",N/A,N/A,PASS,"Julio 3-4, 1977",Hypnella pilifera (Hook. et Wils.) Jaeg.,"Reserva Forestal Tapantí, vertiente oriental del Río Macho. Bosque muy húmedo montano bajo. Alt. 1.340-1.600 m."
N/A,J. J. Wurdack,Venezuela,Bolivar,Slope forest Tüepé-Tüepé,E. B. Bartram,Hypnella cymbifolia,Between Camps 3 and 2,N/A,1953-02-21,N/A,Typed,1026297,34365,N/A,N/A,no type status,John J. Wurdack,N/A,N/A,elev. 1250 - 1200 m,"February 21, 1953",Hypnella cymbifolia (Hpe.) Jaeg.,Frequent on fallen logs in forest between Camps 3 and 2
N/A,W. R. Buck,Brazil,Amazonas,On branches at summit,N/A,Hookeriopsis parkeriana,Slopes and summit of Serra Curicuriari from Igarapé Arabú of the Rio Curicuriari to the summit,1979-07-12,1979-07-09,N/A,Typed,112861,2445,N/A,N/A,no type status,William R. Buck,"00°02'S, 66°50'W",N/A,ca. 450 m at summit,9-12 July 1979,Hookeriopsis parkeriana (Hook. & Grev.) Jaeg.,Slopes and summit of Serra Curicuriari from Igarapé Arabú of the Rio Curicuriari to the summit
N/A,R. B. Foster,Peru,Pasco,In Weinmannia forest,W. C. Steere,Hypnella pilifera,E slope of Cordillera Yanachaga on Tunque-Chuchurras trail,N/A,1981-07-30,N/A,Typed,1059405,4722,N/A,N/A,no type status,Robin B. Foster,10°30'S 75°30'W,N/A,1900 m,30 July 1981,Hypnella pilifera (Hook. & Wils.) Jaeg.,E slope of Cordillera Yanachaga on Tunque-Chuchurras trail
N/A,J. M. Fitzpatrick,Peru,Cuzco,Extremely mossy elfin cloud forest near shallow ravine,L. R. Stark,Hypnella pilifera,Slopes above Pillahuata near kilometer 126 on Cosñipata Highway,N/A,1981-12-04,N/A,Typed,1059455,s.n.,N/A,D. E. Willard,no type status,PASS,13°11'S 71°02'W,1982,2850 m,4 Dec. 1981,Hypnella pilifera (Hook. & Wils.) Jaeg.,Slopes above Pillahuata near km. 126 on Cosñipata Hwy.
N/A,S. P. Churchill,Colombia,Antioquia,On talud in secondary montane forest,S. P. Churchill,Hypnella diversifolia,road to Pueblo Nuevo Ventanas,N/A,1992-07-11,Valdivia,Typed,1139892,18335,N/A,N/A,no type status,S.P. Churchill et al.,7°5' N 75°25' W,N/A,PASS,11 July 1992,Hypnella diversifolia (Mitt.) Jaeg.,road to Pueblo Nuevo Ventanas
N/A,J. J. Wurdack,Venezuela,Estado Bolívar,Fruiting scantily on logs. Occasional in rain-forest. Slope forest Tirapó-tepuí.,B. Bartram,Hypnella cymbifolia,between Camps 2 and 3,N/A,1953-01-07,N/A,Typed,1026299,4056,N/A,N/A,no type status,John J. Wurdack,N/A,N/A,elev. 1200-1250 m.,"January 7, 1953",Hypnella cymbifolia (Hpe.) Jaeg.,between Camps 2 and 3
Weinmannia,R. B. Foster,Peru,Pasco,In Weinmannia forest,N/A,Hypnella Pallescens,E slope of Cordillera Yanachaga On Tunque- Chuchurras trail,N/A,1981-07-30,N/A,Typed,1059403,4720,N/A,N/A,no type status,Robin B. Foster,10°30'S 75°30'W,N/A,1900 m,30 July 1981,Hypnella Pallescens (Hook.) Jaeg.,E slope of Cordillera Yanachaga On Tunque- Chuchurras trail
N/A,J. J. Wurdack,Venezuela,Bolivar,Slope forest,E. B. Bartram,Hypnella cymbifolia,Frequent on fallen logs in forest between Camps 3 and 2,N/A,1953-02-21,N/A,Typed,1026300,34365,N/A,N/A,no type status,John J. Wurdack,N/A,N/A,elev. 1250 - 1200 m,"February 21, 1953",Hypnella cymbifolia (Hpe.) Jaeg.,Frequent on fallen logs in forest between Camps 3 and 2
N/A,T. Husnot,France,Orne,N/A,N/A,Weissia compacta,Rochers schisteux de la Solentière,N/A,0000-00-00,Athis,Mix of Handwritten and Typed,1084497,s.n.,N/A,N/A,no type status,"T. Husnot, à Cahan, par Athis (Orne)",N/A,N/A,N/A,N/A,Weissia compacta Brid.,Rochers schisteux de la Solentière (Lamblotte)
Pinus thunbergii,H. Inoue,Japan,Okinawa,On bark of Pinus thunbergii,Z. Iwatsuki,Macromitrium japonicum,"Around Shirahama, Iriomote Island, the Ryukyu Islands",N/A,1973-01-11,N/A,Typed,1021837,s.n.,N/A,N/A,no type status,PASS,N/A,N/A,elevation about 10 m,"Jan. 11, 1973",Macromitrium japonicum Doz. et Molk.,"Around Shirahama, Iriomote Isl., the Ryukyu Isls."
N/A,R. Reitz,Brazil,Santa Catarina,Rupestre,E. B. Reimers,Campylopus arctocarpus,"Campo dos Padres, Bom Retiro",N/A,1948-12-17,N/A,Typed,MB 5512,2464,N/A,N/A,no type status,R. Reitz,N/A,1949,Alti. 2000 msm,17.12.1948,Campylopus arctocarpus (Hornsch.) Mitt.,"Campo dos Padres, Bom Retiro"
Podocarpus,N. Frahm,Brazil,Sao Paulo,epiphytisch im Podocarpus-Wald,unsure and check,Campylopus arctocarpus,Serra do Bocaina Leesite an der Straße Campos da Cunha,N/A,1977-07-22,Sao Jose dos Barreiros,Typed,1026026,s.n.,N/A,N/A,no type status,PASS,N/A,N/A,1200 m,Frahm 22.7.1977,Campylopus arctocarpus (Hornsch.) Mitt.,Serra do Bocaina Leesite an der Straße Campos da Cunha - Sao Jose dos Barreiros
N/A,M. Rambo,Brazil,Santa Catarina,N/A,N/A,Campylopus arctocarpus,Morro do San,N/A,1938-01-29,N/A,Typed,N/A,9934,N/A,N/A,no type status,M. Rambo,N/A,N/A,PASS,Data 29.1.1938,Campylopus arctocarpus (Hornsch.) Mitt.,"Morro do San, Itajaf"
N/A,Schäfer-Verwimp,Brazil,São Paulo,"Campo-Vegetation in the summit area, slate rock slope",Schäfer-Verwimp,Campylopus griseus,Pedra Grande near Atibaia,N/A,1987-09-05,N/A,Mix of Handwritten and Typed,1097651,9019,N/A,N/A,no type status,PASS,N/A,N/A,1400 msm,5.9.1987,Campylopus griseus (Hornsch.) Jaeg.,"Pedra Grande bei Atibaia Campo-Vegetation im Gipfelbereich, schieferfacher Felsabhang"
N/A,J.-P. Frahm,Peru,Amazonas,auf übererdtem Steinblock im Nebelwald,unsure and check,Campylopus heterostachys,Straße Cajamarca - Chachapoyas km 417.5 above Leimebamba on overgrown stone block in cloud forest,N/A,1982-09-06,Chachapoyas,Typed,1053590,s.n.,Cajamarca,N/A,no type status,PASS,N/A,unsure and check,2600 m,6.9.1982,Campylopus heterostachys (Hamp.) Jaeg.,"Straße Cajamarca - Chachapoyas km 417,5 oberhalb Leimebamba, auf übererdtem Steinblock im Nebelwald"
