Image,verbatimCollectors,collectedBy,secondaryCollectors,recordNumber,verbatimEventDate,minimumEventDate,maximumEventDate,verbatimIdentification,latestScientificName,identifiedBy,verbatimDateIdentified,associatedTaxa,country,firstPoliticalUnit,secondPoliticalUnit,municipality,verbatimLocality,locality,habitat,verbatimElevation,verbatimCoordinates,otherCatalogNumbers,originalMethod,typeStatus
0200_V0565514F.jpg,J.D. Sauer,J. D. Sauer,N/A,3914,15 June 1963,1963-06-15,N/A,Aerva lanata (L) Juss,Aerva lanata,unsure and check,unsure and check,N/A,Kenya,Coast Province,Kwale District,near Mombasa,Bumburi Beach N of Mombasa,Bumburi Beach north of Mombasa,Beach ridge shallow open coast,N/A,N/A,595870,Typed,no type status
0201_V0565977F.jpg,C Vigne,C. Vigne,N/A,L.09,N/A,0000-00-00,N/A,Enantia polypetala Engl. & Diels,Enantia polypetala,N/A,N/A,N/A,Ghana,N/A,N/A,N/A,Gold Coast,Gold Coast,N/A,N/A,N/A,839434,Typed,no type status
0202_V0566108F.jpg,Emma Addo,E. Addo,N/A,1026,1999,1999-00-00,N/A,Uvaria versicolor Pierre,Uvaria versicolor,unsure and check,unsure and check,N/A,Ghana,unsure and check,unsure and check,N/A,N/A,[precise locality unknown],N/A,N/A,N/A,2325285,Typed,no type status
0203_V0567164F.jpg,A. A. Enti,A. A. Enti,N/A,Sp 398,11/19/71,1971-11-19,N/A,Periploca dennis,Periploca dennis,A. A. Enti,1971,N/A,Ghana,N/A,N/A,N/A,Avusu Winneba Road,Avusu Winneba Road,A climber among grasses flowers white conspicuous latex present,N/A,N/A,1753348,Typed,no type status
0204_V0567306F.jpg,Sue A. Thompson,S. A. Thompson,N/A,1522,9 July 1984,1984-07-09,N/A,Impatiens macroptera Hook.f.,Impatiens macroptera,S. A. Thompson,9 July 1984,N/A,Cameroon,Sud-Ouest,Fako,Bakilingili,Bakilingili Trail up Mt. Cameroon,Trail up Mt. Cameroon,Erect herb up to 70 centimeters tall growing on wet rocks flowers purple,Alt. 50-250 m,4°04'N 9°02'E,N/A,Typed,No type status
0205_V0570108F.jpg,Collected by G. MacNaughton,G. MacNaughton,N/A,580,N/A,0000-00-00,N/A,Combretum Schumannii Engler,Combretum schumannii,N/A,N/A,N/A,Kenya,N/A,N/A,N/A,N/A,[precise locality unknown],N/A,N/A,N/A,856357,Typed,no type status
0206_V0570110F.jpg,(J. M. Fay 8271),J. M. Fay,N/A,8271,28 February 1988,1988-02-28,N/A,Combretum smeathmannii G. Don,Combretum smeathmannii,Ak Assi,1988,Irvinia smithii | Guiboutia demensis | Berlina sp.,Cameroon,N/A,N/A,N/A,Along the Sangha River adjacent to the island of Kílona Adj in riparian forest adjacent to seasonally flooded forest with Irvinia smithii Guiboutia demeusi Berlian sp Prec 1400 mm,Along the Sangha River adjacent to the island of Kílona,In riparian forest adjacent to seasonally flooded forest with Irvinia smithii Guiboutia demeusi Berlina sp Prec 1400 mm Liana common on river bank Younger fruits with pinkish tinge,Prec 1400 mm,02°09’N 16°09’E 385 m,NCNI Stem 676/0466-T | Leaves 676/0467-U,Handwritten,no type status
0207_V0570163F.jpg,R.B. ,R. B.,N/A,No.1,10/12/1972,1972-12-10,N/A,Terminalia glaucescens,Terminalia glaucescens,N/A,1972,Terminalia glaucescens,Ghana,Volta Region,Ho,N/A,N/A,Ho,A tree to 40 feet.Tall 6 feet. In girth wood yellow or brownish yellow,N/A,N/A,2007210,Handwritten,no type status
0208_V0570471F.jpg,Dr. Edgar A. Mearns,E. A. Mearns,N/A,1117,"September 6 and 9, 1909",1909-09-06,1909-09-09,Eurybia divaricata L.,unsure and check,unsure and check,unsure and check,N/A,Kenya,N/A,N/A,N/A,"Vicinity of Tikka, British East Africa",Vicinity of Tikka,N/A,altitude about 1550 meters ,N/A,468287,Typed,no type status
0209_V0570543F.jpg,leg. Schimper,Schimper,N/A,1467,24.11.63,1863-11-24,N/A,Ipomoea curnorvashii,Ipomoea curnorvashii,N/A,N/A,N/A,Ethiopia,N/A,N/A,N/A,Abessinien,Abessinien,N/A,N/A,N/A,373793,Handwritten,no type status
0210_V0571550F.jpg,Leg. A. Pappi,A. Pappi,N/A,N. 2622,14-15.VIII.1902,1902-08-14,1902-08-15,Lavandula pubescens Decaisne,Lavandula pubescens,R. Corradi,N/A,N/A,Eritrea,Assaorta,N/A,N/A,Lungo il Torrente Hadas,Lungo il Torrente Hadas,N/A,N/A,N/A,1559918,Typed,Isotype
0211_V0572217F.jpg,J. Deaw,J. Deaw,N/A,Sp 283,4/7/71,1971-07-04,N/A,Eugenia coronata,Eugenia coronata,A. A. Enti,19,N/A,Ghana,N/A,N/A,Accra,N/A,Accra,A shrub about 6 feet high Flowering pedicels fascicled Fruit ellipsoid calyx persistent at the apex,N/A,N/A,1753423,Mix of Handwritten and Typed,no type status
0212_V0573054F.jpg,,,,,,,,,,,,,,,,,,,,,,,,
0213_V0573776F.jpg,Dr. Edgar A. Mearns,E. A. Mearns,N/A,2852,"Jan 10 to Feb 9, 1909",1909-01-10,1909-02-09,Cyperus caledonic Ridley,Cyperus maculatus,J. Raynal,19.10.1971,N/A,Democratic Republic of the Congo,Free State,N/A,N/A,“Ihuru Camp” Bahi or Jebel Lado Enclave,"Ihuru Camp, Bahi or Jebel, Lado Enclave",N/A,N/A,N/A,468360,Typed,no type status
0214_V0574052F.jpg,Coll. F.G. Overlaet,F. G. Overlaet,N/A,s.n.,1923-4,1923-00-00,1924-00-00,Scirpus,Scirpus mucronatus,A. A. De Smet,1964,N/A,Democratic Republic of the Congo,N/A,N/A,N/A,N/A,[precise locality unknown],N/A,N/A,N/A,752378,Typed,no type status
0215_V0574226F.jpg,(J. M. Fay 8294),J. M. Fay,N/A,8294,4 March 1988,1988-03-04,N/A,Millettia zechiana Harms,Millettia zechiana,A. Assi,1988,Gilburtia demeusei | Berlinia sp | Bombax sp,Cameroon,N/A,N/A,N/A,On the Sangha River across from Ndakan gorilla study area in seasonally flooded forest with Gilburtia demeusei Berlinia sp Bombax sp,On the Sangha River across from Ndakan gorilla study area,In seasonally flooded forest,1000 m,02°20'N 16°08'E,2041244,Typed,no type status
0216_V0574490F.jpg,Gordon McPherson,G. McPherson,N/A,13781,20 Mars 1989,1989-03-20,N/A,RUBIACEAE Corynanthe mayumbensis (R. Good) N. Halle,Corynanthe mayumbensis,Wilks & McPherson,1989,N/A,Gabon,Ogooué-Ivindo,N/A,N/A,Réserve de la Lopé au sud d’Ayem chantie SORONGA 0°25'S 11°30'E,Réserve de la Lopé au sud d’Ayem chantie SORONGA,N/A,c. 200 m,0°25'S 11°30'E,LP: 665-0223-G; HB: 665-0224-H; WD: 365-0225-I,Typed,no type status
0217_V0576008F.jpg,COLL. F. G. OVERLAET,F. G. Overlaet,N/A,s.n.,1923-24,1923-01-01,1924-12-31,Habenaria,Habenaria,B. Pettersson,1954,N/A,Democratic Republic of the Congo,N/A,N/A,N/A,N/A,[precise locality unknown],N/A,N/A,N/A,752356,Typed,no type status
0218_V0576279F.jpg,Leg. R. A. Maas Geesteranus  ,R. A. Maas Geesteranus ,N/A,4924,d.d. 14-VI-1949,1949-06-14,N/A,Pycreus segmentatus C.B.Cl.,Pycreus segmentatus,unsure and check,unsure and check,Dombeya mastersii | Olea hochstetteri,Kenya,Nyanza,Londiani,N/A,Tinderet Forest Reserve Camp I lat. 0° 5' S long. 35° 27' E,Tinderet Forest Reserve Camp I,"glade surrounded by rather open tall forest, containing Dombeya mastersii and Olea hochstetteri",2260 m s.m.,lat. 0° 5' S long. 35° 27' E,1447352,Typed,no type status
0219_V0577013F.jpg,"J. M. Reitsma, R. Reitsma",J. M. Reitsma,R. Reitsma,2013,d. 3-3-86,1986-03-03,N/A,Bulbophyllum scaberulum (Rolfe) Bolus var. scaberulum,Bulbophyllum scaberulum,O. Kosovky,2011,N/A,Gabon,Owendo,N/A,N/A,ca 6 km NW of Oweno chantier Rougier Océan 0 41 N x 11 07 E,"ca 6 kilometers northwest of Owendo, chantier Rougier Océan",Primary rain forest epiphytic orchid growing in big clumps together Flowers greenish-yellow leaves hard succulent,N/A,0 41 N x 11 07 E,2310219,Typed,no type status
0220_V0577681F.jpg,Collected by C.J.P. Slegeler,C. J. P. Slegeler,N/A,2806,d.d.: 23 October 1972,1972-10-23,N/A,Vernonia abyssinica Sch.Bip.,Vernonia abyssinica,G. J. H. Amshoff,1982,N/A,Ethiopia,Shewa,N/A,N/A,"c. 3 km from Metahara, on road to Nazareth","c. 3 kilometers from Metahara, on road to Nazareth",In full sun on lava rock,c. 925 m,"c. 8°36' N, 39°55' E",2302805,Typed,no type status
0221_V0577892F.jpg,Carvalho 2102,Carvalho,N/A,2102,26-VII-1986,1986-07-26,N/A,Mariscus alternifolius Vahl,Mariscus alternifolius,C. Cebolla | M.A. Rivas Ponce,1995,N/A,Equatorial Guinea,Bioko,N/A,Malabo,Malabo finca las Carboneras 32NMK7415 8 m Bosque secundario y terrenos incultos Herbazcea 20-30 cm,finca las Carboneras,Bosque secundario y terrenos incultos Herbazcea 20-30 cm,8 m,32NMK7415,2201108,Typed,no type status
0222_V0578553F.jpg,Fernandez Casas,F. Casas,N/A,11206,5-11-1989,1989-11-05,N/A,Agrostis manii (Hooker fil.) Stapf,Agrostis manii,C. Cebolla | M. A. Rivas Ponce,1993,N/A,Equatorial Guinea,Bioco,N/A,N/A,cumbre del pico Basilé 32NMJ7396 2870 m márgenes de la pista,"Cumbre del Pico Basilé, margins of the path",N/A,2870 m,32NMJ7396,2200806,Typed,No type status
0223_V0578764F.jpg,L. P. Bevis N. P. Leuele G. L. Kephart,L. P. Bevis,N. P. Leuele | G. L. Kephart,2,"June 4-September 8, 1927",1927-06-04,1927-09-08,N/A,N/A,N/A,N/A,N/A,Kenya,Nairobi,N/A,N/A,Muthaiga near Nairobi,Muthaiga near Nairobi,N/A,alt. 1700 meters,N/A,2074762,Mix of Handwritten and Typed,no type status
0224_V0580026F.jpg,H. Callens,H. Callens,N/A,308,Juillet 1950,1950-07-00,N/A,Gaertnera paniculata,Gaertnera paniculata,H. Callens,1/9/58,N/A,Congo,Kisantu,N/A,Kisantu,Kisantu,Kisantu,foret secondaire,petit arbre ± 5 m,N/A,154065,Typed,no type status
0225_V0580516F.jpg,Chifwafwa (dit Kalembe),N. S.,N/A,6533,10/6/1958,1958-10-06,N/A,Vernonia appendiculata G. Tiray,Vernonia appendiculata,unsure and check,N/A,N/A,Democratic Republic of the Congo,Kivu,Lubero,N/A,"Vers la 110, route Kawa-Makumo territoire Lubero",vers la 110 route Kawa-Makumo,Foret ombrophile,Alt. 950-900 m,N/A,1543353,Typed,no type status
0226_V0580728F.jpg,Coll. F. A. McKelvie,F. A. McKelvie,N/A,No. 199,29. viii. 1959,1959-08-29,N/A,Phaseolus lunatus L.,Phaseolus lunatus,N/A,N/A,N/A,Cameroon,N/A,N/A,N/A,South west of Crater Lake,South west of Crater Lake,Clearing in wood scrambling over herbage,Alt. 4500 ft.,N/A,1624518,Typed,no type status
0227_V0588237F.jpg,N/A,N/A,N/A,2077,25.12.1957,1957-12-25,N/A,Digitaria pendula (Hackl) Pilvio,Digitaria pendula,N/A,N/A,N/A,Kenya,unsure and check,N/A,N/A,Tsavo - Taita Andei Kenya,Tsavo - Taita Andei,N/A,N/A,N/A,1559644,Mix of Handwritten and Typed,no type status
0228_V0590787F.jpg,Coll. D.D. Soejarto,D. D. Soejarto,N/A,4793,"April 1, 1978",1978-04-01,N/A,Diospyros tricolor Hiern.,Diospyros tricolor,unsure and check,unsure and check,Thespesia populnea | Sophora occidentalis,Ghana,Greater Accra,N/A,N/A,"Bortianor village, 20 km. West of Accra, sea coast.","Bortianor village, 20 kilometers West of Accra, sea coast","Straggling shrub, in association with Thespesia populnea and Sophora occidentalis. Fruits green. Forming clumps just behind beach, on sandy soil. Common.",N/A,N/A,1842606,Mix of Handwritten and Typed,no type status
0229_V0591661F.jpg,D.W. Thomas,D. W. Thomas,N/A,6850,1987,1987-00-00,N/A,Cola flavovelutinia K. Schum.,Cola flavovelutinia,D. W. Thomas,1987,N/A,Cameroon,Southwest,N/A,N/A,Korup National Park,Korup National Park,Primary rain forest Understorey tree 5 meters tall,60 m,05°02'N 08°50'E,NCI#  Leaves twigs 666F/0029-T,Typed,no type status
0230_V0594158F.jpg,A. Léonard,A. Léonard,N/A,3149,19/2/1959,1959-02-19,N/A,Oncoba spinosa,Oncoba spinosa,J. Sosef,1989,N/A,Rwanda,N/A,N/A,Musisi,Vieille forêt secondaire,Musisi,Vieille forêt secondaire,1900m,N/A,2086095,Typed,N/A
0231_V0594376F.jpg,J. M. Fay 8017,J. M. Fay,N/A,8017,25 May 1987,1987-05-25,N/A,Burkea africana Hook.,Burkea africana,J. M. Fay,25 May 1987,N/A,Central African Republic,Park Manovo-Gounda-St. Floris,N/A,N/A,Vicinity of Camp Koumbala,Vicinity of Camp Koumbala,N/A,600 m,08°29'N 21°12'E,Wood Q678/0065  Bark Q678/0066  Root Q678/0067  Leaves Q678/0068,Typed,no type status
0232_V0597275F.jpg,Collected by: P.C.M. Jansen,P. C. M. Jansen,N/A,5996,d.d.: 14 April 1976,1976-04-14,N/A,Cirsium vulgare (Savi) Ten.,Cirsium vulgare,C. C. H. Jongkind,1987,N/A,Ethiopia,Harerge,N/A,N/A,"around Damata Village, near Alemaya ~ Between chat and Sorghum fields",Damata Village near Alemaya | Between chat and Sorghum fields,"Herb, c. 1 m. high Stem whitish green Leaves dark green above, whitish green beneath Spines yellow Invulocre dark green Disc flowers only lilac red",2000 m,9.22° N 42.01° E,N/A,Typed,no type status
0233_V0597557F.jpg,N/A,N/A,N/A,48,05.08.2003,2003-08-05,N/A,Carduus leptacanthus,Carduus leptacanthus,N/A,N/A,N/A,Democratic Republic of the Congo,Sud-Kivu,Kabare,Musisi,Musisi Kabare,Musisi,N/A,N/A,N/A,2257689,Typed,no type status
0234_V0597626F.jpg,"Amanda Koch, Wilson Sakuda, AK61",A. Koch,W. Sakuda | AK61,s.n.,October 22 2003,2003-10-22,N/A,Acacia reficiens misera (Vake) Brenan,Acacia reficiens misera,P. Muisto,November 02 2003,N/A,Kenya,Kajiado,N/A,N/A,Olooshibor Notes: Masaai Name: Oldepe ,Olooshibor,Dry bushland,N/A,N/A,N/A,Typed,no type status
0235_V0597688F.jpg,C. A. Smith,C. A. Smith,N/A,2409,Mont 1933,1933-00-00,N/A,Albizzia gummifera (Gmel.),Albizia gummifera,N/A,N/A,N/A,Democratic Republic of the Congo,Haut-Uele,N/A,Avakubi,Congo Belge iv. Avakubi (Haut-Uele),Avakubi,N/A,N/A,N/A,867368,Typed,no type status
0236_V0601010F.jpg,James T. Allen,J. T. Allen,N/A,41,"September 23, 1996",1996-09-23,N/A,Dissotis rotundifolia (Sm.) Triana,Dissotis rotundifolia,N/A,N/A,N/A,Ghana,Volta Region,N/A,Larteh,"Center for Scientific Research into Plant Medicine (CSRPM), farm",Center for Scientific Research into Plant Medicine farm,"anti-asthmatic, treating coughs and colds; anti-pyretic, for dysentery. Applied topically calli-arthritis.",N/A,N/A,2200652,Typed,no type status
0237_V0601406F.jpg,T. C. Wrigley and T. A. Melville,T. C. Wrigley,T. A. Melville,52,18 July 1959,1959-07-18,N/A,Cassipourea Annobonensis Gilg ex Alston.,Cassipourea annobonensis,A. W. Exell,1961,N/A,Equatorial Guinea,Annobón,N/A,N/A,Ridge west of Crater Lake.,Ridge west of Crater Lake,Open woodland,1200 meters,N/A,N/A,Mix of Handwritten and Typed,no type status
0238_V0602418F.jpg,J. E. Andoh,J. E. Andoh,N/A,5632,March 1952,1952-03-00,N/A,Chrysophyllum perpulchrum Mildbr.,Chrysophyllum perpulchrum,N/A,N/A,N/A,Ghana,Ashanti ,Kumasi,N/A,Kumasi Township Forest Reserve ,Kumasi Township Forest Reserve,Medium sized tree 30 ½ feet high and 2 feet 11 ½ girth. Planted in 1933.,N/A,N/A,1601919,Typed,No type status
0239_V0602609F.jpg,G. Schweinfurth Dr. V. Bivà.,G. Schweinfurth,V. Bivà.,1818,Januar 1892,1892-01-00,N/A,Rumex nervosus V,Rumex nervosus,unsure and check,N/A,N/A,Eritrea,N/A,N/A,N/A,Saganeiti pente du Ifad au dessus d’Adi-Aouara,Saganeiti pente du Ifad au dessus d’Adi-Aouara ,N/A,2300-2400 m,N/A,71288,Handwritten,no type status
0240_V0603038F.jpg,P. Szafranski,P. Szafranski,N/A,1378,5.2.1988,1988-02-05,N/A,Ploscoba zlomarata (Roem. et Schult.) Hassk.,Ploscoba zlomarata,unsure and check,unsure and check,N/A,Democratic Republic of the Congo,Haut-Uele,N/A,Isiro,bas fond marecageux pres de la route aux environs de l'ugine SOCODIA,near the road around the factory SOCODIA,bas fond marecageux,N/A,N/A,2084694,Typed,no type status
0241_V0604513F.jpg,J. Nemba & D.W. Thomas,J. Nemba,D. W. Thomas,520,15 June 1987,1987-06-15,N/A,Donella velvitischii Pierre ex Engl.,Donella velvitischii,D. W. Thomas,1987,N/A,Cameroon,Southwest,N/A,N/A,Secondary growth and old growth forest along Kumba-Mamfe road at mile 14 Likilwindi NCI# Leaves Stems 066/0052-L,Secondary growth and old growth forest along Kumba-Mamfe road at mile 14 Likilwindi,Secondary growth and old growth forest,200 m,0444'N 0929'E,2041320,Typed,No type status
0242_V0604673F.jpg,Wm Buger,W. Buger,N/A,1220,27 May 1962,1962-05-27,N/A,Rubus apetalus Poir,Rubus apetalus,W. Buger,N/A,N/A,Ethiopia,Harar,N/A,N/A,Near G Ass Asmara on E of Hirna along very dry steep slopes with remnant Acacia Cupressus juniperus forest at 2200 feet,Near G Ass Asmara on East of Hirna along very dry steep slopes,Forming low and partial under Acacia Cupressus at 2200 feet,2200 feet,9°17' N 41°33' E,1825230,Mix of Handwritten and Typed,No type status
0243_V0605675F.jpg,Troupin,N/A,N/A,6047,26.7.1958,1958-07-26,N/A,Tiliac. Gilletiae Louis (frères) nson. inoge,Tiliac. gilletiae,N/A,N/A,N/A,Democratic Republic of the Congo,Kivu,Lubero,N/A,Territ. Lubero env. de Kakeri Welege traversée TRIG,Kakeri Welege,Forêt culturable,850-900 m,N/A,1543374,Typed,no type status
0244_V0605928F.jpg,Sue A. Thompson & John E. Rawlins,S. A. Thompson,J. E. Rawlins,1333,3 June 1984,1984-06-03,N/A,Avicennia africana P. Beauv.,Avicennia africana,N/A,N/A,N/A,Cameroon,Sud-Ouest,Fako,Bakingili,Prov. Sud-Ouest Dept. Fako Bakingili,Bakingili,Seaside,Alt. 0 m,4°04' N 9°02' E,2088074,Mix of Handwritten and Typed,no type status
0245_V0606178F.jpg,Coll. R.B. & A.J. Faden 77/711,R. B. Faden,A. J. Faden,77/711,7 March 1977,1977-03-07,N/A,Toddaliopsis sansibarensis (Engl.) Engl.,Toddaliopsis sansibarensis,J. O. Kokwaro,N/A,Combretum schumannii,Kenya,Kwale,Chale Peninsula,N/A,K7 Kwale District Chale Peninsula ca. 4°26’S 39°32’30”E,Chale Peninsula,Coral dry forest,Alt 0-5 m,4°26’S 39°32’30”E,No 2153520,Typed,no type status
0246_V0606676F.jpg,Coll. F. W. H. Migeod,F. W. H. Migeod,N/A,No. 394,25. 1. 1928,1928-01-25,N/A,Solanum sp.,Solanum aculeatissimum,M. Mee,"Dec. 8, 1972",N/A,Cameroon,British Cameroons,Baenda,N/A,"Baenda, British Cameroons",Baenda,Shrub very thorny and spinous Flower west soft. fruit pale yellow 1 in diam often,ALT. 4500 ft.,N/A,1441275,Mix of Handwritten and Typed,no type status
0247_V0606921F.jpg,D. Lucas,D. Lucas ,N/A,4884,16/12/71,1971-12-16,N/A,Englerina tenuifolia (Engl.) Gilli,Englerina tenuifolia,unsure and check,unsure and check,Tapinanthus,Kenya,Kitui,N/A,N/A,4 kn n of Kangondi on road to Embo,4 kilometers north of Kangondi on road to Embo,Thornbush,4500 ft,N/A,1864166,Mix of Handwritten and Typed,no type status
0248_V0607392F.jpg,William Burger,W. Burger,N/A,1453,14 Feb. 1962,1962-02-14,N/A,Juniperus procera Hochst. ex Endl.,Juniperus procera,W. Burger,14 Feb. 1962,N/A,Ethiopia,Harar,Harar Province,N/A,N.W. face of Gara Mukubata Mtn. loc. 50 km due W. of Harar. 9°16'N x 41°43'E at 3150 - 3200 m,North-west face of Gara Mukubata Mountain location 50 kilometers due West of Harar. 9°16'N x 41°43'E,Trees 8 - 10 meters tall at 3600 feet taller on steep slopes with mixed forest,3150 - 3200 m,9°16'N x 41°43'E,1632855,Mix of Handwritten and Typed,no type status
0249_V0607965F.jpg,D. W. Thomas & M. Etuge,D. W. Thomas,M. Etuge,6989,18 May 1987,1987-05-18,N/A,Dichapetalaceae Tapura africana Oliv.,Tapura africana,D. W. Thomas,1987,N/A,Cameroon,Southwest,N/A,N/A,Degraded forest at Barombi Kang Kumba,Barombi Kang Kumba,Degraded forest,150 m,04°36'N 09°27'E,A6697/0125-Y Q26P/0261-W,Typed,no type status
0250_C0665657F.jpg,Ken Young & Mark Eisenberg,K. Young,M. Eisenberg,265,20 April 1981,1981-04-20,N/A,Thelypteris (subg. Amauropelta) cheilanthioides (Kunze) Proctor,Thelypteris cheilanthioides,A. R. Smith,1989,N/A,Peru,Cusco,La Convencion,Quillabamba,Just east of Quillabamba Finca Chihina cacao coffee yucca mangoes bananas corn crops grow,Just east of Quillabamba,Finca Chihina cacao coffee yucca mangoes bananas corn crops grow,Alt. 1300-1400 m,N/A,2038794,Mix of Handwritten and Typed,no type status
0251_C0665739F.jpg,L. León & T. Young & M. Huayapa,L. León,T. Young | M. Huayapa,2911,10 setiembre 1991 1700-1800 m.,1991-09-10,N/A,Thelypteris euchlora (Sod.) Reed,Thelypteris euchlora,Robert G. Stolze,1992,N/A,Peru,Cuzco,Paucartambo,N/A,"Borde de Nube, Río La Unión, En bosques de neblina","Borde de Nube, Río La Unión, En bosques de neblina","Herb growing in massive groves, stems 1.5 meters long, lower part of stem with scales",1700-1800 m.,N/A,N° 2112158,Typed,no type status
0252_C0666112F.jpg,N/A,N/A,N/A,5202,"Aug 13, 1956",1956-08-13,N/A,Thelypteris opulenta (Kauf.) Fosberg,Thelypteris opulenta,A. R. Smith,1979,N/A,Peru,Loreto,Maynas,Iquitos,Rio Itaya 10 km s of Iquitos,Rio Itaya 10 kilometers south of Iquitos,In old banana planting,N/A,N/A,1587072,Mix of Handwritten and Typed,N/A
0253_C0666202F.jpg,J. J. Wurdack,J. J. Wurdack,N/A,705,1 June 1962,1962-06-01,N/A,Thelypteris pavoniana (Klotzsch),Thelypteris pavoniana,A. R. Smith | D. B. Lellinger,"1979, 1989 | 1966",N/A,Peru,Amazonas,Chachapoyas,N/A,Upper slopes of Puma-urco east-southeast of Chachapoyas,Upper slopes of Puma-urco east-southeast of Chachapoyas,On banks locally frequent,elev. 2700-3000 m,N/A,1647265,Mix of Handwritten and Typed,no type status
0254_C0666203F.jpg,Coll. Macbride & Featherstone,N. E. Macbride,F. C. Featherstone,1622,"JULY 8-22, 1922",1922-07-08,1922-07-22,Dryopteris Pavoniana (Kl.) C.Chr.,Thelypteris pavoniana,A. R. Smith,1979,Shrubs,Peru,Mito,N/A,N/A,Summit ridge of the pass above Mito,Summit ridge of the pass above Mito,Summit ridge of the pass open shrub formation,About 9000 ft,N/A,518129,Typed,N/A
0255_C0666206F.jpg,A. F. Killip & C. L. Schmitt,A. F. Killip,C. L. Schmitt,24947,"September 18, 1929",1929-09-18,N/A,Dryopteris megalados (Schk.) Urban,Thelypteris pennata,A. R. Smith,1989,N/A,Peru,Loreto,San Antonio,Rio Itaya,Rio Itaya at about 110 meters dense forest,Rio Itaya at about 110 meters,Dense forest,about 110 meters,N/A,1520607,Typed,no type status
0256_C0666207F.jpg,E.P. Killp|C.B. Killp|A.C. Smith,E. P. Killp,C. B. Killp | A. C. Smith,29747,"September 24–27, 1929",1929-09-24,1929-09-27,Dryopteris megalodus (Schk.) Urban,Thelypteris pennata,Alan R. Smith,Date 1989,N/A,Peru,Loreto,N/A,N/A,"Soledad, on Rio Itaya","Soledad, on Rio Itaya",N/A,about 110 meters,N/A,152068,Typed,no type status
0257_C0666362F.jpg,Rolla M. & Alice F. Tryon,R. M. Tryon,A. F. Tryon,6566,23 October 1963,1963-10-23,N/A,"Thelypteris rufa (Poir.) A.R. Smith, ined | Thelypteris lindigii (C.Chr.) Alston ",Thelypteris rufa,Alan R. Smith,"Date 1979, 1987",N/A,Peru,Ancash,N/A,N/A,"Road from Huaras to Cusum, west valley",Road from Huaras to Cusum west valley,damp shaded rocks,2800 m,N/A,1833066,Typed,no type status
0258_V0075820F.jpg,coll T R Dudley,T. R. Dudley,N/A,10783,14 July 1968,1968-07-14,N/A,Thelypteris subg. Amauropelta not recognized; undescribed?,Thelypteris dudleyi,Alan R. Smith,1980,N/A,Peru,Cuzco,La Convencion,N/A,Prov La Convencion Dept Cuzco,[precise locality unknown],"Common, terrestrial type with bright green foliage of purplish-black and glossy petioles; saxatile on almost vertical rock faces. In full sun on old open landslide, just above the cloud forest, between camp 435 and almost to camp 5, at 2285 meters on the commonest colonizes of landslide",2285 m,12°37'; 73°32',1719861,Typed,Isotype
0259_V0040586F.jpg,Narciso Reyna Rjourto,N. Reyna,N/A,40,15 diciembre 1967,1967-12-15,N/A,Guatteria scalarinervia,Guatteria scalarinervia,D. R. Simpson,1975,N/A,Peru,Loreto,Maynas,Santa María,"Santa María - Río Nanay, distr. Alto Nanay depto. Loreto prov. Maynas","Santa María - Río Nanay, Alto Nanay","""Carahuascas amarilla"" árbol, bosque húmedo tropical",Alt. 150 m,N/A,229-T,Typed,holotype
0260_V0042484F.jpg,Funck & Schlim,N/A,N/A,1375,1830,1830-00-00,N/A,Tetrorchidium rubrivenium var. genuinum Müll. Arg. Prodr. 15(2): 1133. 1866.,Tetrorchidium genuinum,F. Pax,N/A,N/A,Colombia,N/A,N/A,N/A,New Granada La Pradera,New Granada La Pradera,N/A,N/A,N/A,60787,Mix of Handwritten and Typed,Isoisotype
0261_V0078059F.jpg,Tafalla collected with and for Ruíz & Pavón,N. Tafalla,Ruíz | Pavón,s.n.,14 November 1794,1794-11-14,N/A,Nolana spathulata R. & Pav.,Nolana spathulata,A. Mesa,1981,N/A,Peru,N/A,N/A,N/A,N/A,[precise locality unknown],N/A,N/A,N/A,845155,Typed,Isolectotype
0262_V0081497F.jpg,M. O. Dillon & D. Dillon,M. O. Dillon,D. Dillon,3776,1 Nov 1983,1983-11-01,N/A,Galvezia fruticosa Gmel.,Galvezia fruticosa,unsure and check,unsure and check,unsure and check,Peru,Arequipa,Caraveli,uncertain (see locality below),Lomas of Atiquipa ca. 10.5 km N of turn-off to Atiquipa km 584 S of Lima,"Lomas of Atiquipa, approximately 10.5 kilometers north of the turn-off to Atiquipa, kilometer 584 south of Lima","Erect, glutinous shrub to 0.75 meters; flowers red",150-200 m,N/A,N/A,Typed,holotype
0263_V0092855F.jpg,José Campos y O. Diaz 2490,J. Campos,O. Diaz,2490,9 Febrero 1996,1996-02-09,N/A,Amorimia camporum W.R. Anderson,Amorimia camporum,W. R. Anderson,2006,N/A,Peru,Cajamarca,San Ignacio,N/A,Distrito Chirinos: Entre La Catagua y Tablón,Entre La Catagua y Tablón,N/A,550 - 650 m,05°19' S 078°47' W,Nº 2296033,Mix of Handwritten and Typed,Isotype
0264_V0092864F.jpg,Camilo Diaz y Antonio Peña 8808 ,C. Diaz ,A. Pena,8808,4 Diciembre 1996,1996-12-04,N/A,Symplocos ovata Stahl,Symplocos ovata,B. Stahl,2010,N/A,Peru,Amazonas,Luya,N/A,"Camporredondo Tullanya Pascana ""Pajaro Tigre""","Camporredondo Tullanya Pascana ""Pajaro Tigre""",Liana con frutos verdes Pedunculos largos,2250-2360 m,N/A,N/A,Mix of Handwritten and Typed ,isotype
0265_V0092900F.jpg,(A Ruiz et Pavon) leg,A. Ruiz,et Pavon,N/A,(1778-1788),1778-00-00,1788-00-00,Bomarea purpurea (R & P) Herb.,Bomarea purpurea,Hoffeister,2007,N/A,Peru,N/A,N/A,N/A,Peruviano et Chilensi lectae,Chilensi,N/A,N/A,N/A,916119,Typed,Isotype
0266_V0092906F.jpg,V. Quipuscoa S. A. Sagástegui A. Selva G. E. Meijer W. Bejaron C. ,V. Quipuscoa,A. Sagástegui | A. Selva | G. E. Meijer | W. Bejaron | C.,1378,20 agosto 1999,1999-08-20,N/A,Lithospermum cinereascens (A. DC.) Johnst.,Lithospermum leynae,M. Weigend,September 2006,N/A,Peru,Amazonas,Chachapoyas,Leymebamba,Carretera a Celendín entre Ishipingo-Pomacochas Bosque montano fragmentado,Carretera a Celendín between Ishipingo-Pomacochas,Bosque montano fragmentado,2800–3000 m,N/A,2211679,Typed,Isotype
0267_V0092915F.jpg,Williams,L. Williams,N/A,6999,1/10/1930,1930-01-10,N/A,Norantea evelenea Macbrchie,Marcgraviastrum mixtum,D. Giraldo-Cañas,2010,N/A,Peru,San Martín,Roque,N/A,Roque San Martin,Roque,forest,1800-2000 m.,N/A,624474,Mix of Handwritten and Typed,holotype
0268_V0092918F.jpg,Ruiz et Pavón,N/A,N/A,s.n.,s.d.,00-00-00,N/A,Norantea obovata (R & P.) G. Don,Marcgraviastrum obovatum,D. Giraldo-Cañas | H. G. Bedell,2010 | VIII 1982,N/A,Peru,Chachapoyas,N/A,N/A,Chachapoyas,Chachapoyas,N/A,N/A,N/A,843295,Typed,Isotype
0269_V0092921F.jpg,Ex Herbariis R Prou,R. Prou,N/A,s.n.,anno 18261934,1826-00-00,N/A,Norantea obovata (G Don) Bedell,Marcgraviastum obovatum,H. G. Bedell,VIII 1982,N/A,Peru,N/A,N/A,N/A,N/A,[precise locality unknown],N/A,N/A,N/A,65816,Mix of Handwritten and Typed,isotype
0270_V0100062F.jpg,G. Klug,G. Klug,N/A,660,"Dec., 1930",1930-12-00,N/A,Balsorea floribunda (Spruce) Schum. & Haanse,Balsorea floribunda,unsure and check,unsure and check,N/A,Peru,Loreto,Maynas,Iquitos,"Mishuyacu, near Iquitos","Mishuyacu, near Iquitos",N/A,Alt. 100 meters,N/A,613565,Typed,no type status
0271_V0152152F.jpg,Manuel Rimachi Y.,M. Rimachi,N/A,4268,"February 8, 1979",1979-02-08,N/A,Endlicheria anomala (Nees) Mez,Endlicheria anomala,A. Chanderbali,2001,N/A,Peru,Loreto,Requena,N/A,"Dtto. Saquena. Rio Ucayali, Quebrada de Aucayacu, above Genaro Herrera","Dtto. Saquena, Rio Ucayali, Quebrada de Aucayacu, above Genaro Herrera","marginal forest, ""muena"", 8 m, fr. green",N/A,N/A,N/A,Mixed,no type status
0272_V0187051F.jpg,J. Francis Macbride,J. F. Macbride,N/A,4806,"June 23, 1923",1923-06-23,N/A,Croton Bonplandianum,Croton bonplandianus,N/A,N/A,N/A,Peru ,Cuzco,Urubamba,N/A,Cueva Grande,Cueva Grande,Among brush of open rocky slope,About 8500 feet,N/A,535840,Handwritten,no type status
0273_V0193750F.jpg,Leg. J. Mostacero L. | S. Leiva G. | E. Mejia Z. | J. P. Felipe M | M. A. Guevara B.,J. Mostacero,S. Leiva | E. Mejia | J. P. Felipe | M. A. Guevara,1400,14-XI-1986,1986-11-14,N/A,Delostoma integrifolium Cuatrec.,Delostoma integrifolium,M. J. Huft,1992,N/A,Peru,Cajamarca,Cutervo,N/A,Lancer I borde de carretera,Lancer I border of the highway,Voluble con brácteas lilas Voluble con brácteas lilas.,2450 m,N/A,No. 1993824 ,Typed,No type status
0274_V0195906F.jpg,Percy Núñez & S. Walsh,P. Núñez,S. Walsh,5350,29 October 1986,1986-10-29,N/A,Euphorbia heterophylla L.,Euphorbia heterophylla,M. J. Hutt | Mark H. Mayfield,1987 | Oct. 1995,N/A,Peru,Cuzco,La Convención,Quilabamba,Salsapampa,Salsapampa,N/A,Alt. 1110 m.,N/A,1982606,Typed,no type status
0275_V0198402F.jpg,coll. T. R. Dudley,T. R. Dudley,N/A,12063,24 Aug. 1968,1968-08-24,N/A,Dendrophthora mesembryanthemoides Urban,Dendrophthora mesembryanthemoides,S. L. Lamlein | Job Kuijt,1973 | 18 Dec. 1974,Unsure and check,Peru,Ayacucho,La Mar,N/A,"eastern Massif of the Cordillera Central opposing the Cordillera Vilcabamba between Tambo San Miguel, Ayma and the Hacienda Luisiana","eastern Massif of the Cordillera Central opposing the Cordillera Vilcabamba between Tambo San Miguel, Ayma and the Hacienda Luisiana","Parasitic, foliage pale yellow-green; calyx bright orange; t.s. translucent pink; waxy in dense and isolated, 80-100 ft. high cliff",3220 m.,"73°35'W, 12°45'S",1721727,Typed,no type status
0276_V0201636F.jpg,"G.C. Moore, L. Luna, J. Ruiz",G. C. Moore,L. Luna | J. Ruiz,158,18-8-81,1981-08-18,N/A,Ficus maxima P. Miller,Ficus maxima,W. C. Burger,1982,N/A,Peru,Loreto,N/A,N/A,Quisteococha 14km north of Iquitos,Quisteococha 14 kilometers north of Iquitos,"Tree of 20 meters Important medicinal plant The ""milk"" from the bark is drunk",600m elev,UTM grid 18-8-81,N/A,Typed,no type status
0277_V0224820F.jpg,Mildred E. Mathias Dermot Taylor,M. E. Mathias,D. Taylor,5576,13 July 1961,1961-07-13,N/A,"Malpighiaceae, but I cannot name it sterile, not even to genus.",Malpighiaceae,W. R. Anderson,1983,N/A,Peru,Loreto,N/A,N/A,vicinity of Requena,vicinity of Requena,N/A,N/A,N/A,1733057,Mix of Handwritten and Typed,no type status
0278_V0225274F.jpg,G. Klug,G. Klug,N/A,1595,Apr 11 1931,1931-04-11,N/A,Ficus trigona L.f.,Ficus trigona,M. Vásquez Ávila,Utrecht 1983,N/A,Peru,Loreto,N/A,Iquitos,Mishuyacu near Iquitos,Mishuyacu near Iquitos,forest,alt. 100 meters,N/A,873381,Typed,no type status
0279_V0228073F.jpg,Leg. SPICHIGER R. & P.-A. LOIZEAU,R. Spichiger,P.-A. Loizeau,3012,10-4-86,1986-04-10,N/A,Pourouma guianensis subsp. guianensis,Pourouma guianensis,unsure and check,unsure and check,N/A,Peru,Loreto,N/A,Jenaro Herrera,N/A,N/A,Bosque de terraza alta suelo arenoso,Alt. 125 m,73°45'W-4°55'S,N/A,Typed,no type status
0280_V0238260F.jpg,Coll. Llewellyn Williams,L. Williams,N/A,3363,18/9/99 | Sept.-Oct. 1929,1929-09-00,1929-10-00,Psychotria viridis Ruíz,Psychotria viridis,N/A,N/A,N/A,Peru,Loreto,Maynas,N/A,"Forest of Paniea, Alto Itaya","Forest of Paniea, Alto Itaya",N/A,Alt. 145 m.,N/A,61.4121,Mix of Handwritten and Typed,no type status
0281_V0243915F.jpg,W. O. Dillon and I. Sánchez V.,W. O. Dillon,I. Sánchez V.,6310,22 Jul 1991,1991-07-22,N/A,Wissadula grandifolia Baker ex Rusby,Wissadula grandifolia,P. Fryxell,1993,N/A,Peru,Piura,Huancabamba,Canchaque,2 km N of Canchaque,2 kilometers north of Canchaque,Shrubs to 1 meter; flowers yellow,ca. 1450 m,[5248' S; 7936' W],No 2119563,Typed,no type status
0282_V0251887F.jpg,E. P. Killip J. A. Schmitt,E. P. Killip,J. A. Schmitt,30721,"July 28, 1929",1929-07-28,N/A,Psychotria racemosa (Aubl.) Willd,Psychotria racemosa,N/A,N/A,N/A,Peru,Cajabamba,San Jose,N/A,Dept. Junin Cajabamba on Rio Pichis at San Jose,On Rio Pichis at San Jose,Dense forest,About 340 meters,N/A,607534 (HERBARIUM FIELD MUSEUM),Typed,N/A
0283_V0258426F.jpg,R. A. Saugspier,R. A. Saugspier,N/A,3220,29 - Jul - 1962,1962-07-29,N/A,N/A,Geranium chilense,Bolette Halfdan-Nielsen | C. Aedo,1993 | 2007,N/A,Peru,La Libertad,Santiago de Chuco,Quiruvilca,"Quiruvilca, prov. Santiago de Chuco, dept. La Libertad",Quiruvilca,Calles abiertas,3400 m,N/A,1684365,Mix of Handwritten and Typed,no type status
0284_V0277223F.jpg,SALVADOR FLORES P.,S. Flores,N/A,95(PI-2),Julio/82,1982-07-00,N/A,Parquesia sericea Tulasne,Parquesia sericea,T. Plowman,1985,N/A,Peru,Loreto,Maynas,Ampiyacu-Pevas,N/A,N/A,Bosque secundario 35 años,100 m.s.n.m.,N/A,1968315,Typed,N/A
0285_V0277652F.jpg,José Schunke V.,J. Schunke,N/A,6505,27 May 1961,1961-05-27,N/A,Tontelea attenuata Miers,Tontelea attenuata,J. A. Lombardi,VI 1999 2000,N/A,Peru,San Martín,N/A,N/A,Quebrada Mitote (pro Huallaga),Quebrada Mitote,In tall forest,529 m alt,N/A,1751666,Typed,no type status
0286_V0290180F.jpg,Jose Schunke,J. Schunke,N/A,9560,30 Mayo 1977,1977-05-30,N/A,Hamelia patens Jacq.,Hamelia patens,J. Dwyer,1980,N/A,Peru,San Martin,Lamas,San Juan de Pacaizapa,Distrito: Alonso de Alvarado San Juan de Pacaizapa km 72 carretera Tarapoto-Moyobamba,Kilometer 72 Carretera Tarapoto-Moyobamba,En bosque secundario con abundante luz solar,1000-1050 m,N/A,1872133,Typed,No type status
0287_V0304780F.jpg,José Schunke V.,J. Schunke ,N/A,6677,17 Dec. 1964,1964-12-17,N/A,Paullinia tristis,Paullinia bracteosa,D. Simpson | D. R. Simpson,Oct. 1970 | Apr. 1973,N/A,Peru,Loreto,Contamana,N/A,Quebrada de Maquía in tall forest 220 m,Quebrada de Maquía ,In tall forest,220 m,N/A,1717601,Typed,no type status
0288_V0401892F.jpg,Robin B. Foster,R. B. Foster,N/A,4240,"Aug. 19, 1978",1978-08-19,N/A,Aechmea,Aechmea corymbosa,E. J. Gouda,2019-02-05,N/A,Peru,Loreto,Maynas,N/A,Caseria Mishana 30km SW of Iquitos Callilebus Biological Res 4km S of Mishana,Caseria Mishana 30 kilometers southwest of Iquitos Callilebus Biological Reserve 4 kilometers south of Mishana,Terrestrial in white sand scrub bracts bright red-pink flowers white,N/A,N/A,1852637,Typed,no type status
0289_V0414961F.jpg,Marcos Rios Tony Mori Nigel Pitman Luis Torres Corine Vriesendorp,M. Rios,T. Mori | N. Pitman | L. Torres | C. Vriesendorp,4399,13 octubre 2014,2014-10-13,N/A,Andira macrothyrsa Ducke,Andira macrothyrsa,unsure and check,unsure and check,N/A,Peru,Loreto,Requena,N/A,"Dtto. de Soplin Quebrada Yanayacu-Rio Blanco Campamento Wiswincho del inventario rapido #27 de la region Tapiche-Blanco 05°43'53.7""S 73°51'35.8""W",Campamento Wiswincho del inventario rapido #27 de la region Tapiche-Blanco,Bosque de Planicie inundable de aguas blancas Arbol 7 m flores amarillas y los botones son de color beish (color beige),90-110 msnm,"05°43'53.7""S 73°51'35.8""W",2318558,Typed,no type status
0290_V0414962F.jpg,Marcos Rios Tony Mori Nigel Pitman Luis Torres Corine Vriesendorp,M. Rios,T. Mori | N. Pitman | L. Torres | C. Vriesendorp,4399,13 octubre 2014,2014-10-13,N/A,Andira macrothyrsa Ducke,Andira macrothyrsa,N/A,N/A,N/A,Peru,Loreto,Requena,N/A,Dtto de Soplin Quebrada Yanyacu-Rio Blanco. Campamento Wiswincho del inventario rapido #27 de la region Tapiche-Blanco.,"District of Soplin, Quebrada Yanyacu-Rio Blanco. Wiswincho Camp of the rapid inventory #27 of the Tapiche-Blanco region.",Bosque de planicie inundable de aguas blancas. Arbol 17 m colores amarillas y los botones son de color beige (beige).,Alt. 90-110 m,05°43.953'S 73°15.334'W,2818557,Typed,no type status
0291_V0441677F.jpg,Coll. T. Plowman s. P. M. Reuy,T. Plowman,P. M. Reuy,11105,6 December 1981,1981-12-06,N/A,Ipomoea carnea Jacq.,Ipomoea carnea,unsure and check,unsure and check,N/A,Peru,Huanuco ,N/A,N/A,"8 km northeast of Huanuco on road to Tingo Maria Approx 9°55'25""S 76°11'W",8 kilometers northeast of Huanuco on road to Tingo Maria,Scandent shrub on roadside near houses ,Alt. 1750 m,"9°55'25""S 76°11'W",1896900,Typed,no type status
0292_V0239614F.jpg,Magda Chanco with Michelle McMahon and Larry Hufford,M. Chanco,M. McMahon | L. Hufford,s.n.,14 April 2003,2003-04-14,N/A,Abutilon sp.,Abutilon sp.,unsure and check,N/A,N/A,Peru,Cajamarca,N/A,N/A,Chilete-San Pablo road about 15 km from Chilete,Chilete-San Pablo road about 15 kilometers from Chilete,N/A,3614 feet,S7° 10.554' W78° 49.065',2253555,Mix of Handwritten and Typed,no type status
0293_V0441679F.jpg,Coll. Donald R. Simpson & Jose Schunke V.,D. R. Simpson,J. Schunke V.,565,"January 4, 1968",1968-01-04,N/A,"Ipomoea carnea Jacq. (det. D. Simpson, Jan. 1969)",Ipomoea carnea,D. Simpson,Jan. 1969,N/A,Peru,Tumbes,Tumbes,N/A,Along the road about 10 km northwest of El Caucho,Along the road about 10 kilometers northwest of El Caucho,Vine clambering over shrubs corolla pale lavender open in the morning sun closed on this cloudy afternoon when collected Common from the dry deciduous forest zone downward into the very dry thorn-scrub,N/A,N/A,1897948,Typed,no type status
0294_V0225047F.jpg,"Coll. T. Plowman, A. Sagástegui A., J. Mostacero L., R. F. Mejía & A. P. Peález",T. Plowman,A. Sagástegui A. | J. Mostacero L. | R. F. Mejía | A. P. Peález,14242,12 July 1986,1986-07-12,N/A,Abutilon mollissimum (Cav.) Sweet,Abutilon mollissimum,F. Fingel,1987,N/A,Peru,Cajamarca,Jaén,N/A,"Road from Pucará to Chamaya, km 21 east of Pucará, along Río Huancabamba.","Road from Pucará to Chamaya, 21 kilometers east of Pucará, along Río Huancabamba ",Dry scrub forest on steep slopes,Alt. 700 m.,N/A,1973380,Typed,no type status
0295_V0460617F.jpg,J. Farfan L. Valenzuela I. Huamantup A. Carazas W. Argandona,J. Farfan,L. Valenzuela | I. Huamantup | A. Carazas | W. Argandona,1262,23 Octubre 2006,2006-10-23,N/A,Anthurium clavigerum Poepp.,Anthurium clavigerum,T. B. Croat,2008,N/A,Peru,Cusco,La Convención,N/A,"Dist. Vilcabamba, Chuanquiri camino a Rioambha, Bosque secundario","Dist. Vilcabamba, Chuanquiri road to Rioambha, secondary forest",Bosque Secundario Epifita hasta 70 cm espadice rojo espata verde,1009 m,"12°47'15""S 73°10'10""W",2315782,Typed,No type status
0296_V0462893F.jpg,Ynes Mexia,Y. Mexia,N/A,8265,"Oct. 9, 1936",1936-10-09,N/A,Piper callosum Ruiz & Pavon,Piper callosum,Trelease,N/A,N/A,Peru,Huanuco,N/A,N/A,Near confluence Rio Cayumba with Huallaga; forested slope above road,Near confluence Rio Cayumba with Huallaga forested slope above road,"Forested slope above road Perennial herb 8-2 meters high; stems weak; often forms small thickets; leaf blade joins petiole at angle, so often hangs perpendicular, shedding rain ""Matto""",Alt. 805 m,N/A,1066996,Typed,no type status
0297_V0190732F.jpg,Robin B. Foster,R. B. Foster,N/A,8752,13 Sept. 1982,1982-09-13,N/A,Alchornea veneselana (Pax & Hoffm) Webster,Alchornea veneselana,M. J. Huff,1983,N/A,Peru,Huánuco,Pachitea,Puerto Inca,Fort trail between Rio Pachitea and Rio Sungaro. Forested low hills and ravines,Fort trail between Rio Pachitea and Rio Sungaro,Forested low hills and ravines,Alt. 250-300 m,"7°50'00""S, 75°00'00""W",1921102,Typed,no type status
0298_V0462895F.jpg,Ynes Mexia,Y. Mexia,N/A,6157,"Nov. 24, 1931",1931-11-24,N/A,Piper callosum Ruiz & Pav.,Piper callosum,W. Trelease,N/A,N/A,Peru,Loreto,N/A,N/A,Above Pongo de Manseriche Right bank of mouth of Rio Santiago,Above Pongo de Manseriche Right bank of mouth of Rio Santiago,Dense forest,Alt. 200 m,N/A,872277,Typed,no type status
0299_V0469643F.jpg,Thomas B. Croat,T. B. Croat ,N/A,18210,"July 18, 1972",1972-07-18,N/A,Agave americana L.,Agave americana,N/A,N/A,N/A,Peru,Loreto,N/A,Iquitos,Sandy area 12.5 km SW of Iquitos on road to Lago Quisto-cocha,Sandy area 12.5 kilometers southwest of Iquitos on road to Lago Quisto-cocha,Sandy area,N/A,N/A,1759629,Typed,no type status
