Image,verbatimCollectors,collectedBy,secondaryCollectors,recordNumber,verbatimEventDate,minimumEventDate,maximumEventDate,verbatimIdentification,latestScientificName,identifiedBy,verbatimDateIdentified,associatedTaxa,country,firstPoliticalUnit,secondPoliticalUnit,municipality,verbatimLocality,locality,habitat,substrate,verbatimElevation,verbatimCoordinates,otherCatalogNumbers,originalMethod,typeStatus
0000_V0573776F.jpg,E. Scarr,E. Scarr,N/A,852,"Jan. 15 to Feb. 6, 1906",1906-01-15,1906-02-06,Cyperus maculatus Boeck.,Cyperus maculatus Boeck.,L. Kükenthal,19.3.1927,N/A,Congo Free State,N/A,N/A,N/A,"""Rhino Camp,"" Kabu or Jelebo, Lake Edward","""Rhino Camp,"" Kabu or Jelebo, Lake Edward",N/A,N/A,N/A,N/A,463860,Typed,no type status
0001_V0576008F.jpg,F. G. Overlaet,F. G. Overlaet,N/A,1923-4,1923-4,1923-04-00,N/A,Habenaria,Habenaria,Borge Pettersson,1984,N/A,Belgian Congo,N/A,N/A,N/A,N/A,[precise locality unknown],N/A,N/A,N/A,N/A,752356,Typed,no type status
0002_V0576279F.jpg,R. A. Maas Geesteranus,R. A. Maas Geesteranus,N/A,4924,d.d. 14-VII 1949,1949-07-14,1949-07-14,Pycreus sanguinolentus C.B.Cl.,Pycreus sanguinolentus C.B.Cl.,N/A,N/A,N/A,Kenya,Nyanza Province,Londiani Distr.,N/A,"Londiani Distr., Tinderet Forest Reserve, Camp I","Tinderet Forest Reserve, Camp I","Glade surrounded by rather open, tall forest, containing a.o. Dombeya mastersii and Olea hochstetteri",soil,2260 m s.m.,"lat. 0° 5' S., long. 35° 27' E.",1447352,Typed,no type status
0003_V0577013F.jpg,J. M. Reitsma & B. Reitsma,J. M. Reitsma,B. Reitsma,20123,d.d. 3-5-86,1986-05-03,N/A,Bulbophyllum scaberulum (Rolfe) Bolus var. scaberulum,Bulbophyllum scaberulum var. scaberulum,Olga Kosevskovskaya,2011,N/A,Gabon,N/A,N/A,N/A,"Primary rain forest, ca 6 km NW of Oveng, chantier Rougier & Cie. Océan.","Primary rain forest, approximately 6 kilometers northwest of Oveng, chantier Rougier & Cie. Océan.",Primary rain forest,N/A,N/A,0 41 N x 11 07 E,N/A,Typed,no type status
0004_V0577892F.jpg,Carvalho 2102,Carvalho,N/A,2102,26-VII-1986,1986-07-26,N/A,Mariscus alternifolius Vahl,Mariscus alternifolius Vahl,C. Cebolla & M.A. Rivas Ponce (UAM),1995,N/A,Guinea Ecuatorial,Bioco,N/A,N/A,"""Bioco: «Malabo, finca las Carboneras, 32NMK7415, m. Bosque secundario y terrenos incultos. Herbácea, 20-30 cm»""","""Malabo, finca las Carboneras""",Bosque secundario y terrenos incultos,soil,N/A,32NMK7415,N/A,Typed,no type status
0005_V0578553F.jpg,N/A,N/A,N/A,N/A,5-II-1989,1989-02-05,1989-02-05,Agrostis manii (Hooker fil.) Stapf,Agrostis manii (Hooker fil.) Stapf,C. Cebolla & M.A. Rivas Ponce,1993,N/A,Guinea Ecuatorial,Bioco,N/A,N/A,"cumbre del pico Basilé, 32NMJ7396, 2870 m. márgenes de la pista, Fernández Casas 11206, 5-II-1989.",cumbre del pico Basilé,N/A,N/A,2870 m.,32NMJ7396,2200806,Typed,no type status
0006_V0574052F.jpg,F. G. Overlaet,F. G. Overlaet,N/A,1932-4,N/A,N/A,N/A,"Scleria nutans Linn. Det. A. E. Kral, 1964",Scleria nutans Linn.,A. E. Kral,1964,N/A,Belgian Congo,N/A,N/A,N/A,N/A,[precise locality unknown],N/A,N/A,N/A,N/A,752378,Typed,no type status
0007_V0577681F.jpg,C.J.P. Seegeler,C.J.P. Seegeler,N/A,2806,d.d.: 23 October 1972,1972-10-23,1972-10-23,Vernonia amygdalina Sch. Bip.,Vernonia amygdalina Sch. Bip.,G.J.H. Amshoff,1982,N/A,Ethiopia,N/A,N/A,Nazareth,"In full sun on a lava rock from Metahara, on road to Nazareth","on a lava rock from Metahara, on road to Nazareth",In full sun,rock,925m,"8°56'N, 39°55'E",2302805,Typed,no type status
0008_V0597557F.jpg,N/A,N/A,N/A,48,05/08/2008,2008-08-05,N/A,Carduus leptacanthus Fres.,Carduus leptacanthus Fres.,N/A,N/A,N/A,N/A,Sud-Kivu,N/A,N/A,Territoire: Kabare Localité: Musisi,"Kabare, Musisi",N/A,N/A,N/A,N/A,2257689,Typed,no type status
0009_V0594376F.jpg,J.M. Fay 8017,J.m. fay,N/A,8017,25 May 1987,1987-05-25,1987-05-25,Caesalpiniaceae Burkea africana Hook.,Burkea africana Hook.,J.M. Fey,N/A,N/A,Central African Republic,N/A,N/A,N/A,Park Manovo-Gounda-St. Floris. Vicinity of Camp Koumbala.,"Park Manovo-Gounda-St. Floris, vicinity of Camp Koumbala",N/A,N/A,600 m,08°29'N 21°12'E,"NCI # Wood G678/0065, Bark G678/0066, Root G678/0067, Leaves G678/0068",Typed,no type status
0010_V0597275F.jpg,P.C.M. Jansen,P.C.M. Jansen,N/A,5996,N/A,N/A,N/A,Cirsium vulgare (Savi) Ten.,Cirsium vulgare (Savi) Ten.,C.C.H. Jongkind,14 April 1976,N/A,Ethiopia,Harerge,N/A,N/A,"around Damota Village, near Alema, between chat and sorghum fields.","around Damota Village, near Alema, between chat and sorghum fields.",Ground roots are drunk against gonorrhoe.,soil,N/A,N/A,N° 2302849,Typed,no type status
0011_V0597626F.jpg,"Amanda Koch, Wilson Saduka, AK61",Amanda Koch,Wilson Saduka,AK61,"October 22, 2003",2003-10-22,N/A,Acacia reficiens meruensis (Vatke) Brenan,Acacia reficiens meruensis (Vatke) Brenan,Patrick Mutiso,"November 02, 2003",N/A,Kenya,Kajiado District,N/A,Oloishobor,Kenya: Kajiado District:Oloishobor,Oloishobor,Dry bushland,N/A,N/A,N/A,2309478,Typed,no type status
0012_V0597688F.jpg,J. Lebrun,J. Lebrun,N/A,2409,Nov 1931,1931-11-00,1931-11-00,Albizia gummifera (J.F.Gmel.) C.A.Sm.,Albizia gummifera (J.F.Gmel.) C.A.Sm.,N/A,N/A,N/A,Congo Belge,Albert (Ville),N/A,N/A,Albert (Ville),Albert (Ville),N/A,N/A,N/A,N/A,867368,Typed,no type status
0013_V0588237F.jpg,N/A,N/A,N/A,207,25.12.1957,1957-12-25,1957-12-25,Digitaria perrottetii (Hochst.) Henrard,Digitaria perrottetii (Hochst.) Henrard,N/A,N/A,N/A,Kenya,N/A,N/A,N/A,Tsavo - Taita Andei,Tsavo - Taita Andei,N/A,soil,N/A,N/A,1559644,Typed,no type status
0014_V0580026F.jpg,H. Callens,H. Callens,N/A,1584065,Juillet 1958,1958-07-00,1958-07-00,Rubiaceae Tarenna paniculata,Tarenna paniculata,H. Callens,1/9/58,N/A,Congo Belge,Kivu,N/A,Kisantu,Kisantu,Kisantu,Forêt secondaire,N/A,N/A,N/A,N/A,Typed,no type status
0015_V0580516F.jpg,G. Troupin,G. Troupin,N/A,6333,1/02/1958,1958-02-01,N/A,Crotalaria ononoides (F.T.A.) B.L. Burtt,Crotalaria ononoides (F.T.A.) B.L. Burtt,N/A,N/A,N/A,Zaire,Kivu,N/A,N/A,"Territ. Kalehe, Vers 119 route Kavumu-Kalehe-Kinigi, vers 1750m, alt. 1950 - 2000 m.","Vers 119 route Kavumu-Kalehe-Kinigi, vers 1750 meters","Forêt ombrophile, Ouest vers 1500 m.",N/A,alt. 1950 - 2000 m.,N/A,1543353,Typed,no type status
0016_V0574490F.jpg,Collecté par Dorr & Lopez,Dorr,Lopez,13781,20 Mars 1989,1989-03-20,N/A,Corynanthe mayumbensis (R. Good) N. Hallé,Corynanthe mayumbensis (R. Good) N. Hallé,Wilks & McPherson,1989,N/A,Gabon,Ogooué-Ivindo,N/A,N/A,"Réserve de la Lopé, au sud d'Ayem; chantier SOFORGA","Réserve de la Lopé, au sud d'Ayem; chantier SOFORGA",N/A,N/A,c. 200 m,0°25'S 11°30'E,"LP:4665-0223-G, BR:4665-0224-H, WD:4665-0225-I.",Typed,no type status
0017_V0574226F.jpg,J. M. Fay 8294,J. M. Fay,N/A,8294,4 March 1988,1988-03-04,1988-03-04,Millettia zechiana Harms,Millettia zechiana Harms,Ake Assi,1998,N/A,Cameroon,N/A,N/A,N/A,"On the Sangha River across from Makana gorilla study area. In seasonally flooded forest with Guibourtia demeusei, Pericopsis elata, Pombax sp.",On the Sangha River across from Makana gorilla study area,In seasonally flooded forest,soil,385 m,02°02'N 16°08'E,N/A,Typed,no type status
0018_V0580728F.jpg,F. N. Hepper,F. N. Hepper,N/A,199,29.vii.1959,1959-07-29,1959-07-29,Phaseolus lunatus L.,Phaseolus lunatus L.,N/A,N/A,N/A,Cameroon,N/A,N/A,N/A,"South West of Crater Lake. Clearing in wood, scrambling over herbage.",South West of Crater Lake,"Clearing in wood, scrambling over herbage",N/A,Alt. 1500m,N/A,1624518,Typed,no type status
0019_V0578764F.jpg,E. B. Bartram & H. K. Airy Shaw,E. B. Bartram,H. K. Airy Shaw,2,"June 30-July 1, 1927",1927-06-30,1927-07-01,N/A,N/A,N/A,N/A,N/A,Kenya,N/A,N/A,Mathiaga,"Mathiaga, near Nairobi","Mathiaga, near Nairobi",N/A,N/A,"Alt. 1,700 meters",N/A,2074762,Typed,no type status
0020_V0594158F.jpg,A. Leonard,A. Leonard,N/A,3149,19/2/1959,1959-02-19,N/A,"Drymaria spermacoce DC. Bisse, indet.",Drymaria spermacoce DC.,Bisse,5.XII.1969,N/A,Rwanda,N/A,N/A,N/A,Kivu,Kivu,Vieille forêt secondaire,N/A,Alt. 1900m,N/A,2086095,Typed,no type status
0021_V0573054F.jpg,Herbier des seringueiros de L'Institut Agronomico do Norte recolte par le Pr. R. L. Fróes,R. L. Fróes,N/A,8400,N/A,N/A,N/A,Hevea nitida (Mart.) Müll. Arg.,Hevea nitida (Mart.) Müll. Arg.,N/A,N/A,N/A,N/A,N/A,N/A,N/A,N/A,[precise locality unknown],N/A,N/A,N/A,N/A,781173,Mix of Handwritten and Typed,no type status
0022_V0601010F.jpg,James T. Allen,James T. Allen,N/A,41,"September 23, 1996",1996-09-23,1996-09-23,Dissotis rotundifolia (Sm.) Triana,Dissotis rotundifolia (Sm.) Triana,N/A,N/A,N/A,Ghana,Volta Region,N/A,N/A,Volta Region,[precise locality unknown],N/A,N/A,N/A,N/A,2200652,Typed,no type status
0023_V0602418F.jpg,J. E. Amoah,J. E. Amoah,N/A,5632,March 1952,1952-03-00,1952-03-00,Chrysophyllum perpulchrum Mildbr.,Chrysophyllum perpulchrum Mildbr.,N/A,N/A,N/A,Gold Coast,Ashanti Prov.,Kumasi District,N/A,Kumasi Township Forest Reserve,Kumasi Township Forest Reserve,N/A,N/A,N/A,N/A,1601919,Typed,no type status
0024_V0604513F.jpg,J. Nemba & D.W. Thomas,J. Nemba,D.W. Thomas,2041320,15 June 1987,1987-06-15,N/A,Donella welwitschii Pierre ex Engl.,Donella welwitschii Pierre ex Engl.,D.W. Thomas,1987,N/A,Cameroon,Southwest,N/A,N/A,Secondary growth and old growth forest along Kumba-Mamfe road at mile 14 L. K. 11,Secondary growth and old growth forest along Kumba-Mamfe road at mile 14 L. K. 11,Secondary growth and old growth forest,N/A,200 m,04°44'N 09°29'E,NCI Leaves: Stems 066/0052-L,Typed,no type status
0025_V0572217F.jpg,J. Deaw,J. Deaw,N/A,283,"4, 1, 79",1979-01-04,N/A,Eugenia coronata,Eugenia coronata,N/A,N/A,N/A,Ghana,N/A,N/A,Accra,Accra,Accra,N/A,N/A,N/A,N/A,1753422,Typed,no type status
0026_V0602609F.jpg,H. Schimper,H. Schimper,N/A,1418,Januar 1892,1892-01-00,1892-01-00,Rumex nervosus Vahl,Rumex nervosus Vahl,N/A,N/A,N/A,Abyssinia septentrionalis (Colonia Eritrea),N/A,N/A,N/A,Agameté; fonte du flud du dessous d'Addi Ugri,Agameté; fonte du flud du dessous d'Addi Ugri,N/A,N/A,2500-2700 m,N/A,N/A,Typed,no type status
0027_V0606178F.jpg,R.B. & A.J. Faden,R.B. Faden,A.J. Faden,77/111,7 March 1977,1977-03-07,N/A,Toddaliopsis bremekampii (Engl.) Engl. confirmed J.O. Kokwaro,Toddaliopsis bremekampii (Engl.) Engl.,J.O. Kokwaro,N/A,N/A,Kenya,Kwale District,N/A,N/A,"Chale Peninsula, ca. 4°26'S, 39°32'E, 0-5 m. Coral rag dry forest with Combretum albosinensis dominant.",Chale Peninsula,Coral rag dry forest with Combretum albosinensis dominant,N/A,0-5 m,"4°26'S, 39°32'E",N° 2153520,Typed,no type status
0028_V0603038F.jpg,F. Szafranski,F. Szafranski,N/A,1378,2.2.1988,1988-02-02,1988-02-02,Commelinaceae Floscopa glomerata (Roem. et Schult.) Hassk.,Floscopa glomerata (Roem. et Schult.) Hassk.,N/A,N/A,N/A,Haut-Zaire,Haut-Uele,Isiro,N/A,"Haut-Zaire, S.Rég.Haut-Uele, Isiro",Isiro,bas fond marécageux près de la route aux environs de l'usine SOCODIA,soil,N/A,N/A,2084694,Typed,no type status
0029_V0606676F.jpg,F.W.H. Migeod,F.W.H. Migeod,N/A,394,1. xi. 1928.,1928-11-01,N/A,Solanum aculeatissimum Jacq.,Solanum aculeatissimum Jacq.,M. Nee,"Dec. 3, 1977",N/A,Africa,Bamenda,N/A,N/A,"Bamenda, British Cameroons. Alt. 4500 ft.",Bamenda,N/A,N/A,Alt. 4500 ft.,N/A,1441275,Typed,no type status
0030_V0601406F.jpg,T.C. Friesley and L. Halkinville,T.c. Friesley,L. Halkinville,52,19 July 1959,1959-07-19,N/A,Canarina abyssinica Hochst. ex A. Rich.,Canarina abyssinica Hochst. ex A. Rich.,A. Fernandes,1961,N/A,Ethiopia,N/A,N/A,N/A,"Abyssinia: Ridge west of Garamule, Open woodland",Ridge west of Garamule,Open woodland,N/A,12000ft,N/A,1624568,Mix of Handwritten and Typed,no type status
0031_V0604673F.jpg,William Burger,William Burger,N/A,726,27 May 1962,1962-05-27,1962-05-27,Rubus apetalus Poir,Rubus apetalus Poir,W.J. Kress,21/VIII/1984,N/A,Ethiopia,Harar Prov.,N/A,N/A,6 mi. E. of Adea 1 1/2 mi. E. of Hora along new Hwy. Steep slopes with remnant forest,6 miles East of Adea 1 1/2 miles East of Hora along new Highway,Steep slopes with remnant forest,N/A,1920 feet,N/A,1825230,Typed,no type status
0032_V0565514F.jpg,J.D. Sauer,J.D. Sauer,N/A,3914,15 June 1963,1963-06-15,1963-06-15,Aerva lanata (L.) Juss.,Aerva lanata (L.) Juss.,N/A,N/A,N/A,Kenya,Coast Province,Kwale District,near Mombasa,"Coast Province, Kwale District, near Mombasa. Bumburi Beach, N of Mombasa.","Bumburi Beach, north of Mombasa","Beach ridge, shallow open coast.",soil,N/A,N/A,595567,Typed,no type status
0033_V0565977F.jpg,C. Vigne,C. Vigne,N/A,N/A,N/A,N/A,N/A,Excoecaria parvifolia Muell. Arg.,Excoecaria parvifolia Muell. Arg.,N/A,N/A,N/A,N/A,N/A,N/A,N/A,N/A,[precise locality unknown],N/A,N/A,N/A,N/A,839434,Typed,no type status
0034_V0566108F.jpg,Enam Adu,Enam Adu,N/A,1026,Collected in 1999,1999-00-00,1999-00-00,Uvaria versicolor Pierre,Uvaria versicolor Pierre,N/A,N/A,N/A,Ghana,N/A,N/A,N/A,N/A,[precise locality unknown],N/A,N/A,N/A,N/A,2325285,Typed,no type status
0035_V0567164F.jpg,A. A. Enti,A. A. Enti,N/A,398,22 11 19,1919-11-22,1919-11-22,Peponia daemmis,Peponia daemmis,A. A. Enti,19 71.,N/A,Ghana,N/A,N/A,Awutu-Winneba Road.,Awutu-Winneba Road.,Awutu-Winneba Road,a climber among grasses,N/A,Altitude:,N/A,1753348,Typed,no type status
0036_V0591661F.jpg,D.W. Thomas,D.w. Thomas,N/A,6850,1987,1987-00-00,1987-00-00,Cola flavovelutina K. Schum.,Cola flavovelutina K. Schum.,D.W. Thomas,1987,N/A,Cameroon,Southwest,N/A,N/A,"PRCV, Southwest: Korup National Park. Primary rain forest","Korup National Park, primary rain forest",Primary rain forest,N/A,600 m,05°02'N 08°50'E,2041255,Typed,no type status
0037_V0567306F.jpg,Sue A. Thompson,Sue A. Thompson,N/A,1522,9 July 1984,1984-07-09,1984-07-09,Impatiens macroptera Hook. f.,Impatiens macroptera Hook. f.,N/A,N/A,N/A,Cameroon,Prov. Sud-Ouest,Dept. Fako,Bakinigili,Trail up Mt. Cameroon,Trail up Mt. Cameroon,"Erect herb up to 70 cm tall, growing on wet rocks",rock,Alt. 50-250 m.,"4°04'N, 9°02'E",2086046,Typed,no type status
0038_V0606921F.jpg,D. Waterson,D. Waterson,N/A,484,16/8-27,1927-08-16,1927-08-27,Englerophytum tenuifolium (Engl.) Gill.,Englerophytum tenuifolium (Engl.) Gill.,N/A,N/A,N/A,Kenya,Kitui,N/A,N/A,4 km n.e. of Kangondi on road to Embu,4 kilometers northeast of Kangondi on road to Embu,Thicket,N/A,4500 ft.,N/A,1864166,Typed,no type status
0039_V0605928F.jpg,Sue A. Thompson & John E. Rawlins,Sue A. Thompson,John E. Rawlins,1333,3 June 1984,1984-06-03,N/A,Avicennia africana P. Beauv.,Avicennia africana P. Beauv.,N/A,N/A,N/A,Cameroon,Sud-Ouest,Fako,Bakingili,Prov. Sud-Ouest; Dept. Fako; Bakingili,Bakingili,seaside,soil,Alt. 0 m.,4°04'N; 9°02'E,2088074,Typed,no type status
0040_V0605675F.jpg,N/A,N/A,N/A,6047,3.IV.1958,1958-04-03,1958-04-03,Trixis ophiorhiza (Baker f.) H. Rob.,Trixis ophiorhiza (Baker f.) H. Rob.,N/A,N/A,N/A,N/A,Kivu,Tshuapa,N/A,"Territ. Tshuapa, 7 kms sur la route Bokuma-Yalikonde, près Tshuapa.","7 kilometers on the road Bokuma-Yalikonde, near Tshuapa",Forêt ombrophile,N/A,850 - 900 m.,N/A,1543374,Typed,no type status
0041_V0571550F.jpg,A. Pappi,A. Pappi,N/A,2624,14-15.VIII.1902,1902-08-14,1902-08-15,Lavandula pubescens Decaisne,Lavandula pubescens Decaisne,T.M. Upson,2/4/1996,N/A,Eritrea,Assarota,N/A,N/A,Eritrea-Assarota - lungo il torrente Hagaz,lungo il torrente Hagaz,N/A,N/A,N/A,N/A,N/A,Typed,no type status
0042_V0607392F.jpg,William Burger,William Burger,N/A,1953,1 Feb. 1962,1962-02-01,1962-02-01,Juniperus procera Hochst. ex Endl.,Juniperus procera Hochst. ex Endl.,W.B.,N/A,N/A,Ethiopia,Harar Prov.,N/A,N/A,N.W. face Gara Mullata Mtn. ca. 50 km. due W of Harar. 916' N 41° 43' E,N.W. face Gara Mullata Mountain ca. 50 kilometers due west of Harar,Shelter on steep slopes with mixed forest,soil,2850 - 3200m,916' N 41° 43' E,1632855,Typed,no type status
0043_V0570163F.jpg,C. D. Adams,C. D. Adams,N/A,GC,1/12/1952,1952-12-01,1952-12-01,Terminalia glaucescens,Terminalia glaucescens,N/A,N/A,N/A,Ghana,Volta Region,N/A,Ho,"Ho, Volta Region",Ho,In light forest around village & brownish redland,soil,N/A,N/A,2007210,Typed,no type status
0044_V0570543F.jpg,Schimper,Schimper,N/A,N/A,N/A,N/A,N/A,Ipomoea hildebrandtii Vatke,Ipomoea hildebrandtii Vatke,N/A,N/A,N/A,Abyssinia,N/A,N/A,N/A,N/A,[precise locality unknown],N/A,N/A,N/A,N/A,373793,Typed,no type status
0045_V0607965F.jpg,D.W. Thomas & M. Etuge,D.W. Thomas,M. Etuge,6988,18 May 1987,1987-05-18,N/A,Taphura africana Oliv.,Taphura africana Oliv.,D.W. Thomas,1987,N/A,Cameroon,Southwest,N/A,N/A,"Degraded forest at Barombi Kang, Kumba","Degraded forest at Barombi Kang, Kumba",Degraded forest,N/A,150 m,04°36'N 09°27'E,2040825,Typed,no type status
0046_V0570471F.jpg,Edgar A. Mearns,Edgar A. Mearns,N/A,11144,"September 6, 1909",1909-09-06,1909-09-06,Euphorbia aequilifera,Euphorbia aequilifera,N/A,N/A,N/A,British East Africa,N/A,N/A,N/A,Vicinity of Thika,Vicinity of Thika,N/A,N/A,altitude about 1350 meters,N/A,463287,Typed,no type status
0047_V0570108F.jpg,G. B. Huxley,G. B. Huxley,N/A,580,N/A,N/A,N/A,Combretum Schumannii Engl.,Combretum Schumannii Engl.,N/A,N/A,N/A,Kenya,N/A,N/A,N/A,N/A,[precise locality unknown],N/A,N/A,N/A,N/A,856357,Handwritten,no type status
0048_V0570110F.jpg,J. M. Fay,J. M. Fay,N/A,8271,28 February 1988,1988-02-28,1988-02-28,Combretum smeathmannii G. Don,Combretum smeathmannii G. Don,Ake Assi,1988,N/A,Cameroon,N/A,N/A,N/A,"Along the Sangha River adjacent to the island of Kilona. In riparian forest adjacent to seasonally flooded forest with Irvingia gabonensis, Guibourtia demeusei, Berlinia sp.",Along the Sangha River adjacent to the island of Kilona,In riparian forest adjacent to seasonally flooded forest,N/A,1400 m,02°21'N 16°09'E 385 m,N/A,Typed,no type status
0049_V0590787F.jpg,D.D. Soejarto,D.D. Soejarto,N/A,4793,"April 1, 1988",1988-04-01,1988-04-01,Diospyros tricolor Hiern.,Diospyros tricolor Hiern.,N/A,N/A,"Thespesia populnea, Sophora accidental is",Ghana,Greater Accra Province,N/A,Botianor village,"20 km. West of Accra, Sea coast.","20 kilometers west of Accra, Sea coast",Sandy soil,soil,N/A,N/A,1842606,Typed,no type status
0050_V0040586F.jpg,Narciso Reyna B. 40,Narciso Reyna,N/A,40,15 diciembre 1967,1967-12-15,1967-12-15,Gustavia scalarinervia D.R. Simpson,Gustavia scalarinervia D.R. Simpson,D.R. Simpson,1975,N/A,Peru,Loreto,Maynas,Santa María de Nanay,"Santa María - Río Nanay, distr. Alto Nanay, Dept. Loreto, prov. Maynas. Alt. 150 m.","Santa María - Río Nanay, district Alto Nanay","""Cachuelas amarillas"" - árbol, bosque húmedo tropical",N/A,Alt. 150 m.,N/A,"U.S. Policy File 440, FS-854",Typed,HOLOTYPE
0051_V0081497F.jpg,M.O. Dillon & D. Dillon,M.O. Dillon,D. Dillon,3776,1 Nov 1983,1983-11-01,N/A,Galvezia fruticosa Gmel.,Galvezia eisensii M.O. Dillon & Quipuscoa,M.O. Dillon & Quipuscoa,N/A,N/A,Peru,Arequipa,Caraveli,N/A,"Lomas of Atiquipa, ca. 105 km N of turn-off to Atiquipa, km 584 S of Lima","Lomas of Atiquipa, 105 kilometers north of turn-off to Atiquipa, kilometer 584 south of Lima",N/A,soil,ca. 150-200 m,N/A,1940835,Typed,holotype
0052_V0042484F.jpg,N/A,N/A,N/A,N/A,1836,1836-00-00,1836-00-00,Isolectotype of: Tetrachidium rubrivenium var. genuinum Müll. Arg. Prodr. 15(2): 1133. 1866.,Tetrachidium rubrivenium var. genuinum Müll. Arg.,F. Pax,N/A,N/A,N/A,N/A,N/A,N/A,N/A,[precise locality unknown],N/A,N/A,N/A,N/A,875422,Handwritten,Isolectotype
0053_V0092855F.jpg,Jose Campos O. y D. Diaz,Jose Campos O.,D. Diaz,2490,9 Febrero 1996,1996-02-09,N/A,Amorimia camporum W.R. Anderson,Amorimia camporum W.R. Anderson,W. R. Anderson,17-29. 2006,N/A,Peru,Cajamarca,San Ignacio Province,N/A,Distrito Chirinos: Entre La Catacua y Tablón.,Entre La Catacua y Tablón,Trepadora; flor amarilla.,N/A,550 - 650,05°19'S; 078°47'W,2296033,Typed,Isotype
0054_V0078059F.jpg,Ruiz & Pavon,Ruiz,Pavon,N/A,(1777-1788),1777-00-00,1788-00-00,Nolana spathulata Ruiz & Pav.,Nolana spathulata Ruiz & Pav.,T. M. A. Mes,1981,N/A,Peru,N/A,N/A,N/A,in vice-regno Peruvianno et Chilensi lectae.,[precise locality unknown],N/A,N/A,N/A,N/A,845155,Typed,Isolectotype
0055_V0092864F.jpg,Camilo Díaz y Antonio Peña,Camilo Díaz,Antonio Peña,8008,4 Diciembre 1996,1996-12-04,N/A,Symplocos ovata Stahl,Symplocos ovata Stahl,B. Ståhl,"Novon 20(1): 91, fig. 4A-B. 2010",N/A,Peru,Amazonas,Luya Province,N/A,"Camporedondo, Tullanya, Pascana ""Pajaro Tigre""","Camporedondo, Tullanya, Pascana ""Pajaro Tigre""",Liana con frutos verdes. Pecínculos largos.,N/A,2850–2360 m,N/A,2296023,Typed,Isotype
0056_V0092900F.jpg,Ruiz et Pavón,Ruiz et Pavón,N/A,N/A,1775-1788,1775-00-00,1788-00-00,Bomarea purpurea (Ruiz & Pavón) Herb.,Bomarea purpurea (Ruiz & Pavón) Herb.,Hofreiter,2007,N/A,Peru,N/A,N/A,N/A,in vice-regno Peruviano et Chilensi lectae.,[precise locality unknown],N/A,N/A,N/A,N/A,916119,Typed,isotype
0057_V0092906F.jpg,"V. Quipuscoa S., A. Sagástegui A., S. Leiva G. & M. Bejarano C.",V. Quipuscoa S.,"A. Sagástegui A., S. Leiva G., M. Bejarano C.",13778,20 agostos 1998,1998-08-20,N/A,Lithospermum cinerascens (A.DC.) Johnst.,"Lithospermum leymebambasense Weigend & Nürk, sp. nov. ined.","Maximilian Weigend, September 2006",September 2006,N/A,Peru,Amazonas,Luya,N/A,"Distrito Leymebamba, Carretera a Celendín, entre Ishpingo - Pomacocha. Bosque montano fragmentado.","Carretera a Celendín, entre Ishpingo - Pomacocha",Bosque montano fragmentado,N/A,2800-3000 m,N/A,2211679,Typed,Isotype
0058_V0092915F.jpg,Llewelyn Williams,Llewelyn Williams,N/A,6999,"Jan.-Feb., 1930",1930-01-00,1930-02-00,Maranta arundinacea L.,Maranta arundinacea L.,N/A,N/A,N/A,Peru,San Martin,N/A,N/A,"forest, Roque, San Martin","forest, Roque",forest,soil,150-1800 m.,N/A,624474,Handwritten,no type status
0059_V0092918F.jpg,Ruiz et Pavón,Ruiz,Pavón,N/A,1778-1788,1778-00-00,1788-00-00,Marcgraviastrum obovatum (Kunth) Bedell ex Gir.-Cañas,Marcgraviastrum obovatum (Kunth) Bedell ex Gir.-Cañas,Gir.-Cañas,10/2010,N/A,N/A,N/A,N/A,N/A,N/A,[precise locality unknown],N/A,N/A,N/A,N/A,843295,Mix of Handwritten and Typed,Isotype
0060_V0092921F.jpg,Ruiz & Pavón,Ruiz,Pavón,N/A,(1775-1788),1775-00-00,1788-00-00,Norantea obovata G. Don = Marcgraviastrum obovatum (G. Don) Bedell,Marcgraviastrum obovatum (G. Don) Bedell,H.G. Bedell,VIII 1982,N/A,Peru,N/A,N/A,N/A,in vice-regno Peruviano et Chilensi lectae.,[precise locality unknown],N/A,N/A,N/A,N/A,842882,Typed,Isotype
0061_V0190732F.jpg,Robin B. Foster,Robin B. Foster,N/A,8752,13 Sept. 1982,1982-09-13,1982-09-13,Aciotis venezuelanus (Pax & K. Hoffm.) Webster,Aciotis venezuelanus (Pax & K. Hoffm.) Webster,M.J. Huft,1983,N/A,Peru,Huánuco,N/A,N/A,"Pachitea: Puerto Inca to Sungaro, Forest trail between Río Pachitea and Río Sungaro, Forested low hills and ravines, alt. 250-300 m. 75°W, 9°18'S.","Puerto Inca to Sungaro, forest trail between Río Pachitea and Río Sungaro",Forested low hills and ravines,N/A,alt. 250-300 m.,"75°W, 9°18'S.",No. 1921102,Typed,no type status
0062_V0277652F.jpg,José Schunke Vigo,José Schunke Vigo,N/A,6505,27 May 1964,1964-05-27,1964-05-27,Tontelea sp. (Celastraceae),Tontelea sp.,A. M. W. Mennega,11/1982,N/A,Peru,San Martín,Mariscal Cáceres,Tocache Nuevo,"San Martín: Mariscal Cáceres, Tocache Nuevo, (río Huallaga), in tall forest","Tocache Nuevo, in tall forest",In tall forest,N/A,529 m.,N/A,1751666,Typed,no type status
0063_V0152152F.jpg,Manuel Rimachi Y.,Manuel Rimachi Y.,N/A,4268,"February 8, 1979",1979-02-08,1979-02-08,Nectandra krukovii (A.C. Smith) Kosterm.,Endlicheria anomala (Nees) Mez,A. C. Monro & T. Pruski,"(Triplaris), 2001",N/A,Peru,Loreto,Requena,N/A,"Dtto. Saquena. Rio Ucayali, Quebrada de Aucayacu, above Genaro Herrera, marginal forest, ""muema,"" 8 m fr. green.","Rio Ucayali, Quebrada de Aucayacu, above Genaro Herrera","marginal forest, ""muema""",N/A,N/A,N/A,2058606,Typed,no type status
0064_V0277223F.jpg,Salvador Flores P.,Salvador Flores P.,N/A,95 (P-2),Julio/82,1982-07-00,1982-07-00,Faramea sp.,Faramea sp.,T. Plowman,1985,N/A,Peru,Loreto,Maynas,Ampiyacu-Pezas,"Ampiyacu-Pezas, Maynas, Loreto",Ampiyacu-Pezas,Bosque secundario 35 años,N/A,100 m.s.n.m.,N/A,1968315,Typed,no type status
0065_V0195906F.jpg,Percy Nuñez V. & S. Walsh,Percy Nuñez V.,S. Walsh,1982606,29 October 1986,1986-10-29,N/A,Euphorbia heterophylla L.,Euphorbia heterophylla L.,M. J. Huft,1987,N/A,Peru,Cuzco,La Convención,Quillabamba,"Dept. Cuzco: La Convención, Quillabamba, Salsapampa. Alt. 1110 m.",Salsapampa,N/A,N/A,Alt. 1110 m.,N/A,N/A,Typed,no type status
0066_V0290180F.jpg,Jose Schunke,Jose Schunke,N/A,9560,30 Mayo 1977,1977-05-30,1977-05-30,"""Merope-Syachia""",Hamelia patens Jacq.,D. Dyer,1980,N/A,Peru,San Martín,N/A,N/A,"Provincia: San Martín. Alonso de Alvarado. San Juan de Pacaistapa, km. 72 carretera Tarapoto-Yoyobamba. Alt. 1000-1050 m.","Alonso de Alvarado, San Juan de Pacaistapa, km 72 carretera Tarapoto-Yoyobamba","En bosque secundario, con abundante luz solar.",N/A,Alt. 1000-1050 m.,N/A,1872133,Typed,no type status
0067_V0201636F.jpg,"G. Tosi, J. Luna, J. Ruiz",G. Tosi,"J. Luna, J. Ruiz",138,18-8-81,1981-08-18,N/A,Ficus maxima P. Miller,Ficus maxima P. Miller,William O. Burger,1982,N/A,Peru,Loreto,N/A,N/A,"Quistococha, 14km north of Iquitos","Quistococha, 14 kilometers north of Iquitos",N/A,N/A,600m elev,N/A,1923146,Typed,no type status
0068_V0251887F.jpg,E. P. Killip & A. C. Smith,E. P. Killip,A. C. Smith,16721,"July 23-27, 1929",1929-07-23,1929-07-27,Psychotria sararensa (Rusby) Standl.,Psychotria sararensa (Rusby) Standl.,N/A,N/A,N/A,Peru,Junín,N/A,N/A,"Dept. Junín: Cahuapanas, Río Pichis; rich damp forest.","Cahuapanas, Río Pichis",rich damp forest,N/A,about 400 meters,N/A,607534,Typed,no type status
0069_V0243915F.jpg,M. O. Dillon and I. Sánchez V.,M. O. Dillon,I. Sánchez V.,6310,N/A,N/A,N/A,"Wissadula grandiflora Baker ex Rusby det. P. Fryxell, 1983",Wissadula grandiflora Baker ex Rusby,P. Fryxell,1983,N/A,Peru,Piura,Huancabamba,N/A,"Dept. Piura. Prov. Huancabamba, ca. 2 km N of Canchaque.",approximately 2 kilometers north of Canchaque,N/A,N/A,ca. 1450 m alt.,5°24'S 79°36'W,N° 2119563,Typed,no type status
0070_V0187051F.jpg,J. Francis Macbride,J. Francis Macbride,N/A,4806,"June 22, 1923",1923-06-22,N/A,Croton Billieturneri,Croton Billieturneri,N/A,N/A,N/A,Peru,Cueva Grande,N/A,N/A,Cueva Grande,Cueva Grande,N/A,N/A,about 3000 feet,N/A,535840,Typed,no type status
0071_V0258426F.jpg,N/A,N/A,N/A,2820,12 de Julio 1960,1960-07-12,N/A,Geranium sp.,Geranium chillonense Kunth,Bolette Hjalfdan-Nielsen,1993,N/A,Peru,La Libertad,"Prov. Otuzco, Dpto. La Libertad",N/A,"Prov. Otuzco, Dpto. La Libertad, Cerro Campana",Cerro Campana,Puna húmeda,soil,3740 m.s.n.m.,N/A,1684365,Typed,no type status
0072_V0193750F.jpg,"J. Mostacero L., S. Llatas Q., F. Mejia C., J. Guevara B.",J. Mostacero L.,"S. Llatas Q., F. Mejia C., J. Guevara B.",1040,12-11-1986,1986-11-12,N/A,Solanum asterophorum Mart. ex Sendtn.,Solanum asterophorum Mart. ex Sendtn.,"M. J. Huft, 1991",1991,N/A,Peru,Cajamarca,N/A,N/A,La Morilla (Socota-San Andrés),La Morilla,Al borde de carretera,soil,2450 msnm,N/A,199382,Typed,no type status
0073_V0228073F.jpg,"SPICHIGER, R. & P.-A. LOIZEAU","Spichiger, R.",P.-A. Loizeau,3012,10-4-86,1986-04-10,N/A,Pourouma guianensis Aubl. var. guianensis,Pourouma guianensis Aubl. var. guianensis,N/A,N/A,N/A,Pérou,Loreto,Jenaro Herrera,N/A,"Bosque de terraza alta, suelo arenoso.",[precise locality unknown],"Bosque de terraza alta, suelo arenoso.",N/A,Alt. 125 m.,N/A,N° 2027582,Typed,no type status
0074_V0100062F.jpg,G. Klug,G. Klug,N/A,660,Dec. 1929,1929-12-00,1929-12-00,"Befaria aestuans L. var. glabrata (Klotzsch) Mez ""Huairuro colorado""",Befaria aestuans L. var. glabrata (Klotzsch) Mez,N/A,N/A,N/A,Peru,Loreto,N/A,N/A,"Mishuyacu, near Iquitos, alt. 100 meters, forest","Mishuyacu, near Iquitos",forest,N/A,alt. 100 meters,N/A,613565,Typed,no type status
0075_V0198402F.jpg,T. R. Dudley,T. R. Dudley,N/A,12063,24 Aug. 1968,1968-08-24,1968-08-24,Dendrophthora sp. of D. mesembryanthemifolia,Dendrophthora mesembryanthemifolia,Job Kuijt,18 Dec. 1984,N/A,Peru,Dept. Ayacucho,Prov. La Mar,N/A,"eastern Massif of the Cordillera Central on San Miguel, Ayacucho, Vic. Hacienda Luisiana","eastern Massif of the Cordillera Central on San Miguel, vicinity of Hacienda Luisiana",dense forest; in high elfin hepatic forest as timberline,twigs,3220 meters,73°53'W; 12°45'S.,1721727,Typed,no type status
0076_V0225274F.jpg,C. Klug,C. Klug,N/A,1596,April 19 1929,1929-04-19,N/A,Ficus trigona L.f.,Ficus trigona L.f.,M. Vásquez Avila,Utrecht 1983,N/A,Peru,Loreto,N/A,N/A,"Mishuyacu, near Iquitos, low montane, forest","Mishuyacu, near Iquitos","low montane, forest",N/A,N/A,N/A,873381,Typed,no type status
0077_V0224820F.jpg,"Mildred E. Mathias, Dermot Taylor",Mildred E. Mathias,Dermot Taylor,5576,13 July 19 61,1961-07-13,N/A,"Malpighiaceae, Bunchosia armeniaca (Cav.) DC. var. armeniaca",Bunchosia armeniaca (Cav.) DC. var. armeniaca,William R. Anderson,1983,N/A,Perú,Loreto,N/A,vicinity of Requena,Loreto: vicinity of Requena,vicinity of Requena,"Liana 2-3 inches in diameter ""Barbasco selvatre""",N/A,N/A,N/A,1733057,Typed,no type status
0078_V0304780F.jpg,José Schunke Vigo,José Schunke Vigo,N/A,6677,17 Dec 1964,1964-12-17,1964-12-17,Paulinia bracteosa Radlk.,Paulinia bracteosa Radlk.,Donald R. Simpson,8.I.1993,N/A,Peru,Loreto,Maynas,N/A,"Quebrada de Iquiquis, (Contamana) in tall forest, 220 m.",Quebrada de Iquiquis,tall forest,N/A,220 m.,N/A,1717601,Typed,no type status
0079_V0238260F.jpg,Llewellyn Williams,Llewellyn Williams,N/A,3363,Sept.-Oct. 1929,1929-09-00,1929-10-00,Psychotria viridis Ruiz & Pav.,Psychotria viridis Ruiz & Pav.,N/A,N/A,N/A,Peru,Loreto,N/A,N/A,"Forest of Porvenir, Alto Nanay","Forest of Porvenir, Alto Nanay",N/A,N/A,Alt. 145 m.,N/A,61.4121,Handwritten,no type status
0080_V0225047F.jpg,"T. Plowman, A. Sagástegui A., J. Mostacero L., F. R. Mejía & F. Peláez",T. Plowman,"A. Sagástegui A., J. Mostacero L., F. R. Mejía, F. Peláez",14242,12 July 1986,1986-07-12,N/A,Abutilon mollissimum (Cav.) Sweet,Abutilon mollissimum (Cav.) Sweet,F. Fryxell,1987,N/A,Peru,Cajamarca,Jaén,N/A,"Road from Pucará to Chamaya, km. 21 east of Pucará, along Río Huancabamba","Road from Pucará to Chamaya, 21 kilometers east of Pucará, along Río Huancabamba",Dry scrub forest on steep slopes,N/A,Alt. 700 m.,N/A,1973380,Typed,no type status
0081_V0239614F.jpg,Magda Chanco with Michelle McMahon and Larry Hufford,Magda Chanco,"Michelle McMahon, Larry Hufford",N/A,14 April 2003,2003-04-14,2003-04-14,Abutilon sp.,Abutilon sp.,N/A,N/A,N/A,Peru,Cajamarca,N/A,N/A,Depto. Cajamarca: Chilet-San Pablo road about 15 km from Chilet.,Chilet-San Pablo road about 15 kilometers from Chilet,N/A,N/A,3614 feet elevation,07° 10.554' S 78° 49.665' W,2253555,Typed,no type status
0082_V0414961F.jpg,Marcos Ríos,Marcos Ríos,"Tony Mori, Nigel Pitman, Luis Torres, Corine Vriesendorp",4399,13 octubre 2014,2014-10-13,N/A,Andira macrothyrsa Ducke,Andira macrothyrsa Ducke,N/A,N/A,N/A,Peru,Loreto,Prov. Requena,Dto. de Soplin,"Prov. Requena, Dto. de Soplin, Quebrada Yanayacu-Río Blanco, Campamento Wissewind del inventario rápido 27, de la región Tapiche-Blanco.","Quebrada Yanayacu-Río Blanco, Campamento Wissewind",Bosque de Planicie inundable aguas blancas,soil,A.W. 90.,"05°33'35""S, 73°15'53""W",2818558,Typed,no type status
0083_V0414962F.jpg,"Marcos Ríos, Tony Mori, Miguel Huamán Luis Torres, Corine Vriesendorp",Marcos Ríos,"Tony Mori, Miguel Huamán, Luis Torres, Corine Vriesendorp",4399,13 octubre 2014,2014-10-13,N/A,Andira macrothyrsa Ducke,Andira macrothyrsa Ducke,N/A,N/A,N/A,Peru,Loreto,Requena,N/A,"Prov. Requena, Dto. de Soplin. Quebrada Yanayacu-Río Blanco. Campamento Wistincho del intervatio rípido 27, de la región Tamañco-Blanco","Quebrada Yanayacu-Río Blanco, Campamento Wistincho",Bosque de Palme inundable de aguas blancas,N/A,Alt. 90,"05°43'35""S 73°13'53""W",2318537,Typed,no type status
0084_V0462893F.jpg,Ynes Mexia,Ynes Mexia,N/A,8265,"Oct. 9, 1936",1936-10-09,1936-10-09,Piper oblongum Ruiz & Pavon,Piper oblongum Ruiz & Pavon,N/A,N/A,N/A,Peru,Huanuco,N/A,N/A,Near confluence Rio Cayumba with Huallaga; forested slope above road.,Near confluence Rio Cayumba with Huallaga,Forested slope above road,N/A,alt. 805 m.,N/A,1066996,Typed,no type status
0085_V0462895F.jpg,Ynes Mexia,Ynes Mexia,N/A,6127,"Nov. 24, 1931",1931-11-24,1931-11-24,Piper callisum Ruiz & Pav.,Piper callisum Ruiz & Pav.,Trelease,N/A,N/A,Peru,Loreto,N/A,N/A,Above Pongo de Manseriche. Right bank of mouth of Rio Santiago; dense forest.,"Above Pongo de Manseriche, right bank of mouth of Rio Santiago",Dense forest,N/A,Alt. 200 meters,N/A,872277,Typed,no type status
0086_V0441679F.jpg,Donald R. Simpson & José Schunke V.,Donald R. Simpson,José Schunke V.,565,"January 4, 1958",1958-01-04,N/A,Ipomoea carnea Jacq.,Ipomoea carnea Jacq.,D. E. Simpson,Jan. 1969,N/A,Peru,Tumbes,N/A,N/A,"Bosque Nacional de Tumbes: Región de ""bosque muy seco tropical"" (sensu Tosi, 1960) cerca de El Caucho entre El Caucho y Pampa de Hospital.","Bosque Nacional de Tumbes, near El Caucho, between El Caucho and Pampa de Hospital","Common from the dry, deciduous forest zone, downward into the very dry thorn-scrub. Along the road about 10 km. northwest of El Caucho",N/A,N/A,N/A,1897948,Typed,no type status
0087_V0441677F.jpg,T. Plowman & P. M. Rury,T. Plowman,P. M. Rury,11105,6 December 1981,1981-12-06,N/A,Ipomoea carnea Jacq.,Ipomoea carnea Jacq.,A. McDonald,1983,N/A,Peru,Huánuco,N/A,N/A,Dept. Huánuco: Prov. Huánuco. 8 km. northeast of Huánuco on road to Tingo María.,8 kilometers northeast of Huánuco on road to Tingo María,Roadside near houses,N/A,alt. 1750 m.,"Approx. 9°52'S., 76°11'W.",.1896900,Typed,no type status
0088_V0401892F.jpg,Robin B. Foster,Robin B. Foster,N/A,4262,"Aug. 19, 1978",1978-08-19,N/A,Aechmea corymbosa (Mart. ex Schult. & Schult.f.) Mez,Aechmea corymbosa (Mart. ex Schult. & Schult.f.) Mez,E.J. Gouda,2018-02-05,N/A,Peru,Loreto,Maynas,N/A,Caserio Mahana 30km SW of Iquitos,Caserio Mahana 30 kilometers southwest of Iquitos,Forested hills on white or brown sand soils,soil,N/A,N/A,1852637,Typed,no type status
0089_V0460617F.jpg,"J. Farfán, L. Valenzuela, I. Huamantupa, A. Carazas, L. Aragón",J. Farfán,"L. Valenzuela, I. Huamantupa, A. Carazas, L. Aragón",1262,23 Octubre 2006,2006-10-23,N/A,Anthurium clavigerum Poepp.,Anthurium clavigerum Poepp.,Thomas B. Croat,2008,N/A,Peru,Cusco,La Convención,N/A,"Dist. Vilcabamba, Chaunquiri camino a Rioamba, Bosque secundario","Dist. Vilcabamba, Chaunquiri camino a Rioamba","Bosque Secundario. Epífita, hasta 70 cm, espadice rojo, espata verde",N/A,1009 m,"12°47'15""S 073°10'10""W",2315782,Typed,no type status
0090_V0469643F.jpg,Thomas B. Croat,Thomas B. Croat,N/A,28120,"July 18, 1972",1972-07-18,N/A,Agave americana L.,Agave americana L.,N/A,N/A,N/A,Peru,Loreto,N/A,N/A,Sandy area 12.5 km SW of Iquitos on road to Lago Quistococha,12.5 kilometers southwest of Iquitos on road to Lago Quistococha,Sandy area,soil,N/A,N/A,1759629,Typed,no type status
0091_V0075820F.jpg,T. R. Dudley,T. R. Dudley,N/A,10783,4 July 1968,1968-07-04,1968-07-04,Thelypteris dudleyi R. A. Smith,Thelypteris dudleyi R. A. Smith,Alan R. Smith,1989,N/A,Peru,Cusco,La Convencion,N/A,"In full sun on old open landslide, just above the cloud forest, between camp 4&5; almost to Camp 5; at ca. 2825 m; one of the commonest colonizers of landslide.","In full sun on old open landslide, just above the cloud forest, between camp 4&5; almost to Camp 5","In full sun on old open landslide, just above the cloud forest",soil,ca. 2825 m,12° 37' S; 73° 32' W,1719861,Typed,Isotype
0092_V0075836F.jpg,S. Knapp,S. Knapp,N/A,5881,4 July 1982,1982-07-04,1982-07-04,Trichipteris pinnata Stolze,Trichipteris pinnata Stolze,Robert G. Stolze,1984,N/A,Panama,Colón,N/A,N/A,"Santa Rita Ridge road, 21-26 km from Transisthmian Highway","Santa Rita Ridge road, 21-26 kilometers from Transisthmian Highway",Tropical wet forest,soil,500-550 m,"9°25'N, 79°37'W",N/A,Typed,Holotype
0093_C0616676F.jpg,J. Dorantes,J. Dorantes,N/A,455,01/01/1972,1972-01-01,1972-01-01,Woodardia spinulosa Mart. & Gal.,Woodardia spinulosa Mart. & Gal.,N/A,N/A,N/A,Mexico,Veracruz,N/A,Jalapa,"Llto del Gato, Mun. Jalapa",Llto del Gato,"Bosque caducifolio, suelo rojo arcilloso, muy abundante helecho perenne veg. riparia",soil,N/A,N/A,P005051,Typed,no type status
0094_C0644079F.jpg,"A. Monteagudo, C. Mateo, G. Ortiz",A. Monteagudo,"C. Mateo, G. Ortiz",4909,10 Abril 2003,2003-04-10,N/A,Blechnum occidentale L.,Blechnum occidentale L.,H. van der Werff,2005,N/A,Peru,Pasco,Oxapampa,N/A,"Distrito Pozuzo, Parque Nacional Yanachaga Chemillen Pozuzo Sector Pan de Azúcar, Zona de Recuperación. Bosque ribereño.","Distrito Pozuzo, Parque Nacional Yanachaga Chemillen, Pozuzo Sector Pan de Azúcar, Zona de Recuperación",Bosque ribereño,roca,1100-1250m,10°15' 75°13'W,N° 2287355,Typed,no type status
0095_C0658238F.jpg,Ynes Mexia,Ynes Mexia,N/A,8066,"May 14, 1936",1936-05-14,1936-05-14,Adiantum pulverulentum L.,Adiantum pulverulentum L.,Copeland,N/A,N/A,Peru,Cuzco,La Convencion,N/A,"Departamento Cuzco, Provincia La Convencion; upper valley of Rio Sambrey; western affluent of Vilcanota, along stream in virgin forest","upper valley of Rio Sambrey; western affluent of Vilcanota, along stream",in virgin forest,soil,Alt. about 1800 m.,N/A,1045396,Typed,no type status
0096_C0637474F.jpg,J.I. Calzada,J.i. Calzada,N/A,5759,21-enero-1980,1980-01-21,1980-01-21,Diplazium francoisii Lellinger,Diplazium francoisii Lellinger,Robert G. Stolze,1983,Liquidambar styraciflua; Quercus sp.; Alnus sp.,México,Veracruz,Xico,N/A,Ranchoita de Coateitlán,Ranchoita de Coateitlán,Bosque Caducifolio muy húmedo,suelo,1820 m.s.n.m.,19°29' N 97°04' W,1894963,Typed,no type status
0097_C0636906F.jpg,Antonio Molina R.,Antonio Molina R.,N/A,1427,"Nov. 4, 1948",1948-11-04,1948-11-04,Thelypteris piloso-hispida (Hook) Morton,Thelypteris rudis (Kunze) Proctor,Alan R. Smith,1974,N/A,Honduras,N/A,N/A,N/A,"Helecho arboreo. Bosque lluvioso norte de la Mt. Uyuca, caminos flotables, Labranza y Quebrada Bonita, 10 km. al SW. de Tegucigalpa.","Bosque lluvioso norte de la Mt. Uyuca, caminos flotables, Labranza y Quebrada Bonita, 10 kilometers southwest of Tegucigalpa",Helecho arboreo. Bosque lluvioso,N/A,Alt. 1800 m.,N/A,1394536,Typed,no type status
0098_C0665739F.jpg,"Blom, Young & Illaupay",Blom,"Young, Illaupay",2911,10 setiembre 1991,1991-09-10,N/A,Thelypteris euchlora (Sod.) R.M. Tryon,Thelypteris euchlora (Sod.) R.M. Tryon,Robert G. Stolze,1992,N/A,Peru,Cuzco,Paucartambo,N/A,"Bosque de Nubes, Rio Tono, Union. 1700-1800 m","Bosque de Nubes, Rio Tono, Union",N/A,N/A,1700-1800 m,N/A,2112158,Typed,no type status
0099_C0626158F.jpg,"Louis O. Williams, Antonio Molina R., Terua P. Williams, Darsey H. Gibson, and Chester Lukaszewski",Louis O. Williams,"Antonio Molina R., Terua P. Williams, Darsey H. Gibson, Chester Lukaszewski",27621,"January 15, 1965",1965-01-15,N/A,Polypodium blepharodes Maxon,Grammitis blepharodes (Maxon) Seymour,R. Stolze,1965,N/A,Nicaragua,Matagalpa,N/A,N/A,"Montane rain forest, or cloud forest, Dipartamento de Potter, Sta. María de Ostuma, Cordillera Central de Nicaragua, Department of Matagalpa, ca. 1000 m.","Montane rain forest, or cloud forest, Dipartamento de Potter, Sta. María de Ostuma","Montane rain forest, or cloud forest",mossy tree,ca. 1000 m.,N/A,1626179,Typed,no type status
0100_C0665657F.jpg,Ken Young & Mark Eisenberg 265,Ken Young,Mark Eisenberg,265,20 April 1981,1981-04-20,N/A,Thelypteris (subg. Amauropelta) Amauropelta smithii (J. Prado & R.C. Moran) A.R. Sm. et al.,Amauropelta smithii (J. Prado & R.C. Moran) A.R. Sm. et al.,A.R. Smith et al.,N/A,N/A,Peru,Cuzco,La Convencion,N/A,"Just east of Quillabamba. Finca Chibinima; cocoa; coffee; yuca, mango; bananas; corn crops 90%W.","Just east of Quillabamba, Finca Chibinima",Terrestrial,soil,1300-1400 m,N/A,2038794,Typed,no type status
0101_C0045536F.jpg,Thomas G. Lammers,Thomas G. Lammers,N/A,10674,9 May 1998,1998-05-09,1998-05-09,Dryopteris carthusiana (Vill.) H.P. Fuchs,Dryopteris carthusiana (Vill.) H.P. Fuchs,N/A,N/A,N/A,United States of America,Illinois,Cook,Palos Township,"Cook Co.: Palos Twp. Swallow Cliff Woods Forest Preserve, southwest of the jct. of US Hwy 45 and State Hwy 83. Local in mesic maple-basswood forest on steep slopes of deep ravine south of toboggan run.","Swallow Cliff Woods Forest Preserve, southwest of the junction of US Highway 45 and State Highway 83",Local in mesic maple-basswood forest on steep slopes of deep ravine,soil,N/A,N/A,2228497,Typed,no type status
0102_C0627900F.jpg,"Louis O. Williams, Antonio Molina R.",Louis O. Williams,Antonio Molina R.,121562,"Mayo 22, 1963",1963-05-22,N/A,Polypodium montigenum Maxon det. A. Molina,Polypodium montigenum Maxon,A. Molina,N/A,N/A,El Salvador,Santa Ana,N/A,N/A,"Bosque abierto de Montaña Montecristo, Department Santa Ana, Alt. 2100 m.",Bosque abierto de Montaña Montecristo,Epífita,N/A,Alt. 2100 m.,N/A,1661895,Typed,no type status
0103_V0082645F.jpg,M. O. Dillon,M. O. Dillon,N/A,5376,21 Dec 1987,1987-12-21,N/A,Notholaena mollis Kunze,Notholaena mollis Kunze,N/A,N/A,N/A,Chile,Antofagasta,N/A,N/A,"Cerro Perales, ca. 8.5 km E of TalTal, 600-850 m alt.","Cerro Perales, approximately 8.5 kilometers east of Taltal","Terrestrial, growing in rock crevices",rock,600-850 m alt.,"(25°25' S, 70°25' W)",2010984,Typed,no type status
0104_C0666362F.jpg,Rolla M. Tryon & Alice F. Tryon,Rolla M. Tryon,Alice F. Tryon,6566,23 October 1965,1965-10-23,N/A,Thelypteris lindigii (C.Chr.) Alston,Thelypteris rudis (Poir.) A.R. Smith,Alan R. Smith,"1979, '82",N/A,Peru,Ancash,N/A,N/A,"Road from Huaras to Cusma, west valley.","Road from Huaras to Cusma, west valley",damp shaded rocks,rock,2800 m.,N/A,1833066,Typed,no type status
0105_C0666207F.jpg,E. P. Killip & A. C. Smith,E. P. Killip,A. C. Smith,24774,"September 20-29, 1929",1929-09-20,1929-09-29,Thelypteris megalolepis (Schl.) C. V. Morton,Thelypteris pentagona (Poiret) C. V. Morton,Alan R. Smith,1989,N/A,Peru,Loreto,N/A,Soledad,"Dept. Loreto: Soledad, on Rio Itaya; about 100 meters dense forest","Soledad, on Rio Itaya",Dense forest,N/A,N/A,N/A,1520683,Typed,no type status
0106_C0666206F.jpg,H. E. Stork,H. E. Stork,N/A,42474,N/A,N/A,N/A,Thelypteris pennata (Poir.) C. Morton,Thelypteris pennata (Poir.) C. Morton,Alan R. Smith,June 1989,N/A,Peru,Loreto,N/A,San Antonio,"Dept. Loreto: San Antonio, on Rio Itaya; alt. about 100 meters; dense forest","San Antonio, on Rio Itaya",dense forest,N/A,alt. about 100 meters,N/A,1520667,Typed,no type status
0107_C0666203F.jpg,Macbride & Featherstone,Macbride,Featherstone,1622,"July 8-22, 1922",1922-07-08,1922-07-22,Dryopteris Peruviana (Hk.) C. Chr.,Thelypteris pavoniana (Kl.) Tryon,Alan R. Smith,1979,N/A,Peru,N/A,N/A,Mito,"Summit Mt. Ledge of the grass, about 9000 ft. in shrub formation.",Summit Mt. Ledge of the grass,In shrub formation,N/A,about 9000 ft.,N/A,518129,Typed,no type status
0108_C0666202F.jpg,J. J. Wurdack No. 705,J. J. Wurdack,N/A,705,June 1962,1962-06-00,1962-06-00,Thelypteris (Thelypteris) pavoniana (Klotzsch) Tryon,Thelypteris pavoniana (Klotzsch) Tryon,Alan R. Smith,"1979, 1989",N/A,Peru,Amazonas,Provincia de Chachapoyas,N/A,"Upper slopes of Puma-urcu east-southeast of Chachapoyas, elev. 2700-3000 m.",Upper slopes of Puma-urcu east-southeast of Chachapoyas,"On banks, locally frequent",soil,elev. 2700-3000 m.,N/A,1647265,Typed,no type status
0109_C0666112F.jpg,E. C. Ogden and R. C. Moran,E. C. Ogden,R. C. Moran,5202,"Aug. 13, 1966",1966-08-13,N/A,Thelypteris opulenta (Kaulf.) Proctor,Thelypteris opulenta (Kaulf.) Proctor,Alan R. Smith,1979,N/A,Peru,Loreto,Maynas,N/A,"Rio Itaya, 10 km. S. of Iquitos. In old banana planting.","Rio Itaya, 10 kilometers south of Iquitos, in old banana planting",In old banana planting,soil,N/A,N/A,1587072,Typed,no type status
0110_C0639123F.jpg,"Louis O. Williams, Antonio Molina R., Terua P. Williams",Louis O. Williams,"Antonio Molina R., Terua P. Williams",23634,18-19 Dec. 1968,1968-12-18,1968-12-19,Lycopodium clavatum L.,Lycopodium clavatum L.,C. V. Morton & D. B. Lellinger,1964,N/A,Nicaragua,Matagalpa,N/A,N/A,"Cloud forest area, Sta. María de Ostuma, Cordillera Central de Nicaragua between Matagalpa and Jinotega, Department of Matagalpa, 1300-1800 meters","Cloud forest area, Sta. María de Ostuma, Cordillera Central de Nicaragua between Matagalpa and Jinotega",Terrestrial on open bank,soil,1300-1800 meters,N/A,1604388,Typed,no type status
0111_C0675553F.jpg,"John T. Atwood, Jr.",John T. Atwood,N/A,77105,8 Feb. 1977,1977-02-08,1977-02-08,Adiantum trapeziforme L.,Adiantum ecklonii McCarthy & Hickey,M.R. McCarthy,2012,N/A,Nicaragua,Granada,N/A,N/A,"Volcan Mombacho, Lower cloud forest near Finca Cuirtre,","Volcan Mombacho, near Finca Cuirtre",Lower cloud forest,N/A,N/A,N/A,1868242,Typed,no type status
0112_C0675619F.jpg,Geo. B. Hinton et al.,Geo. B. Hinton,N/A,7644,Date-21-36,1936-00-00,N/A,Adiantum trapeziforme L.,Adiantum ebenoides Maxon ex C.V. Morton & Lellinger,M. Palacios-Rios,Agosto/1986,N/A,Mexico,Temascaltepec,N/A,N/A,Pantzo,Pantzo,Dry barranca,N/A,N/A,N/A,N/A,Typed,no type status
0113_C0355438F.jpg,R.A. Maas Geesteranus,R.A. Maas Geesteranus,N/A,5744,dd. 12-VIII-69,1969-08-12,N/A,Asplenium sandersonii Hook.,Asplenium sandersonii Hook.,R. Faden,1976,N/A,Kenya,Nyanza Province,Kericho Distr.,N/A,"South Nandi Forest Reserve, camp 8","South Nandi Forest Reserve, camp 8","Riparian-woodland along the river Itare, among others with Conopodium holstii",soil,1920 m,"lat. 0°36'30"" S., long. 35°10'20"" E.",1445440,Typed,no type status
0114_C0359489F.jpg,S. Lopez P. & E. Enríquez,S. Lopez P.,E. Enríquez,433,1 Mayo 1989,1989-05-01,N/A,Lophosoria quadripinnata (J.F. Gmel.) C. Chr. var quadripinnata,Lophosoria quadripinnata var. quadripinnata,M. Véliz & J.M. Véliz,22/IX/2005,N/A,Guatemala,Jalapa,N/A,"Aldea San Raymundo, en Manzanillos","Aldea San Raymundo, en Manzanillos","Aldea San Raymundo, en Manzanillos",creciendo dentro de bosque de Quercus sp.,soil,2308 msnm,"14° 38' 47"" N, 90° 06' 10"" O",2298970,Typed,no type status
0115_C0662895F.jpg,"Allison V. Armour, Esq., Owner and Master",Allison V. Armour,N/A,893,Jan. 20-Feb. 6,1900-01-20,1900-02-06,Asplenium dentatum L.,Asplenium dentatum L.,N/A,N/A,N/A,Jamaica,N/A,N/A,Port Antonio,Port Antonio; Jan. 20-Feb. 6,Port Antonio,N/A,N/A,N/A,N/A,N/A,Typed,no type status
0116_C0363828F.jpg,T. G. Yuncker,T. G. Yuncker,N/A,"No. 17,429","Nov. 17, 1957",1957-11-17,1957-11-17,Lycopodium cernuum L.,Lycopodium cernuum L.,N/A,N/A,N/A,Jamaica,St. Andrew,N/A,N/A,"Scrambling over side of cut, along trail near Bellevue. Alt. 3000-4000 ft.",trail near Bellevue,side of cut,N/A,3000-4000 ft.,N/A,1482756,Typed,no type status
0117_C0363985F.jpg,Carvalho 2092,Carvalho,N/A,2092,25-IV-1986,1986-04-25,1986-04-25,Lycopodiella cernua (L.) Pic. Serm.,Lycopodiella cernua (L.) Pic. Serm.,J. Fernández Casas,1991,N/A,Guinea Ecuatorial,Bioco,N/A,Basile,"Malabo - Basile, km 13, cerca de Basile, 32NMK7880, 390 m, márgenes de la carretera, Carvalho 2092, 25-IV-1986. Postrada. Forma pequeñas colonias dispersas.","Malabo - Basile, km 13, near Basile",margins of the road,soil,390 m,32NMK7880,2201362,Typed,no type status
0118_C0363442F.jpg,Henk van der Werff 11699,Henk van der Werff,N/A,11699,12 June 1990,1990-06-12,1990-06-12,Diplazium assimile (C. Presl) Bedd.,Diplazium assimile (C. Presl) Bedd.,Henk van der Werff,1991 (MO),N/A,Australia,Queensland,N/A,N/A,"Boonjee logging area, at base of Mt. Bartle Frere. Rainforest.","Boonjee logging area, at base of Mount Bartle Frere",Rainforest,soil,N/A,145°43'E 17°25'S,2094887,Typed,no type status
0119_C0378283F.jpg,M. Togawa & K. Iwatsuki,M. Togawa,K. Iwatsuki,1150,"July 28, 1956",1956-07-28,N/A,Diplazium umbilicatum (Tag.) Tag.,Diplazium umbilicatum (Tag.) Tag.,N/A,N/A,N/A,Japan,Kyushu,Kagoshima,N/A,"Kyushu, Pref. Kagoshima: western slope of Mt. Koyachi, south of Kanoya City","western slope of Mt. Koyachi, south of Kanoya City",Wet rocky slope in densely wooded ravine,rock,N/A,N/A,1475055,Typed,no type status
0120_C0364726F.jpg,W. Takeuchi & J. Wiakabu,W. Takeuchi,J. Wiakabu,9366,"February 5, 1994",1994-02-05,N/A,Blechnum ledermannii Brause,Blechnum ledermannii Brause,N/A,N/A,N/A,Papua New Guinea,New Ireland,N/A,N/A,"New Ireland: Hans Meyer Range, Site 4 on the expedition report.","Hans Meyer Range, Site 4","Montane rainforest, forest dominated by bryophyte and fern growth",soil,c. 1800 m,4°25' S x 152°39' E,02502643,Typed,no type status
0121_C0366013F.jpg,Tagawa & Iwatsuki 888,Tagawa,Iwatsuki,888,"May 20, 1956",1956-05-20,N/A,Dryopteris crassirhizoma Nakai,Dryopteris crassirhizoma Nakai,N/A,N/A,N/A,Japan,N/A,N/A,N/A,N/A,[precise locality unknown],N/A,N/A,N/A,N/A,N/A,Typed,no type status
0122_C0366453F.jpg,J. Ohwi,J. Ohwi,N/A,202,April 1951,1951-04-00,1951-04-00,Polystichum tripteron Presl,Polystichum tripteron Presl,N/A,N/A,N/A,Japan,Honshu,N/A,Jumoji in Sagami,Honshu: Jumoji in Sagami,Jumoji in Sagami,N/A,N/A,N/A,N/A,1464206,Typed,no type status
0123_C0364207F.jpg,Father M. Vanoverbergh,Father M. Vanoverbergh,N/A,8591,April 13,1913-04-13,1913-04-13,Asplenium ontogenium Kaulf.,Asplenium ontogenium Kaulf.,N/A,N/A,N/A,Philippines,Bontoc Subprovince,N/A,N/A,"Bontoc Subprovince, Luzon","Bontoc Subprovince, Luzon",N/A,N/A,N/A,N/A,393429,Typed,no type status
0124_C0376117F.jpg,R.B & A.J.Faden,R.B,A.J.Faden,77/53,5 Jan. 1977,1977-01-05,N/A,Pyrrosia lanceolata (L.) Farw.,Pyrrosia lanceolata (L.) Farw.,D.B. Lellinger,1979,N/A,Ceylon,N/A,N/A,N/A,"North Western Province, Kurunegala District, Dambulla-Kuskanda Hill, ca. 7'37'II, 80°24'30""E.","North Western Province, Kurunegala District, Dambulla-Kuskanda Hill",Forest,N/A,Alt. 600 m,"ca. 7'37'II, 80°24'30""E.",2014294,Typed,no type status
0125_C0377881F.jpg,"Albert N. Steward, C. Y. Chiao, and H. C. Cheo",Albert N. Steward,"C. Y. Chiao, H. C. Cheo",344,"Sept. 6, 1931",1931-09-06,N/A,Dryopteris squamigera (Hook.) Kuntze,Thelypteris squamigera (Hook.) Ching,N/A,N/A,N/A,China,Kweichow Province,N/A,N/A,Tai Yang Shan,Tai Yang Shan,"Moist brushy slopes, Soil black",soil,alt. 980 m.,N/A,779919,Typed,no type status
0126_C0382365F.jpg,Julie F. Barcelona,Julie F. Barcelona,N/A,48,Nov. 1989,1989-11-00,1989-11-00,Selaginella cf. repanda,Selaginella cf. repanda,Julie F. Barcelona,Nov. 1989,N/A,Philippines,Visayas,Antique,N/A,"Visayas, Panay Isl., Antique, Culasi, Northwest Panay Peninsula, Mt. Madja-as, shaded moist places","Northwest Panay Peninsula, Mt. Madja-as, shaded moist places","Ridges, shaded & moist areas",soil,N/A,N/A,PNH no. 190235,Typed,no type status
0127_C0368029F.jpg,L. & A. Fay,L. Fay,A. Fay,1206,11 Apr 1985,1985-04-11,N/A,Drynaria laurentii (Christ.) Hieron.,Drynaria laurentii (Christ.) Hieron.,N/A,N/A,N/A,Liberia,N/A,N/A,Cuttington University College,"Cuttington University College. Alt. 250 m. On tree trunk about 10' from ground; common in groves of rubber trees, on trunks.",Cuttington University College,"On tree trunk about 10 feet from ground; common in groves of rubber trees, on trunks",bark,Alt. 250 m.,N/A,N° 2111378,Typed,no type status
0128_C0356535F.jpg,H. St. John,H. St. John,N/A,16662,"Aug. 26, 1934",1934-08-26,1934-08-26,Humata banksii Alston,Humata banksii Alston,E.B. Copeland,N/A,N/A,Austral Islands,N/A,N/A,N/A,"Northwest slope of Tere, Teti woods","Northwest slope of Tere, Teti woods",On mossy tree limb,bark,altitude 350 meters,N/A,1435764,Typed,no type status
0129_C0383576F.jpg,T. G. Yuncker,T. G. Yuncker,N/A,"18,561","Mar. 30, 1958",1958-03-30,1958-03-30,Selaginella plana (Diver.) Hieron.,Selaginella plana (Diver.) Hieron.,N/A,N/A,N/A,Jamaica,Portland,N/A,N/A,"On wet embankment along trail, rain forest, John Crow Mts., 1.5-2 miles southwest of Ecclesdown. Alt. 1500-2500 ft.","On wet embankment along trail, John Crow Mountains, 1.5-2 miles southwest of Ecclesdown",rain forest,N/A,Alt. 1500-2500 ft.,N/A,1481955,Typed,no type status
0130_C0383180F.jpg,A. Caruel,A. Caruel,N/A,851,1871,1871-00-00,1871-00-00,Lycopodium complanatum L.,Lycopodium complanatum L.,Joan H. Wlce,1962,N/A,Italy,N/A,N/A,N/A,Salita alla Boscaglia presso Sospello in Valdesia,Salita alla Boscaglia presso Sospello in Valdesia,N/A,N/A,N/A,N/A,1028302,Typed,no type status
0131_C0358423F.jpg,G.J. Chamberlain,G.J. Chamberlain,N/A,N/A,"Oct. 15, 1911",1911-10-15,1911-10-15,Trichomanes reniforme,Trichomanes reniforme,N/A,N/A,N/A,New Zealand,N/A,N/A,Ohakune,Ohakune,Ohakune,N/A,N/A,N/A,N/A,1407795,Typed,no type status
0132_C0662992F.jpg,"R. L. Wilbur, H. A. Hespenheide, D. R. Wiseman",R. L. Wilbur,"H. A. Hespenheide, D. R. Wiseman",1670026,2 August 1964,1964-08-02,N/A,Cnemidaria grandifolia (Willd.) Proctor var. grandifolia,Cnemidaria grandifolia (Willd.) Proctor var. grandifolia,R. L. Wilbur,1971,N/A,Dominica,St. Paul,N/A,N/A,Parish of St. Paul: Disturbed rainforest in the upper Layou Valley about 1.5 miles from Clarke Hall towards Pont Casse.,upper Layou Valley about 1.5 miles from Clarke Hall towards Pont Casse,Disturbed rainforest,N/A,N/A,N/A,N/A,Typed,no type status
0133_C0377971F.jpg,R.B.A. Faden,R.B.A. Faden,N/A,N/A,2 Jan 1977,1977-01-02,N/A,Thelypteris,Thelypteris,N/A,N/A,N/A,Ceylon,Central Province,Nuwara Eliya District,N/A,between mile posts 45/3 and 45/4 on Nuwara Eliya-Kandy road,between mile posts 45/3 and 45/4 on Nuwara Eliya-Kandy road,Shady moist bank near stream,soil,ca 1950 m,"6°59'50"" 80°45'E",2089703,Typed,no type status
0134_C0272257F.jpg,leg. H. et P. Sydow,H. Sydow,P. Sydow,67,14. 8. 1903,1903-08-14,N/A,"Entyloma crastophilum Sacc. Michelia I, p. 540; Sacc. Syll. VII, p. 491.",Entyloma crastophilum Sacc.,N/A,N/A,N/A,Germany,Sachsen,N/A,Zwiesel bei Schmilka,"am Grossen Winterberge ""Zwiesel bei Schmilka""","Grossen Winterberge ""Zwiesel bei Schmilka""",Auf Blättern von Holcus lanatus,leaves,N/A,N/A,C0272257F,Typed,no type status
0135_C0272323F.jpg,"Leg. O. Mattirolo, comm. G. Lagerheim",O. Mattirolo,G. Lagerheim,876,27/9 1895,1895-09-27,N/A,Neovossia Moliniae (Thüm.) Körn.,Neovossia Moliniae (Thüm.) Körn.,N/A,N/A,Moliniae,Italia,prov. Como,N/A,Rodero,"Rodero, prov. Como in ovarii Moliniae coeruleae",Rodero in ovarii Moliniae coeruleae,N/A,N/A,N/A,N/A,C0272323F,Typed,no type status
0136_C0272329F.jpg,"Richard W. Pohl, Gerrit Davidse",Richard W. Pohl,Gerrit Davidse,11146,25 September 1968,1968-09-25,N/A,Oplismenus setarius (Lam.) Roem. & Schult.,Oplismenus setarius (Lam.) Roem. & Schult.,N/A,N/A,N/A,Costa Rica,Puntarenas,N/A,N/A,5 KM NW of the Carretera Interamericana in Boruca area,5 kilometers northwest of the Carretera Interamericana in Boruca area,Carpeting the ground at the margin of forest and savanna,soil,elev. 450 m.,N/A,C0272329F,Typed,no type status
0137_C0272400F.jpg,E. W. D. Holway,E. W. D. Holway,N/A,1789,"Aug. 8, 1901",1901-08-08,1901-08-08,"Tuburcinia Clintoniae, Kom.",Tuburcinia Clintoniae,N/A,N/A,On Streptopus rosens.,Canada,British Columbia,N/A,N/A,"Glacier, Brit. Columbia, Aug. 8, 1901.",Glacier,N/A,N/A,N/A,N/A,C0272400F,Typed,no type status
0138_C0272404F.jpg,leg. F. Bubak,F. Bubak,N/A,3239,Majo,1900-05-00,1900-05-00,Tuburcinia anemones (Pers.) Liro,Tuburcinia anemones (Pers.) Liro,N/A,N/A,Anemones nemorosae,Bohemia,N/A,N/A,Poděbrad,"ad folia viva Anemones nemorosae ad Poděbrad, m. Majo.",ad Poděbrad,ad folia viva Anemones nemorosae,leaves,N/A,N/A,CO272404F,Typed,no type status
0139_C0272225F_%201.jpg,Harold E. Parks and Joseph P. Tracy,Harold E. Parks,Joseph P. Tracy,13207,"June 3, 1934",1934-06-03,1934-06-03,Exobasidium Vaccinii (Fuckl.) Wor.,Exobasidium Vaccinii (Fuckl.) Wor.,N/A,N/A,Vaccinium ovatum Pursh,United States,California,Humboldt County,Trinidad,Trinidad.,Trinidad,N/A,N/A,N/A,N/A,C0272225F,Typed,no type status
0140_C0272229F_%201.jpg,Lee Bonar,Lee Bonar,N/A,890,21 August 1954,1954-08-21,1954-08-21,Exobasidium Vaccinii (Fckl.) Wor.,Exobasidium Vaccinii (Fckl.) Wor.,N/A,N/A,Arctostaphylos patula Greene.,United States,California,Shasta County,N/A,"Manzanita Lake, Lassen National Park, Shasta County.","Manzanita Lake, Lassen National Park",N/A,N/A,N/A,N/A,C0272229F,Typed,no type status
0141_C0272218F_%201.jpg,Coll. H. E. Parks and J. P. Tracy,H. E. Parks,J. P. Tracy,238,"Sept. 15, 1930",1930-09-15,N/A,"Exobasidium Vaccinii (Fckl.) Wor. Host, Arbutus Menziesii Pursh.",Exobasidium Vaccinii,N/A,N/A,Arbutus Menziesii,United States,California,Humboldt County,N/A,"Kneeland, Bald Hills","Kneeland, Bald Hills",Seriously affecting the young shoots.,N/A,N/A,N/A,C0272218F,Typed,no type status
0142_C0003693F.jpg,H.K.,H.k.,N/A,68/641,5.VII.1968,1968-07-05,1968-07-05,Crucibulum laeve (Huds.) Kambly,Crucibulum laeve (Huds.) Kambly,N/A,N/A,"Cyathea dealbata, C. smithii, Phyllocladus, Podocarpus, etc.",New Zealand,N/A,N/A,N/A,"Kuaotunu Valley, Coromandel Peninsula, N.Z.","Kuaotunu Valley, Coromandel Peninsula","In humus under Cyathea dealbata, C. smithii, Phyllocladus, Podocarpus, etc.",humus,N/A,N/A,1017207,Typed,no type status
0143_C0004429F.jpg,Singer,Singer,N/A,'B 7463,14 V 1973,1973-05-14,1973-05-14,Hygrocybe dimorphosidiata Sing.,Hygrocybe dimorphosidiata Sing.,N/A,N/A,N/A,Ecuador,Napo,N/A,Lago Agrio,Lago Agrio,Lago Agrio,Ad terram in hylaea,soil,N/A,N/A,1017827,Typed,TYPE
0144_C0004430F.jpg,Singer M0517,Singer,N/A,M0517,23 II 1988,1988-02-23,1988-02-23,Hygrocybe fuegiana Sing (= H. rosea sensu Horak),Hygrocybe fuegiana Sing,N/A,N/A,"Sphagnum spp., Rubus geoides",Argentina,Tierra del Fuego,Departamento Ushuaia,N/A,"va. road Ushuaya-Lago Fagnano, SW of highest point","road Ushuaya-Lago Fagnano, southwest of highest point",Gregarious in bog margin,soil,N/A,N/A,F1075922,Typed,Holotype
0145_C0209265F_3143.jpg,P. Ponce de Leon,P. Ponce de Leon,N/A,296,"September 21, 1978",1978-09-21,1978-09-21,Amanita,Amanita,N/A,N/A,N/A,Alaska,N/A,N/A,N/A,"At or above timberline, windswept slopes of mountains about 20-30 miles north of Mt. McKinley, with mosses, lichens, Vaccinium spp. and other Ericads.","At or above timberline, windswept slopes of mountains about 20-30 miles north of Mt. McKinley",N/A,soil,N/A,N/A,C0209265F,Typed,no type status
0146_C0225578F_7209.jpg,Coll. P. Ponce de Leon,P. Ponce de Leon,N/A,303,"September 21, 1978",1978-09-21,1978-09-21,Lycoperdon,Lycoperdon,N/A,N/A,N/A,Alaska,N/A,N/A,N/A,"At or above timberline, windswept slopes of mountains 20-30 miles north of Mt. McKinley. With mosses. lichens, Vaccinium spp. and other Ericads.","At or above timberline, windswept slopes of mountains 20-30 miles north of Mt. McKinley",On high slopes above timberline,soil,N/A,N/A,C0225578F,Typed,no type status
0147_C0227005F_7903.jpg,P. Ponce de Leon,P. Ponce de Leon,N/A,267,"September 20, 1978",1978-09-20,1978-09-20,(Agaricaceae),N/A,N/A,N/A,N/A,United States,Alaska,N/A,N/A,"Boggy area south of Yukon, just below the Chatanika River, about 25 miles north of Fairbanks, Alaska. In hummocks composed of grasses, lichens, mosses and Ericads, under Alnus, Prunus, Betula species.","Boggy area south of Yukon, just below the Chatanika River, about 25 miles north of Fairbanks","In hummocks composed of grasses, lichens, mosses and Ericads, under Alnus, Prunus, Betula species.",soil,N/A,N/A,F 1075800,Typed,no type status
0148_C0237407F_12659.jpg,"Leg. Chr. King, det. Singer",Chr. King,N/A,F1089947,1988,1988-00-00,1988-00-00,Psilocybe muliercula Sing. & Smith,Psilocybe muliercula Sing. & Smith,Singer,N/A,N/A,New Zealand,South Island,N/A,N/A,N/A,[precise locality unknown],N/A,N/A,N/A,N/A,C0237407F,Typed,no type status
0149_C0275073F.jpg,Paul C. Standley,Paul C. Standley,N/A,82917,"Jan. 9, 1941",1941-01-09,1941-01-09,Phakopsora vitis (Him.) Syd.,Phakopsora vitis (Him.) Syd.,Arthur,N/A,On Vitis tiliifolia H. & B.,Guatemala,Huehuetenango,N/A,San Rafael Petzal,"Near crossing of Río San Juan Ixtán, east of San Rafael Petzal, alt. about 1730 m.","Near crossing of Río San Juan Ixtán, east of San Rafael Petzal",N/A,N/A,about 1730 m.,N/A,CO275073F,Typed,no type status
0150_C0275088F.jpg,PAUL C. STANDLEY,Paul C. Standley,N/A,86140,"FEB. 5, 1941",1941-02-05,1941-02-05,Maimia rubi (Sied. & Holw.) Jacks. On Rubus eriocarpus Liebm.,Gervasía,Arthur,N/A,Rubus eriocarpus Liebm.,Guatemala,Quezaltenango,N/A,N/A,"Dept. Quezaltenango: Oak-pine forest, above Los Vahos, Cerro Quemado, alt. 2900–3000 m.","Oak-pine forest, above Los Vahos, Cerro Quemado",Oak-pine forest,N/A,alt. 2900–3000 m.,N/A,C0275088F,Typed,no type status
0151_C0291873F.jpg,E. W. D. Holway,E. W. D. Holway,N/A,27,"Jan. 27, 1915",1915-01-27,1915-01-27,Ravenelia appendiculata Lagerh. & Diet. on Phyllanthus sp.,Ravenelia appendiculata Lagerh. & Diet.,E. B. Mains,N/A,Phyllanthus sp.,Guatemala,Solola,N/A,N/A,"Solola, Guatemala",Solola,N/A,N/A,N/A,N/A,C0291873F,Typed,no type status
0152_C0264367F.jpg,W.G. Bramley,W.g. Bramley,N/A,N/A,N/A,N/A,N/A,Nectria cinnabarina (Tode ex Fr.) Fr. with Tubercularia vulgaris,Nectria cinnabarina (Tode ex Fr.) Fr.,T. Petch,10 Jan. 1938,Tubercularia vulgaris,N/A,Yorkshire,N/A,Bolton Percy,"On Crataegus, Bolton Percy, Yorkshire.",Bolton Percy,On Crataegus,N/A,N/A,N/A,C0264367F,Typed,no type status
0153_C0095081F.jpg,H. Imshaug & K. Ohlsson,H. Imshaug,K. Ohlsson,49793,9 October 1971,1971-10-09,N/A,Xanthoparmelia mougeotii (Schaer.) Hale,Xanthoparmelia mougeotii (Schaer.) Hale,N/A,N/A,N/A,Chile,Magallanes,N/A,N/A,Scattered Anthobryum and Berberis on low hill near Primera Angostura.,low hill near Primera Angostura,N/A,N/A,N/A,"52° 27' S., 69° 36' W.",N/A,Typed,no type status
0154_C0095120F.jpg,W. L. Culberson & R. Ornduff,W. L. Culberson,R. Ornduff,22493,"September 3, 1998",1998-09-03,N/A,"Xanthoria parietina (L.) Th.Fr. in N. Acta Reg. Soc. Sc. Upsal., ser. 3, 3:67. 1861.",Xanthoria parietina (L.) Th.Fr.,W. L. Culberson,N/A,N/A,South Africa,Western Cape,N/A,N/A,"15 km SE of Oudtshoorn, on the road above Blossoms.","15 kilometers southeast of Oudtshoorn, on the road above Blossoms",On twigs of Zygophyllum sp.,twigs,N/A,N/A,N/A,Typed,no type status
0155_C0090513F.jpg,Henry A. Imshaug & Frederick H. Imshaug,Henry A. Imshaug,Frederick H. Imshaug,31340,21 September 1963,1963-09-21,N/A,Bamblyiospora chloritis (Nyl.) Zahlbr.,Bamblyiospora chloritis (Nyl.) Zahlbr.,N/A,N/A,N/A,Tobago,N/A,N/A,N/A,"Scattered cultivations in clearings of rain forest, ca. 1200 ft., Main Ridge along ""Mt. St. George - Castara Track"" (near Castara)","Main Ridge along ""Mt. St. George - Castara Track"" near Castara",Scattered cultivations in clearings of rain forest,N/A,ca. 1200 ft.,N/A,N/A,Typed,no type status
0156_C0053622F.jpg,Edward M. Wheeler,Edward M. Wheeler,N/A,9401,7 Jan 1989,1989-01-07,1989-01-07,Buellia bahiana Malme on Ilex glabra,Hafellia bahiana (Malme) Sheard,R. J. Salm,20 August 2015,Ilex glabra,United States,Florida,Polk County,N/A,"POLK COUNTY: Tiger Creek Preserve, just to right of Wakeford Road Entrance","Tiger Creek Preserve, just to right of Wakeford Road Entrance",N/A,bark,N/A,N/A,Lumbsch - 9401,Typed,no type status
0157_C0052970F.jpg,Shirley Tucker,Shirley Tucker,N/A,16863,"March 17, 1977",1977-03-17,1977-03-17,Buellia punctata (Hoffm.) Mass.,Amandinea punctata (Hoffm.) Coppins & Scheid.,R. J. Salm,3 July 2019,N/A,United States,Louisiana,St. Tammany Parish,N/A,"Fontainebleau State Park, north shore of Lake Pontchartrain","Fontainebleau State Park, north shore of Lake Pontchartrain",Common on Taxodium,bark,N/A,"30°20'N, 90°03'W",10469,Typed,no type status
0158_C0090117F.jpg,H. T. Lumbsch,H. T. Lumbsch,N/A,10566 b,14.7.1994,1994-07-14,1994-07-14,Acarospora,Acarospora,N/A,N/A,N/A,USA,Arizona,Gila Co.,N/A,"San Carlos Lake, E exposed slopes above dam, just N of Coolidge","San Carlos Lake, east exposed slopes above dam, just north of Coolidge",On siliceous rocks,rock,N/A,"33°11'N, 110°32'W",Nr. 10566 b,Typed,no type status
0159_C0090150F.jpg,"N.Hladun, H.T. Lumbsch & A. Henssen",N. Hladun,H.T. Lumbsch & A. Henssen,Nr. 925d,1983/05/24,1983-05-24,N/A,Acarospora,Acarospora,N/A,N/A,N/A,Spanien,Catalunya,Prov. Gerona,Torroella de Fluvia,"Les Torruelles, bei Torroella de Fluvia, bei Torella de Fluvià, auf Grauwacke in Kalkfelsen","Les Torruelles, bei Torroella de Fluvia, auf Grauwacke in Kalkfelsen",N/A,rock,N/A,N/A,N/A,Typed,no type status
0160_C0090526F.jpg,leg. H.T. Lumbsch,H.T. Lumbsch,N/A,8890,10.5.1983,1983-05-10,1983-05-10,Bellemerea,Bellemerea,N/A,N/A,N/A,Italien,Südtirol,Vinschgau,Gomagoi,"Italien, Südtirol, Vinschgau, Gomagoi, E des Ortes. An Silikatgestein.","Gomagoi, east of the place",An Silikatgestein,rock,N/A,N/A,N/A,Typed,no type status
0161_C0090341F.jpg,"leg. T. Feuerer, H. Hertel & H. Kilias",T. Feuerer,H. Hertel & H. Kilias,282,12.X.1977,1977-10-12,N/A,Buellia schaereri DNOT.,Buellia schaereri DNOT.,N/A,N/A,N/A,Italien,Südtirol,N/A,N/A,"Dolomiten, Rosengarten-Gruppe Purgametsch-Tal (an der Autostraße zwischen Nigerpaß und Tiers), nahe der Abzweigung des Sträßchens ins Tscharmin-Tal bei Rungun, 1220 m.","Dolomiten, Rosengarten-Gruppe, Purgametsch-Tal near the road between Nigerpaß and Tiers, near the turn-off to Tscharmin-Tal at Rungun",Lichter Lärchen-Bestand auf Almgelände,bark,1220 m.,N/A,N/A,Typed,no type status
0162_C0095075F.jpg,Henry A. Imshaug,Henry A. Imshaug,N/A,60155,3 October 1976,1976-10-03,1976-10-03,Xanthoria fallax (Hepp) Arn.,Xanthoria fallax (Hepp) Arn.,N/A,N/A,on Acer,United States,Michigan,Chippewa County,Drummond Island,"CHIPEWA COUNTY (DRUMMOND ISLAND): Along road at Drummond airport, Sec. 25, T. 42 N., R. 5 E.","Along road at Drummond airport, Section 25, Township 42 North, Range 5 East",N/A,bark,N/A,46° 01' N and 83° 44' W,N/A,Typed,no type status
0163_C0055249F.jpg,H. Mietzsch,H. Mietzsch,N/A,6246,27.8.1988,1988-08-27,1988-08-27,Baeomyces fungoides Sw.,Baeomyces fungoides Sw.,N/A,N/A,N/A,Schweiz,Graubünden,Unterengadin,Zernez,"Unterengadin, TK 25: 1218 Zernez, Marangun, Sursaas, 2150-2300 m alt.","Marangun, Sursaas",Auf Erde,soil,2150-2300 m alt.,N/A,N/A,Typed,no type status
0164_C0089982F.jpg,H. Mietzsch,H. Mietzsch,N/A,6983,26.8.1989,1989-08-26,1989-08-26,Xanthoparmelia somloensis (Gyelnik) Hale,Xanthoparmelia somloensis (Gyelnik) Hale,N/A,N/A,N/A,Schweiz,Graubünden,N/A,Savognin,"Albula-Tal, TK 25: 1236 Savognin, Straße von Latsch nach Stugl","Albula Valley, road from Latsch to Stugl",Locker an Gestein,rock,1600 m alt.,N/A,N/A,Typed,no type status
0165_C0090059F.jpg,leg. Aino Henssen,Aino Henssen,N/A,21 931 a,29.8.1971,1971-08-29,1971-08-29,Xanthoria elegans (Link) Th. Fr.,Xanthoria elegans (Link) Th. Fr.,N/A,N/A,N/A,Schweiz,Graubünden,N/A,N/A,"Graubünden, Albulapaß, 2000 m ü.M. auf Dolomit",Albulapaß on Dolomite,N/A,rock,2000 m ü.M.,N/A,N/A,Typed,no type status
0166_C0095147F.jpg,Leg. William L. Culberson,William L. Culberson,N/A,22403,9.VIII.1996,1996-08-09,N/A,Xanthoria polycarpa (Ehrh.) Rieber,"Polycauliona polycarpa (Hoffmann) Frödén, Arup & Søchting",R. J. Salm,7 July 2019,N/A,U.S.A.,Washington,Spokane County,Spokane,"In urbe Spokane, loco Riverside State Park. Ad ramunculos fruticis in Pineto (Pinus ponderosa).",Riverside State Park,Pineto (Pinus ponderosa),bark,N/A,N/A,N/A,Typed,no type status
0167_C0052862F.jpg,G. Follmann,G. Follmann,N/A,N/A,IV/1985,1985-04-00,1985-04-00,Abrothallus parmeliarum (SOMM.) ARN. (anam. Vouauxiomyces santessonii HAWKSW.) Patellariaceae,Abrothallus parmeliarum (SOMM.) ARN.,G. Follmann,IV/1985,N/A,Deutschland,Rheinland-Pfalz,N/A,N/A,"Deutschland, Rheinland-Pfalz: zerstreut in der Oberinde der Lagerlappen von Hypogymnia physodes (L.) NYL., 450 m, NW – SW, pH 6,0; Heckengürtel am Südfuß des Schwirzheimer Kopfes zwischen Gerolstein und Prüm in der Hocheifel",Heckengürtel am Südfuß des Schwirzheimer Kopfes zwischen Gerolstein und Prüm in der Hocheifel,zerstreut in der Oberinde der Lagerlappen von Hypogymnia physodes,bark,450 m,N/A,N/A,Typed,no type status
0168_C0052873F.jpg,H.T. Lumbsch & E. Mietzsch,H.T. Lumbsch,E. Mietzsch,5135 D,24.5.1987,1987-05-24,N/A,Buellia punctata (Hoffm.) Massal.,Amandinea punctata (Hoffm.) Coppins & Scheid.,R.J. Salm,3 July 2019,N/A,BRD,Rheinland-Pfalz,Landkreis Mainz/Bingen,6013 Bingen,"Tk 25: 6013 Bingen, Ockenheimer Hörnchen",Ockenheimer Hörnchen,An Populus,bark,N/A,N/A,N/A,Typed,no type status
0169_C0053240F.jpg,N/A,N/A,N/A,MTB5608,N/A,N/A,N/A,Aspicilia caesiocinerea Nyl. ex Malbr.,"Circinaria caesiocinerea (Nyl. ex Malbr.) A. Nordin, Savic & Tibell",R. J. Salm,3 July 2019,N/A,N/A,N/A,N/A,N/A,N/A,[precise locality unknown],N/A,N/A,N/A,N/A,8000,Mix of Handwritten and Typed,no type status
0170_C0053210F.jpg,H.T. Lumbsch & E. Mietzsch,H.T. Lumbsch,E. Mietzsch,5127 a,24.5.1987,1987-05-24,N/A,Aspicilia contorta,"Circinaria contorta (Hoffm.) A. Nordin, Savic & Tibell",R. J. Salm,3 July 2019,N/A,BRD,Rheinland-Pfalz,Landkreis Mainz-Bingen,Ingelheim am Rhein,"TK 25: 6014 Ingelheim am Rhein, Weg von Gau-Algesheim zum Ockenheimer Hörnchen. An Mörtel.",Weg von Gau-Algesheim zum Ockenheimer Hörnchen,An Mörtel,mortar,N/A,N/A,N/A,Typed,no type status
0171_C0090185F.jpg,"H.T. Lumbsch, E. Mietzsch & C.",H.T. Lumbsch,E. Mietzsch & C.,7103 f,19.11.1989,1989-11-19,N/A,Xanthoparmelia conspersa (Ach.) Hale,Xanthoparmelia conspersa (Ach.) Hale,N/A,N/A,N/A,Deutschland,Hessen,Stadt Wiesbaden,Dotzheim,"TK 25: 5925 Wiesbaden, Dotzheim, Fels am Weilburger Bach. An Silikatgestein.",Fels am Weilburger Bach,An Silikatgestein,rock,N/A,N/A,N/A,Typed,no type status
0172_C0090105F.jpg,H.T. Lumbsch,H.T. Lumbsch,N/A,12159,26.08.2001,2001-08-26,2001-08-26,Arctoparmelia centrifuga,Arctoparmelia centrifuga,N/A,N/A,N/A,Norwegen,Sogn og Fjordane,N/A,N/A,"Jotunheimen, alpine Matten an der Straße 55 zwischen Turtegrö und Hervassbu","Jotunheimen, along road 55 between Turtegrö and Hervassbu",Alpine Matten,Silikatgestein,1400 m alt.,N/A,N/A,Typed,no type status
0173_C0020034F.jpg,Collected and Determined by R. M. Schuster,R. M. Schuster,N/A,68-1644,Aug. 17 68,1968-08-17,1968-08-17,Anastrophylum minutum + gem.,Anastrophylum minutum,R. M. Schuster,N/A,Diplophyllum taxifolium + gemmae 68-1644a,Canada,Newfoundland and Labrador,N/A,N/A,"Along Humber R., in Squires Memorial Park, near Rte 1A.","Along Humber River, in Squires Memorial Park, near Route 1A",N/A,N/A,N/A,N/A,N/A,Typed,no type status
0174_C0020052F.jpg,R. M. Schuster & K. Damsholt,R. M. Schuster,K. Damsholt,82-1049,July 3.,1982-07-03,N/A,Anastrophylum minutum (SCHREB.)SCHUST. v.grandis (GOTT.)SCHUST.,Anastrophylum minutum v.grandis,R. M. Schuster,1982,Cephalozia bicuspidata (L.) DUM.,Greenland,South Greenland,N/A,Frederiksdal,"Frederiksdal 60°00'N lat., 44°40'W. long.",Frederiksdal,N/A,N/A,N/A,"60°00'N lat., 44°40'W. long.",S1,Typed,no type status
0175_C0025138F.jpg,R. M. Schuster,R. M. Schuster,N/A,9067,June 30 1951,1951-06-30,1951-06-30,"Frullania asagrayana Mont., male, can per. Plagiochila tridenticulata Dum. (traces)",Frullania asagrayana Mont.,N/A,N/A,Plagiochila tridenticulata Dum. (traces),United States of America,North Carolina,N/A,N/A,"Balsam Gap, N.C., ca. 25 mi. n. of Asheville, along Blue Ridge Parkway, 5220-5260 feet on Abies fraseri","Balsam Gap, approximately 25 miles north of Asheville, along Blue Ridge Parkway",N/A,bark,5220-5260 feet,N/A,N/A,Typed,no type status
0176_C0025164F.jpg,R. M. Schuster,R. M. Schuster,N/A,79-488,April 14 19 79,1979-04-14,1979-04-14,Frullania asagrayana,Frullania asagrayana,R. M. Schuster,N/A,N/A,United States,Arkansas,Stone County,N/A,"Ozark Natl. Forest. Barkshed Camp, ca. 10 mi E. of Big Flat.","Ozark National Forest, Barkshed Camp, approximately 10 miles east of Big Flat",N/A,bark,N/A,N/A,N/A,Typed,no type status
0177_C0000578F.jpg,"John J. Engel, Matt von Konrat & John E. Braggins",John J. Engel,"Matt von Konrat, John E. Braggins",23773,12 February 2003,2003-02-12,N/A,Telaranea lindenbergii var. papillata Engel & Merr.,Telaranea lindenbergii var. papillata Engel & Merr.,N/A,N/A,N/A,New Zealand,Auckland Prov.,N/A,N/A,"Whareorino Forest, start of track to Leitch's Hut","Whareorino Forest, start of track to Leitch's Hut","On clayey bank. Clay banks with Blechnum novae-zelandiae overhang, Weinmannia and Dicksonia squarrosa dominant canopy and occasional Leptospermum scoparium.",soil,280 m,"38° 24.5' S, 174° 49.8' E",1173554,Typed,holotype
0178_C2079898F.jpg,Marko Lewis,Marko Lewis,N/A,76-2684,21-22 November 1978,1978-11-21,1978-11-22,Kindbergia praelonga (Hedw.) Ochyra,Kindbergia praelonga (Hedw.) Ochyra,V. C. Steere,N/A,N/A,Ecuador,Imbabura,N/A,N/A,"E. side of Cerro Cotacachi, 0-2 km N of Otavalo, 0-2 km W","East side of Cerro Cotacachi, 0 to 2 kilometers North of Otavalo, 0 to 2 kilometers West",Wet bank of runoff ravine,N/A,3750 m.,N/A,1065158,Typed,no type status
0179_C2077559F.jpg,Marko Lewis,Marko Lewis,N/A,78-3163,8 December 1978,1978-12-08,1978-12-08,Hedwigia ciliata (Hedw.) P. Beauv.,Hedwigia ciliata (Hedw.) P. Beauv.,Efrain De Luna,1992,N/A,Ecuador,Azuay,N/A,N/A,"Prov. Azuay: Area Nacional de Recreación ""Cajas"", forested hills S. of ""Surrocucho"" (Laguna Llaviuco), S of Sayausí, 255°S.","Area Nacional de Recreación ""Cajas"", forested hills south of ""Surrocucho"" (Laguna Llaviuco), south of Sayausí",Stone wall,N/A,3240 m.,N/A,1065433,Typed,no type status
0180_C2077563F.jpg,"L. Benoist, et al.",L. Benoist,et al.,4659,N/A,N/A,N/A,Hedwigia albicans (Web.) Lindb.,Hedwigia ciliata (Hedw.) P. Beauv.,Erwin de Luna,1982,N/A,N/A,N/A,N/A,N/A,environs de Quito,environs de Quito,N/A,soil,N/A,N/A,1039453,Typed,no type status
0181_C2077564F.jpg,Leg. Benoist et al.,Benoist,N/A,27,"1930, VII, 27",1930-07-27,1930-07-27,Hedwigia ciliata (Hedw.) P. Beauv.,Hedwigia ciliata (Hedw.) P. Beauv.,Efraín De Luna,1992,N/A,Ecuador,N/A,N/A,Quito,"Sur rochers d'andésite, Quito","Sur rochers d'andésite, Quito",N/A,rock,N/A,N/A,1063455,Typed,no type status
0182_C2077565F.jpg,R. S. Williams,R. S. Williams,N/A,2150,"April 30, 1902",1902-04-30,N/A,Hedyotis albicans (Wedd.) K. Schum.,Hedyotis ciliata (Hedw.) F. Beauv.,Erwin de Luna,1992,N/A,Bolivia,N/A,N/A,N/A,"near Pilcomayo, 3700 meters",near Pilcomayo,N/A,soil,3700 meters,N/A,1063451,Typed,no type status
0183_C2077566F.jpg,Marko Lewis,Marko Lewis,N/A,79-1237A,22 March 1979,1979-03-22,1979-03-22,Hedwigia ciliata (Hedw.) P. Beauv.,Hedwigia ciliata (Hedw.) P. Beauv.,Elinor De Luna,1992,N/A,Bolivia,La Paz,Larecaja,Sorata,"DEPTO. LA PAZ, PROV. LARECAJA: Near large red out-crop 2 mi. from Sorata town (Rio Consata)",Near large red outcrop 2 miles from Sorata town,Bromeliad habitat. Abundant on rock faces of exposed cliffs,rock,2630 m.,N/A,1032221,Typed,no type status
0184_C2077567F.jpg,Marko Lewis,Marko Lewis,N/A,79-1232,22 March 1979,1979-03-22,1979-03-22,Hedwigia ciliata (Hedw.) P. Beauv.,Hedwigia ciliata (Hedw.) P. Beauv.,Erwin De Luna,1982,N/A,Bolivia,La Paz,Larecaja,N/A,"DEPTO. LA PAZ, PROV. LARECAJA: Near large red out-crop 2 mi. from Sorata down Rio Consata.",Near large red outcrop 2 miles from Sorata down Rio Consata,Bromeliad-grass habitat on exposed cliffs,N/A,2630 m.,N/A,1032219,Typed,no type status
0185_C2077568F.jpg,Marko Lewis,Marko Lewis,N/A,79-1114,6 March 1979,1979-03-06,1979-03-06,Hedwigia ciliata (Hedw.) P. Beauv.,Hedwigia ciliata (Hedw.) P. Beauv.,Erwin De Luna,1982,N/A,Bolivia,Depto. La Paz,Prov. Saavedra,N/A,"On mountain side directly N. of river, beneath Nino Kariña, NW of Chuma, 15° 08' S, 69° 03' W.","On mountain side directly north of river, beneath Nino Kariña, northwest of Chuma",Humid cliffs and steep slopes,N/A,3320 m.,"15° 08' S, 69° 03' W.",1032220,Typed,no type status
0186_C2077569F.jpg,F. J. Hermann,F. J. Hermann,N/A,25152,"December 27, 1972",1972-12-27,1972-12-27,Hedwigia ciliata (Hedw.) P. Beauv.,Hedwigia ciliata (Hedw.) P. Beauv.,Elinor Lehto,1982,N/A,Bolivia,Cochabamba,N/A,N/A,"On conglomerate boulder on shrubby NW slope of Mt. Tunari, near Liriuni Aguas Termales Hotel, alt. ca. 2700 m.","On conglomerate boulder on shrubby northwest slope of Mount Tunari, near Liriuni Aguas Termales Hotel",On conglomerate boulder on shrubby slope,boulder,alt. ca. 2700 m.,N/A,1040675,Typed,no type status
0187_C2077570F.jpg,Ynes Mexia,Ynes Mexia,N/A,6804,"Dec. 2, 1931",1931-12-02,1931-12-02,Philonotis subthermophyllum C. Müll.,Philonotis subthermophyllum C. Müll.,Bartram,N/A,N/A,Peru,Loreto,N/A,N/A,Above Pongo de Manseriche. Streamlet near mouth of Rio Santiago.,"Above Pongo de Manseriche, near mouth of Rio Santiago",Streamlet,On fallen log,Alt. 400 m.,N/A,1057692,Typed,no type status
0188_C2077571F.jpg,Ynes Mexia,Ynes Mexia,N/A,6804,"Dec. 2, 1931",1931-12-02,1931-12-02,Philonotis subulata var. longibracteata,Philonotis subulata var. longibracteata,Bartram,N/A,N/A,Peru,Loreto,N/A,N/A,Above Pongo de Manseriche. Streamlet near mouth of Rio Santiago. On fallen logs.,"Above Pongo de Manseriche, streamlet near mouth of Rio Santiago, on fallen logs",Streamlet near mouth of Rio Santiago,logs,Alt. 400 m.,N/A,N/A,Typed,no type status
0189_C2077572F.jpg,"A.C. Smith, no. 2746",A.c. Smith,N/A,2746,"Dec. 1-5, 1937",1937-12-01,1937-12-05,Pilosium flavolucens (Mitt.),Pilosium flavolucens (Mitt.),E.B. Bartram,N/A,N/A,British Guiana,N/A,N/A,N/A,"Basin of Essequibo River, near mouth of Orocop Creek, lat. about 1°35'N.","Basin of Essequibo River, near mouth of Orocop Creek","On decayed wood, in swamp",wood,N/A,lat. about 1°35'N.,1027351,Typed,no type status
0190_C2077573F.jpg,J. Fluorschütz-de Waard & R. Zieleman,J. Fluorschütz-de Waard,R. Zieleman,5315,5-11-1981,1981-11-05,N/A,Pilosium chlorophyllum (Hornsch. ex Mill.) Cuf.,Pilosium chlorophyllum (Hornsch. ex Mill.) Cuf.,J. Fluorschütz-de Waard & R. Zieleman,N/A,N/A,Suriname,Nickerie,N/A,N/A,"area of Kabalebo Dam project, distr. Nickerie, line NW from road km 39,5, p. Second saw wood","area of Kabalebo Dam project, line Northwest from road kilometer 39.5, place Second saw wood",on rotting log with Cecropia (boopapa),log,ALT. 0-50 m,N/A,1073523,Typed,no type status
0191_C2077574F.jpg,J. Fluorschütz-de Waard & R. Zielemann,J. Fluorschütz-de Waard,R. Zielemann,5254,3-11-1981,1981-11-03,N/A,Pilotrichum chlorophyllum (Hornsch.) C. Müll.,Pilotrichum chlorophyllum (Hornsch.) C. Müll.,Zielemann,N/A,N/A,Suriname,N/A,N/A,N/A,"area of Kabalebo Dam project, along Midden, line NW from road km 39,5, Pat 5NW 9M, SE, Savanna forest, on rotting logs","area of Kabalebo Dam project, along Midden line northwest from road kilometer 39.5, Pat 5NW 9M, southeast, Savanna forest, on rotting logs","Savanna forest, on rotting logs",log,0 - 50 m.,N/A,1073529,Typed,no type status
0192_C2077575F.jpg,"J. Florence, J.-F. de Waard & R. Zieman",J. Florence,"J.-F. de Waard, R. Zieman",5098,30-10-1981,1981-10-30,N/A,Pilotrichum chlorophyllum (Bonmohr.) Mitt.,Pilotrichum chlorophyllum (Bonmohr.) Mitt.,R. Zieman,30-10-1981,N/A,Suriname,Nickerie,N/A,N/A,"Aves of Kabalebo Dam Project, distr. Nickerie, Line W from road 34 km, P. 5NW cu. SE, Rainforest, on rotting log.","Aves of Kabalebo Dam Project, Line West from road 34 kilometers, Point 5 Northwest cut Southeast","Rainforest, on rotting log",wood,0 - 50 m.,N/A,1073528,Typed,no type status
0193_C2077576F.jpg,"J.C. Lindeman, A.H.A. Görts-van Rijn, M.J. Jansen-Jacobs & A.M. Cleef",J.C. Lindeman,"A.H.A. Görts-van Rijn, M.J. Jansen-Jacobs, A.M. Cleef",243 A,d.d. 3-7-1980,1980-07-03,N/A,Philonotis chlorophylla (Hornsch.) C. Müll.,Philonotis chlorophylla (Hornsch.) C. Müll.,N/A,N/A,N/A,Suriname,Nickerie,N/A,N/A,"Area of Kabalebo Dam project, distr. Nickerie",Area of Kabalebo Dam project,"Forest of km 28,7, epiphyte on tree trunk",bark,Alt.; 30 - 130 m.,"4°50'N, 57°03'W",1073527,Typed,no type status
0194_C2077577F.jpg,J. Florschütz-de Waard and R. Zieleman,J. Florschütz-de Waard,R. Zieleman,5141,31 October 1981,1981-10-31,N/A,Pilotrichum chlorophyllum (Hornsch.) C. Müll.,Pilotrichum chlorophyllum (Hornsch.) C. Müll.,R. Zieleman,N/A,Astrocaryum,Suriname,Distrikt Nickerie,Kabalebo river area,N/A,"1 line W. from road km 34, S5°N, 58°W",1 line west from road kilometer 34,Decaying log in marsh forest,log,alt. 0-50 m.,"S5°N, 58°W",1798323,Typed,no type status
0195_C2077578F.jpg,J. and P.A. Florschütz,J. Florschütz,P.A. Florschütz,4690,18 December 1975,1975-12-18,N/A,Pilotrichum chlorophyllum (Hornsch.) C. Muell.,Pilotrichum chlorophyllum (Hornsch.) C. Muell.,R. Ziemann and J. Florschütz-de Waard,N/A,N/A,Suriname,Brokopondo,N/A,N/A,"Brownsberg, trail to Leo Val, On rotting log in rainforest.","Brownsberg, trail to Leo Val, on rotting log in rainforest",rainforest,log,alt. ca. 500 m.,N/A,1065613,Typed,no type status
0196_C2077579F.jpg,H. Cornelissen & S.R. Gradstein,H. Cornelissen,S.R. Gradstein,C076,8 March 1977,1977-03-08,N/A,Pilotrichum chlorophyllum (Hornsch.) C. Müll.,Pilotrichum chlorophyllum (Hornsch.) C. Müll.,J. Florschütz-de Waard,N/A,N/A,Guyana,N/A,N/A,N/A,"Mahdia Hill, 180 km S of Georgetown","Mahdia Hill, 180 kilometers south of Georgetown",On rotting tree base in mixed rain forest,bark,alt. 0-50 m.,5°20'N 58°40'W,1691586,Typed,no type status
0197_C2077580F.jpg,M. A. Howe & E. H. Spicer,M. A. Howe,E. H. Spicer,321,March 1914,1914-03-00,N/A,"Stictophyllum obtusifolium, Howell",Pilotrichum chlorophyllum (Hornsch.) C. Müll. in Broth.,R. R. Ireland and W. R. Buck,1962,N/A,Panama,N/A,N/A,N/A,"Hacienda La Jagua, near Para.","Hacienda La Jagua, near Para",N/A,N/A,N/A,N/A,1078188,Mix of Handwritten and Typed,no type status
0198_C2077581F.jpg,Richard Evans Schultes & Isidoro Cabrera,Richard Evans Schultes,Isidoro Cabrera,17922,"Oct. 22, 1952",1952-10-22,N/A,Pilotrichum chlorophyllum (Hornsch.) Jaeg.,Pilotrichum chlorophyllum (Hornsch.) Jaeg.,H. A. Crum,1956,N/A,Colombia,Vaupes,N/A,N/A,Rio Vaupes: Mitu and vicinity. Cerro Mitu,Cerro Mitu,N/A,N/A,N/A,"Lat. 1° 10' N, Long. 70° 15' W",1055492,Typed,no type status
0199_C2077582F.jpg,Richard Evans Schultes et Isidoro Cabrera,Richard Evans Schultes,Isidoro Cabrera,14994,"October 4-6, 1951",1951-10-04,1951-10-06,Pilotrichum chlorophyllum (Hornsch.) C. Muell.,Pilotrichum chlorophyllum (Hornsch.) C. Muell.,E. H. A. Crem,1956,N/A,Colombia,Vaupés,N/A,N/A,"Rio Kuduyarí (affluent of Rio Vaupés), Yapobodá, quartzite savannah.","Rio Kuduyarí (affluent of Rio Vaupés), Yapobodá",On rotten logs,wood,N/A,N/A,1055491,Typed,no type status
0200_C2077583F.jpg,Richard Evans Schultes,Richard Evans Schultes,N/A,12309,June 1951,1951-06-00,1951-06-00,Pilotrichum chlorophyllum (Hornsch.) C. Muell. in Broth.,Pilotrichum chlorophyllum (Hornsch.) C. Muell. in Broth.,Diana Griffin III,June 1951,N/A,Colombia,Vaupés,N/A,N/A,"Comisaría del Vaupés, Río Apaporis, Soratama","Río Apaporis, Soratama",On trunks,bark,N/A,N/A,1055490,Typed,no type status
0201_C2077584F.jpg,Richard Evans Schultes,Richard Evans Schultes,N/A,11288,Dec. 1950,1950-12-00,1950-12-00,Pilotrichum chlorophyllum (Hsch.) C. Müll. in Broth.,Pilotrichum chlorophyllum (Hsch.) C. Müll. in Broth.,Dana Griffin III,N/A,N/A,Colombia,N/A,N/A,San Jose del Guaviare,San Jose del Guaviare,[precise locality unknown],N/A,N/A,N/A,N/A,1055489,Mix of Handwritten and Typed,no type status
0202_C2077585F.jpg,Ynes Mexia,Ynes Mexia,N/A,6014,"Aug. 31, 1931",1931-08-31,1931-08-31,Pilosium chlorophyllum (Hoch.) C. Mart.,Pilosium chlorophyllum (Hoch.) C. Mart.,N/A,N/A,N/A,Brazil,State of Pará,N/A,N/A,"Districto Acorá. ""Thomé Assú"", down Rio Acorá 3 km.","Districto Acorá, ""Thomé Assú"", down Rio Acorá 3 km",On fallen log.,wood,Alt. 35 m.,N/A,N/A,Typed,no type status
0203_C2077586F.jpg,Ynes Mexia,Ynes Mexia,N/A,6914,"July 16, 1931",1931-07-16,1931-07-16,Pilotrichum chlorophyllum (Brid.) C. Muell.,Pilotrichum chlorophyllum (Brid.) C. Muell.,N/A,N/A,N/A,Brazil,Pará,N/A,N/A,"Districto Açaré, Thomé Assú, Japanese Colony","Districto Açaré, Thomé Assú, Japanese Colony",On rotting log in woods,log,Alt. about 30 m,N/A,870829,Typed,no type status
0204_C2078862F.jpg,"Dana Griffin III, Manuel López F.",Dana Griffin III,Manuel López F.,PV-1525,10 marzo 1985,1985-03-10,N/A,Brachythecium plumosum (Hedw.) BSG,Brachythecium plumosum (Hedw.) BSG,Dana Griffin III,N/A,N/A,Venezuela,Estado Trujillo,N/A,N/A,"Páramo de Guirigay, arriba del pueblo de La Peñita. Entre los caseríos El Milagro y El Rosario, en Quebrada Achicata, alt. 3,200 m.","Páramo de Guirigay, above the village of La Peñita, between the hamlets El Milagro and El Rosario, in Quebrada Achicata","Sobre roca húmeda, lecho de riachuelo, a sol.",rock,"alt. 3,200 m.",N/A,1064449,Typed,no type status
0205_C2078913F.jpg,P. Dusén,P. Dusén,N/A,5872,22 February 1897,1897-02-22,1897-02-22,Brachythecium albicans (Hedw.) Schimp.,Brachythecium albicans (Hedw.) Schimp.,W. R. Buck,N/A,N/A,Chile,Patagonia occident.,N/A,N/A,Cerro Colorado,Cerro Colorado,N/A,N/A,N/A,N/A,B11749,Typed,no type status
0206_C2078924F.jpg,Ynes Mexia No. 8001,Ynes Mexia,N/A,8001,"April 10, 1936",1936-04-10,1936-04-10,Brachythecium austro-glareosum (C. Muell.) Kindb.,Brachythecium austro-glareosum (C. Muell.) Kindb.,Kenneth D. McFarland,Sept 1982,N/A,Chile,Territorio Magallanes,N/A,N/A,Las Hope Inlet; Peninsula Antonio Varas; Dampening north of woods in moist earth.,"Las Hope Inlet, Peninsula Antonio Varas",Dampening north of woods in moist earth,soil,Alt. 25 m.,N/A,1038759,Typed,no type status
0207_C2078925F.jpg,Marko Lewis,Marko Lewis,N/A,79-2108,25 May 1979,1979-05-25,1979-05-25,Brachythecium cf. californiarum Broth. in Herz.,Brachythecium cf. californiarum Broth. in Herz.,R. Ochyra,February 1982,N/A,Bolivia,Oruro,N/A,N/A,"DEPTO. ORURO, PROV. SAJAMA: Rio Juntuma Khuchu, 2 min. down river from Aguas termales de Rio Juntuma Khuchu, 4350 m, 18° 07' S, 69° 00' W. In Warnish creek.","Rio Juntuma Khuchu, 2 minutes down river from Aguas termales de Rio Juntuma Khuchu, in Warnish creek",N/A,N/A,4350 m,"18° 07' S, 69° 00' W",1049405,Typed,no type status
0208_C2078926F.jpg,Marko Lewis,Marko Lewis,N/A,79-2109,25 May 1979,1979-05-25,1979-05-25,Brachythecium calliergonoides Broth. in Herz.,Brachythecium calliergonoides Broth. in Herz.,R. Ochyra,1982,N/A,Bolivia,Oruro,Sajama,N/A,"DEPTO. ORURO, PROV. SAJAMA: Rio Juntuma Khuchu, 2 mi. down river from Aguas termales de Rio Juntuma Khuchu, 4350 m.","Rio Juntuma Khuchu, 2 miles down river from Aguas termales de Rio Juntuma Khuchu",In warmish creek.,N/A,4350 m.,N/A,1049406,Typed,no type status
0209_C2078927F.jpg,Marko Lewis,Marko Lewis,N/A,79-2112,25 May 1979,1979-05-25,1979-05-25,Brachythecium camillifolionde Broth. in Herz.,Brachythecium camillifolionde Broth. in Herz.,E. Ochyra,1982,N/A,Bolivia,Oruro,N/A,N/A,"DEPTO. ORURO, PROV. SAJAMA: Rio Jhutuma khuchu, 2 km. down river from Aguas termales de Rio Jhuma Khuchu, 4350 m, 18°07' S, 69°00' W. In warmish creek.","Rio Jhutuma khuchu, 2 kilometers down river from Aguas termales de Rio Jhuma Khuchu",In warmish creek,N/A,4350 m,"18°07' S, 69°00' W",1049407,Typed,no type status
0210_C2078928F.jpg,Marko Lewis,Marko Lewis,N/A,79-2115,25 May 1979,1979-05-25,1979-05-25,Brachythecium callirgoneoides Broth. in Herz.,Brachythecium callirgoneoides Broth. in Herz.,R. Ochyra,1982,N/A,Bolivia,Oruro,N/A,N/A,"DEPTO. ORURO, PROV. SAJAMA: Rio Jhutuma Khuchu, 2 mi. down river from Aguas termales de Rio Jhutuma Khuchu, 4350 m.","Rio Jhutuma Khuchu, 2 miles down river from Aguas termales de Rio Jhutuma Khuchu",In warmish creek,N/A,4350 m.,"18°07' S, 69°00' W",1049409,Typed,no type status
0211_C2078929F.jpg,Marko Lewis,Marko Lewis,N/A,79-2117,25 May 1979,1979-05-25,1979-05-25,Brachythecium oalligeronoides Broth. in Herz.,Brachythecium oalligeronoides Broth. in Herz.,R. Ochyra,1982,N/A,Bolivia,Oruro,N/A,N/A,"DEPTO. ORURO, PROV. SAJAMA: Rio Jhutuma Khuchu, 2 mi. down river from Aguas termales de Rio Jhutuma Khuchu, 4350 m.","Rio Jhutuma Khuchu, 2 miles down river from Aguas termales de Rio Jhutuma Khuchu",In warmish creek.,N/A,4350 m.,"18°07' S, 69°00' W",1049410,Typed,no type status
0212_C2078930F.jpg,"Marko Lewis, no.79-2118",Marko Lewis,N/A,79-2118,25 May 1979,1979-05-25,N/A,Brachythecium calliergonoides Broth. in Herz.,Brachythecium calliergonoides Broth. in Herz.,E. Ochyra,1982,N/A,Bolivia,Oruro,N/A,N/A,"DEPTO. ORURO, PROV. SAJAMA: Rio Juntuma khuchu, 2 km down river from Aguas termales de Rio Juntuma Khuchu, 4350 m. 18° 07' S, 69° 00' W. In warmish creek.","Rio Juntuma khuchu, 2 km down river from Aguas termales de Rio Juntuma Khuchu",In warmish creek,N/A,4350 m,"18° 07' S, 69° 00' W",1049411,Typed,no type status
0213_C2078931F.jpg,Marko Lewis,Marko Lewis,N/A,79-2107,25 May 1979,1979-05-25,1979-05-25,Brachythecium callirgonoides Broth. in Herz.,Brachythecium callirgonoides Broth. in Herz.,R. Ochyra,1982,N/A,Bolivia,Oruro,N/A,N/A,"DEPTO. ORURO, PROV. SAJAMA: Río Juntuma Khuchu, 2 mi. down river from Aguas termales de Río Juntuma Khuchu","Río Juntuma Khuchu, 2 miles down river from Aguas termales de Río Juntuma Khuchu",In warmish creek,N/A,4350 m.,"18° 07' S, 69° 00' W",1049404,Typed,no type status
0214_C2078932F.jpg,Marko Lewis,Marko Lewis,N/A,79-2119,25 May 1979,1979-05-25,1979-05-25,Brachythecium callitrichoides Broth. in Herz.,Brachythecium callitrichoides Broth. in Herz.,R. Ochyra,1982,N/A,Bolivia,Oruro,N/A,N/A,"DEPTO. ORURO, PROV. SAJAMA: Rio Jhutuma Khuchu, 2 mi. down river from Aguas termales de Rio Jhutuma Khuchu, 4350 m.","Rio Jhutuma Khuchu, 2 miles down river from Aguas termales de Rio Jhutuma Khuchu",In warmish creek,N/A,4350 m.,"18° 07' S, 69° 00' W",1049412,Typed,no type status
0215_C2079350F.jpg,Ynes Mexia,Ynes Mexia,N/A,6149,"Nov. 23, 1931",1931-11-23,N/A,Vesicularia amphipholia (Spr.) Broth.,Vesicularia amphipholia (Spr.) Broth.,N/A,N/A,N/A,Peru,Departamento de Loreto,N/A,N/A,Above Pongo de Manseriche. Left bank of Rio Santiago.,"Above Pongo de Manseriche, left bank of Rio Santiago",On stone in overflow forest,stone,Alt. 200 m.,N/A,873368,Typed,no type status
0216_C2079351F.jpg,N/A,N/A,N/A,16100,"Nov 25, 1931",1931-11-25,1931-11-25,Vesicularia umbiliphora (Spr.) Broth.,Vesicularia umbiliphora (Spr.) Broth.,Bartram,N/A,N/A,Peru,Loreto,N/A,N/A,"Above Pongo de Manseriche, Right bank of Rio Santiago.","Above Pongo de Manseriche, Right bank of Rio Santiago",Dense forest on log,log,Alt. 200 m.,N/A,873367,Typed,no type status
0217_C2079352F.jpg,Ynes Mexia,Ynes Mexia,N/A,6217-a,"Dec. 4, 1931",1931-12-04,1931-12-04,Vesicularia amphipoda (Spr.) Broth.,Vesicularia amphipoda (Spr.) Broth.,Bartram,N/A,N/A,Peru,Loreto,N/A,N/A,Above Pongo de Manseriche. Streamlet on right bank of Rio Santiago.,"Above Pongo de Manseriche, streamlet on right bank of Rio Santiago",On rocks wet by spray.,rock,Alt. 250 m.,N/A,870879,Typed,no type status
0218_C2079353F.jpg,Ynes Mexia,Ynes Mexia,N/A,6250,"Dec. 12, 1931",1931-12-12,1931-12-12,Vesicularia amphibia (Spreng.) Broth.,Vesicularia amphibia (Spreng.) Broth.,Bartram,N/A,N/A,Peru,Loreto,N/A,N/A,"Above Pongo de Manseriche. Groove Carapacha. ""06 in forest.""","Above Pongo de Manseriche, Groove Carapacha",In forest,N/A,Alt. 215 m.,N/A,870867,Typed,no type status
0219_C2079354F.jpg,Ynes Mexia,Ynes Mexia,N/A,6356,"Jan. 3, 1932",1932-01-03,1932-01-03,Vascularia subpinnata (Spr.) Broth.,Vascularia subpinnata (Spr.) Broth.,Bartram,N/A,N/A,Peru,Departamento de Loreto,N/A,N/A,Above Pongo de Manseriche,Above Pongo de Manseriche,Crece Ineño,On earth collected on inclined tree trunk,Alt. 215 m.,N/A,873369,Typed,no type status
0220_C2079355F.jpg,Ynes Mexia,Ynes Mexia,N/A,6575a,"Jan. 3, 1932",1932-01-03,1932-01-03,Vesicularia amphipholia (Spr.) Broth.,Vesicularia amphipholia (Spr.) Broth.,N/A,N/A,Taxithelium planum (Brid.) Mitt.,Peru,Loreto,N/A,N/A,"Above Pongo de Manseriche, Creek Inche.","Above Pongo de Manseriche, Creek Inche.",On rotten log.,wood,Alt. 215 m.,N/A,1039121,Typed,no type status
0221_C2079356F.jpg,Ynes Mexia,Ynes Mexia,N/A,6379,"Jan. 3, 1938",1938-01-03,1938-01-03,Vesicularia dubyana (Spreng.) Broth.,Vesicularia dubyana (Spreng.) Broth.,N/A,N/A,N/A,Peru,Loreto,N/A,N/A,Above Pongo de Manseriche,Above Pongo de Manseriche,On rotten log,log,Alt. 215 m.,N/A,870880,Typed,no type status
0222_C2079357F.jpg,Ynes Mexia,Ynes Mexia,N/A,6377,"Jan. 3, 1932",1932-01-03,N/A,Vesicularia amphibia (Spr.) Broth.,Vesicularia amphibia (Spr.) Broth.,N/A,N/A,N/A,Peru,Loreto,N/A,N/A,Above Pongo de Manseriche. Creek Tinche. On rotten log.,"Above Pongo de Manseriche, Creek Tinche, on rotten log",N/A,wood,Alt. 215 m.,N/A,870873,Typed,no type status
0223_C2079358F.jpg,Ynes Mexia,Ynes Mexia,N/A,8070,"May 14, 1936",1936-05-14,1936-05-14,Vesicularia amphibia (Spr.) Broth. det. Bartram,Vesicularia amphibia (Spr.) Broth.,Bartram,N/A,N/A,Peru,Cuzco,N/A,La Convencion,upper valley of the Sambay; affluent of the Vilcanota; on rotten logs in virgin forest.,upper valley of the Sambay; affluent of the Vilcanota; on rotten logs,virgin forest,wood,1800 m.,N/A,1038818,Typed,no type status
0224_C2079359F.jpg,"Ynes Mexia, No. 8070",Ynes Mexia,N/A,8070,"May 14,1936",1936-05-14,N/A,Vestibularia amphibia (Spr.) Broth. det. Bartram,Vestibularia amphibia (Spr.) Broth.,Bartram,N/A,N/A,Peru,Cuzco,La Convencion,N/A,Province La Convencion; upper valley of the Sambay; affluent of the Vilcanota,"upper valley of the Sambay, affluent of the Vilcanota",on rotten logs in virgin forest,wood,1600 m.,N/A,1039122,Typed,no type status
0225_C2079360F.jpg,R. Reitz,R. Reitz,N/A,5468,9.1.49,1949-01-09,N/A,Vascularia vascularis (Schwägr.) A. Roth.,Vascularia vascularis (Schwägr.) A. Roth.,N/A,1949,N/A,Brasil,Santa Catarina,N/A,N/A,Brusque,Brusque,Ramo de árvore em mata virgem,bark,500 msn,N/A,N/A,Typed,no type status
0226_C2079361F.jpg,F. J. Herman,F. J. Herman,N/A,25019,"December 19, 1972",1972-12-19,N/A,Vesicularia vesicularis (Schwaegr.) Broth.,Vesicularia vesicularis (Schwaegr.) Broth.,H. Robinson,N/A,N/A,Colombia,Santander,N/A,N/A,"On base of tree trunk, Parquítas, alt. ca. 4000 ft., 1/4 mile NW. Florida","On base of tree trunk, Parquítas, 1/4 mile Northwest Florida",N/A,bark,alt. ca. 4000 ft.,N/A,1099101,Typed,no type status
0227_C2079362F.jpg,Richard Evans Schultes,Richard Evans Schultes,N/A,11107,"Dec., 1950",1950-12-00,1950-12-00,Vesicularia vesicularis (Schwgr.) Broth.,Vesicularia vesicularis (Schwgr.) Broth.,Dana Griffin III,"Dec., 1950",N/A,Colombia,Intendencia del Meta,N/A,N/A,"alrededores de Villavicencio, Alt 500 m.",alrededores de Villavicencio,N/A,N/A,Alt 500 m.,N/A,1055509,Typed,no type status
0228_C2079715F.jpg,"J.P. Frahm, P. Geissler, S.R. Gradstein, G. Philippi, W. Schulze-Motel",J.P. Frahm,"P. Geissler, S.R. Gradstein, G. Philippi, W. Schulze-Motel",875,4.9.1982,1982-09-04,N/A,Entodon jamesonii (Tayl.) Mitt.,Entodon jamesonii (Tayl.) Mitt.,W. Schulze-Motel,N/A,N/A,Peru,Amazonas,Chachapoyas,N/A,"Straße Chachapoyas Cajamarca oberhalb Leimebamba km 417, sexponierter Hang, hochandiner Regenwald auf Kalkstein",Straße Chachapoyas Cajamarca oberhalb Leimebamba km 417,hochandiner Regenwald auf Kalkstein,rock,2800 msn.,N/A,1676822,Typed,no type status
0229_C2079716F.jpg,J. Kenneth Wright,J. Kenneth Wright,N/A,4806,1 April 1964,1964-04-01,1964-04-01,"Entodon jamesonii (Tayl.) Mitt. dupl. det. E. Robison, 1966",Entodon jamesonii (Tayl.) Mitt.,E. Robison,1966,N/A,Peru,Department of Amazonas,Province of Chachapoyas,N/A,"Cerros Calla Calla, east side, km. above Leimebamba on the road to Balsas, at San Miguel (no buildings at this locality).","Cerros Calla Calla, east side, kilometers above Leimebamba on the road to Balsas, at San Miguel",N/A,N/A,2400 m.,N/A,1021864,Typed,no type status
0230_C2079717F.jpg,Dan Griffin III,Dan Griffin,N/A,PV-966,30 Jan. 1985.,1985-01-30,N/A,Entodon jamesoni (Tayl.) Broth.,Entodon jamesoni (Tayl.) Broth.,Dana Griffin III,N/A,N/A,Venezuela,Estado Merida,N/A,N/A,"Finca de Los Granates, finca de Los Granates, a la larga del rio de Los Granates y en las lomas cercanas. Alt. 3,000-3,300 m.","Finca de Los Granates, a la larga del rio de Los Granates y en las lomas cercanas","Sobre roca + seca, a sombra.",rock,"Alt. 3,000-3,300 m.",N/A,1064416,Typed,no type status
0231_C2079718F.jpg,Ynes Mexia,Ynes Mexia,N/A,5697,"April 21, 1931",1931-04-21,1931-04-21,Entodon Lindbergii Hedw.,Entodon Lindbergii Hedw.,N/A,N/A,N/A,Brazil,State of Minas Gerais,N/A,Cordisburgo,"Fazenda do Diamante, Campo Viridem, Base of living tree in shade.","Fazenda do Diamante, Campo Viridem, base of living tree",In shade,bark,Alt. 500 m.,N/A,807818,Typed,no type status
0232_C2079719F.jpg,N/A,N/A,N/A,1023,"June 12, 1893",1893-06-12,N/A,Entosthodon longicollis Michx.,Entosthodon longicollis Michx.,N/A,March 1941,N/A,United States,North Carolina,N/A,Biltmore,"Biltmore, North Carolina",Biltmore,N/A,soil,N/A,N/A,1078203,Typed,no type status
0233_C2079720F.jpg,Marko Lewis,Marko Lewis,N/A,79-590,8 February 1979,1979-02-08,1979-02-08,Entodon cf. nano-climacium C.M. (E. micans Herz.),Entodon cf. nano-climacium C.M. (E. micans Herz.),W. Buck,1980,N/A,Bolivia,Tarija,Prov. Mendez/Prov. Cercado/Prov. Aviles,N/A,"Depto. Tarija. Prov. Mendez/Prov. Cercado/Prov. Aviles; Canyon 5 mi. SW of T'ablad, SW of Tarija, 21°36'S, 64°50'W.","Canyon 5 miles southwest of T'ablad, southwest of Tarija",Bank of creek,N/A,2160 m.,"21°36'S, 64°50'W.",1679858,Typed,no type status
0234_C2079721F.jpg,Marko Lewis,Marko Lewis,N/A,79-1220,22 March 1979,1979-03-22,1979-03-22,Entodon nano-climacium C. Müll. (E. micans Herz.),Entodon nano-climacium C. Müll.,M. Buck,1980,N/A,Bolivia,La Paz,Larecaja,Sorata,"DEPTO. LA PAZ, PROV. LARECAJA: Near large red out-crop 2 mi. from Sorata down Rio Consata, 15° 41' S., 68° 43' W.",Near large red outcrop 2 miles from Sorata down Rio Consata,Very shady ground along creek in humid shrubs,soil,2600 m.,"15° 41' S., 68° 43' W.",1 679759,Typed,no type status
0235_C2079722F.jpg,Collected by Harry Ward Foote,Harry Ward Foote,N/A,N/A,Sept. 3,1911-09-03,1911-09-03,Eriothemum fibrillosum Gr.,Eriothemum fibrillosum Gr.,N/A,N/A,N/A,N/A,N/A,N/A,N/A,"on rocks near San Miguel, 13,000 ft.",near San Miguel,N/A,rock,"13,000 ft.",N/A,N/A,Handwritten,no type status
0236_C2079723F.jpg,Marko Lewis,Marko Lewis,N/A,79-1346,1 April 1979,1979-04-01,1979-04-01,cf. Entodon polycarpus,Entodon polycarpus,M. Buck,1980,N/A,Bolivia,La Paz,Larecaja,N/A,"DEPTO. LA PAZ, PROV. LARECAJA: Between Abra Huallatani and waterfall at Millipaya",Between Abra Huallatani and waterfall at Millipaya,"Waterfall ravine, highest extension of shrubs.",N/A,3780 m.,"15° 51' S, 68° 39' W",1 0789757,Typed,no type status
0237_C2079595F.jpg,H. Roivainen,H. Roivainen,N/A,2095,25.I.1970,1970-01-25,1970-01-25,Isopterygium pulchellum (Hedw.) Jaeg.,Isopterygium pulchellum (Hedw.) Jaeg.,R. Ochyra,1996,Nothofagus pumilio,Argentina,Tierra del Fuego Australis,N/A,Ushuaia,"Ushuaia, Arroyo Grande (54°47'S, 68°17'W), en fisuras de roca y en raíces humoso-arcillosos de Nothofagus pumilio, en orilla de la cascada, 150 m s.m., bastante copiosamente","Ushuaia, Arroyo Grande","en fisuras de roca y en raíces humoso-arcillosos de Nothofagus pumilio, en orilla de la cascada",rock,150 m s.m.,"54°47'S, 68°17'W",N° 1182417,Typed,no type status
0238_C2079596F.jpg,H. Roivainen,H. Roivainen,N/A,1352,21.12.1969,1969-12-21,N/A,Isopterygium pulchellum (Hedw.) Jaeg.,Isopterygium pulchellum (Hedw.) Jaeg.,Ochyra,1996,N/A,Argentina,Tierra del Fuego,N/A,N/A,"Tierra del Fuego australis, Valle del río Pipo, suelo humoso húmedo en el pendiente del río, 300 m s.m., bastante copiosamente.",Valle del río Pipo,suelo humoso húmedo en el pendiente del río,soil,300 m s.m.,"54°46'S, 68°20'W",N/A,Typed,no type status
0239_C2079597F.jpg,E. P. Killip & A. C. Smith,E. P. Killip,A. C. Smith,14971,"November 29, 1926",1926-11-29,N/A,Isoterygium tenerrimum (Sw.) Mitt.,Isoterygium tenerrimum (Sw.) Mitt.,R. R. Ireland,1988,N/A,Colombia,Santander,N/A,N/A,"Dept. Santander, between Puerto Wilches and Puerto Santos, Hilltops","between Puerto Wilches and Puerto Santos, Hilltops",N/A,N/A,N/A,N/A,N/A,Mix of Handwritten and Typed,no type status
0240_C2079598F.jpg,Richard Evans Schultes,Richard Evans Schultes,N/A,11110,"Dec., 1950",1950-12-00,1950-12-00,Isoterygium tenerum (Sw.) Mitt.,Isoterygium tenerum (Sw.) Mitt.,Dana Griffin III,1950,N/A,Colombia,Meta,N/A,N/A,Intendencia del Meta: alrededores de Villavicencio.,alrededores de Villavicencio,N/A,N/A,Alt. 500 m.,N/A,1055473,Typed,no type status
0241_C2079599F.jpg,D.C. Geijskes,D.C. Geijskes,N/A,N/A,29-9-1952,1952-09-29,1952-09-29,Isopterygium tenerum (Sw.) Mitt.,Isopterygium tenerum (Sw.) Mitt.,H.R. Zielman,N/A,N/A,Surinam,N/A,N/A,N/A,"Marowijne river, Armina falls rainforest On roots and rocks on bank of river, shai.","Marowijne river, Armina falls rainforest","On roots and rocks on bank of river, shai","roots, rocks",N/A,N/A,1073518,Typed,no type status
0242_C2079600F.jpg,Ynes Mexia,Ynes Mexia,N/A,8430,"July 6, 1930",1930-07-06,1930-07-06,Isoterygium brachyrrhachis (Mitt.) Mitt. ex Jaeg. & Sauerb.,Isoterygium tenerum (Sw.) Mitt.,R.R. Ireland,1988,N/A,Brazil,Minas Gerais,N/A,Viçosa,"Agricultural College land, Horticultural Hill.","Agricultural College land, Horticultural Hill",On rotten wood near base. Abundant.,wood,Alt. 870 m.,N/A,1039979,Typed,no type status
0243_C2079601F.jpg,Ynes Mexia,Ynes Mexia,N/A,4888,"July 21, 1930",1930-07-21,1930-07-21,Isoptrygium laxum (Hpe.) Broth.,Isoptrygium tenerum (Sw.) Mitt.,R.R. Ireland,1988,N/A,Brazil,Minas Geraes,N/A,N/A,Viçosa Agricultural College. Corrego Ribeirão.,"Viçosa Agricultural College, Corrego Ribeirão","Shady streambanks, On rotten wood.",wood,Alt. 675 m.,N/A,873365,Typed,no type status
0244_C2079602F.jpg,"Ynes Mexia, No. 8030",Ynes Mexia,N/A,8030,"Dec. 8, 1930",1930-12-08,N/A,Isopterygium tenerum (Sw.) Mitt.,Isopterygium tenerum (Sw.) Mitt.,R.R. Ireland,1988,N/A,Brazil,State of Minas Geraes,N/A,Vicosa,Road to Sao Luiz.,Road to Sao Luiz,Dense forest,On rotten logs,Alt. 710 m.,N/A,870841,Typed,no type status
0245_C2079603F.jpg,Ynes Mexia,Ynes Mexia,N/A,54421,"Dec. 23, 1930",1930-12-23,1930-12-23,Isopterygium tenerum (Sw.) Mitt.,Isopterygium tenerum (Sw.) Mitt.,R.R. Ireland,1988,N/A,Brazil,Minas Geraes,N/A,N/A,Viçosa Agricultural College lands. Base of Horticulture Hill.,"Viçosa Agricultural College lands, Base of Horticulture Hill",On rotting logs in woods,log,Alt. 670 m.,N/A,370823,Typed,no type status
0246_C2079604F.jpg,"H. S. Irwin, R. M. Harley, G. L. Smith",H. S. Irwin,"R. M. Harley, G. L. Smith",31332,2 March 1971,1971-03-02,N/A,Isoterygium tenerum (Sw.) Mitt.,Isoterygium tenerum (Sw.) Mitt.,R. R. Ireland,1988,N/A,Brasil,N/A,N/A,N/A,Valley of the Rio das Ondas,Valley of the Rio das Ondas,"On the bark and exposed roots of Coccoloba sp., and on adjacent soil, at river bank, Cerrado gallery forest, and adjacent out-curve, ca. 10km W. of Barreiras","bark, soil",ca. 500m.,N/A,1059328,Typed,no type status
0247_C2079606F.jpg,Ynes Mexia,Ynes Mexia,N/A,4884,"July 21, 1929",1929-07-21,N/A,Isopterygium tenerum (Sw.) Mitt.,Isopterygium tenerum (Sw.) Mitt.,R. R. Ireland,1988,N/A,Brazil,Minas Geraes,N/A,N/A,"Vicosa Agricultural College lands, Corrego Felizbina","Vicosa Agricultural College lands, Corrego Felizbina","Shady streambanks, on rotten logs",log,Alt. 675 m.,N/A,830845,Typed,no type status
0248_C2079607F.jpg,Ynes Mexia,Ynes Mexia,N/A,4690,"May 14, 1930",1930-05-14,1930-05-14,Isoptrygium curvifolium (Sw.) Mitt. Ex p.,Isoptrygium tenerum (Sw.) Mitt.,R. R. Ireland,1988,N/A,Brazil,Minas Gerais,N/A,Viçosa,Fazenda de Cresciuma. Wood on slope. On rotten log.,"Fazenda de Cresciuma, wood on slope, on rotten log",Wood on slope,wood,Alt. 700 m.,N/A,870839,Typed,no type status
0249_C2079608F.jpg,Ynes Mexia,Ynes Mexia,N/A,4884,"July 21, 1930",1930-07-21,1930-07-21,Isopterygium tenerum (Sw.) Mitt.,Isopterygium tenerum (Sw.) Mitt.,R.R. Ireland,1988,N/A,Brazil,Minas Gerais,N/A,N/A,Viçosa Agricultural College lands. Corrego Ribeiro.,"Viçosa Agricultural College lands, Corrego Ribeiro","Shady streambank, on rotten log.",wood,Alt. 675 m.,N/A,1039977,Typed,no type status
0250_C2079609F.jpg,Ynes Mexia,Ynes Mexia,N/A,4545,"March 31, 1930",1930-03-31,1930-03-31,Isoterygium curvifolium (Hedw.) Mitt. det. Bartram,Isopterygium tenerum (Sw.) Mitt.,R.R. Ireland,1988,N/A,Brazil,State of Minas Gerais,N/A,N/A,"Road to São Miguel, near stream ""Turvo"". Cut over woods on slope. On rotting tree trunk.","Road to São Miguel, near stream ""Turvo""",Cut over woods on slope,rotting tree trunk,Alt. 710 m.,N/A,1039978,Typed,no type status
0251_C2079611F.jpg,H. Schieffner,H. Schieffner,N/A,2898,Feb 6-7,1952-02-06,1952-02-07,Isoperygium anamiticum (Müll. Hal.) Broth.,Isoperygium tenerum (Sw.) Mitt.,R. R. Ireland,1988,N/A,Brasil,Sao Paulo,N/A,N/A,"prope urbem Cerqueira-Cesar, in palude","prope urbem Cerqueira-Cesar, in palude",in palude,N/A,650 m.,N/A,1012176,Typed,no type status
0252_C2079856F.jpg,Ynes Mexia,Ynes Mexia,N/A,4641,"July 6, 1930",1930-07-06,1930-07-06,Isoterygium brachyneuron (Mitt.) Mitt. ex P. de la Varde,Isoterygium tenerum (Sw.) Mitt.,R.R. Ireland,1988,N/A,Brazil,Minas Geraes,N/A,N/A,Viçosa Agricultural College lands,Viçosa Agricultural College lands,On rotting logs near base. Cut over woods,log,Alt. 670 m.,N/A,87081,Typed,no type status
0253_C2079858F.jpg,R. S. Williams,R. S. Williams,N/A,2015,1901-1902,1901-00-00,1902-00-00,Isopterygium tenerum (Sw.) Mitt.,Isopterygium tenerum (Sw.) Mitt.,R. R. Ireland,1988,N/A,Bolivia,N/A,N/A,N/A,"San Vicente, 12,000 feet",San Vicente,N/A,N/A,"12,000 feet",N/A,1039993,Typed,no type status
0254_C2079859F.jpg,R. S. Williams,R. S. Williams,N/A,2037,1901-1902,1901-00-00,1902-12-31,Isoptrygium tenerum (Sw.) Mitt.,Isoptrygium tenerum (Sw.) Mitt.,R. R. Ireland,1988,N/A,Bolivia,N/A,N/A,N/A,N/A,[precise locality unknown],N/A,N/A,N/A,N/A,101742,Mix of Handwritten and Typed,no type status
0255_C2010970F.jpg,I. Hagen,I. Hagen,N/A,N/A,N/A,N/A,N/A,Cetraria islandica (L.) Ach. var. crispa (Ach.) Röhl.,Cetraria islandica (L.) Ach. var. crispa (Ach.) Röhl.,N/A,N/A,N/A,Norvegia,N/A,N/A,N/A,"Norvegia, Vidda, montibus ad f. [fjeld] Hardanger","Vidda, montibus ad fjeld Hardanger",N/A,N/A,altit. mtr. 900-1200 mtr,N/A,N/A,Typed,no type status
0256_C2010972F.jpg,N/A,N/A,N/A,N/A,N/A,N/A,N/A,Pogonatum urnigerum Brid.,Pogonatum urnigerum Brid.,N/A,N/A,N/A,England,N/A,N/A,N/A,N/A,[precise locality unknown],N/A,N/A,N/A,N/A,N/A,Typed,no type status
0257_C2000534F.jpg,C. de Jussieu,C. de Jussieu,N/A,N/A,1878,1878-00-00,N/A,Polytrichum juniperinum,Polytrichum juniperinum,N/A,N/A,N/A,France,Pyrénées,N/A,Gorges de Jaret,Pyrénées: Gorges de Jaret,Gorges de Jaret,N/A,N/A,N/A,N/A,N/A,Handwritten,no type status
0258_C2000536F.jpg,N/A,N/A,N/A,N/A,N/A,N/A,N/A,Polytrichum juniperinum,Polytrichum juniperinum,N/A,N/A,N/A,England,Sussex,N/A,N/A,"Sussex, England","Sussex, England",N/A,N/A,N/A,N/A,1096014,Typed,no type status
0259_C2000538F.jpg,G. E. Hunt,G. E. Hunt,N/A,N/A,N/A,N/A,N/A,Isoetes lacustris,Isoetes lacustris,N/A,N/A,N/A,N/A,N/A,N/A,N/A,Upper Lough Erne,Upper Lough Erne,N/A,N/A,N/A,N/A,1182972,Mix of Handwritten and Typed,no type status
0260_C2000542F.jpg,Herbarium Ed. Jeanpert,Ed. Jeanpert,N/A,N/A,N/A,N/A,N/A,Sphagnum medium Limpr.,Sphagnum medium Limpr.,N/A,N/A,N/A,N/A,N/A,N/A,N/A,"Villers-aux-Bois, route de Souchez, ravine","Villers-aux-Bois, route de Souchez, ravine",N/A,N/A,N/A,N/A,1058477,Handwritten,no type status
0261_C2000932F.jpg,C. Maler Frh.,C. Maler Frh.,N/A,476,8. Sept. 1905,1905-09-08,N/A,Polytrichum urnigerum (L.) Pal. Beauv. c. fr.,Polytrichum urnigerum (L.) Pal. Beauv. c. fr.,L. Beier,Nov. 10. 1909,N/A,N/A,N/A,N/A,N/A,"Seeb.) Ralnen auf Erde in Felsspalten zwischen Binken und Seeblick am Feldberge, etwa 1210 m. s. M.",[precise locality unknown],N/A,soil,etwa 1210 m. s. M.,N/A,1123491,Typed,no type status
0262_C2000934F.jpg,leg. Zd. Pilous,Zd. Pilous,N/A,214,V.1946,1946-05-00,1946-05-00,Polytrichum juniperinum Hedw.,Polytrichum juniperinum Hedw.,N/A,N/A,N/A,Bohemia,N/A,N/A,N/A,"Montes Krkonose, in declivis graminosis silvaticis prope pagum Horni Vrchlabi, ca 580 m","Montes Krkonose, near Horni Vrchlabi",in declivis graminosis silvaticis,soil,ca 580 m,N/A,1270015,Handwritten,no type status
0263_C2000936F.jpg,Collected in 1843 by James Thompson,James Thompson,N/A,N/A,1843,1843-00-00,1843-00-00,Gonatium marginatum,Gonatium marginatum,N/A,N/A,N/A,Scotland,N/A,N/A,N/A,N/A,[precise locality unknown],N/A,N/A,N/A,N/A,1230970,Handwritten,no type status
0264_C2000938F.jpg,Herbarium Ed. Jeanpert,Ed. Jeanpert,N/A,N/A,N/A,N/A,N/A,Hypnum cupressiforme,Hypnum cupressiforme,N/A,N/A,N/A,N/A,N/A,N/A,N/A,N/A,[precise locality unknown],N/A,N/A,N/A,N/A,105846,Typed,no type status
0265_C2000940F.jpg,N/A,N/A,N/A,N/A,May 1945,1945-05-00,1945-05-00,Polytrichum alpinum var. septentrionale (Sw.) Brid.,Polytrichum alpinum var. septentrionale (Sw.) Brid.,N/A,N/A,N/A,N/A,N/A,N/A,N/A,N/A,[precise locality unknown],N/A,N/A,N/A,N/A,1153426,Typed,no type status
0266_C2000943F.jpg,C. Jensen,C. Jensen,N/A,N/A,25/10 1901,1901-10-25,1901-10-25,Pogonatum urnigerum (Hedw.) P. Beauv.,Pogonatum urnigerum (Hedw.) P. Beauv.,N/A,N/A,N/A,Denmark,Sjælland,N/A,N/A,"Sjælland, Maglebrækmose by Hvalsø in a gravel-pit",Maglebrækmose by Hvalsø in a gravel-pit,N/A,soil,N/A,N/A,APR 1953,Typed,no type status
0267_C2000945F.jpg,Herbarium Ed. Jeanpert,Ed. Jeanpert,N/A,N/A,15 Octobre 1889,1889-10-15,1889-10-15,Bryum argenteum Hedw. var. muticum Sendtn. in Mart.,Bryum argenteum Hedw. var. muticum Sendtn. in Mart.,N/A,N/A,N/A,N/A,N/A,N/A,N/A,N/A,[precise locality unknown],N/A,N/A,N/A,N/A,1058475,Handwritten,no type status
0268_C2000947F.jpg,N/A,N/A,N/A,N/A,N/A,N/A,N/A,Saxifraga aizoon var. surculosa (Engl. & Irmsch.),Saxifraga aizoon var. surculosa (Engl. & Irmsch.),N/A,N/A,N/A,N/A,N/A,N/A,N/A,N/A,[precise locality unknown],N/A,N/A,N/A,N/A,1058481,Typed,no type status
0269_C2000949F.jpg,Gift of Elmer J. Richards,Elmer J. Richards,N/A,N/A,N/A,N/A,N/A,Sphagnum rubellum,Sphagnum rubellum,N/A,N/A,N/A,Scotland,N/A,N/A,N/A,N/A,[precise locality unknown],N/A,N/A,N/A,N/A,1182976,Mix of Handwritten and Typed,no type status
0270_C2010614F.jpg,Arnould,Arnould,N/A,698,VI.18.1924,1924-06-18,1924-06-18,Sphagnum junghuhnianum Dozy & Molk.,Sphagnum junghuhnianum Dozy & Molk.,Arnould,VI.18.1924,N/A,France,Haute-Savoie,N/A,N/A,"Source (près du lac) Léman, Val d'Evian, à 375 m","Source (près du lac) Léman, Val d'Evian",N/A,N/A,à 375 m,N/A,1050871,Handwritten,no type status
0271_C2010616F.jpg,Leg. M. Onraedt,M. Onraedt,N/A,76.5.1970,Le 7.9.1976,1976-09-07,N/A,Sphagnum universum f. Beauv. Schimp.,Sphagnum universum f. Beauv. Schimp.,N/A,N/A,N/A,Belgique,N/A,N/A,N/A,"Fagne Wallonne, val d'Orneau, entre Mazy et Balâtre","Fagne Wallonne, val d'Orneau, between Mazy and Balâtre",tourbière,soil,alt. 170m,N/A,1050867,Typed,no type status
0272_C2010618F.jpg,N/A,N/A,N/A,N/A,N/A,N/A,N/A,"Pogonatum urnigerum, Brid.",Pogonatum urnigerum,N/A,N/A,N/A,N/A,N/A,N/A,N/A,N/A,[precise locality unknown],N/A,N/A,N/A,N/A,1058318,Typed,no type status
0273_C2010620F.jpg,J. Lehm. u. Stizenberger,J. Lehm.,Stizenberger,9864,23. August 1850,1850-08-23,N/A,Pogonatum urnigerum (L.) P. Beauv.,Pogonatum urnigerum (L.) P. Beauv.,N/A,N/A,N/A,N/A,N/A,N/A,N/A,An Walfahrtskirch bei Salem,An Walfahrtskirch bei Salem,N/A,N/A,N/A,N/A,1054838,Typed,no type status
0274_C2010622F.jpg,Jack Kiefer,Jack Kiefer,N/A,995B,17 Oktober 1962,1962-10-17,1962-10-17,Pogonatum urnigerum (L.) P. Beauv.,Pogonatum urnigerum (L.) P. Beauv.,N/A,N/A,N/A,Austria,Steiermark,N/A,N/A,a. d. Gossen Waldwiese auf rotem Sandsteinbrechschiefer,Gossen Waldwiese auf rotem Sandsteinbrechschiefer,N/A,soil,N/A,N/A,1054931,Typed,no type status
0275_C2010624F.jpg,A. L. Wollaston et Schauinsland,A. L. Wollaston,Schauinsland,968b,September 1902,1902-09-00,N/A,Polytrichum lanigerum (L.) P. Beauv.,Polytrichum lanigerum (L.) P. Beauv.,N/A,N/A,N/A,N/A,N/A,N/A,N/A,N/A,[precise locality unknown],N/A,N/A,N/A,N/A,1055050,Typed,no type status
0276_C2010626F.jpg,Coll. and deerm. C. Jensen,C. Jensen,N/A,104,"November 21, 1904",1904-11-21,1904-11-21,Pogonatum urnigerum (Hedw.) P. C. F.,Pogonatum urnigerum (Hedw.) P. C. F.,C. Jensen,N/A,N/A,Denmark,Zealand,N/A,N/A,sandy soil in Maglekov south of Hvalsø,sandy soil in Maglekov south of Hvalsø,sandy soil,soil,N/A,N/A,N/A,Typed,no type status
0277_C2010974F.jpg,P. Allorge,P. Allorge,N/A,49,Mai 1928,1928-05-00,1928-05-00,Bryotheca Iberica,Bryotheca Iberica,P. Allorge,11. V. 1927.,N/A,Spain,Navarra,N/A,Puente la Reina,"Puente la Reina (Navarra). Talus argileux (schisteux) avec Helianthemum vulgare, Dianthus pungens, Linaria spicata (L.) Chaz., Linaria triornithophora (L.) Willk., Alkanna tinctoria (L.) Tausch., Phlomis lychnitis L., etc.",Puente la Reina,"Talus argileux (schisteux) avec Helianthemum vulgare, Dianthus pungens, Linaria spicata (L.) Chaz., Linaria triornithophora (L.) Willk., Alkanna tinctoria (L.) Tausch., Phlomis lychnitis L., etc.",soil,N/A,N/A,1200129,Typed,no type status
0278_C2010976F.jpg,leg. Zd. Pilous,Zd. Pilous,N/A,1025,VII.1949,1949-07-00,1949-07-00,Pogonatum urnigerum Pal. var. humile Brid.,Pogonatum urnigerum var. humile,N/A,N/A,N/A,Slovakia,N/A,N/A,N/A,"Montes Nízké Tatry; In terra montis Ďumbier, cca 1840 m",Montes Nízké Tatry; In terra montis Ďumbier,N/A,soil,cca 1840 m,N/A,1350857,Typed,no type status
0279_C1042257F.jpg,S. Churchill et al.,S. Churchill,N/A,22853,12 May 2004,2004-05-12,N/A,Neckera scabridens C. Müller,Neckera scabridens C. Müller,S. Churchill,Jun 2004,N/A,Bolivia,Chuquisaca,Belisario Boeto,Villa Serrano,"Monte Grande, ca. 32 km de Villa Serrano. Bosque montano de yungas. Con Purumpitys exigua, Podocarpus, Myrcianthes.","Monte Grande, approximately 32 kilometers from Villa Serrano",Bosque montano de yungas,bark,2740 m,"18°43'04""S 64°29'07""W",1193467,Typed,no type status
0280_K000931304.jpg,E. Cordula (leg.); Melo & K. Pinheiro,E. Cordula,"Melo, K. Pinheiro",14722,23/IV/2007,2007-04-23,N/A,Vigna peduncularis (Kunth) Fawc. & Rendle,Ancistrotropis peduncularis (Fawcett & Rendle) A. Delgado,G. P. Lewis,12.2012,N/A,Brasil,Pernambuco,N/A,Mirandiba,"Municipio de Mirandiba, Serra das Umburanas (afloramento rochoso)",Serra das Umburanas,afloramento rochoso,rock,457 m,08°12'S; 38°32'W,K000931304,Typed,no type status
0281_EIG.6763.jpg,Ilkka Kukkonen,Ilkka Kukkonen,N/A,11003,13. Sept. 1981,1981-09-13,1981-09-13,Arthropteris tenella (G. Forst.) J. Sm.,Arthropteris tenella (G. Forst.) J. Sm.,S. Kurvola,1982,N/A,Australia,Queensland,N/A,Atherton Tableland,"Atherton Tableland, patch of rain forest at Malanda","Atherton Tableland, patch of rain forest at Malanda",Patch of rain forest,Climbing on tree stems,N/A,N/A,H 159150,Typed,no type status
0282_K001046329.jpg,Pabst,Pabst,N/A,2121,7-9-60,1960-09-07,1960-09-07,Avicennia tomentosa,Avicennia tomentosa,Pabst,23-9-60,N/A,Brazil,Rio de Janeiro,N/A,N/A,"Brasil: Guanabara, Ilha do Governador",Ilha do Governador,Mangue,soil,N/A,N/A,K000146329,Typed,no type status
0283_K000964719.jpg,W. Hoehne,W. Hoehne,N/A,10228,xii.1933,1933-12-00,1933-12-00,Cestrum corymbosum Schltdl.,Cestrum corymbosum Schltdl.,Kuhlmann,N/A,N/A,Brasil,São Paulo,"Cantareira, São Paulo",N/A,"Cantareira, São Paulo, ...","Cantareira, São Paulo",N/A,N/A,Alt. -,N/A,N/A,Typed,no type status
0284_EIG.5460.jpg,H. Eggert,H. Eggert,N/A,N/A,May,0000-05-00,0000-05-00,Cystopteris bulbifera (L.) Bernh.,Cystopteris bulbifera (L.) Bernh.,N/A,N/A,N/A,United States,Illinois,N/A,N/A,"Bluffs, Illinois",Bluffs,N/A,N/A,N/A,N/A,1126455,Handwritten,no type status
0285_EIG.435.jpg,T. Rulkonen 12608,T. Rulkonen,N/A,12608,8.XI.1982,1982-11-08,N/A,Dryopteris inaequalis (Schlechtend.) Kuntze,Dryopteris inaequalis (Schlechtend.) Kuntze,J. Sarvela,1987,N/A,Ethiopia,Bale Adm. Reg.,N/A,N/A,"Bale Adm. Reg., Saneti plateau and Mount Batu, 06°55'N 39°45'E, c. 4000-4200 m. Alpine belt dominated by Festuca schesfieri, Euryops pinifolius, Anthemis tigreensis.",Saneti plateau and Mount Batu,"On the way to Saneti plateau from Robe. Steep forested slope of a river canyon, e.g. Juniperus procera. Pastured slope.",N/A,c. 4000-4200 m,06°55'N 39°45'E,H1489739,Typed,no type status
0286_E00570050.jpg,"M. Vallejo, M. Maunder, C. Clubbe, M. Hamilton, D. Vallejo, M.A. Martin",M. Vallejo,"M. Maunder, C. Clubbe, M. Hamilton, D. Vallejo, M.A. Martin",M.V. seed 2.14,24 Mar 2012,2012-03-24,N/A,Mimulus peregrinus,Mimulus peregrinus,M. Vallejo,N/A,N/A,Scotland,N/A,N/A,N/A,"Loch Lomond & The Trossachs National Park, Ben Lomond, Sron a' Chlachain","Loch Lomond & The Trossachs National Park, Ben Lomond, Sron a' Chlachain",Occurring on the banks of a stream on a substrate of sand and silt,soil,5 m,N/A,E00579066,Typed,HOLOTYPE
0287_K000773283.jpg,T. F. Cheeseman,T. F. Cheeseman,N/A,648,Aug. 9. 1902,1902-08-09,N/A,Gellia Boddi-mont,Gellia Boddi-mont,N/A,N/A,N/A,New Zealand,N/A,N/A,N/A,"Waitakerei Hills, Auckland","Waitakerei Hills, Auckland",N/A,soil,N/A,N/A,266,Handwritten,no type status
0288_BR0000006918378.jpg,Bart Van de Vijver,Bart Van de Vijver,N/A,N/A,25/04/2007,2007-04-25,2007-04-25,Ophrys oestrifera subsp. garganensis Van de Vijver & W. Van Looken,Ophrys oestrifera subsp. garganensis,Van de Vijver & W. Van Looken,N/A,N/A,Italia,N/A,N/A,N/A,"Promontorio del Gargano, Madonna di Loreto, Behind the Chapel of Madonna di Loreto","Promontorio del Gargano, Madonna di Loreto, Behind the Chapel of Madonna di Loreto",macchia-shrub with Cistus and Pinus,N/A,N/A,N/A,691 837,Typed,no type status
0289_K001207911.jpg,"G. Hatschbach, Zygadlo, J. Silva & J. Cordeiro",G. Hatschbach,"Zygadlo, J. Silva, J. Cordeiro",59696,19-9-91,1991-09-19,N/A,Pfaffia glabrata (Spreng.) Pedersen,Pfaffia glabrata (Spreng.) Pedersen,Pedersen,N/A,N/A,Brazil,Paraná,N/A,Curitiba,"Rio Iguaçu, prox. barragem do Perdido (mma. Lagoa Verde)","Rio Iguaçu, proximidades da barragem do Perdido, Lagoa Verde","Em terreno arenoso, margens de rio",soil,N/A,N/A,N/A,Typed,no type status
0290_K000263710.jpg,"J.J. de Wilde, B.J.E. de Wilde-Duyfjes & K. van Nek",J.J. de Wilde,"B.J.E. de Wilde-Duyfjes, K. van Nek",10130,22-1-1991,1991-01-22,N/A,Rhynchosiagabonensis Jongkind,Rhynchosiagabonensis Jongkind,Jongkind,N/A,N/A,Gabon,N/A,N/A,N/A,"About 10 km. on the road from Kembélé to Vouko, O 04 N., O 23 E. Alt.: 580 m.",About 10 kilometers on the road from Kembélé to Vouko,"Vine, 7 m. long in tree in roadside.",N/A,Alt.: 580 m.,"O 04 N., O 23 E.",K000236710,Typed,ISOTYPE
0291_BM000934757.jpg,Wilhelm Suksdorf,Wilhelm Suksdorf,N/A,12045,Aug. 1926,1926-08-00,1926-08-00,Solanum triflorum Nutt.,Solanum triflorum Nutt.,Tiina Särkinen,2014,N/A,United States,Washington,Klickitat,N/A,High sandy river-bank at Bingen.,High sandy river-bank at Bingen,High sandy river-bank,soil,N/A,N/A,N/A,Typed,no type status
0292_K000536956.jpg,J. Francis Macbride,J. Francis Macbride,N/A,5234,"Aug. 27-Sept. 1, 1922",1922-08-27,1922-09-01,Tococa mandonii Macbr.,Tococa mandonii Macbr.,T.F.A. Macbride,20.8.29,N/A,Peru,N/A,N/A,La Merced,Mountain slope,Mountain slope,N/A,N/A,about 4000 feet,N/A,K000536956,Typed,no type status
0293_B%2010%200375227.jpg,"X. Cornejo, C. Bonifaz",X. Cornejo,C. Bonifaz,5822,"Oct. 27, 1997",1997-10-27,N/A,Capparis scrobiphylla Miers nov.sp.,Capparis scrobiphylla Miers nov.sp.,N/A,N/A,"C. heterophylla, C. scabrida, C. lanceolata y C. crotonoides",Ecuador,Manabí,N/A,N/A,"Bosque seco tropical deciduo, 8 km Alrededores de Universidad Católica",8 km surroundings of Universidad Católica,"Bosque seco tropical deciduo, frecuentemente intervenido",N/A,30,LATITUD -0.45 LONGITUD -80.32,B 10 0375227,Typed,ISOTYPUS
0294_B%2010%200185601.jpg,M. l'Abbé Delavay,L'Abbé Delavay,N/A,N/A,2 avril 1887,1887-04-02,1887-04-02,Gentiana albescens Franch.,Gentiana albescens Franch.,N/A,N/A,N/A,Chine,Yunnan,N/A,N/A,Flantes de Chine (Province de Yunnan),[precise locality unknown],N/A,N/A,3200-3700 m,N/A,N/A,Handwritten,no type status
0295_B%2010%200030508.jpg,Winfried Meier y Silvia Lanzas,Winfried Meier,Silvia Lanzas,3685,16-19 de abril 1993,1993-04-16,1993-04-19,Hierobotia subglobosa (Chodat) Steyerm.,Hierobotia subglobosa (Chodat) Steyerm.,N/A,N/A,N/A,Venezuela,Distrito Federal,N/A,N/A,"Distrito Federal, Estado Miranda: Cordillera de la Costa: cuenca Guatire-Caucagua: Pico Fila Juan Torres-Brazo Grande-Fila Maestra-Río Curucuti San José de Barlovento","Cordillera de la Costa, cuenca Guatire-Caucagua, Pico Fila Juan Torres-Brazo Grande-Fila Maestra-Río Curucuti San José de Barlovento",Fila bajillar en selva,N/A,ca. 500 msnm,N/A,B 10 0350385,Typed,Isotypus
0296_B%2010%200069251.jpg,Kessler 283,Kessler,N/A,283,21.12.1988,1988-12-21,1988-12-21,Mallotus paniculatus,Mallotus paniculatus,Kessler,16. IV. 1994,N/A,Indonesia,Sarawak,1st Division,N/A,Base of Gunung Pueh,Base of Gunung Pueh,Secondary vegetation along road,N/A,alt. up to 200 m,N/A,P.K 283,Typed,no type status
0297_B%2010%200279821.jpg,M. Jacobs,M. Jacobs,N/A,5005,Aug. 1,1958-08-01,1958-08-01,Piptospatha grabowskii (Engl.) Engl. (Syn. P. havilandii (Engl.) Engl.),Piptospatha grabowskii (Engl.) Engl.,N/A,N/A,N/A,Borneo,Sarawak,1st div,N/A,"Slopes of Mount Penrissen (S. of Kuching), approx. 1°5'N., 110°5'E.",Slopes of Mount Penrissen,Primary forest on sandstone substratum,rock,ca. 700-900 M.,"approx. 1°5'N., 110°5'E.",N/A,Typed,no type status
0298_B%2010%200030420.jpg,"P. J. M. & H. Maas, L. Kollmann",P. J. M. Maas,"H. Maas, L. Kollmann",8833,16 Feb 1999,1999-02-16,N/A,Pseudoxandra sp. nov.,Pseudoxandra spiritus-sancti Maas,P. J. M. Maas,"Utrecht, 2001",N/A,Brazil,Espírito Santo,Santa Teresa,N/A,Estação Biológica de Santa Lúcia,Estação Biológica de Santa Lúcia,"High forest on Barro Branco Land; vegetation with high trees, terrestrial and epiphytic Bromeliaceae",N/A,800 meters,19°58'S 40°32'W,Mus. Bot. Berol. B 10 0094420,Typed,Isotype
0299_B%2010%200385068.jpg,"H. Berazaín, J. Bisse, M. A. Díaz, H. Dietrich, L. González Géigel, J. Gutiérrez, E. Köhler, L. Lepper, U. Rändel, H. Scharaschmidt",H. Berazaín,"J. Bisse, M. A. Díaz, H. Dietrich, L. González Géigel, J. Gutiérrez, E. Köhler, L. Lepper, U. Rändel, H. Scharaschmidt",HFC 39098,09-11-1979,1979-11-09,N/A,Phyllanthus pallidus W. Wight,Phyllanthus pallidus W. Wight,H. Manitz,2007,N/A,Cuba,Guantánamo,San Antonio del Sur,N/A,"Abra de Mariana, loma al oeste del barranco Coordenadas de la cuadrícula (Cuba 1:250000): 16/71 L.157(?)9","Abra de Mariana, loma al oeste del barranco",N/A,N/A,N/A,Coordenadas de la cuadrícula (Cuba 1:250000): 16/71 L.157(?)9,N/A,Typed,Isotype
