Image,verbatimCollectors,collectedBy,secondaryCollectors,recordNumber,verbatimEventDate,minimumEventDate,maximumEventDate,verbatimIdentification,latestScientificName,identifiedBy,verbatimDateIdentified,associatedTaxa,country,firstPoliticalUnit,secondPoliticalUnit,municipality,verbatimLocality,locality,habitat,verbatimElevation,verbatimCoordinates,otherCatalogNumbers,originalMethod,typeStatus
0000_V0573776F.jpg,E. Heller & J.E. McLain,E. Heller,J.E. McLain,8252,"Jan. 16 & 17, 1914",1914-01-16,1914-01-17,Cyperus exaltatus Retzius,Cyperus maculatus Boeck.,L. Kükenthal,19.10.1927,N/A,Democratic Republic of the Congo,Congo Free State,N/A,N/A,"""Rhino Camp,"" Lake Lebombo, Lado Enclave","""Rhino Camp,"" Lake Lebombo, Lado Enclave",N/A,N/A,N/A,463860,Typed,no type status
0001_V0576008F.jpg,F. G. Overlaet,F. G. Overlaet,N/A,s.n.,1923-24,1923-00-00,1924-00-00,Habenaria,Habenaria,Borge Petterson,1984,N/A,Democratic Republic of the Congo,N/A,N/A,N/A,Belgian Congo,[precise locality unknown],N/A,N/A,N/A,752356,Typed,no type status
0002_V0576279F.jpg,R.A. Maas Geesteranus,R.A. Maas Geesteranus,N/A,4924,d.d. 14-VII-1949,1949-07-14,N/A,Pycreus sanguinolentus (Vahl.) C.B.Clarke,Pycreus sanguinolentus (Vahl.) C.B.Clarke,N/A,N/A,N/A,Kenya,Nyanza Province,Londiani Distr.,N/A,"Londiani Distr., Tinderet Forest Reserve, Camp I.","Tinderet Forest Reserve, Camp I","glade surrounded by rather open, tall forest, containing a.o. Dombeya mastersii and Olea hochstetteri",2260 m.s.m.,"lat. 0° 5' S., long. 35° 27' E.",1447352,Typed,no type status
0003_V0577013F.jpg,J.M. Reitsma et B. Reitsma,J.M. Reitsma,B. Reitsma,2023,s.d.,s.d.,s.d.,Bulbophyllum scaberulum (Rolfe) Bolus var. scaberulum,Bulbophyllum scaberulum var. scaberulum,Olga Kosenkovsky,2011,N/A,Gabon,N/A,N/A,N/A,"Primary rain forest, ca 6 km NW of Oveng, chantier Rougier Océan","Primary rain forest, approximately 6 kilometers northwest of Oveng, chantier Rougier Ocean","Epiphytic orchid, growing in big clumps on the tree",N/A,0°41'N x 11°07'E,N/A,Typed,no type status
0004_V0577892F.jpg,Carvalho,N/A,N/A,2102,26-VII-1980,1980-07-26,N/A,Mariscus alternifolius Vahl,Mariscus alternifolius Vahl,C. Cebolla & M.A. Rivas Ponce,"(UAM), 1995",N/A,Equatorial Guinea,Bioko,N/A,Malabo,"""Malabo, finca las Carboneras, 32NMK7415, m Bosque secundario y terrenos incultos""","Malabo, finca las Carboneras",Bosque secundario y terrenos incultos,N/A,32NMK7415,2201108,Typed,no type status
0005_V0578553F.jpg,"C. Aedo, C. Navarro, F. Cabezas & M. Velayos",C. Aedo,"C. Navarro, F. Cabezas, M. Velayos",s.n.,5-II-1989,1989-02-05,1989-02-05,Agrostis mannii (Hooker fil.) Stapf,Agrostis mannii (Hooker fil.) Stapf,C. Cebolla & M.A. Rivas Ponce,1993,N/A,Equatorial Guinea,Bioko,N/A,N/A,"cumbre del pico Basilé, 32NMJ7396, 2470 m, márgenes de la pista, Fernández Casas / 11206, 5-II-1989","cumbre del pico Basilé, márgenes de la pista",N/A,2470 m,32NMJ7396,2200806,Typed,no type status
0006_V0574052F.jpg,COLL. F. G. OVERLAET,F. G. Overlaet,N/A,s.n.,1933-4,1933-00-00,1934-00-00,Sansevieria sp. De Wild & T. Durand,Sansevieria sp.,N/A,N/A,N/A,Democratic Republic of the Congo,N/A,N/A,N/A,N/A,[precise locality unknown],N/A,N/A,N/A,N/A,Typed,no type status
0007_V0577681F.jpg,C.J.P. Seegeler,C.J.P. Seegeler,N/A,2806,d.d.: 23 October 1972,1972-10-23,1972-10-23,Vernonia amygdalina Sch. Bip. Compositae,Vernonia amygdalina Sch. Bip.,G.J.H. Amshoff,Det.: 1982,N/A,Ethiopia,Oromia,East Shewa Zone,Nazareth,"In full sun on a rock from Metahara, on road to Nazareth. In full sun ca. 3 km SE.","In full sun on a rock from Metahara, on road to Nazareth. In full sun ca. 3 km southeast.",In full sun on a rock,925m,N/A,N°: 2302805,Typed,no type status
0008_V0597557F.jpg,N/A,N/A,N/A,s.n.,s.d.,1969-05-06,1969-05-06,Carduus nyassanus (R.E.Fr. ined.),Carduus nyassanus (R.E.Fr. ined.),N/A,N/A,N/A,Democratic Republic of the Congo,Sud-Kivu,N/A,N/A,"Territoire: Kabare, Localité: Musisi","Territoire: Kabare, Localité: Musisi",N/A,Altitude: -,Coordonnées géographiques: -,N° 2257689,Typed,no type status
0009_V0594376F.jpg,J.M. Fay,J.M. Fay,N/A,8017,25 May 1987,1987-05-25,N/A,Burkea africana Hook.,Burkea africana Hook.,J.M. Fay,N/A,N/A,Central African Republic,N/A,N/A,N/A,Park Manovo-Gounda St. Floris. Vicinity of Camp Koumbala.,Vicinity of Camp Koumbala,N/A,600 m,"08°29'N, 21°12'E","NCI # Wood 067B/0065, Bark 067B/0066, Root 067B/0067, Leaves 067B/0068",Typed,no type status
0010_V0597275F.jpg,P.C.M. Jansen,P.C.M. Jansen,N/A,s.n.,s.d.,0000-00-00,0000-00-00,Cirsium vulgare (Savi) Ten.,Cirsium vulgare (Savi) Ten.,C.C.H. Jongkind,14 April 1976,N/A,Ethiopia,Harerge,N/A,Damota Village,"around Damota Village, near Alemaya, Between Chat and Sorghum fields.","around Damota Village, near Alemaya, between Chat and Sorghum fields",N/A,N/A,N/A,N° 2302849,Typed,no type status
0011_V0597626F.jpg,"Amanda Koch, Wilson Sadaka, AK61",A. Koch,W. Sadaka,AK61,"October 22, 2003",2003-10-22,N/A,Acacia reficiens merkeri (Vatke) Brenan,Acacia reficiens merkeri (Vatke) Brenan,P. Mutiso,"November 02, 2003",N/A,Kenya,Kajiado District,N/A,Ololosibhor,Kenya: Kajiado District:Ololosibhor,Ololosibhor,Dry bushland,N/A,N/A,2309478,Typed,no type status
0012_V0597688F.jpg,J. Bequaert,J. Bequaert,N/A,2409,s.d.,1931-11-00,1931-11-00,Albizia gummifera (J.F.Gmel.) C.A. Smith,Albizia gummifera (J.F.Gmel.) C.A. Smith,N/A,N/A,N/A,Democratic Republic of the Congo,Congo Belge,Kivu,N/A,Kivu (Ville: Stanleyville),[precise locality unknown],N/A,N/A,N/A,867368,Typed,no type status
0013_V0588237F.jpg,N/A,N/A,N/A,s.n.,25. 12. 1957,1957-12-25,1957-12-25,Digitaria perrottetii (Stend.) Henrard,Digitaria perrottetii (Stend.) Henrard,N/A,N/A,N/A,Kenya,Tsavo,Taita Andei,N/A,"Tsavo - Taita Andei, Kenya",Tsavo - Taita Andei,N/A,N/A,N/A,N/A,Mix of Handwritten and Typed,no type status
0014_V0580026F.jpg,H. Callens,H. Callens,N/A,s.n.,Juillet 1958,1958-07-00,1958-07-00,Tarenna pavettoides (Hiern) Bremek.,Tarenna pavettoides (Hiern) Bremek.,H. Callens,1/9/58,N/A,Democratic Republic of the Congo,Kivu,N/A,Kisantu,(Congo Belge) Kisantu,Kisantu,N/A,N/A,N/A,1584065,Typed,no type status
0015_V0580516F.jpg,G. Troupin,G. Troupin,N/A,6333,1/02/1958,1958-02-01,N/A,Melanthera scandens (SW.) R.L.Jones,Melanthera scandens (SW.) R.L.Jones,N/A,N/A,N/A,Rwanda,N/A,N/A,"Kamiranzovu-Tourbière à Myrica tujæ, O. Virol. 1/50 pente","Voie no 119 route Kamiranzovu-Kamigogo/Piste 13C,",Voie no 119 route Kamiranzovu-Kamigogo/Piste 13C,Forêt ombrophile,Alt. 1950 - 2500 m,N/A,1543353,Typed,no type status
0016_V0574490F.jpg,Gordon McPherson,G. McPherson,N/A,13781,20 Mars 1989,1989-03-20,N/A,Corynanthe mayumbensis (R. Good) N. Halle,Corynanthe mayumbensis (R. Good) N. Halle,N/A,Det. Wilks & McPherson 1989,N/A,Gabon,Ogooué-Ivindo,N/A,N/A,"Réserve de Lopé, au sud d'Ayem, Chantier SOGAREX","Réserve de Lopé, au sud d'Ayem, Chantier SOGAREX",N/A,C. 200 m,0°25'S 11°30'E,"LP:G966-0223-L, TR:G966-0224-H, WD:G966-0225-L",Typed,no type status
0017_V0574226F.jpg,J. M. Fay,J.M. Fay,N/A,8294,4 March 1988,1988-03-04,N/A,Millettia zechiana Harms,Millettia zechiana Harms,"Det. Ake Assi, 1998",N/A,N/A,Cameroon,N/A,N/A,N/A,"On the Sangha River across from Makana gorilla study area. In seasonally flooded forest with Uapaca guineensis, Pteridium sp., Bombax sp.",On the Sangha River across from Makana gorilla study area in seasonally flooded forest,"In seasonally flooded forest with Uapaca guineensis, Pteridium sp., Bombax sp.",385 m,02°20'N 016°08'E,2041244,Typed,no type status
0018_V0580728F.jpg,F. N. Hepper,F.N. Hepper,N/A,199,29.vii.1959,1959-07-29,1959-07-29,Phaseolus lunatus L.,Phaseolus lunatus L.,N/A,N/A,N/A,Cameroon,N/A,N/A,N/A,South West of Crater Lake,South West of Crater Lake,"Clearing in wood, scrambling over herbage",N/A,N/A,1624518,Typed,no type status
0019_V0578764F.jpg,E. B. Bartram & E. P. Killip,E. B. Bartram,E. P. Killip,2,"June 3-4, 1927",1927-06-03,1927-06-04,N/A,N/A,N/A,N/A,N/A,Kenya,N/A,N/A,Nairobi,"Mathaiga, near Nairobi","Mathaiga, near Nairobi",[precise locality unknown],1700 meters,N/A,2074762,Typed,no type status
0020_V0594158F.jpg,A. Leonard,A. Leonard,N/A,3149,29/5/1959,1959-05-29,1959-05-29,Oxyanthus speciosus DC.,Oxyanthus speciosus DC.,R. Wilczek,30/XII/1969,N/A,Democratic Republic of the Congo ,Kivu ,N/A,Mulange,Mulange,Mulange,Vieille forêt secondaire,Alt. 1900m,N/A,2086095,Typed,no type status
0021_V0573054F.jpg,Herbier des environs de Leningrad (Gandja) Ecole par le Pr. H. LINNE.,Pr. H. LINNE,N/A,s.n.,s.d.,0000-00-00,0000-00-00,Hericiumites jaborini (FR.) Pat. s.n.,Hericiumites jaborini,N/A,N/A,N/A,N/A,N/A,N/A,N/A,Herbier des environs de Leningrad (Gandja) Ecole par le Pr. H. LINNE.,[precise locality unknown],N/A,N/A,N/A,781173,Mix of Handwritten and Typed,no type status
0022_V0601010F.jpg,James T. Allen,J.T. Allen,N/A,41,"September 23, 1996",1996-09-23,1996-09-23,Dissotis rotundifolia (Sm.) Triana,Dissotis rotundifolia (Sm.) Triana,N/A,N/A,N/A,Ghana,Volta Region,N/A,N/A,Larteh; Center for Scientific Research into Plant Medicine (CSRPM) farm,Larteh; Center for Scientific Research into Plant Medicine (CSRPM) farm,N/A,N/A,N/A,2200652,Typed,no type status
0023_V0602418F.jpg,J.E. Amoah,J.E. Amoah,N/A,5632,March 1952,1952-03-00,1952-03-00,Chrysophyllum perpulchrum Mildbr.,Chrysophyllum perpulchrum Mildbr.,N/A,N/A,N/A,Ghana,Ashanti,Kumasi District,Kumasi,Kumasi Township Forest Reserve,[precise locality unknown],N/A,N/A,N/A,N/A,Typed,no type status
0024_V0604513F.jpg,J. Nemba & D.W. Thomas,J. Nemba,D.W. Thomas,s.n.,15 June 1987,1987-06-15,1987-06-15,Donella welwitschii Pierre ex Engl.,Donella welwitschii Pierre ex Engl.,D.W. Thomas,1987,N/A,Cameroon,Southwest,N/A,N/A,"road 4 to the E 1st km along Kumba-Mamfe old gravel road, LIKOMI RIVER","road 4 to the east, 1st kilometer along Kumba-Mamfe old gravel road, Likomi River",Secondary growth and old growth forest,200 m,04°44'N 09°29'E,NCBI Genes: 066/0052-L,Typed,no type status
0025_V0572217F.jpg,J. Deaw,J. Deaw,N/A,283,"4, 1970",1970-04-00,N/A,Eugenia coronata,Eugenia coronata,N/A,N/A,N/A,Ghana,N/A,N/A,Accra,Accra,Accra,N/A,N/A,N/A,N/A,Typed,no type status
0026_V0602609F.jpg,G. Schweinfurth & B. Jürgens,G. Schweinfurth,B. Jürgens,N/A,Apr-23,1892-04-23,N/A,Rumex nervosus Vahl,Rumex nervosus Vahl,N/A,N/A,N/A,Eritrea,N/A,N/A,N/A,Abyssiniae septentrionalis (Colonia Eritrea). Saganeïti; Gente den Hochlandern zwischnen Matlai-Abhgarat,[precise locality unknown],N/A,2500 m,N/A,N/A,Typed,no type status
0027_V0606178F.jpg,R.B. & A.J. Faden,R.B. Faden,A.J. Faden,77/11,7 March 1977,1977-03-07,N/A,Toddaliopsis bremekampii (Engl.) B.L. Burtt,Toddaliopsis bremekampii (Engl.) B.L. Burtt,J.O. Kokwaro,confirmed J.O. Kokwaro,N/A,Kenya,Kwale District,N/A,Chale Peninsula,"Kenya, K7, Kwale District, Chale Peninsula, ca 4°26'S, 39°32'E, 0-5 m. Coral rag, dry forest with Combretum alchorni","Chale Peninsula, Coral rag","Coral rag, dry forest with Combretum alchorni",0-5 m,"4°26'S, 39°32'E",N° 2153520,Typed,no type status
0028_V0603038F.jpg,F. Szafranski,F. Szafranski,N/A,1378,5.2.1988,1988-02-05,1988-02-05,Commelinaceae Nom.: Floscopa glomerata (RoeM. et Schult.) Hassk.,Floscopa glomerata (RoeM. et Schult.) Hassk.,N/A,N/A,N/A,Democratic Republic of the Congo,Haut-Uele,N/A,Isiro,"Haut-Zaire, S-Rég., Haut-Uele, Isiro",[precise locality unknown],bas fond marécageux près de la route aux environs de l'usine SOCODIA,N/A,N/A,N° 2048694,Mix of Handwritten and Typed,no type status
0029_V0606676F.jpg,F.W.H. Migeod,F.W.H. Migeod,N/A,394,24.12.28,1928-12-24,N/A,Solanum sp.,Solanum aculeatissimum Jacq.,M. Nee,"Dec. 3, 1992",N/A,Cameroon,N/A,N/A,N/A,"Banded, British Cameroons.",Bandend,[precise locality unknown],4150-5000 ft,N/A,1441275,Typed,no type status
0030_V0601406F.jpg,T.C. Wrigley and Kalabikira,T.C. Wrigley,Kalabikira,No. 52,18 July 1959,1959-07-18,N/A,Canthium amboabonense Hiern ex Alston,Canthium amboabonense Hiern ex Alston,A. W. Exell,1961,N/A,Tanzania,N/A,N/A,N/A,Amarungo Ridge west of Crater Lake,Amarungo Ridge west of Crater Lake,Open woodland,1200ft.,N/A,N/A,Mix of Handwritten and Typed,no type status
0031_V0604673F.jpg,Collector William Burger,W. Burger,N/A,726,27 May 1962,1962-05-27,N/A,Rubus apetalus Poir,Rubus apetalus Poir,L.B. Krukoff,27 May 1962,N/A,Ethiopia,Harar Prov.,N/A,N/A,8 mi. E. of Acks on road to Jijiga,8 miles East of Acks on road to Jijiga,steep slopes with rem[nant] cedar and Juniperus forest,N/A,N/A,1825230,Typed,no type status
0032_V0565514F.jpg,J.D. Sauer,J.D. Sauer,N/A,3914,15 June 1963,1963-06-15,1963-06-15,Aerva lanata (L.) Juss.,Aerva lanata (L.) Juss.,N/A,N/A,N/A,Kenya,Coast Province,Kwale District,near Mombasa,"Coast Province, Kwale District, near Mombasa, Bumburi Beach, N of Mombasa","Bumburi Beach, north of Mombasa","Beach ridge, shallow open coast",N/A,N/A,595567,Typed,no type status
0033_V0565977F.jpg,C. Vigne,C. Vigne,N/A,s.n.,s.d.,s.d.,N/A,Apocynaceae Oncinotis prolifer. sp. nov.,Oncinotis prolifer,N/A,N/A,N/A,Cameroon,N/A,N/A,N/A,N/A,[precise locality unknown],N/A,N/A,N/A,839434,Typed,no type status
0034_V0566108F.jpg,Enam Akdo,E. Akdo,N/A,1026,1999,1999-00-00,N/A,Uvariopsis versicolor Pierre,Uvariopsis versicolor Pierre,N/A,N/A,N/A,Ghana,N/A,N/A,N/A,N/A,[precise locality unknown],N/A,N/A,N/A,2325285,Typed,no type status
0035_V0567164F.jpg,A. A. Enti,A.A. Enti,N/A,398,22. IV. 71,1971-04-22,N/A,Periandra densiflora,Periandra densiflora,A. A. Enti,1971,N/A,Ghana,N/A,N/A,Awutu,Awutu - Winneba Road.,Awutu - Winneba Road,A climber among grasses.,N/A,N/A,1753348,Typed,no type status
0036_V0591661F.jpg,D. W. Thomas,D.W. Thomas,N/A,6850,1987,1987-00-00,1987-00-00,Cola flavovelutina K. Schum,Cola flavovelutina K. Schum,D.W. Thomas,1987,N/A,Cameroon,Southwest,N/A,N/A,PRCV. Southwest: Korup National Park. Primary rain forest,"Korup National Park, primary rain forest",Primary rain forest,600 m,05°02'N 08°50'E,6667(0029-T),Typed,no type status
0037_V0567306F.jpg,Sue A. Thompson,S.A. Thompson,N/A,1522,9 July 1984,1984-07-09,N/A,Impatiens macroptera Hook. f.,Impatiens macroptera Hook. f.,N/A,N/A,N/A,Cameroon,Sud-Ouest,Fako,Bakingili,"Prov. Sud-Ouest, Dept. Fako; Bakingili",Trail up Mt. Cameroon,growing on wet rocks,Alt. 50-250 m.,"4°04'N, 9°02'E.",N° 2086046,Typed,no type status
0038_V0606921F.jpg,D. Waterson,D. Waterson,N/A,484,16/2-8/7,1977-02-16,1977-07-08,Englerophytum tenuifolium (Engl.) Gill,Tapinanthus laceranthus,N/A,N/A,N/A,Kenya,Kitui,N/A,N/A,4 km n.e. of Mangondi on road to Embu Nr. 4590,4 kilometers northeast of Mangondi on road to Embu,Thickets,N/A,N/A,1864166,Mix of Handwritten and Typed,no type status
0039_V0605928F.jpg,Sue A. Thompson & John E. Rawlins,S.A. Thompson,J.E. Rawlins,1333,3 June 1984,1984-06-03,N/A,Avicennia africana P. Beauv.,Avicennia africana P. Beauv.,N/A,N/A,N/A,Cameroon,Sud-Ouest,Fako,Bakingili,Prov. Sud-Ouest; Dept. Fako: Bakingili,Bakingili,N/A,Alt. 0 m.,4°04'N; 9°02'E,N° 2088074,Typed,no type status
0040_V0605675F.jpg,Troupin,G. Troupin,N/A,5047,2.IV.1959,1959-04-02,1959-04-02,Tina sp. Glypheae (bois piment) Mouton noir,N/A,N/A,N/A,"Glypheae (bois piment), Mouton noir",Rwanda,Kivu,N/A,N/A,"Kivu, T.T. Masisi, vers Km 100 route Kavumu-Walikale, par. 1°S. long. 28°30'E.",[precise locality unknown],forêt mésophile.,1950 - 2000 m,par. 1°S. long. 28°30'E.,N/A,Typed,no type status
0041_V0571550F.jpg,Legit: A. Pappi,A. Pappi,N/A,s.n.,14-15-VIII-1902,1902-08-14,1902-08-15,Lavandula pubescens Decaisne,Lavandula pubescens Decaisne,T.M. Upson,2/4/1996,N/A,Eritrea,Assarota,N/A,N/A,ERITREA-ASSAROTA - lungo il torrente Hadadas,along the stream Hadadas,N/A,N/A,N/A,N/A,Typed,no type status
0042_V0607392F.jpg,William Burger,W. Burger,N/A,153,Jul-Feb 1962,1962-07-00,1963-02-00,Juniperus procera Hochst. ex Endl.,Juniperus procera Hochst. ex Endl.,W. Burger,Jul-Feb 1962,N/A,Ethiopia,Harar Province,N/A,N/A,N.W. face Gara Mullata Mtn. ca. 50 km. due w. of Harar.,"Northwest face of Gara Mullata Mountain, approximately 50 kilometers due west of Harar",Hiller on steep slopes with mixed forest ,alt. 2850 - 3200 m.,ca. 9°16'N & 41°43'E,1632855,Typed,no type status
0043_V0570163F.jpg,C. D. Adams & John F. Morton,C. D. Adams,J. F. Morton,s.n.,1/10/1952,1952-10-01,N/A,Terminalia glaucescens,Terminalia glaucescens,N/A,N/A,N/A,Ghana,Volta Region,N/A,Ho,"HO, VOLTA REGION, GHANA","Ho, Volta Region","On quiet, slowly gliding or almost still water",N/A,N/A,2007210,Typed,no type status
0044_V0570543F.jpg,Schimper,Unknown Schimper,N/A,s.n.,24. III. 63,1863-03-24,1863-03-24,Ipomoea demissa,Ipomoea demissa,N/A,N/A,N/A,Ethiopia,N/A,N/A,N/A,Abyssinia,[precise locality unknown],N/A,N/A,N/A,373793,Handwritten,no type status
0045_V0607965F.jpg,D.W. Thomas,D.W. Thomas,N/A,6988,18 May 1987,1987-05-18,1987-05-18,Dichapetalaceae Tapura africana Oliv.,Tapura africana Oliv.,D.W. Thomas,1987,N/A,Cameroon,Southwest,Kupe-Muanenguba,Barombi Kang,"Degraded forest at Barombi Kang, Kumba.","Degraded forest at Barombi Kang, Kumba",Degraded forest,150 m,04°36'N 009°27'E,Field Museum of Natural History 2040825,Typed,no type status
0046_V0570471F.jpg,E.A. Mearns,E.A. Mearns,N/A,11174,"September 6-7, 1909",1909-09-06,1909-09-07,Euphorbia aellenii ,Euphorbia aellenii,N/A,N/A,N/A,Kenya,N/A,N/A,N/A,"Vicinity of Thika, British East Africa",Vicinity of Thika,[precise locality unknown],About 1350 meters,N/A,463287,Typed,no type status
0047_V0570108F.jpg,G.J. Mather,G.J. Mather,N/A,580,5-IV-1952,1952-04-05,N/A,Combretum schumannii Engl.?,Combretum schumannii Engl.,N/A,N/A,N/A,Kenya,N/A,N/A,N/A,S. Kavirondo,S. Kavirondo,N/A,N/A,N/A,856352,Typed,no type status
0048_V0570110F.jpg,J. M. Fay,J.M. Fay,N/A,8271,28 February 1988,1988-02-28,1988-02-28,Combretum smeathmannii G. Don,Combretum smeathmannii G. Don,Ake Assi,1988,N/A,Cameroon,N/A,N/A,N/A,"Along the Sangha River adjacent to the island of Kilonia. In riparian forest adjacent to seasonally flooded forest with Irvingia gabonensis, Guboutia demeusei, Berlinia sp.",Along the Sangha River adjacent to the island of Kilonia,In riparian forest adjacent to seasonally flooded forest,140 m,02°21'N 16°09'E 385 m,N/A,Typed,no type status
0049_V0590787F.jpg,D.D. Soejarto,D.D. Soejarto,N/A,4793,"April 1, 1978",1978-04-01,1978-04-01,Diospyros tricolor Hiern.,Diospyros tricolor Hiern.,N/A,N/A,"Thespesia populnea, Sophora accidentalus",Ghana,Greater Accra Province,N/A,Botianor village,"20 km. West of Accra, Sea coast.","20 kilometers west of Accra, sea coast",on sandy soil,N/A,N/A,1842606,Typed,no type status
0050_V0040586F.jpg,Narciso Reyna B.,N. Reyna,N/A,2490,15 diciembre 1967,1967-12-15,N/A,"""Carahuasca amarillo"" - árbol, bosque húmedo tropical",Gustavia serralianervia D.R. Simpson,D.R. Simpson,1975,N/A,Peru,Loreto,N/A,Santa María de Nanay,"depto. Loreto, prov. Maynas. Santa María - Río Nanay, distr. Alto Nanay, Loreto.","depto. Loreto, prov. Maynas. Santa María - Río Nanay, distr. Alto Nanay, Loreto.",bosque húmedo tropical,150 m,N/A,N/A,Typed,HOLOTYPE
0051_V0081497F.jpg,M.O. Dillon & D. Dillon,M.O. Dillon,D. Dillon,3776,1 Nov 1983,1983-11-01,1983-11-01,Galvezia fruticosa Gmel.,Galvezia eielsenii M.O. Dillon & Quipuscoa,M.O. Dillon & Quipuscoa,N/A,N/A,Peru,Arequipa,Caraveli,Atiquipa,"Lomas of Atiquipa, ca. 105 km N of turn-off to Atiquipa, km 584 S of Lima","Lomas of Atiquipa, approximately 105 kilometers north of the turn-off to Atiquipa, kilometer 584 south of Lima",N/A,ca. 150-200 m,N/A,1940835,Typed,HOLOTYPE
0052_V0042484F.jpg,"Schott, Nylander",s.n.,N/A,s.n.,1836,1836-00-00,1836-00-00,Tetrorchidium rubrivenium var. genuinum Müll. Arg.,Tetrorchidium rubrivenium var. genuinum Müll. Arg.,F. Pax,s.d.,N/A,Austria,N/A,N/A,N/A,Insel Madeira,Insel Madeira,N/A,s.d.,s.d.,875422,Handwritten,Isosyntype
0053_V0092855F.jpg,José Campos & O. Díaz,J. Campos,O. Díaz,2490,9 Febrero 1996,1996-02-09,N/A,Amorimia camponum W.R. Anderson,Amorimia camponum W.R. Anderson,W. R. Anderson,17 Sep. 2006,N/A,Peru,Cajamarca,San Ignacio Province,N/A,Distrito Chirinos: Entre La Cataqua y Tablón.,[precise locality unknown],Trepadora; flor amarilla.,550 - 650,05°19'S; 078°47'W,N° 2296033,Typed,ISOTYPE
0054_V0078059F.jpg,Ruiz & Pavon,Ruiz & Pavon,N/A,s.n.,(1778-1788),1778-00-00,1788-00-00,Nolana spathulata Ruiz & Pav.,Nolana spathulata Ruiz & Pav.,N/A,N/A,N/A,Peru,N/A,N/A,N/A,N/A,[precise locality unknown],N/A,N/A,N/A,845155,Typed,ISOLECTOTYPE
0055_V0092864F.jpg,Camilo Díaz y Antonio Peña,C. Díaz,A. Peña,8008,4 Diciembre 1996,1996-12-04,N/A,"Symplocos ovata Stahl, Novon 20(1): 91, fig. 4A-B, 2010 (HOLOTYPE; ⚫, NY; ISOTYPE, F, MO, NY, US)",Symplocos ovata Stahl,E. Stahl,"Novon 20(1): 91, fig. 4A-B, 2010",N/A,Peru,Amazonas,Luya Province,N/A,"Camporredondo, Tullanya, Pascana ""Pájaro Tigre""",[precise locality unknown],Liana con frutos verdes. Pecínculos largos.,2850–2360 m,N/A,2296023,Typed,ISOTYPE
0056_V0092900F.jpg,Plantae a -Ruiz et Pavón- in vice-regno Peruviano et Chilensi lectae. (1777-1788),N/A,N/A,s.n.,s.d.,0000-00-00,0000-00-00,"Bomarea purpurea (R. & P.) Herb. ISOTYPE of Alstroemeria purpurea Ruiz & Pav. Fl. Peruv. 3: 63, t. 294, f. A. 1802.",Bomarea purpurea (Ruiz & Pavón) Herb.,N/A,N/A,N/A,Peru,N/A,N/A,N/A,N/A,[precise locality unknown],N/A,N/A,N/A,916119,Mix of Handwritten and Typed,isotype
0057_V0092906F.jpg,"V. Quipuscoa S., A. Sagástegui A., S. Leiva G. & M. Berruano C.",V. Quipuscoa,"A. Sagástegui, S. Leiva, M. Berruano",13778,20 agostos 1998,1998-08-20,N/A,Lithospermum cinerascens (A.D.C.) Johnst.,"Lithospermum leymebambense Weigend & Nürk, sp. nov. ined.",M. Weigend,"Taxon (S-typ) n. 541, acce. 2006",N/A,Peru,Amazonas,Luya,N/A,"Carretera a Celendín, entre Ishpingo - Pomacocha. Bosque montano fragmentado.","Carretera a Celendín, between Ishpingo and Pomacocha",Bosque montano fragmentado,2800-3000 m,N/A,2211679,Typed,Isotype
0058_V0092915F.jpg,Llewellyn Williams,L. Williams,N/A,6999,"Jan.-Feb., 1930",1930-01-00,1930-02-00,Marcgraviastrum racemosum (Triana & Planch.) Bedell,Marcgraviastrum racemosum (Triana & Planch.) Bedell,G. Lozano-Contreras,2010,N/A,Peru,San Martin,N/A,N/A,"""forest; Roque, San Martin.""","forest; Roque, San Martin",forest,alt. 1500-1800 m.,N/A,624474,Mix of Handwritten and Typed,no type status
0059_V0092918F.jpg,Plantae a Ruiz et Pavon in vice-regno Peruviano et Chilensi lectae,Ruiz et Pavon,N/A,s.n.,1778-1788,1778-00-00,1788-12-31,Marcgravistrum obovatum (G. Don) Bedell = Norantea macroscypha Gilg,Marcgravistrum obovatum (G. Don) Bedell,H. G. Bedell,Utrecht VIII. 1982,N/A,Peru,N/A,N/A,N/A,N/A,[precise locality unknown],N/A,N/A,N/A,843295,Mix of Handwritten and Typed,ISOETYPE
0060_V0092921F.jpg,Ruiz & Pavón,N/A,N/A,s.n.,(1775-1788),1775-00-00,1788-00-00,Norantea obovata G. Don = Marcgraviastrum obovatum (G. Don) Bedell,Marcgraviastrum obovatum (G. Don) Bedell,H. G. Bedell,VIII 1982,N/A,N/A,N/A,N/A,N/A,in vice-regno Peruviano ad Chilesi lencate.,[precise locality unknown],N/A,N/A,N/A,N/A,Mix of Handwritten and Typed,ISOTYPE
0061_V0190732F.jpg,Robin B. Foster,R.B. Foster,N/A,8752,13 Sept. 1982,1982-09-13,N/A,Aciotis venezuelanus (Pax & K.Hoffm.) Webster,Aciotis venezuelanus (Pax & K.Hoffm.) Webster,M.J. Huft,1983,N/A,Peru,Huánuco,N/A,N/A,"Pachitea; Puerto Inca to Sungaro, Forest trail between Río Pachitea and Río Sungaro, Forested low hills and ravines, alt. 250-300 m","Puerto Inca to Sungaro, forest trail between Río Pachitea and Río Sungaro",Forested low hills and ravines,alt. 250-300 m,N/A,No: 1921102,Typed,no type status
0062_V0277652F.jpg,José Schunke Vigo,J.S. Vigo,N/A,6505,27 May 1964,1964-05-27,1964-05-27,Tontelea Coulteriana Miers ex Eichler,Tontelea Coulteriana Miers ex Eichler,A.M.W. Mennega,III 1982,N/A,Peru,Loreto,Datem del Marañón,unsure and check,"San Martín: Quebrada Huicte (río Huallaga), in tall forest, 529 m alt.",Quebrada Huicte,in tall forest,529 m alt.,N/A,1751666,Typed,no type status
0063_V0152152F.jpg,Manuel Rimachi Y.,M. Rimachi Y.,N/A,4268,"February 8, 1979",1979-02-08,N/A,Nectandra krukovii (A.C. Smith) Kosterm.,Endlicheria anomala (Nees) Mez,A. C. Chautems (Grierson),2001,N/A,Peru,Loreto,Requena,N/A,"Dtto. Saquena. Rio Ucayali, Quebrada de Aucayacu, above Genaro Herrera, marginal forest, ""muena,"" 8 m fr. green.","Quebrada de Aucayacu, above Genaro Herrera","marginal forest, ""muena""",N/A,N/A,2058606,Typed,no type status
0064_V0277223F.jpg,Salvador Flores P.,S. Flores,N/A,95 (P-2),Julio/82,1982-07-00,N/A,Faramea torquata Ducke,Faramea torquata Ducke,T. Plowman,1985,N/A,Peru,Loreto,Maynas,Ampiyacu-Pevas,"Prov. Maynas, Dpto. Loreto, Ampiyacu - Pevas",Ampiyacu-Pevas,Bosque secundario 35 años,100 m.s.n.m.,N/A,1968315,Typed,no type status
0065_V0195906F.jpg,Percy Núñez V. & S. Walsh,P. Núñez V.,S. Walsh,s.n.,29 October 1986,1986-10-29,N/A,Euphorbia heterophylla L.,Euphorbia heterophylla L.,M. J. Huft,1987,N/A,Peru,Cuzco,La Convención,N/A,"Quillabamba, Salsipampa",Salsipampa,N/A,Alt. 1110 m,N/A,1982606,Typed,no type status
0066_V0290180F.jpg,Jose Schunke,J. Schunke,N/A,9560,30 Mayo 1977,1977-05-30,1977-05-30,"""Miconia sp.""",Miconia fastens Jacq.,D. Dyer,1980,N/A,Peru,San Martín,N/A,N/A,"Provincia: San Martín. Alonso de Alvarado. San Juan de Pacaízapa, km. 72 carretera Tarapoto-Yoyobamba.","Alonso de Alvarado. San Juan de Pacaízapa, Km 72 Tarapoto-Yoyobamba road.","En bosque secundario, con abundante luz solar.",1000-1050 m,N/A,1872133,Typed,no type status
0067_V0201636F.jpg,G. Lozano J. Luna J. Ruiz,G. Lozano,"J. Luna, J. Ruiz",no. 138,18-8-81,1981-08-18,N/A,Ficus maxima P. Miller,Ficus maxima P. Miller,William O. Burger,1982,N/A,Peru,Loreto,N/A,Quistococha,"14 km north of Iquitos, 600 m elev.",14 kilometers north of Iquitos,N/A,600 m elev.,N/A,1923146,Typed,no type status
0068_V0251887F.jpg,E. P. Killip & A. C. Smith,E.P. Killip,A.C. Smith,16721,"Jul. 24/27, 1929",1929-07-24,1929-07-27,Psychotria sarmentosa (Sw.) DC.,Psychotria sarmentosa (Sw.) DC.,N/A,N/A,N/A,Peru,Junín,Chanchamayo,N/A,"Dept. Junín: Chanchamayo, Rio Pichi; above San Ramón; dense forest","Rio Pichi, above San Ramón",dense forest,N/A,N/A,607534,Typed,no type status
0069_V0243915F.jpg,M. O. Dillon and I. Sanchez V.,M. O. Dillon ,I. Sanchez V.,6310,22 July 1982,1982-07-22,N/A,"Wissadula grandifolia Baker ex Rusby det. P. Fryxell, 1988",Wissadula grandifolia Baker ex Rusby,P. Fryxell,1988,N/A,Peru,Piura,Huancabamba,Canchaque,"Dept. Piura. Prov. Huancabamba, ca. 2 km N of Canchaque.",ca. 2 km North of Canchaque,N/A,1450 m alt.,[precise locality unknown],2119563,Typed,no type status
0070_V0187051F.jpg,J. Francis Macbride,J.F. Macbride,N/A,4980,"June 23, 1923",1923-06-23,N/A,Croton billbergianus Müll.Arg.,Croton billbergianus Müll.Arg.,N/A,N/A,N/A,Peru,Cueva Grande,N/A,N/A,about 3300 feet Cueva Grande,about 3300 feet Cueva Grande,N/A,about 3300 feet,N/A,535840,Handwritten,no type status
0071_V0258426F.jpg,Weberbauer,A. Weberbauer,N/A,3280,18.IX.1910,1910-09-18,N/A,Geranium chilloense Kunth,Geranium chilloense Kunth,B. Øllgaard,1993,N/A,Peru,Provincia de Huaraz,Depto. Ancash,N/A,"Depto. Ancash, Prov. Huaraz, sw. Huascarán.",sw. Huascarán,Puna húmeda.,3740 m.s.m.,N/A,1684365,Typed,no type status
0072_V0193750F.jpg,"J. Mostacero L., S. L. Vaga C., F. Pelae, M. Méza, J. Guevara b.",J. Mostacero,"S. L. Vega, F. Pelaez, M. Meza, J. Guevara",1040,14-XII-1986,1986-12-14,N/A,Jacquemontia ovalifolia (Choisy) Hallier f.,Jacquemontia ovalifolia (Choisy) Hallier f.,M. J. Huft,1991,N/A,Peru,Cajamarca,Cutervo,La ramada,La Ramada (Procedencia),La Ramada,Al borde de carretera,2450 m.,N/A,199382,Typed,no type status
0073_V0228073F.jpg,"SPICHIGER, R. & P.-A. LOIZEAU",R. Spichiger,P.-A. Loizeau,3012,10-4-86,1986-04-10,N/A,Pourouma guianensis Aubl. var. guianensis,Pourouma guianensis Aubl. var. guianensis,N/A,N/A,N/A,Peru,Loreto,N/A,Jenaro Herrera,"Bosque de terraza alta, suelo arenoso",Bosque de terraza alta,suelo arenoso,Alt. 125 m.,N/A,2027582,Typed,no type status
0074_V0100062F.jpg,G. Klug ,G. Klug,N/A,660,Dec. 1929,1929-12-01,1929-12-31,Bunchosia cornifolia Kunth var. sprucei (Hook.f.) Nied.,Bunchosia cornifolia Kunth var. sprucei (Hook.f.) Nied.,N/A,N/A,N/A,Peru,Loreto,N/A,Mishuyaco,"Mishuyaco, near Iquitos, open forest","Mishuyaco near Iquitos, open forest",open forests,100 m.,N/A,N/A,Typed,no type status
0075_V0198402F.jpg,T. R. Dudley,T.R. Dudley,N/A,10263,24 Aug. 1968,1968-08-24,N/A,Dendrophthora membranaceifolia Urb. var. loretensis,Dendrophthora membranaceifolia var. loretensis,J. Kuijt,18 Dec. 1984,N/A,Peru,Dept. Ayacucho,N/A,N/A,Prov. La Mar; eastern Massif of the Cordillera Central,eastern Massif of the Cordillera Central,dense forest; rich humus clay in high ceja forest as timberling,3220 meters,73°53'W; 12°45'S,1721727,Typed,no type status
0076_V0225274F.jpg,G. Klug,G. Klug,N/A,1595,April 19 1934,1934-04-19,N/A,Ficus trigona L.f.,Ficus trigona L.f.,M. Vásquez Avila,Utrecht 1983,N/A,Peru,Loreto,Maynas,near Iquitos,"Maynas, near Iquitos, alt. 100 meters; forest",Maynas near Iquitos,forest,alt. 100 meters,N/A,873381,Typed,no type status
0077_V0224820F.jpg,"Mildred E. Mathias, Dermot Taylor",M.E. Mathias,D. Taylor,5576,18 July to 19 61,1961-07-18,1961-07-19,"Malpighiaceae Bunchosia cf. glandulifera (Jacq.) Kunth. ""Barbasco silvestre"" STELLE, NO EYE TO NAMES.",N/A,N/A,N/A,N/A,Peru,Loreto,N/A,Requena,vicinity of Requena,vicinity of Requena,Liana 2-3 inches in diameter,N/A,N/A,1733057,Typed,no type status
0078_V0304780F.jpg,José Schunke Vigo,J. Schunke Vigo,N/A,66677,17 Dec 1964,1964-12-17,1964-12-17,Paulinia bracteosa Radlk.,Paulinia bracteosa Radlk.,D.R. Simpson,8.I.1973,N/A,Peru,Loreto,Maynas,N/A,"Quebrada de Iquique, (Contamana) in tall forest, 220 m","Quebrada de Iquique, (Contamana) in tall forest",Tall forest,220 m,N/A,N/A,Mix of Handwritten and Typed,No type status
0079_V0238260F.jpg,Llewelyn Williams,L. Williams,N/A,3363,1929,1929-00-00,N/A,Psyhotria ipecacuanha (Brot.) Stokes,Psychotria ipecacuanha (Brot.) Stokes,N/A,N/A,N/A,Peru,Loreto,N/A,N/A,"Forest of Poinia, Alto Nanay","Forest of Poinia, Alto Nanay",unsure and check,125 m.,N/A,26,Handwritten,no type status
0080_V0225047F.jpg,"T. Plowman, A. Sagástegui A., J. Mostacero L., F. Mejía & F. Peláez",T. Plowman,"A. Sagástegui, J. Mostacero, F. Mejía, F. Peláez",14242,12 July 1986,1986-07-12,N/A,Abutilon mollissimum (Cav.) Sweet,Abutilon malvifolium R. E. Fr. var. aff.,N. Hensold,1989,N/A,Peru,Cajamarca,Jaén,N/A,"Prov. Jaén; Road from Pucará to Chamaya, km. 21 east of Pucará, along Río Huancabamba","Road from Pucará to Chamaya, kilometer 21 east of Pucará, along Río Huancabamba",Dry scrub forest on steep slopes,Alt. 700 m.,N/A,1973380,Typed,no type status
0081_V0239614F.jpg,Magda Chanco with Michelle McMahon and Larry Hufford,M. Chanco,"M. McMahon, L. Hufford",s.n.,14 April 2003,2003-04-14,N/A,Abutilon sp.,Abutilon sp.,N/A,N/A,N/A,Peru,Cajamarca,N/A,N/A,trail about 15 km from Chiclete,trail about 15 kilometers from Chiclete,N/A,3614 feet elevation,07° 10.554' W78° 49.065',2253555,Typed,no type status
0082_V0414961F.jpg,"Marcos Ríos, Tony Mori, Nigel Pitman, Luis Torres, Corine Vriesendorp",M. Ríos,"T. Mori, N. Pitman, L. Torres, C. Vriesendorp",4399,13 octubre 2014,2014-10-13,N/A,Andira macrothyrsa Ducke,Andira macrothyrsa Ducke,N/A,N/A,N/A,Peru,Loreto,Requena,N/A,"Prov. Requena, Dto. de Sapilín, Quebrada Yanayacu-Río Blanco, Campamento Wishwinend del inventario rápid 27, de la region Tapiche-Blanco","Prov. Requena, Dto. de Sapilín, Quebrada Yanayacu-Río Blanco, Campamento Wishwinend del inventario rápido 27, de la región Tapiche-Blanco",Bosque de Pláncie Inundable aguas blancas,A. W. 90.,"05°33'45""S; 73°15'53""W",N° 2818558,Typed,no type status
0083_V0414962F.jpg,Marcos Rios,M Rios,N/A,439,13 octubre 2014,2014-10-13,N/A,Andira macrothyrsa Ducke,Andira macrothyrsa Ducke,N/A,N/A,N/A,Peru,Loreto,Requena,N/A,"Prov. Requena, Dtto. de Sapilin, Quebrada Yanayacu-Rio Blanco; Campamento Wiswincho del intervenido rfpb# 27, de la region Pacaya-Samiria","Prov. Requena, Dtto. de Sapilin, Quebrada Yanayacu-Rio Blanco, Campamento Wiswincho del intervenido rfpb# 27, de la region Pacaya-Samiria",Bosque de Palme inundable de aguas blancas,"Alt. 90 (Assume this is meters, as there are no units given)","05°43'53""S 75°13'53""W",2318537,Typed,no type status
0084_V0462893F.jpg,Ynes Mexia,Y. Mexia,N/A,8265,"Oct. 9, 1936",1936-10-09,1936-10-09,Piper gaudichaudianum Kunth,Piper gaudichaudianum Kunth,N/A,N/A,N/A,Peru,Huánuco,N/A,N/A,Near conflunence Rio Cayumba with Huallaga; forested slope above road.,Near confluence Rio Cayumba with Huallaga,Forested slope above road,805 m.,N/A,N/A,Typed,no type status
0085_V0462895F.jpg,"Mexia, Ynes",Y. Mexia,N/A,6127,"Nov. 24, 1931",1931-11-24,1931-11-24,Piper ciliatoum Ruiz & Pav. ,Piper ciliatoum Ruiz & Pav.,Trelease,N/A,N/A,Peru,Loreto,N/A,N/A,Above Pongo de Manseriche. Right bank of mouth of Rio Santiago; dense forest.,"Above Pongo de Manseriche, right bank of mouth of Rio Santiago, dense forest",Dense forest,Alt. 200 meters,N/A,872277,Typed,no type status
0086_V0441679F.jpg,D. R. Simpson & Josel Schunke V.,D.R. Simpson,J. Schunke V.,565,"7 January, 1968",1968-01-07,N/A,Ipomoea carnea Jacq.,Ipomoea carnea Jacq.,D. R. Simpson,Jan. 1969,N/A,Peru,Dpto. Tumbes,Prov. Tumbes,N/A,Camino entre El Caucho y Pampas de Hospital.,Road between El Caucho and Pampas de Hospital.,"Common from the dry, deciduous forest zone, downward into the very dry thorn-scrub. Along the road about 10 km northwest of Tumbes.",N/A,N/A,1897948,Typed,no type status
0087_V0441677F.jpg,T. Plowman & P. M. Rury,T. Plowman,P. M. Rury,11105,6 December 1981,1981-12-06,N/A,Ipomoea cairica (L.) Sweet ,Ipomoea cairica (L.) Sweet,A. McDonald,1983,N/A,Peru,Huánuco,N/A,N/A,Prov. Huánuco. 8 km. northeast of Huánuco on road to Tingo María.,8 kilometers northeast of Huánuco on road to Tingo María,Scandent shrub on roadside near houses,alt. 1750 m,"Approx. 9º52'S., 76º11'W.",1896900,Typed,no type status
0088_V0401892F.jpg,R. Foster ,R. Foster,N/A,2462,"Aug. 19, 1978",1978-08-19,N/A,Aechmea,Aechmea corymbosa (Mart. ex Schult. & Schult.f.) Mez,E.J. Gouda,2018-02-05,N/A,Peru,Loreto,Maynas,N/A,Caseria Máhama 30km S of Iquitos,Caseria Mahama 30 kilometers south of Iquitos,Terrestrial in white sand scrub; Forested hills on white or brown sand soils,N/A,N/A,1852637,Typed,no type status
0089_V0460617F.jpg,"J. Farfán, L. Valenzuela, I. Huamantupa, A. Carazas, L. Aragónía",J. Farfán,"L. Valenzuela, I. Huamantupa, A. Carazas, L. Aragónía",1262,23 Octubre 2006,2006-10-23,N/A,Anthurium clavigerum Poepp.,Anthurium clavigerum Poepp.,Thomas B. Croat,2008,N/A,Peru,Cusco,La Convención,N/A,"Dist. Vilcabamba, Chuanquiri camino a Ríoamba, Bosque secundario",[precise locality unknown],"Bosque Secundario. Epífita, hasta 70 cm, espádice rojo, espatula verde",1009 m,"12°47'15""S 073°10'10""W",N° 2315782,Typed,no type status
0090_V0469643F.jpg,Thomas B. Croat,T.B. Croat,N/A,18210,"July 18, 1977",1977-07-18,1977-07-18,Agave americana L.,Agave americana L.,N/A,N/A,N/A,Peru,Loreto,N/A,N/A,sandy area 12-15 km. SW of Iquitos on road to Lago Quistococha,sandy area 12 to 15 kilometers southwest of Iquitos on road to Lago Quistococha,Fruit green; a few infl1 branches arising from near base,N/A,N/A,1759629,Typed,no type status
0091_V0075820F.jpg,,,,,,,,,,,,,,,,,,,,,,,,
0092_V0075836F.jpg,S.Knapp,S. Knapp,N/A,S881,4 July 1982,1982-07-04,N/A,Trichipteris pinnata Stolze,Trichipteris pinnata Stolze,R. G. Stolze,1984,N/A,Panama,Colón,N/A,N/A,"Santa Rita Ridge road, 21-26 km from Transisthmian Highway. Tropical wet forest.","Santa Rita Ridge road, 21-26 kilometers from Transisthmian Highway",Tropical wet forest,500-550 m.,N/A,1932768,Mix of Handwritten and Typed,HOLOTYPE
0093_C0616676F.jpg,J. Dorantes,J. Dorantes,N/A,455,01/01/1972,1972-01-01,1972-01-01,Woodardia spinulosa Mart. & Gal.,Woodardia spinulosa Mart. & Gal.,N/A,N/A,N/A,Mexico,Veracruz,Municipio de Xalapa,Llano del Gato,"Llano del Gato, Xalapa, Veracruz",Llano del Gato,"Bosque caducifolio, suelo rojo arcilloso",N/A,Mapa 38.5 29.0,P005051,Typed,no type status
0094_C0644079F.jpg,"A. Monteagudo, C. Mateo, G. Ortiz",A. Monteagudo,"C. Mateo, G. Ortiz",4909,10 Abril 2003,2003-04-10,N/A,Blechnum occidentale L.,Blechnum occidentale L.,H. van der Werff,2005,N/A,Peru,Pasco,Oxapampa,Distrito Pozuzo,"Parque Nacional Yanachaga Chemillen Pozuzo Sector Pan de Azúcar, Zona de Recuperación","Parque Nacional Yanachaga Chemillen, Pozuzo, Sector Pan de Azúcar, Zona de Recuperación",Bosque ribereño,1100-1250m,10°15'S 75°13'W,N° 2287355,Typed,no type status
0095_C0658238F.jpg,Ynes Mexia,Y. Mexia,N/A,80066,"May 14,1936",1936-05-14,1936-05-14,Adiantum pulverulentum L.,Adiantum pulverulentum L.,E. B. Copeland,1957,N/A,Peru,Cuzco,La Convención,N/A,"Departamento Cuzco, Province La Convención; upper valley of Río Sambary; western affluent of Vilcanota, along stream in virgin forest","upper valley of Río Sambary; western affluent of Vilcanota, along stream",in virgin forest,Alt. about 1800 m.,N/A,1005396,Typed,no type status
0096_C0637474F.jpg,J. I. Calzada,J.I. Calzada,N/A,5759,27-noviembre-1980,1980-11-27,N/A,Diplazium francoisii Litbm.,Diplazium francoisii Litbm.,R. C. Moran,1983,"Liquidambar styraciflua, Quercus spp., Alnus sp.",México,Veracruz,Xico,N/A,Ranchoita de Coatitlán,[precise locality unknown],"Bosque Caducifolio muy húmedo, café arcilloso",1800-1900 m.s.n.m.,"19°29' N, 97°04' W",1894963,Typed,no type status
0097_C0636906F.jpg,Antonio Molina R.,A. Molina R.,N/A,1427,"Nov. 4, 1948",1948-11-04,1948-11-04,Thelypteris pllosospida (Hook) Morton,Thelypteris rudis (Kunze) Proctor,A. R. Smith,1974,N/A,Honduras,N/A,N/A,N/A,"Camino flotante, Laboratories de La Muralla, 9 kms. de Tela","Camino flotante, Laboratories de La Muralla, 9 kilometers from Tela",Helecho arborescente Bosque lluvioso norte,Alt. 1800 m.,"Longitude 87oW. and Latitude 14o50'N, Department of Morazan",N/A,Typed,no type status
0098_C0665739F.jpg,"B. León, J. Young & N. Huayapa",B. León,"J. Young, N. Huayapa",2911,10 setiembre 1991,1991-09-10,N/A,Thelypteris euchlora (Sod.) Reed,Thelypteris euchlora (Sod.) Reed,R. C. Soto,1992,N/A,Peru,Cuzco,Paucartambo,N/A,"Region de Nubes, Río Lajina, Km. 104","Region de Nubes, Río Lajina, Km. 104","En el margen mismo y en terreno, hojas 1.5 plenta. Pinna reduct en base. Terrestre.",1700-1800 m,N/A,Nº 2112158,Typed,no type status
0099_C0626158F.jpg,"Louis O. Williams, Antonio Molina R., Terua P. Williams, Darsey H. Gibson, and César Lazkánik",L.O. Williams,"A. Molina R., T.P. Williams, D.H. Gibson, C. Lazkánik",27621,"May 15, 1966",1966-05-15,1966-05-15,Polypodium biepharodes Maxon,Grammitis biepharodes (Maxon) Seymour,R. Stolze,1965,N/A,Nicaragua,Matagalpa,N/A,N/A,"Montane rain forest, near cloud forest, Dsiparate do Potter, Sta. María de Ostuma, Cordillera Central de Nicaragua, Department of Matagalpa, 1400-1600m","Montane rain forest near Dsiparate do Potter, Santa María de Ostuma","Epiphyte on mossy tree, montane rain forest, near cloud forest",1400-1600m,N/A,1626179,Typed,no type status
0100_C0665657F.jpg,Ken Young & Mark Eisenberg 265,K. Young,M. Eisenberg,265,20 April 1981,1981-04-20,N/A,Thelypteris (subg. Amauropelta) rhizophyllidis (Kunze) Proctor,Thelypteris rhizophyllidis (Kunze) Proctor,A.R. Smith,N/A,N/A,Peru,Cusco,La Convencion,N/A,Just east of Quillabamba; finca Chihuanegra; mina ChB,just east of Quillabamba; Finca Chihuanegra; Mina ChB,"coffee, yuca, mango, banana, and corn crops",Alt. 1300-1400 m.,N/A,2038794,Typed,no type status
0101_C0045536F.jpg,Thomas G. Lammers,T.G. Lammers,N/A,10674,9 May 1998,1998-05-09,1998-05-09,Dryopteris carthusiana (Vill.) H.P. Fuchs,Dryopteris carthusiana (Vill.) H.P. Fuchs,N/A,N/A,N/A,United States of America,Illinois,Cook,N/A,"Cook Co.: Palos Twp. Swallow Cliff Woods Forest Preserve, southwest of the jct. of US Hwy 45 and State Hwy 83. Local in mesic maple-basswood forest on steep slopes of deep ravine south of toboggan run.","Palos Twp. Swallow Cliff Woods Forest Preserve, southwest of the junction of US Highway 45 and State Highway 83, south of toboggan run",Local in mesic maple-basswood forest on steep slopes of deep ravine,N/A,N/A,2228497,Typed,no type status
0102_C0627900F.jpg,Antonio Molina R. & Alberto R. Molina,A. Molina R.,A. R. Molina,212562,"Mayo 22, 1963",1963-05-22,N/A,Polypodium montigenum Maxon,Polypodium montigenum Maxon,A. Molina R.,s.d.,N/A,El Salvador,Santa Ana,N/A,N/A,"Bosque abierto de Montaña Montecristo, Department Santa Ana",Bosque abierto de Montaña Montecristo,Epífito. Bosque abierto de Montaña Montecristo.,Alt. 2000 m.,N/A,1661895,Typed,no type status
0103_V0082645F.jpg,M. O. Dillon,M.O. Dillon,N/A,5376,21 Dec 1987,1987-12-21,N/A,Notholaena mollis Kunze,Notholaena mollis Kunze,N/A,N/A,Cheilanthes pruinata in association with Notholaena mollis,Chile,Antofagasta,N/A,N/A,"Cerro Perales, ca. 8.5 km E of TalTal, 600-850 m alt.","Cerro Perales, approximately 8.5 kilometers east of Taltal","Terrestrial, growing in rock crevices",600-850 m,"(25°25' S, 70°25' W)",2010984,Typed,no type status
0104_C0666362F.jpg,Rolla M. & Alice F. Tryon,R.M. Tryon,A.F. Tryon,6566,23 October 1965,1965-10-23,N/A,Thelypteris indigii (C.Ch.) Alston,Thelypteris ruefia (Poltr.),A.R. Smith,"1979, 1982",N/A,Peru,Ancash,N/A,N/A,"Road from Huaras to Cusma, west valley.","Road from Huaras to Cusma, west valley.",damp shaded rocks,2800 m.,N/A,1833066,Typed,no type status
0105_C0666207F.jpg,E. P. Killip & A. C. Smith,E.P. Killip,A.C. Smith,24741,"September 20-29, 1929",1929-09-20,1929-09-29,Thelypteris megalodus (Schl.) Urb.,Thelypteris pentagona (Poir.) C. Morton,A.R. Smith,1989,N/A,Peru,Loreto,N/A,Soledad,"Dept. Loreto: Soledad, on Río Itaya; alt. about 110 meters dense forest","Soledad, on Río Itaya",dense forest,alt. about 110 meters,N/A,s.n.,Typed,no type status
0106_C0666206F.jpg,H. E. Stork,H.E. Stork,N/A,44747,June 1929,1929-06-00,1929-06-00,Dryopteris egregia (Bak.) Urban,Thelypteris pennata (Poir.) C. Morton,A.R. Smith,N/A,N/A,Peru,Loreto,N/A,San Antonio on Rio Itaya,"Dept. Loreto: San Antonio, on Rio Itaya, alt. about 100 meters, dense forest",San Antonio on Rio Itaya,Dense forest,alt. about 100 meters,N/A,1520607,Typed,no type status
0107_C0666203F.jpg,Macbride & Featherstone,J.F. Macbride,Featherstone,s.n.,"July 8-22, 1922",1922-07-08,1922-07-22,Thelypteris pavoniana (Kl.) Tryon,Thelypteris pavoniana (Kl.) Tryon,A.R. Smith,1979,N/A,Peru,N/A,N/A,Mito,"Summits, open sunny slopes of high grass, about 9000 ft","Summits, open sunny slopes of high grass",N/A,about 9000 ft.,N/A,518129,Typed,no type status
0108_C0666202F.jpg,J. J. Wurdack No. 7015,J.J. Wurdack,N/A,7015,June 1962,1962-06-00,1962-06-00,Thelypteris (Thelypteris) pavoniana (Klotzsch) det. D.E. Bellingen 1966,Thelypteris pavoniana (Klotzsch) Tryon,A.R. Smith,"1979, 1989",N/A,Peru,Amazonas,Provincia de Chachapoyas,N/A,Upper slopes of Puma-urcu east-southeast of Chachapoyas,Upper slopes of Puma-urcu east-southeast of Chachapoyas,"On banks, locally frequent",2700-3000 m,N/A,1674265,Typed,no type status
0109_C0666112F.jpg,E. C. Ogden and R. T. Ogden,E. C. Ogden,R. T. Ogden,5202,"Aug. 13, 1956",1956-08-13,1956-08-13,Thelypteris opulenta (Kaulf.) Fosberg,Thelypteris opulenta (Kaulf.) Fosberg,Alan R. Smith,"1979, 1990",N/A,Peru,Loreto,Maynas,N/A,"Rio Itaya, 10 km. s. of Iquitos.","Rio Itaya, 10 kilometers south of Iquitos","In old banana planting. Fertile leaf, sterile pinnae, fertile pinnae.",N/A,N/A,1587072,Typed,no type status
0110_C0639123F.jpg,"Louis O. Williams, Antonio Molina R., Terua P. Williams",L.O. Williams,"A. Molina R., T.P. Williams",23634,s.d.,s.d.,s.d.,Lycopodium clavatum L.,Lycopodium clavatum L.,C.V. Morton & D.E. B. Lellinger,1964,N/A,Nicaragua,Matagalpa,Jinotega,N/A,"Cloud forest area, Sta. Maria de Ostuma, Cordillera Central de Nicaragua between Matagalpa and Jinotega, Department of Matagalpa, 13,400-13,800 feet","Cloud forest area, Sta. Maria de Ostuma, Cordillera Central de Nicaragua between Matagalpa and Jinotega",Terrestrial on open bank,"13,400-13,800 feet",N/A,1604388,Typed,no type status
0111_C0675553F.jpg,"John T. Atwood, Jr.",J.T. Atwood,N/A,77105,8 Feb. 1977,1977-02-08,1977-02-08,Adiantum trapeziforme L.,Adiantum cuneatum McArthy & Hickey,M.R. McCarthy,2012,N/A,Nicaragua,Granada,N/A,N/A,"Volcan Mombacho, Lower cloud forest near Finca Cutirre,","Volcan Mombacho, near Finca Cutirre",Lower cloud forest,N/A,N/A,1868242,Typed,no type status
0112_C0675619F.jpg,G.B. Hinton et al.,G.B. Hinton,et al.,7644,24-Jan-35,1935-01-24,N/A,Adiantum trapeziforme L.,Adiantum ebenoides Maxon,M. Palacios Rios,Agosto/1986,N/A,Mexico,Guerrero,Temascaltepec,N/A,Campo,Campo,Dry barranca,N/A,N/A,N/A,Typed,no type status
0113_C0355438F.jpg,R.A.M. Geestemans,R.A.M. Geestemans,N/A,5744,dd. 12-VIII-59,1959-08-12,1959-08-12,Asplenium sandersonii Hook.,Asplenium sandersonii Hook.,R. Faden,1976,N/A,Kenya,Nyanza Province,Kericho Distr.,N/A,"South ""Nandi"" Forest Reserve, camp 6","South ""Nandi"" Forest Reserve, camp 6","Riparian woodland along the river Itare, among others with Conopogna holstii",1920 m.s.m.,"Lat. 0°36'30"" S., Long. 35°10'20"" E.",1445440,Typed,no type status
0114_C0359489F.jpg,"S. López, P. López y R. Esteban",S. López,"P. López, R. Esteban",N/A,1/V/69,1969-05-01,N/A,Lophosoria quadripinnata (J.F. Gmel.) C. Chr. var. quadripinnata,Lophosoria quadripinnata var. quadripinnata,M. Véliz & J.M. Véliz,22/IX/2005,N/A,Guatemala,Jalapa,N/A,Mataquescuintla,"Jalapa, Aldesa San Raymundo, finca de Manzanillos","Aldesa San Raymundo, finca de Manzanillos",Creciendo dentro de bosque de Quercus sp.,2080 msnm,N/A,2298970,Typed,no type status
0115_C0662895F.jpg,Allison V. Armour,A.V. Armour,N/A,893,Jan. 20-Feb. 6.,1908-01-20,1908-02-06,Asplenium dentatum L.,Asplenium dentatum L.,N/A,N/A,N/A,Jamaica,N/A,N/A,Port Antonio,PORT ANTONIO,Port Antonio,N/A,N/A,N/A,N/A,Typed,no type status
0116_C0363828F.jpg,T. G. Yuncker,T.G. Yuncker,N/A,"17,429","Nov. 17, 1957",1957-11-17,N/A,Lycopodium cernuum L.,Lycopodium cernuum L.,N/A,N/A,N/A,Jamaica,Saint Andrew,N/A,N/A,"Scrambling over side of cut, along trail near Bellevue.",trail near Bellevue,side of cut,Alt. 3000-4000 ft.,N/A,1482756,Typed,no type status
0117_C0363985F.jpg,Carvalho 2092,Carvalho,N/A,2092,25-VII-1986,1986-07-25,N/A,Lycopodiella cernua (L.) Pic.-Serm.,Lycopodiella cernua (L.) Pic.-Serm.,J. Fernandez Casas,1991,N/A,Equatorial Guinea,Bioco,N/A,Basile,"Bioco: Malabo - Basile, km 13, cerca de Basile, 32NMK7809","Malabo - Basile, km 13, near Basile","márgenes de la carretera, pequenas colonias dispersas",390 m,32NMK7809,Nº 2201362,Typed,no type status
0118_C0363442F.jpg,Henk van der Werff 11699,H. van der Werff,N/A,11699,12 June 1990,1990-06-12,1990-06-12,Diplazium assimile (C.Chr.) Bedd.,Diplazium assimile (C.Chr.) Bedd.,H. van der Werff,1990,N/A,Australia,Queensland,N/A,N/A,Boonjee logging area; at base of Mt. Bartle Frere.,Boonjee logging area; at base of Mount Bartle Frere,Rainforest.,N/A,145°43'E 17°25'S,2094887,Typed,no type status
0119_C0378283F.jpg,M. Tagawa & K. Iwatsuki,M. Tagawa,K. Iwatsuki,1150,"July 28, 1956",1956-07-28,N/A,Diplazium umbilicatum (Hag.) Tag.,Diplazium umbilicatum (Hag.) Tag.,N/A,N/A,N/A,Japan,Kagoshima,N/A,N/A,"Kyushu. Pref. Kagoshima: western slope of Mt. Koyachi, south of Kanoya City","western slope of Mt. Koyachi, south of Kanoya City",Wet rocky slope in densely wooded ravine,N/A,N/A,N/A,Typed,no type status
0120_C0364726F.jpg,W. Takeuchi & J. Wiakabu,W. Takeuchi,J. Wiakabu,3665,"February 5, 1994",1994-02-05,N/A,Blechnum ledermannii Brause,Blechnum ledermannii Brause,N/A,N/A,N/A,Papua New Guinea,New Ireland,N/A,N/A,"New Ireland: Hans Meyer Range, Site 4 on the expedition report","Hans Meyer Range, Site 4","Montane rainforest, forest dominated by Dacrydium and Syzygium spp.",c. 1800 m,4°25'S 152°36'E,0276203A,Mix of Handwritten and Typed,no type status
0121_C0366013F.jpg,Tagawa & Iwatsuki 888,M. Tagawa,K. Iwatsuki,888,"May 20, 1956",1956-05-20,1956-05-20,Dryopteris crassirhizoma Nakai,Dryopteris crassirhizoma Nakai,N/A,N/A,N/A,Japan,N/A,N/A,N/A,N/A,[precise locality unknown],N/A,N/A,N/A,N/A,Typed,no type status
0122_C0366453F.jpg,Coll. J. Ohwi,J. Ohwi,N/A,s.n.,April 1951,1951-04-00,1951-04-00,Polystichum tripteron Presl,Polystichum tripteron Presl,N/A,N/A,N/A,Japan,Honshu,N/A,Jumonji in Sengami,Honshu: Jumonji in Sengami,Jumonji in Sengami,N/A,N/A,N/A,1464206,Typed,no type status
0123_C0364207F.jpg,Father M. Vanoverbergh,M. Vanoverbergh,N/A,8591,April 13,1913-04-13,1913-04-13,Asplenium contiguum Kaulf.,Asplenium contiguum Kaulf.,N/A,N/A,N/A,Philippines,Luzon,Bontoc Subprovince,N/A,"Bontoc Subprovince, Luzon","Bontoc Subprovince, Luzon",N/A,N/A,N/A,393429,Typed,no type status
0124_C0376117F.jpg,R & A Faden,R Faden,A Faden,77/53,5 Jan. 1977,1977-01-05,N/A,Pyrrosia lanceolata (L.) Farw.,Pyrrosia lanceolata (L.) Farw.,D.B. Lellinger,1979,N/A,Sri Lanka,Central Province,Kegalle District,N/A,"North Western Province, Kurunegala District, Dolukanda Hill, ca. 7°37'N, 80°24'30''E.",Dolukanda Hill,Forest,600 m,"ca. 7°37'N, 80°24'30''E.",2014294,Typed,no type status
0125_C0377881F.jpg,"Albert N. Steward, C.Y. Chiao, H.C. Cheo",A.N. Steward,"C.Y. Chiao, H.C. Cheo",No. 3444,"Sept. 6, 1931",1931-09-06,1931-09-06,Dryopteris squamifolia Troutm,Dryopteris squamifolia (C. Chr.) Ching,N/A,N/A,N/A,China,Kweichow Province,N/A,N/A,"Hsing-fang Hsien, Tien Lo Yen","Hsing-fang Hsien, Tien Lo Yen","open brushy slopes, soil black",alt. 980 m,N/A,779919,Typed,no type status
0126_C0382365F.jpg,Julie F. Barcelona,J.F. Barcelona,N/A,s.n.,Nov. 1989,1989-11-00,N/A,Selaginella cf. appendata,Selaginella cf. appendata,J.F. Barcelona,Nov. 1989,N/A,Philippines,Visayas,Antique,Culasi,"N. Panay, Culasi, Mt. Madia-as L, Mainit place","Mt. Madia-as L, Mainit place","Alta., on shaded & moist areas",N/A,N/A,2210265,Mix of Handwritten and Typed,no type status
0127_C0368029F.jpg,L. & A. Fay,L. Fay,A. Fay,1206,11 Apr 1985,1985-04-11,1985-04-11,Fern Dynaria laurentii (Christ.) Hieron.,Dynaria laurentii (Christ.) Hieron.,N/A,N/A,N/A,Liberia,N/A,N/A,N/A,Cuttington University College,Cuttington University College,"On tree trunk about 10' from ground; common in groves of rubber trees, on trunks.",Alt. 250 m.,N/A,2111378,Typed,no type status
0128_C0356535F.jpg,H. St. John,H. St. John,N/A,16662,"Aug. 26, 1934",1934-08-26,1934-08-26,Humata banksii Alston,Humata banksii Alston,E.B. Copeland,N/A,N/A,French Polynesia,Austral Islands,N/A,N/A,"Northwest slope of Tere, Teti'i woods","Northwest slope of Tere, Teti'i woods",On mossy tree limb,350 meters,N/A,1435764,Typed,no type status
0129_C0383576F.jpg,T. G. Yuncker,T. G. Yuncker,N/A,"18,561","Mar. 30, 1958",1958-03-30,N/A,Selaginella plana (Diver.) Hieron.,Selaginella plana (Diver.) Hieron.,N/A,N/A,N/A,Jamaica,Portland,N/A,N/A,"On wet embankment along trail, rain forest, John Crow Mts., 1-5/2 miles southwest of Ecclesdown.","On wet embankment along trail, John Crow Mountains, 1.5 to 5/2 miles southwest of Ecclesdown",rain forest,Alt. 1500-2500 ft.,N/A,1481955,Typed,no type status
0130_C0383180F.jpg,Salita alla Boscarela presso SopeIlo in Valsesia 1871. A. Castelli,A. Castelli,N/A,s.n.,1871,1871-00-00,1871-00-00,Lycopodium complanatum L.,Lycopodium complanatum L.,Joan H. Wilce,1962,N/A,Italy,N/A,N/A,N/A,Salita alla Boscarela presso Sopello in Valsesia,Salita alla Boscarela near Sopello in Valsesia,N/A,N/A,N/A,823002,Typed,no type status
0131_C0358423F.jpg,G.J. Chamberlain,G.J. Chamberlain,N/A,s.n.,"Oct. 15, 1911",1911-10-15,1911-10-15,Trichomanes reniforme,Trichomanes reniforme,N/A,N/A,N/A,New Zealand,N/A,N/A,Ohakune,Ohakune,Ohakune,N/A,N/A,N/A,1407795,Typed,no type status
0132_C0662992F.jpg,"R.E. Dunn, H.A. Hespenheide, D.R. Wiseman",R.E. Dunn,"H.A. Hespenheide, D.R. Wiseman",s.n.,2 August 1964,1964-08-02,N/A,Cnemidaria grandifolia (Willd.) Proctor var. grandifolia,Cnemidaria grandifolia (Willd.) Proctor var. grandifolia,R.L. Wilbur,1966,N/A,Dominica,N/A,Parish of St. Paul,N/A,Disturbed rainforest in the upper Layou Valley about 1.5 miles from Clarke Hall towards Pont Casse,Disturbed rainforest in the upper Layou Valley about 1.5 miles from Clarke Hall towards Pont Casse,Common fern with trunk 2 dm. high. Fronds 2 m. long.,N/A,N/A,1670026,Typed,no type status
0133_C0377971F.jpg,R.B. Faden,R.B. Faden,N/A,s.n.,2 Jan 1977,1977-01-02,1977-01-02,Thelypteris,Thelypteris,N/A,N/A,N/A,Sri Lanka,Central Province,Nuwara Eliya District,N/A,"between mile posts 46/5 and 46/6 on Nuwara Eliya-Kandy road, 6°59'50"" 80°45'E.",between mile posts 46/5 and 46/6 on Nuwara Eliya-Kandy road,Shady moist bank near stream.,ca 1950 m,"6°59'50"" 80°45'E.",2089703,Typed,no type status
0134_C0272257F.jpg,H. et P. Sydow,H. Sydow,P. Sydow,s.n.,14. 8. 1903.,1903-08-14,N/A,"Entyloma crastophilum Sacc. Michelia I, p. 540; Sacc. Syll. VII, p. 491.",Entyloma crastophilum Sacc.,N/A,N/A,N/A,Germany,Sachsen,N/A,Zwiesel bei Schmilka,"""am Grossen Winterberge""",am Grossen Winterberge,Auf Blättern von Holcus lanatus.,N/A,N/A,CO272257F,Typed,no type status
0135_C0272323F.jpg,"Leg. O. Mattirolo, comm. G. Lagerheim",O. Mattirolo,N/A,s.n.,27/9 1895,1895-09-27,N/A,Neovossia Moliniae (Thüm.) Körn.,Neovossia Moliniae (Thüm.) Körn.,N/A,N/A,N/A,Italy,Como,N/A,Rodero,"Rodero, prov. Como in ovaris Moliniae coerulae",Rodero,in ovaris Moliniae coerulae,N/A,N/A,C0272323F,Typed,no type status
0136_C0272329F.jpg,"Richard W. Pohl, Gerrit Davidse",R.W. Pohl,G. Davidse,11146,25 September 1968,1968-09-25,N/A,Oplismenus setarius (Lam.) Roem. & Schult.,Oplismenus setarius (Lam.) Roem. & Schult.,N/A,N/A,N/A,Costa Rica,Puntarenas,N/A,N/A,PROV. PUNTARENAS: 5 KM NW of the Carretera Interamericana in Boruca area,5 km northwest of the Carretera Interamericana in Boruca area,Carpeting the ground at the margin of forest and savanna.,elev. 450 m.,N/A,C0272329F,Typed,no type status
0137_C0272400F.jpg,E. W. D. Holway,E. W. D. Holway,N/A,N/A,"Aug. 8, 1901",1901-08-08,N/A,"Tuburcinia Clintoniae, Kom.",Tuburcinia Clintoniae,N/A,N/A,On Streptopus rosens.,Canada,British Columbia,N/A,N/A,"Glacier, Brit. Columbia",Glacier,N/A,N/A,N/A,C0272400F,Typed,no type status
0138_C0272404F.jpg,leg. F. Bubak,F. Bubak,N/A,3239,Maio,1900-05-00,1900-05-00,Tuburcinia anemones (Pers.) Lirom.,Tuburcinia anemones (Pers.) Lirom.,N/A,N/A,Anemones nemorosae,Czech Republic,Bohemia,N/A,Poděbrady,"ad folia viva Anemones nemorosae ad Poděbrad, m. Maio.",ad folia viva Anemones nemorosae ad Poděbrad,N/A,N/A,N/A,CO272404F,Typed,no type status
0139_C0272225F_%201.jpg,Harold E. Parks and Joseph P. Tracy,H.E. Parks,J.P. Tracy,13207,"June 3, 1934",1934-06-03,N/A,Exobasidium Vaccinii (Fuckl.) Wor.,Exobasidium Vaccinii (Fuckl.) Wor.,N/A,N/A,Vaccinium ovatum Pursh,United States,California,Humboldt County,N/A,Trinidad.,Trinidad,N/A,N/A,N/A,C0272225F,Typed,no type status
0140_C0272229F_%201.jpg,Lee Bonar,L. Bonar,N/A,s.n.,21 August 1954,1954-08-21,1954-08-21,Exobasidium Vaccinii (Fckl.) Wor.,Exobasidium Vaccinii (Fckl.) Wor.,N/A,N/A,Arctostaphylos patula Greene.,United States,California,Shasta,N/A,"Manzanita Lake, Lassen National Park, Shasta County","Manzanita Lake, Lassen National Park",N/A,N/A,N/A,C0272229F,Typed,no type status
0141_C0272218F_%201.jpg,H. E. Parks and J. P. Tracy,H.E. Parks,J.P. Tracy,s.n.,"Sept. 15, 1930",1930-09-15,1930-09-15,Exobasidium Vaccinii (Fckl.) Wor.,Exobasidium Vaccinii (Fckl.) Wor.,N/A,N/A,Arbutus Menziesii Pursh.,United States,California,Humboldt County,N/A,"Kneeland, Bald Hills, Humboldt County","Kneeland, Bald Hills",Seriously affecting the young shoots.,N/A,N/A,C0272218F,Typed,no type status
0142_C0003693F.jpg,H.K.,H.K.,N/A,68/641,5.VII.1968,1968-07-05,1968-07-05,Crucicrepis maorica Hook. f.,Crucicrepis maorica Hook. f.,N/A,1971,N/A,New Zealand,Coromandel Peninsula,N/A,N/A,"Kauaeranga Valley, Coromandel Peninsula, N.Z.","Kauaeranga Valley, Coromandel Peninsula","In humus unter Cyathea dealbata, C. smithii, Phyllocladus, Podocarpus, etc.",N/A,N/A,1017207,Typed,no type status
0143_C0004429F.jpg,Singer,Singer,N/A,"""s.n.""",14 V 1973,1973-05-14,1973-05-14,HYDROCYBE DIMORPHOBASIDIATA Sing. Ad terram in hylaea,HYDROCYBE DIMORPHOBASIDIATA Sing.,N/A,N/A,N/A,Ecuador,Napo,N/A,Lago Agrio,Lago Agrio,Lago Agrio,Ad terram in hylaea,N/A,N/A,1017827,Typed,TYPE
0144_C0004430F.jpg,Singer,Singer,N/A,M0517,23 II 1988,1988-02-23,1988-02-23,"HYDROCYBE FUEGIANA Sing (= H. rosea, sensu Horak)",HYDROCYBE FUEGIANA Sing,N/A,N/A,"Sphagnum spp., Rubus geoides",Argentina,Tierra del Fuego,Departamento Ushuaia,N/A,"ya. road Ushuaya–Lago Fagnano, SW of highest point","road Ushuaya–Lago Fagnano, southwest of highest point",Gregarious in bog margin with Sphagnum spp. and Rubus geoides,N/A,N/A,F1075922,Typed,HOLOTYPE
0145_C0209265F_3143.jpg,P. Ponce de Leon,P. Ponce de Leon,N/A,296,"September 21, 1978",1978-09-21,N/A,Amanita,Amanita,N/A,N/A,N/A,United States,Alaska,N/A,N/A,"At or above timberline, windswept slopes of mountains about 20-30 miles north of Mt. McKinley, with mosses, lichens, Vaccinium spp. and other Ericads.",[precise locality unknown],windswept slopes of mountains,N/A,N/A,C0209265F,Typed,no type status
0146_C0225578F_7209.jpg,Coll. P. Ponce de Leon,P. Ponce de Leon,N/A,No. 303,"September 21, 1978",1978-09-21,1978-09-21,Lycoperdon,Lycoperdon,N/A,N/A,N/A,United States of America,Alaska,N/A,N/A,"At or above timberline, windswept slopes of mountains 20-30 miles north of Mt. McKinley","At or above timberline, windswept slopes of mountains 20-30 miles north of Mt. McKinley","Cream color. On high slopes above timberline. With mosses. lichens, Vaccinium spp. and other Ericads.",N/A,N/A,The Field Museum (F) C0225578F,Typed,no type status
0147_C0227005F_7903.jpg,P. Ponce de Leon,P. Ponce de Leon,N/A,267,"September 20, 1978",1978-09-20,1978-09-20,(Agaricaceae),N/A,N/A,N/A,N/A,United States of America,Alaska,N/A,N/A,"Boggy area south of Yukon, just below the Chatanika River, about 25 miles north of Fairbanks, Alaska. In hummocks composed of grasses, lichens, mosses and Ericads, under Alnus, Prunus, Betula","Boggy area south of Yukon, just below the Chatanika River, about 25 miles north of Fairbanks","With grasses in very sandy soil, in disturbed opening in boggy forest. In hummocks composed of grasses, lichens, mosses and Ericads, under Alnus, Prunus, Betula",N/A,N/A,F 1075800,Typed,no type status
0148_C0237407F_12659.jpg,"Leg. Chr. King, det. Singer",C. King,N/A,s.n.,1988,1988-00-00,1988-00-00,Psilocybe muliercula Sing. & Smith,Psilocybe muliercula Singer & Smith,Singer,N/A,N/A,New Zealand,South Island,N/A,N/A,"NEW ZEALAND, South Island",[precise locality unknown],N/A,N/A,N/A,F1089917,Typed,no type status
0149_C0275073F.jpg,PAUL C. STANDLEY,P.C. Standley,N/A,82917,"JAN. 9, 1941",1941-01-09,1941-01-09,Phakopsora vitis (Him.) Syd.,Phakopsora vitis (Him.) Syd.,N/A,N/A,On Vitis tiliifolia H. & B.,Guatemala,Huehuetenango,N/A,San Rafael Petzal,"Near crossing of Río San Juan Ixtán, east of San Rafael Petzal","Near crossing of Río San Juan Ixtán, east of San Rafael Petzal",N/A,alt. about 1730 m.,N/A,N/A,Typed,no type status
0150_C0275088F.jpg,PAUL C. STANDLEY,P.C. Standley,N/A,86140,"FEB. 5, 1941",1941-02-05,1941-02-05,Mamia rubi (Jacks.) A. & Holw.,Gervasica,George B. Cummins,O.I. II - III,On Rubus eriocarpus Liebm.,Guatemala,Quezaltenango,N/A,N/A,"Dept. Quezaltenango: Oak-pine forest, above Los Vahos, Cerro Quemado, alt. 2900–3000 m.","Oak-pine forest, above Los Vahos, Cerro Quemado",Oak-pine forest,alt. 2900–3000 m.,N/A,C0275088F,Mix of Handwritten and Typed,no type status
0151_C0291873F.jpg,E. W. D. Holway,E.W.D. Holway,N/A,27,"Jan. 27, 1915",1915-01-27,1915-01-27,Ravenelia appendiculata Lagerh. & Diet. on Phyllanthus sp.,Ravenelia appendiculata Lagerh. & Diet.,E.B. Mains,"Jan. 27, 1915",Phyllanthus sp.,Guatemala,Solola,N/A,N/A,"Solola, Guatemala",[precise locality unknown],N/A,N/A,N/A,C0291873F,Typed,no type status
0152_C0264367F.jpg,W.G. Bramley,W.G. Bramley,N/A,s.n.,s.d.,0000-00-00,0000-00-00,Nectria cinnabarina (Tode ex Fr.) Fr. with Tubercularia vulgaris,Nectria cinnabarina (Tode ex Fr.) Fr.,T. Petch,10 Jan. 1938,Tubercularia vulgaris,United Kingdom,England,Yorkshire,Bolton Percy,"On Crataegus, Bolton Percy, Yorkshire.","On Crataegus, Bolton Percy",N/A,N/A,N/A,C0264367F,Typed,no type status
0153_C0095081F.jpg,H. Imshaug & K. Ohlsson,H. Imshaug,K. Ohlsson,49793,9 October 1971,1971-10-09,1971-10-09,Xanthoparmelia mougeotii (Schaer.) Hale,Xanthoparmelia mougeotii (Schaer.) Hale,N/A,N/A,"Anthobryum, Berberis",Chile,Magallanes,N/A,N/A,On low hill near Primera Angostura,On low hill near Primera Angostura,Scattered Anthobryum and Berberis,N/A,"52° 27' S., 69° 36' W.",N/A,Typed,no type status
0154_C0095120F.jpg,W. L. Culberson & R. Ornduff,W.L. Culberson,R. Ornduff,22493,"September 3, 1998",1998-09-03,N/A,"Xanthoria parietina (L.) Th.Fr. in N. Acta Reg. Soc. Sc. Upsal., ser. 3, 3:67. 1861.",Xanthoria parietina,W.L. Culberson,N/A,Zyophyllum sp.,South Africa,Western Cape,N/A,N/A,"15 km SE of Oudtshoorn, on the road above Blossoms.","15 kilometers southeast of Oudtshoorn, on the road above Blossoms. [precise locality unknown]",on twigs of Zyophyllum sp.,N/A,N/A,N/A,Typed,no type status
0155_C0090513F.jpg,HENRY A. IMSHAUG & FREDERICK H. IMSHAUG,H.A. Imshaug,F.H. Imshaug,31340,21 September 1963,1963-09-21,N/A,Bamblyliospora chloritis (Nyl.) Zahlbr.,Bamblyliospora chloritis (Nyl.) Zahlbr.,N/A,N/A,N/A,Tobago,N/A,N/A,N/A,"Main Ridge along ""Mt. St. George - Castara Track"" (near Castara)","Main Ridge along ""Mt. St. George - Castara Track"" near Castara",Scattered cultivations in clearings of rain forest,ca. 1200 ft.,N/A,N/A,Typed,no type status
0156_C0053622F.jpg,Edward M. Wheeler,E.M. Wheeler,N/A,s.n.,7 Jan 1989,1989-01-07,1989-01-07,Buellia bahiana Malme on Ilex glabra,Hafellia bahiana (Malme) Sheard,R.J. Salm,20 August 2015,Ilex glabra,United States of America,Florida,Polk County,N/A,"POLK COUNTY: Tiger Creek Preserve, just to right of Wakeford Road Entrance.","Tiger Creek Preserve, just to right of Wakeford Road Entrance",N/A,N/A,N/A,Lumbsch - 9401,Typed,no type status
0157_C0052970F.jpg,Shirley Tucker,S. Tucker,N/A,16863,"March 17, 1977",1977-03-17,1977-03-17,Buellia punctata (Hoffm.) Mass.,Amandinea punctata (Hoffm.) Coppins & Scheid.,R. J. Salm,3 July 2019,N/A,United States,Louisiana,St. Tammany Parish,N/A,"Fontainebleau State Park, north shore of Lake Pontchartrain","Fontainebleau State Park, north shore of Lake Pontchartrain",Common on Taxodium,N/A,"30°20'N, 90°03'W",N/A,Typed,no type status
0158_C0090117F.jpg,H. T. Lumbsch,H.T. Lumbsch,N/A,10566 b,14.7.1994,1994-07-14,1994-07-14,Acarospora,Acarospora,N/A,N/A,N/A,USA,Arizona,Gila Co.,N/A,"San Carlos Lake, E exposed slopes above dam, just N of Coolidge","San Carlos Lake, east exposed slopes above dam, just north of Coolidge",On siliceous rocks.,N/A,"33°11'N, 110°32'W",Nr. 10566 b,Typed,no type status
0159_C0090150F.jpg,"N. Hladun, H.T. Lumbsch & A. Henssen.",N. Hladun,"H.T. Lumbsch, A. Henssen",925d,1983/05/24,1983-05-24,N/A,Acarospora,Acarospora,N/A,N/A,N/A,Spain,Catalonia,Girona,Torroella de Fluvià,"CATALUNYA, Prov. Gerona, Les Torruelles, bei Torroella de Fluvia, bei Torella de Fluvia, auf Grauwacke in Kalkrädmoor.","Les Torruelles, auf Grauwacke in Kalkrädmoor",N/A,N/A,N/A,N/A,Typed,no type status
0160_C0090526F.jpg,H.T. Lumbsch,H.T. Lumbsch,N/A,8890,10.5.1983,1983-05-10,N/A,Bellemerea,Bellemerea,N/A,N/A,N/A,Italy,South Tyrol,N/A,N/A,"Italien, Südtirol, Vinschgau, Gomagoi, E des Ortes","Italy, South Tyrol, Vinschgau, Gomagoi, east of the place",An Silikatgestein,N/A,N/A,N/A,Typed,no type status
0161_C0090341F.jpg,"leg. T. FEURER, H. HERTEL & H. KILLIAS",T. Feurer,"H. Hertel, H. Killias",No. 282,12.X.1977,1977-10-12,N/A,Buellia schaereri DNOT.,Buellia schaereri DNOT.,N/A,N/A,N/A,Italy,Südtirol,N/A,N/A,"Dolomiten, Rosengarten-Gruppe, Purgametsch-Tal (an der Autostraße zwischen Nigerpaß und Tiers), nahe der Abzweigung des Sträßchens ins Tscharmin-Tal bei Rungun","Dolomiten, Rosengarten-Gruppe, Purgametsch-Valley near the turnoff to Tscharmin-Valley at Rungun","Lichter Lärchen-Bestand auf Almgeleände, An der Stamm-basis und an leicht geneigten Stämmen von Lärchen (Larix decidua) in Menge",1220 m.,N/A,N/A,Typed,no type status
0162_C0095075F.jpg,Henry A. Imshaug,H.A. Imshaug,N/A,60155,3 October 1976,1976-10-03,1976-10-03,Xanthoria fallax (Hepp) Arn. on Acer,Xanthoria fallax (Hepp) Arn.,N/A,N/A,Acer,United States,Michigan,Chippewa,Drummond Island,"CHIPPEWA COUNTY (DRUMMOND ISLAND): Along road at Drummond airport, Sec. 25, T. 42 N., R. 5 E.","Along road at Drummond airport, Section 25, Township 42 North, Range 5 East",N/A,N/A,46° 01' N and 83° 44' W,N/A,Typed,no type status
0163_C0055249F.jpg,H. Mietzsch,H. Mietzsch,N/A,6246,27.8.1988,1988-08-27,1988-08-27,Baeomyces fungoides Sw.,Baeomyces fungoides,N/A,N/A,N/A,Switzerland,Graubünden,Unterengadin,Zernez,"Schweiz, Graubünden, Unterengadin, TK 25: 1218 Zernez, Marangun, Sursaas","TK 25: 1218 Zernez, Marangun, Sursaas",Auf Erde,2150-2300 m alt.,N/A,Nr. 6246 c,Typed,no type status
0164_C0089982F.jpg,H. Mietszsch,H. Mietszsch,N/A,6983,26.8.1989,1989-08-26,1989-08-26,Xanthoparmelia somloensis (Gyelnik) Hale,Xanthoparmelia somloensis (Gyelnik) Hale,N/A,N/A,N/A,Switzerland,Graubünden,N/A,Savognin,"Schweiz, Graubünden, Albula-Tal, TK 25: 1236 Savognin, Straße von Latsch nach Stugl","Albula-Tal, TK 25: 1236 Savognin, road from Latsch to Stugl",Loose on stone,1600 m alt.,N/A,N/A,Typed,no type status
0165_C0090059F.jpg,leg. Aino Henssen,A. Henssen,N/A,s.n.,29.8.1971,1971-08-29,1971-08-29,Xanthoria elegans (Link) Th. Fr.,Xanthoria elegans (Link) Th. Fr.,N/A,N/A,N/A,Switzerland,Graubünden,N/A,N/A,"Graubünden, Albula pass, 2000 m ü.M. auf Dolomit","Graubünden, Albula pass, on Dolomite",N/A,2000 m ü.M.,N/A,21931a,Typed,no type status
0166_C0095147F.jpg,Leg. William L. Culberson,W.L. Culberson,N/A,s.n.,9.VIII.1996,1996-08-09,1996-08-09,Xanthoria polycarpa (Ehrh.) Rieber,"Polycauliona polycarpa (Hoffmann) Frödén, Arup & Søchting",R.J. Salm,7 July 2019,N/A,United States,Washington,Spokane County,Spokane,"In urbe Spokane, loco Riverside State Park. Ad ramunculos fruticis in Pineto (Pinus ponderosa).",Riverside State Park,Ad ramunculos fruticis in Pineto (Pinus ponderosa),N/A,N/A,N/A,Typed,no type status
0167_C0052862F.jpg,G. Follmann,G. Follmann,N/A,s.n.,s.d.,s.d.,s.d.,Abrothallus parmeliarum (SOMM.) ARN. (anam. Vouauxiomyces santessonii HAWKSW.) Patellariaceae,Abrothallus parmeliarum (anam. Vouauxiomyces santessonii),G. Follmann,(IV/1985),N/A,Deutschland,Rheinland-Pfalz,N/A,N/A,"Deutschland, Rheinland-Pfalz; zerstreut in der Oberinde der Lagerlappen von Hypogymnia physodes (L.) NYL., 450 m, NW - SW, pH 6,0; Heckengürtel am Südfuβ des Schwirzheimer Kopfes zwischen Gerolstein und Prüm in der Hocheifel",Oberinde der Lagerlappen von Hypogymnia physodes am Südfuß des Schwirzheimer Kopfes zwischen Gerolstein und Prüm in der Hocheifel [precise locality unknown],Heckengürtel,450 m,N/A,(KOELNumb),Typed,no type status
0168_C0052873F.jpg,H.T. Lumbsch & E. Mietzsch,H.T. Lumbsch,E. Mietzsch,5135 D,24.5.1987,1987-05-24,N/A,Buellia punctata (Hoffm.) Massal.,Amandinea punctata (Hoffm.) Coppins & Scheid.,R.J. Salm,3 July 2019,N/A,Germany,Rheinland-Pfalz,Landkreis Mainz/Bingen,6013 Bingen,"Mainz/Bingen, Tk 25: 6013 Bingen, Ockenheimer Hörnchen",Ockenheimer Hörnchen,An Populus.,N/A,N/A,N/A,Typed,no type status
0169_C0053240F.jpg,leg.,N/A,N/A,MTB5608,9.7.90,1990-07-09,1990-07-09,Aspicilia caesiocinerea Nyl. ex Malbr.,"Circinaria caesiocinerea (Nyl. ex Malbr.) A. Nordin, Savic & Tibell",R. J. Salm,3 July 2019,N/A,N/A,N/A,N/A,N/A,N/A,[precise locality unknown],N/A,ca. 450m,N/A,8000,Mix of Handwritten and Typed,no type status
0170_C0053210F.jpg,H.T. Lumbsch & E. Mietzsch,H.T. Lumbsch,E. Mietzsch,5127 a,24.5.1987,1987-05-24,N/A,Aspicilia contorta,"Circinaria contorta (Hoffm.) A. Nordin, Savic & Tibell",R.J. Salm,3 July 2019,N/A,Germany,Rheinland-Pfalz,Landkreis Mainz-Bingen,Ingelheim am Rhein,"BRD, Rheinland-Pfalz, Landkreis Mainz-Bingen, Tk 25: 6014 Ingelheim am Rhein, Weg von Gau-Algesheim zum Ockenheimer Hörnchen. An Mörtel.","Tk 25: 6014 Ingelheim am Rhein, Weg von Gau-Algesheim zum Ockenheimer Hörnchen. An Mörtel.",N/A,N/A,N/A,N/A,Typed,no type status
0171_C0090185F.jpg,"H.T. Lumbsch, E. Mietzsch & C.",H.T. Lumbsch,"E. Mietzsch, C.",7103 f,19.11.1989,1989-11-19,1989-11-19,Xanthoparmelia conspersa (Ach.) Hale,Xanthoparmelia conspersa (Ach.) Hale,N/A,N/A,N/A,Germany,Hessen,N/A,Stadt Wiesbaden,"Deutschland, Hessen, Stadt Wiesbaden, TK 25: 5925 Wiesbaden, Dotzheim, Fels am Weilburger Bach.",Fels am Weilburger Bach,An Silikatgestein,N/A,N/A,N/A,Typed,no type status
0172_C0090105F.jpg,leg. H.T. Lumbsch,H.T. Lumbsch,N/A,12159,26.08.2001,2001-08-26,2001-08-26,Arctoparmelia centrifuga,Arctoparmelia centrifuga,N/A,N/A,N/A,Norway,Sogn og Fjordane,N/A,Jotunheimen,"Sogn og Fjordane, Jotunheimen, alpine Matten an der Straße 55 zwischen Turtegrö und Hervassbu",Alpine meadows along road 55 between Turtegrö and Hervassbu,On Silicate rock,1400 m alt.,N/A,N/A,Typed,no type status
0173_C0020034F.jpg,R. M. Schuster,R.M. Schuster,N/A,68-1644,Aug. 17 68,1968-08-17,1968-08-17,Anastrophylum minutum + gemm.,Anastrophylum minutum + gemm.,R.M. Schuster,N/A,Diplophyllum taxifolium + gemmae 68-1644a,Canada,Newfoundland and Labrador,N/A,N/A,"Along Humber R., in Squires Memorial Park, near Rte 1A","Along Humber River, in Squires Memorial Park, near Route 1A",N/A,N/A,N/A,N/A,Typed,no type status
0174_C0020052F.jpg,R. M. Schuster & K. Damsholt,R. M. Schuster,K. Damsholt,82-1049,July 3.,1982-07-03,N/A,Anastrophylum minutum (SCHREB.)SCHUST. v.grandis (GOTT.)SCHUST.,Anastrophylum minutum v.grandis,R. M. Schuster,N/A,Cephalozia bicuspidata (L.) DUM.,Greenland,South Greenland,N/A,N/A,Frederiksdal,Frederiksdal,N/A,N/A,"60°00'N lat., 44°40'W. long.",S1,Typed,no type status
0175_C0025138F.jpg,R. M. Schuster,R. M. Schuster,N/A,9067,June 30 1951,1951-06-30,1951-06-30,"Frullania asagrayana Mont., male, can per. Plagiochila tridenticulata Dum. (traces)",Frullania asagrayana Mont.,N/A,N/A,Plagiochila tridenticulata Dum.,United States,North Carolina,N/A,N/A,"Balsam Gap, N.C., ca. 25 mi. n. of Asheville, along Blue Ridge Parkway, 5220-5260 feet","Balsam Gap, approximately 25 miles north of Asheville, along Blue Ridge Parkway",on Abies fraseri,5220-5260 feet,N/A,N/A,Typed,no type status
0176_C0025164F.jpg,R. M. Schuster,R. M. Schuster,N/A,79-488,April 14 19 79,1979-04-14,N/A,Frullania asagrayana,Frullania asagrayana,R. M. Schuster,N/A,N/A,United States,Arkansas,Stone Co.,N/A,"Ozark Natl. Forest. Barkshed Camp, ca. 10 mi E. of Big Flat.","Ozark National Forest, Barkshed Camp, approximately 10 miles east of Big Flat",N/A,N/A,N/A,N/A,Typed,no type status
0177_C0000578F.jpg,"John J. Engel, Matt von Konrat & John E. Braggins",J.J. Engel,"M. von Konrat, J.E. Braggins",23773,12 February 2003,2003-02-12,2003-02-12,Telaranea lindenbergii var. papillata Engel & Merr.,Telaranea lindenbergii var. papillata Engel & Merr.,N/A,N/A,"Blechnum novae-zelandiae, Weinmannia, Dicksonia squarrosa, Leptospermum scoparium",New Zealand,Auckland,N/A,N/A,"NORTH ISLAND. AUCKLAND PROV.: Whareorino Forest, start of track to Leitch's Hut.","Whareorino Forest, start of track to Leitch's Hut","On clayey bank. Clay banks with Blechnum novae-zelandiae overhang, Weinmannia and Dicksonia squarrosa dominant canopy and occasional Leptospermum scoparium",280 m,"38° 24.5' S, 174° 49.8' E",1173554,Typed,HOLOTYPE
0178_C2079898F.jpg,Marko Lewis,M. Lewis,N/A,78-6284,21-22 November 1978,1978-11-21,1978-11-22,Kindbergia praelonga (Hedw.) Ochyra,Kindbergia praelonga (Hedw.) Ochyra,N/A,N/A,N/A,Ecuador,Imbabura,N/A,N/A,"E. side of Cerro Cotacachi, 0°22'N, 78°20'W",East side of Cerro Cotacachi,Wet bank of runoff ravine,3750 m.,"0°22'N, 78°20'W",1065158,Mix of Handwritten and Typed,no type status
0179_C2077559F.jpg,Marko Lewis,M. Lewis,N/A,70-3163,8 December 1978,1978-12-08,N/A,Hedwigia ciliata (Hedw.) P. Beauv.,Hedwigia ciliata (Hedw.) P. Beauv.,E. de Luna,1992,N/A,Ecuador,Azuay,N/A,N/A,"Area Nacional de Recreación ""Cajas"", forested hills S. of ""Turocuchucho"" (Laguna Llaviucu), S of Sayausi, 255°S.","Area Nacional de Recreación ""Cajas"", forested hills south of Turocuchucho, south of Sayausi",Stone wall.,3240 m.,N/A,1065433,Typed,no type status
0180_C2077563F.jpg,Benoist et Chrétien,R. Benoist,L. Chrétien,s.n.,s.d.,s.d.,s.d.,Hedwigia albicans (Web.) Lindb.,Hedwigia ciliata (Hedw.) P. Beauv.,E. De Luna,1982,N/A,Ecuador,Pichincha,N/A,Quito,environs de Quito,environs de Quito,N/A,4659 pp.,N/A,N/A,Mix of Handwritten and Typed,no type status
0181_C2077564F.jpg,L. Benoist,L. Benoist,N/A,s.n.,s.d.,1930-00-00,1930-00-00,Hedwigia albicans (Web.) Lindb.,Hedwigia ciliata (Hedw.) P. Beauv.,Efraim De Lina,1992,N/A,Ecuador,Pichincha,N/A,Quito,"Sur rochers à l'angle S.E. de l'Hôpital Bilingue, Colline El Panecillo, Quito","Sur rochers à l'angle S.E. de l'Hôpital Bilingue, Colline El Panecillo",N/A,2800 m,N/A,1063455,Typed,no type status
0182_C2077565F.jpg,R. S. Williams,R.S. Williams,N/A,2150,"April 30, 1902",1902-04-30,N/A,Hedyosmum ciliatum (Hedw.) F. Beauv.,Hedyosmum ciliatum (Hedw.) F. Beauv.,E. De Luna,1992,N/A,Bolivia,N/A,N/A,N/A,near Pilón Lajas,near Pilón Lajas,[precise locality unknown],3700 meters,N/A,1063451,Typed,no type status
0183_C2077566F.jpg,Marko Lewis,M. Lewis,N/A,79-1237A,22 March 1979,1979-03-22,1979-03-22,Hedwigia ciliata (Hedw.) P. Beauv.,Hedwigia ciliata (Hedw.) P. Beauv.,E. De Luna,1992,N/A,Bolivia,La Paz,Larecaja,N/A,"DEPTO. LA PAZ, PROV. LARECAJA: Near large red out-crop 2 mi. from Sorata down Rio Consata",Near large red outcrop 2 miles from Sorata down Rio Consata,Bromeliad habitat. Abundant on rock faces of exposed cliffs,2630 m.,N/A,1032221,Typed,no type status
0184_C2077567F.jpg,Marko Lewis,M. Lewis,N/A,79-1232,22 March 1979,1979-03-22,N/A,Hedwigia ciliata (Hedw.) P. Beauv.,Hedwigia ciliata (Hedw.) P. Beauv.,E. De Luna,1992,N/A,Bolivia,LA PAZ,LARECAJA,N/A,"DEPTO. LA PAZ, PROV. LARECAJA: Near large red outcrop 2 mi. from Sorata down Rio Consata",Near large red outcrop 2 miles from Sorata down Rio Consata,Bromeliad-grass habitat on exposed cliffs,2630 m.,N/A,1032219,Typed,no type status
0185_C2077568F.jpg,Marko Lewis,M. Lewis,N/A,79-1114,6 March 1979,1979-03-06,1979-03-06,Hedwigia ciliata (Hedw.) P. Beauv.,Hedwigia ciliata (Hedw.) P. Beauv.,E. De Luna,1982,N/A,Bolivia,Depto. La Paz,Prov. Saavedra,N/A,"On mountain side directly N. of river, beneath Niño Kariña, NW of Chuma, 15° 08’ S., 69° 03’ W.","On mountain side directly north of river, beneath Niño Kariña, northwest of Chuma",Humid cliffs and steep slopes,3320 m.,"15° 08’ S., 69° 03’ W.",1032220,Typed,No type status
0186_C2077569F.jpg,F. J. Hermann,F.J. Hermann,N/A,25152,"December 27, 1972",1972-12-27,N/A,Hedwigia ciliata (Hedw.) P. Beauv.,Hedwigia ciliata (Hedw.) P. Beauv.,Elinor Lehto,N/A,N/A,Bolivia,Cochabamba,N/A,N/A,"On conglomerate boulder or shrubby NW slope of Mt. Tunari, near Liriuni Aguas Termales Hotel, alt. ca. 2700 m., 28 km. NW of Cochabamba","On conglomerate boulder or shrubby northwest slope of Mount Tunari, near Liriuni Aguas Termales Hotel",On conglomerate boulder or shrubby northwest slope,alt. ca. 2700 m.,N/A,1040675,Typed,no type status
0187_C2077570F.jpg,Ynes Mexia,Y. Mexia,N/A,6804,"Dec. 2, 1931",1931-12-02,1931-12-02,Philonotis subbrachiphylla Broth.,Philonotis subbrachiphylla Broth.,N/A,N/A,N/A,Peru,Loreto,N/A,[precise locality unknown],Above Pongo de Manseriche. Streamlet near mouth of Rio Santiago. On fallen log.,"Above Pongo de Manseriche, near mouth of Rio Santiago, on fallen log",Streamlet,400 m,N/A,1057692,Typed,no type status
0188_C2077571F.jpg,Ynes Mexia,Y. Mexia,N/A,6040,"Dec. 2, 1931",1931-12-02,1931-12-02,Philonotis subadunciphyllum Herzog det. Bartram,Philonotis subadunciphyllum Herzog,Bartram,N/A,N/A,Peru,Loreto,N/A,N/A,Above Pongo de Manseriche,Above Pongo de Manseriche,Streamlet near mouth of Rio Santiago. On fallen logs.,Alt. 400 m.,N/A,N/A,Typed,no type status
0189_C2077572F.jpg,A.C. Smith,A.C. Smith,N/A,2746,"Dec. 1-4, 1937",1937-12-01,1937-12-04,Pilotrichum clavatum (Sw.),Pilotrichum clavatum (Sw.),E.B. Bartram,s.d.,N/A,Guyana,N/A,N/A,N/A,"Basin of Essequibo River, near mouth of Oronoque Creek, lat. about 1°43' N","Basin of Essequibo River, near mouth of Oronoque Creek","On decayed wood, in swamp, dense forest",N/A,lat. about 1°43' N,1027351,Typed,no type status
0190_C2077573F.jpg,J. F[loris]chütz-de Waard & R[ie]zelman,J.F. de Waard,R. Zelman,5315,5-11-1981,1981-11-05,N/A,Pilotrichum ochrophyllum (Hornsch.) C. Müll.,Pilotrichum ochrophyllum (Hornsch.) C. Müll.,Rudziński,s.d.,Cecropia (boompapaja),Suriname,Nickerie,N/A,N/A,"area of Kabalebo Dam project, distr. Nickerie, line NW from road km 39,5, p. Second saw wood","area of Kabalebo Dam project, line northwest from road kilometer 39.5, place Second saw wood",on rotting log,ALT. 0-50 m,N/A,1073523,Handwritten,no type status
0191_C2077574F.jpg,"J. Florczak, L. de Waard & R. Zieltjens",J. Florczak,L. de Waard & R. Zieltjens,5254,3-11-1981,1981-11-03,N/A,Pilotrichum chlorophyllum (Hornsch.) C. Müll.,Pilotrichum chlorophyllum (Hornsch.) C. Müll.,R. Zieltjens,N/A,N/A,Suriname,N/A,N/A,N/A,"area of Kabalebo Dam project, airstrip Mckenzie, line NW from road km 39, 5° 51' 50'' N, 55° 58' 40'' W, Savanna forest, on rotting logs","area of Kabalebo Dam project, airstrip Mckenzie, line NW from road km 39, Savanna forest, on rotting logs","Savanna forest, on rotting logs",0 - 50 m.,"5° 51' 50"" N, 55° 58' 40"" W",1073529,Typed,no type status
0192_C2077575F.jpg,"J. F. & M. J. Ploeg-Florczak, de Waard & R. Zeilemaker",J.F. & M.J. Ploeg-Florczak,"de Waard, R. Zeilemaker",s.n.,3-10-1981,1981-10-03,N/A,Pilotrichum chlorophyllum (Hornsch.) W.J. Hook.,Pilotrichum chlorophyllum (Hornsch.) W.J. Hook.,R. Zeilemaker,3-10-1981,N/A,Suriname,Nickerie,N/A,N/A,"Aves of Kabalebo Dam Project, distr. Nickerie, line W from road 34 km, P. 58N qn., SE, Rainforest, on rotting logs","Aves of Kabalebo Dam Project, line west from road 34 kilometers","Rainforest, on rotting logs","0 - 50 m,",N/A,1073528,Typed,no type status
0193_C2077576F.jpg,"J.C. Lindeman, H.A.G. Bontkes van Rhijn, J.W. Jansen-Jacobs & A.C. de Roon",J.C. Lindeman,"H.A.G. Bontkes van Rhijn, J.W. Jansen-Jacobs, A.C. de Roon",s.n.,3-7-1980,1980-07-03,1980-07-03,Philonotis chlorophylla (Hornsch.) C. Müll.,Philonotis chlorophylla (Hornsch.) C. Müll.,E.F. de Zwaan,N/A,N/A,Suriname,Nickerie,N/A,N/A,"Area of Kabalebo Dam Project, distr. Nickerie",Area of Kabalebo Dam Project,"Forest of km 28.7, epiphyte on tree trunk",Alt.; 30 - 130 m.,"4° 50' N, 57° 30' W",Nº 1073527,Typed,no type status
0194_C2077577F.jpg,J. Florschütz-de Waard and R. Zielemann,J. Florschütz-de Waard,R. Zielemann,s.n.,31 October 1981,1981-10-31,1981-10-31,Pilotrichum chlorophyllum (Hornsch.) C. Müll.,Plagiochila sp.,R. Zielemann,N/A,N/A,Suriname,Distrikt Nickerie,N/A,N/A,"Distr. Nickerie, Kabalebo river area, 1 line W. from road km 34","Kabalebo river area, 1 line west from road kilometer 34",Decaying log in marsh forest with Astrocaryum,0-50 m.,N/A,1678963,Typed,no type status
0195_C2077578F.jpg,J. and P.A. Florschütz,J. Florschütz,P.A. Florschütz,4690,18 December 1975,1975-12-18,1975-12-18,Pilotum chlorophyllum (Schw.) C. Muell.,Pilotum chlorophyllum (Schw.) C. Muell.,R. Ziemann and J. Florschütz-de Waard,N/A,N/A,Suriname,N/A,N/A,Brownsberg,on rotting log in rainforest.,On rotting log in rainforest,rainforest,alt. ca. 500 m.,N/A,1065613,Typed,no type status
0196_C2077579F.jpg,H. Cornelissen & S. R. Gradstein,H. Cornelissen,S. R. Gradstein,C076,8 March 1977,1977-03-08,N/A,Pilotrichum chlorophyllum (Hornsch.) C. Müll.,Pilotrichum chlorophyllum (Hornsch.) C. Müll.,J. Florschütz-de Waard,N/A,N/A,Guyana,N/A,N/A,N/A,"Mahdia Hill, 180 km S of Georgetown","Mahdia Hill, 180 kilometers south of Georgetown",On rotting tree base in mixed rain forest,alt. 0-50 m.,5°20'N 58°40'W,1691586,Typed,no type status
0197_C2077580F.jpg,Herb. Sullivant,N/A,N/A,s.n.,s.d.,00-00-00,00-00-00,Stenochlaena tetraptera (Hornsch.),Pilosium chlorophyllum (Hornsch.) C. Müll. in Broth.,N/A,N/A,N/A,Peru,N/A,N/A,N/A,N/A,[precise locality unknown],N/A,N/A,N/A,1078188,Mix of Handwritten and Typed,no type status
0198_C2077581F.jpg,Richard Evans Schultes / Isidoro Cabrera,R.E. Schultes,I. Cabrera,17922,"Oct. 22, 1952",1952-10-22,1952-10-22,Pilosium chlorophyllum (Hornsch.) Jaeg.,Pilosium chlorophyllum (Hornsch.) Jaeg.,H.A. Crum,1956,N/A,Colombia,Vaupes,N/A,N/A,"Rio Vaupes: Mitú and vicinity, Cerro Mitú",Cerro Mitú,N/A,N/A,"Lat. 1°0'N., Long. 70°5'W",1055492,Typed,no type status
0199_C2077582F.jpg,Richard Evans Schultes et Isídoro Cabrera,R.E. Schultes,I. Cabrera,14294,"October 4-6, 1951",1951-10-04,1951-10-06,Pilosium chlorophyllum (Hornsch.) C. Muell.,Pilosium chlorophyllum (Hornsch.) C. Muell.,H. A. Crum,1956,N/A,Colombia,Vaupés,N/A,Yapobodá,"Río Kuduyarí (affluent of Río Vaupés), Yapobodá, quartzite savannah.","Río Kuduyarí (affluent of Río Vaupés), Yapobodá",On rotten logs ,N/A,N/A,1055491,Typed,no type status
0200_C2077583F.jpg,Legit RICHARD EVANS SCHULTES,R.E. Schultes,N/A,12309,June 1951,1951-06-00,1951-06-00,PILOSIUM CHLOROPHYLLUM (HORNSCH.) C. MÜLL. IN BROT.,Pilosium chlorophyllum (Hornsch.) C. Müll. in Br.,D.E. Griffin III,June 1951,N/A,Colombia,Amazonas,N/A,N/A,"Cercanias de Tarapacá, Rio Apaporis, Sotuhwich","Vicinity of Tarapacá, Apaporis River, Southwich",On trunks,N/A,N/A,1055490,Mix of Handwritten and Typed,no type status
0201_C2077584F.jpg,Richard Evans Schultes,R.E. Schultes,N/A,11128,Dec. 1950,1950-12-00,1950-12-00,Pilotsum chlorophyllum (Bisch.) C. Mü. in Broth.,Pilotsum chlorophyllum (Bisch.) C. Mü. in Broth.,D.E. Griffin III,N/A,N/A,Colombia,N/A,N/A,San José del Guaviare,San José del Guaviare,San José del Guaviare,N/A,N/A,N/A,1055489,Mix of Handwritten and Typed,no type status
0202_C2077585F.jpg,Ynes Mexia,Y. Mexia,N/A,6014,"Aug. 31, 1931",1931-08-31,N/A,Pilosium chlorophyllum (L.) C. Muell.,Pilosium chlorophyllum (L.) C. Muell.,N/A,N/A,N/A,Brazil,Distrito Acre,N/A,N/A,(Thomé Assú); down Rio Acre,down Rio Acre,On fallen log,Alt. 35m.,N/A,N/A,Typed,no type status
0203_C2077586F.jpg,Ynes Mexia,Y. Mexia,N/A,5914,"July 16, 1931",1931-07-16,N/A,Pilotrichum chlorophyllum (Besch.) C. Mull.,Pilotrichum chlorophyllum (Besch.) C. Mull.,N/A,N/A,N/A,Brazil,Pará,N/A,N/A,"Distrícto Açaí, Thome Assú, Japanese Colony","Distrícto Açaí, Thome Assú, Japanese Colony",On rotting log in woods,about 30 m,N/A,870829,Typed,no type status
0204_C2078862F.jpg,"Dana Griffin III, Manuel Lopez",D. Griffin III,M. Lopez,PV-1525,s.d.,N/A,N/A,Brachythecium plumosum (Hedw.) BSG,Brachythecium plumosum (Hedw.) BSG,N/A,N/A,N/A,Venezuela,Trujillo,N/A,N/A,"Páramo de Guirigay, arriba del pueblo de La Piedrotas, Entre El Bordo y Tres Hermanos","Páramo de Guirigay, above the village of La Piedrotas, Between El Bordo and Tres Hermanos","Sobre roca húmeda, lecho de riachuelo, a sol.",s.n.,s.n.,1064449,Typed,no type status
0205_C2078913F.jpg,P. Dusén,P. Dusén,N/A,5872,22 February 1897,1897-02-22,1897-02-22,Brachythecium albicans (Hedw.) Schimp.,Brachythecium albicans (Hedw.) Schimp.,W. R. Buck,N/A,N/A,Chile,Patagonia occidental,N/A,Cerro Colorado,"Chile, Patagonia occidental, Cerro Colorado",Cerro Colorado,N/A,N/A,N/A,B11749,Typed,no type status
0206_C2078924F.jpg,Ynes Mexia,Y. Mexia,N/A,8001,"April 10,1936",1936-04-10,N/A,Brachythecium austro-glareosum (C. Muell.) Kindb.,Brachythecium austro-glareosum (C. Muell.) Kindb.,Kenneth D. McFarland,Sept 1982,N/A,Chile,Magallanes,N/A,N/A,Territorio Magallanes: Last Hope Inlet; Peninsula Antonio Varas; dampening north shore.,"Peninsula Antonio Varas, dampening north shore",Moist earth. Common; scattered in small tufts.,Alt. 25 m.,N/A,1038795,Typed,no type status
0207_C2078925F.jpg,Marko Lewis,M. Lewis,N/A,79-2108,25 May 1979,1979-05-25,1979-05-25,Brachythecium cf. sellowii Broth. in Herz.,Brachythecium cf. sellowii Broth. in Herz.,R. Ochyra,February 1982,N/A,Bolivia,Oruro,N/A,N/A,"DEPTO. OURO, PROV. SAJAMA: Rio Juntuma Khuchu, 2 mi. down from Aguas Termales de Río Juntuma Khuchu, 4350 m, 18°07' S, 69°00' W. In Warnish creek.","DEPTO. OURO, PROV. SAJAMA: Rio Juntuma Khuchu, 2 miles down from Aguas Termales de Río Juntuma Khuchu. In Warnish creek.",N/A,4350 m,"18°07' S, 69°00' W",1049405,Typed,no type status
0208_C2078926F.jpg,Marko Lewis,M. Lewis,N/A,79-2109,25 May 1979,1979-05-25,1979-05-25,Brachythecium colligereonides Broth. in Herz.,Brachythecium colligereonides Broth. in Herz.,R. Ochyra,1982,N/A,Bolivia,Oruro,Sajama,N/A,"DEPTO. ORURO, PROV. SAJAMA: Rio Juntuma Khuchu, 2 mi. down river from Aguas termales de Rio Juntuma Khuchu","Rio Juntuma Khuchu, 2 miles down river from Aguas termales de Rio Juntuma Khuchu",Warmish creek,4350 m,"18° 07' S, 69° 00' W",1049406,Typed,no type status
0209_C2078927F.jpg,Marko Lewis,M. Lewis,N/A,79-2112,25 May 1979,1979-05-25,N/A,Brachythecium camillegoodeae Broth. in Herz.,Brachythecium camillegoodeae Broth.,E. Ochyra,1982,N/A,Bolivia,Oruro,Sajama,N/A,"DEPTO. ORURO, PROV. SAJAMA: Rio Jhntuma Khuchu, 2 mi. down river from Aguas termales de Rio Jhunthuma Khuchu, 4350 m, 18°07' S, 69°00' W.","Rio Jhntuma Khuchu, down river from Aguas termales de Rio Jhunthuma Khuchu",In warmish creek.,4350 m,"18°07' S, 69°00' W",1049407,Typed,no type status
0210_C2078928F.jpg,Marko Lewis,M. Lewis,N/A,79-2115,25 May 1979,1979-05-25,1979-05-25,Brachythecium callirgoneoides Broth. in Herz.,Brachythecium callirgoneoides Broth.,R. Ochyra,1982,N/A,Bolivia,Oruro,N/A,N/A,"DEPTO ORURO, PROV. SAJAMA: Rio Jhintumha Khuchu, 2 mi. down river from Aguas termales de Rio Jhuma Khuchu, 4350 m.","Rio Jhintumha Khuchu, 2 miles down river from Aguas termales de Rio Jhuma Khuchu",In warmish creek,4350 m,N/A,1049409,Typed,no type status
0211_C2078929F.jpg,Marko Lewis,M. Lewis,N/A,no. 79-2117,25 May 1979,1979-05-25,1979-05-25,Brachythecium calliergonoides Broth. in Herz.,Brachythecium calliergonoides,R. Ochyra,1982,N/A,Bolivia,Oruro,Sajama,N/A,"DEPTO. ORURO, PROV. SAJAMA: Rio Jhutuma Khuchu, 2 mi. down river from Aguas termales de Rio Juntuma Khuchu, 4350 m.","Rio Jhutuma Khuchu, 2 miles down river from Aguas termales de Rio Juntuma Khuchu",In warmish creek.,4350 m.,"18°07' S, 69°00' W",1049410,Typed,no type status
0212_C2078930F.jpg,Marko Lewis,M. Lewis,N/A,79-2118,25 May 1979,1979-05-25,N/A,Brachythecium calliergonoides Broth. in Herz.,Brachythecium calliergonoides Broth. in Herz.,R. Ochyra,1982,N/A,Bolivia,Depto. Oruro,Prov. Sajama,N/A,"Rio Juntuma Khuchu, 2 km downriver from Aguas termales de Rio Juntuma Khuchu, 4350 m. 18°07' S, 69°00' W. In Warnish creek.","Rio Juntuma Khuchu, 2 kilometers downriver from Aguas termales de Rio Juntuma Khuchu. In Warnish creek.",N/A,4350 m.,"18°07' S, 69°00' W",1049411,Typed,no type status
0213_C2078931F.jpg,"Marko Lewis, no. 79-2107",M. Lewis,N/A,79-2107,25 May 1979,1979-05-25,N/A,Brachythecium callirgoneoides Broth. in Herz.,Brachythecium callirgoneoides Broth.,R. Ochyra,1982,N/A,Bolivia,Oruro,Sajama,N/A,"DEPTO. ORURO, PROV. SAJAMA: Rio Juntuma Khuchu, 2 mi. down river from Aguas termales de Rio Juntuma Khuchu","Rio Juntuma Khuchu, 2 miles down river from Aguas termales de Rio Juntuma Khuchu",In warmaish creek,4350 m.,"18° 07' S, 69° 00' W",N/A,Typed,no type status
0214_C2078932F.jpg,Marko Lewis,M Lewis,N/A,79-2119,25 May 1979,1979-05-25,N/A,Brachythecium calliergonoides Broth. in Herz.,Brachythecium calliergonoides Broth. in Herz.,E. Ochyra,1982,N/A,Bolivia,Oruro,N/A,N/A,"DEPTO. ORURO, PROV. SAJAMA: Rio Juntuma Khuchu, 2 mi. down river from Aguas termales de Rio Juntuma Khuchu, 4300 m.","DEPTO. ORURO, PROV. SAJAMA: Rio Juntuma Khuchu, 2 miles down river from Aguas termales de Rio Juntuma Khuchu",In warmish creek,4300 m.,"17° 08' S, 69° 00' W",Nº 1049412,Typed,no type status
0215_C2079350F.jpg,Ynes Mexia,Y. Mexia,N/A,6149,"Nov. 23, 1931",1931-11-23,N/A,Vesicularia amphipholia (Spr.) Broth.,Vesicularia amphipholia (Spr.) Broth.,E.B. Bartram,N/A,N/A,Peru,Departamento de Loreto,N/A,N/A,Above Pongo de Manseriche. Left bank of Rio Santiago. On stone in overflow forest.,"Above Pongo de Manseriche, Left bank of Rio Santiago, On stone in overflow forest",On stone in overflow forest,Alt. 200 m.,N/A,873368,Typed,no type status
0216_C2079351F.jpg,N/A,N/A,N/A,8160,"""May 25, 1931""",1931-05-25,1931-05-25,Vesicularia subimbricata (Spr.) Broth.,Vesicularia subimbricata (Spr.) Broth.,E. Bartram,N/A,N/A,Peru,Loreto,N/A,N/A,"Above Pongo de Manseriche, Right bank of Río Santiago","Above Pongo de Manseriche, right bank of Río Santiago",Dense forest on log,"""Alt. 200 m.""",N/A,873367,Typed,no type status
0217_C2079352F.jpg,Ynes Mexia,Y. Mexia,N/A,6217-8,"Dec. 4, 1931",1931-12-04,N/A,Vesicularia amphipola (Spr.) Broth.,Vesicularia amphipola (Spr.) Broth.,N/A,N/A,N/A,Peru,Loreto,N/A,N/A,Above Pongo Manseriche. Streamlet on right bank of Rio Santiago.,Above Pongo Manseriche. Streamlet on right bank of Rio Santiago.,On rocks wet by spray.,Alt. 250 m.,N/A,870879,Typed,no type status
0218_C2079353F.jpg,Ynes Mexia,Y. Mexia,N/A,6259,"Dec. 12, 1931",1931-12-12,N/A,Vestigularia amphipleuroides (Spruce) Broth.,Vestigularia amphipleuroides (Spruce) Broth.,E. Bartram,N/A,N/A,Peru,Loreto,N/A,N/A,"Above Pongo de Manseriche, Groove Carapapas, ""06"" in forest.","Above Pongo de Manseriche, Groove Carapapas, ""06"" in forest.",In forest,Alt. 215 m.,N/A,870867,Typed,no type status
0219_C2079354F.jpg,G. Mexia,G. Mexia,N/A,6356,"Jan. 3, 1932",1932-01-03,N/A,Vesicularia crispula (Spr.) Broth.,Vesicularia crispula (Spr.) Broth.,Burtam,N/A,N/A,Peru,Departamento de Loreto,N/A,N/A,Above Pongo de Manseriche,Above Pongo de Manseriche,On earth collected on inclined tree trunk.,Alt. 215 m.,N/A,873369,Typed,no type status
0220_C2079355F.jpg,Ynes Mexia,Y. Mexia,N/A,6574,"Jan. 3, 1932",1932-01-03,N/A,Vesicularia amhiphilca (Spreng.) Brotherus,Taxithelium planum (Brid.) Mitt.,Brotherus,s.d.,Taxithelium planum (Brid.) Mitt.,Peru,Loreto,N/A,N/A,"Above Pongo de Manseriche, Creek Inthe. On rotten log. Sterile.","Above Pongo de Manseriche, Creek Inche, on rotten log [precise locality unknown]",N/A,Alt. 215 m.,N/A,1039121,Mix of Handwritten and Typed,no type status
0221_C2079356F.jpg,Ynes Mexia,Y. Mexia,N/A,6378,"Jan. 3, 1938",1938-01-03,1938-01-03,Vesicularia campylopoda (Spruce) Broth. in sched.,Vesicularia campylopoda (Spruce) Broth.,N/A,N/A,N/A,Peru,Loreto,N/A,N/A,Above Pongo de Manseriche,Above Pongo de Manseriche,Jungle,Alt. 215 m.,N/A,570880,Typed,no type status
0222_C2079357F.jpg,Ynes Mexia,Y. Mexia,N/A,6377,"Jan. 3, 1932",1932-01-03,N/A,Vesicularia amphipholia (Spr.) Broth.,Vesicularia amphipholia (Spr.) Broth.,N/A,N/A,N/A,Peru,Loreto,N/A,N/A,"Above Pongo de Manseriche, Crook Inche, On rotten log.","Above Pongo de Manseriche, Crook Inche, on rotten log.",On rotten log.,Alt. 215 m.,N/A,870873,Typed,no type status
0223_C2079358F.jpg,Ynes Mexia,Y. Mexia,N/A,8070,"May 14, 1936",1936-05-14,N/A,Vesicularia amphibia (Spr.) Broth. det. Bartram,Vesicularia amphibia (Spr.) Broth.,Det. Bartram,N/A,N/A,Peru,Cuzco,La Convencion,N/A,upper valley of the Sambay; affluent of the Vilcanota; on rotten logs in virgin forest,upper valley of the Sambay; affluent of the Vilcanota; on rotten logs in virgin forest,on rotten logs in virgin forest,Alt. 1800 m.,N/A,1068658,Typed,no type status
0224_C2079359F.jpg,Ynes Mexia No. 8070,Y. Mexia,N/A,8070,"May 14,1936",1936-05-14,N/A,Vestibularia amabilis (Spr.) Broth. in matutero,Vestibularia amabilis (Spr.) Broth.,N/A,N/A,N/A,Peru,Cuzco,La Convencion,N/A,upper valley of the Sambay; affluent of the Vilcanota,upper valley of the Sambay; affluent of the Vilcanota,on rotten logs in virgin forest.,Alt. 1600 m.,N/A,1039122,Typed,no type status
0225_C2079360F.jpg,R. Reitz,R. Reitz,N/A,s.n.,APR 1956,1956-04-00,N/A,Hypnum revolutum Mitt. var. revolutum (Schwaegr.) Broth.,Hypnum revolutum Mitt. var. revolutum (Schwaegr.) Broth.,N/A,N/A,N/A,Brazil,Santa Catarina,N/A,N/A,"Bombinhas, Itajai","Bombinhas, Itajai",Mata Atlantica de mata virgem,Alt. 550 metros,N/A,N/A,Typed,no type status
0226_C2079361F.jpg,F. J. Hermann,F.J. Hermann,N/A,25019,"December 19, 1972",1972-12-19,1972-12-19,Vesicularia vesicularis (Schwaegr.) Broth.,Vesicularia vesicularis (Schwaegr.) Broth.,H. Robinson,N/A,N/A,Colombia,Santander,N/A,N/A,"On base of tree trunk, Parquitas, 1/4 mile NW Florida","On base of tree trunk, Parquitas, 1/4 mile northwest Florida",N/A,alt. ca. 4000 ft.,N/A,1049911,Typed,no type status
0227_C2079362F.jpg,Richard Evans Schultes,R.E. Schultes,N/A,11107,"Dec., 1950",1950-12-00,1950-12-00,Vesicularia vesicularis (Schw.) Brot.,Vesicularia vesicularis (Schw.) Brot.,W.D. Reese,"Dec., 1950",N/A,Colombia,Intendencia del Meta,N/A,N/A,alrededores de Villavicencio. Alt 500 m.,alrededores de Villavicencio,N/A,500 m.,N/A,1055509,Typed,no type status
0228_C2079715F.jpg,"J.P. Frahm, P. Geissler, S.R. Gradstein, G. Philippi, W. Schultze-Motel",J.P. Frahm,"P. Geissler, S.R. Gradstein, G. Philippi, W. Schultze-Motel",875,4.9.1982,1982-09-04,1982-09-04,Entodon jamesonii (Tayl.) Mitt.,Entodon jamesonii (Tayl.) Mitt.,W. Schultze-Motel,N/A,N/A,Peru,Amazonas,Chachapoyas,N/A,"Prov. Chachapoyas, Straße Chachapoyas Cajamarca oberhalb Leimebamba km 417, senexponierter Hang, hochandiner Regenwald auf Kalkstein","Prov. Chachapoyas, Road Chachapoyas to Cajamarca above Leimebamba km 417, senexponierter Hang",hochandiner Regenwald auf Kalkstein,2800 msn.,N/A,1767822,Typed,no type status
0229_C2079716F.jpg,J. Kenneth Wright,J.K. Wright,N/A,4806,1 April 1964,1964-04-01,1964-04-01,"Entodon jamesonii (Tayl.) Mitt. dupl. - det. E. Robinson, 1966",Entodon jamesonii (Tayl.) Mitt.,E. Robinson,1966,N/A,Peru,Amazonas,Province of Chachapoyas,N/A,"Cerros Calla Calla, ca. side, 5 km. above Leimebamba on the road to Balsas, at San Miguel (no buildings at this locality)","Cerros Calla Calla, ca. side, 5 kilometers above Leimebamba on the road to Balsas, at San Miguel",Altitude 4400m,4400m,N/A,1028164,Typed,no type status
0230_C2079717F.jpg,Dan Griffin III,D. Griffin III,N/A,PV-966,30 Jun. 1985,1985-06-30,N/A,Entodon jamesoni (Tayl.) Broth.,Entodon jamesoni (Tayl.) Broth.,D. Griffin III,N/A,N/A,Venezuela,Estado Mérida,N/A,N/A,"Finca de Los Granates, finca de Los Granates, a lo largo del río de Los Granates y en las lomas cercanas","Finca de Los Granates, along the river of Los Granates and in the nearby hills","Sobre roca seca, a sombra.","3,000-3,300 m",N/A,106416,Typed,no type status
0231_C2079718F.jpg,Ynes Mexia,Y. Mexia,N/A,5677,"April 21, 1931",1931-04-21,1931-04-21,Entodon Lindbergii Hoppe,Entodon Lindbergii Hoppe,A.L.S. de Bartram,N/A,N/A,Brazil,Minas Gerais,N/A,Cordisburgo,Fazenda do Diamante. Campo virides. ,"Fazenda do Diamante, Campo Virides",Base of living tree in shade,Alt. 500 m.,N/A,380181,Typed,no type status
0232_C2079719F.jpg,N/A,N/A,N/A,s.n.,Marzo 1941,1941-03-00,1941-03-00,Entosthodon longirostris (Hook.) Best. ,Entosthodon fascicularis (Hedw.) Grout,N/A,s.d.,N/A,Mexico,N/A,N/A,N/A,"Río Frio, Ixtaccihuatl","Río Frio, Ixtaccihuatl",N/A,N/A,N/A,1078203,Typed,no type status
0233_C2079720F.jpg,Marko Lewis,M. Lewis,N/A,79-590,8 February 1979,1979-02-08,1979-02-08,Entodon cf. concinniclamicum C. Mü. ( = E. mucans Herz.),Entodon concinniclamicum C. Mü.,M. Buck,1980,N/A,Bolivia,Tarija,Prov. Méndez,N/A,"DEPTO. TARIJA. PROV. MÉNDEZ:PROV. CERCADO;PROV. AVILÉS: Canyon 5 mi. SW of Tablada, SW of Tarija 20 mi. S., 64° W.","Canyon 5 miles southwest of Tablada, southwest of Tarija 20 miles south",Bank of creek,2160 m.,"21° 30' S, 64° 50' W",N/A,Typed,no type status
0234_C2079721F.jpg,Marko Lewis,M. Lewis,N/A,79-1220,22 March 1979,1979-03-22,1979-03-22,Entodon nano-climacium C. Müll. (E. micans Herz.),Entodon nano-climacium C. Müll. (E. micans Herz.),M. Buck,1980,N/A,Bolivia,La Paz,N/A,Sorata,"DEPTO. LA PAZ, PROV. LARECAJA: Near large red out-crop 2 mi. from Sorata down Río Consata",Near large red outcrop 2 miles from Sorata down Río Consata,Very shady ground along creek in humid shrubs,2600 m,"15° 41' S., 68° 43' W.",1845259,Typed,no type status
0235_C2079722F.jpg,Harry Ward Foote,H. W. Foote,N/A,s.n.,Sept. 3,1911-09-03,1911-09-03,Erpodium biseriatum Broth.,Erpodium biseriatum Broth.,N/A,N/A,N/A,Peru,N/A,N/A,San Miguel,On rocks near San Miguel,On rocks near San Miguel,N/A,"11,000 ft.",N/A,N/A,Typed,no type status
0236_C2079723F.jpg,Marko Lewis ,M. Lewis ,N/A ,79-1346,1 April 1979,1979-04-01,N/A ,cf. Entodon polycarpus ,Entodon polycarpus ,W. Buck ,1980,N/A ,Bolivia ,La Paz ,Larecaja ,N/A ,"DEPTO. LA PAZ, PROV. LARECAJA: Between Abra Huallatani and waterfall at Millipaya ",Between Abra Huallatani and waterfall at Millipaya ,"Waterfall ravine, highest extension of shrubs ",3780 m,"15° 51' S, 68° 39' W",1 079 757,Typed ,no type status
0237_C2079595F.jpg,H. Roivainen,H. Roivainen,N/A,2095,25.I.1970,1970-01-25,N/A,Isopterygium pulchellum (Hedw.) Jaeg. det. R. Ochyra 1996,Isopterygium pulchellum (Hedw.) Jaeg.,R. Ochyra,1996,Nothofagus pumilio,Argentina,Tierra del Fuego,N/A,Ushuaia,"Tierra del Fuego australis, Ushuaia, Arroyo Grande",Arroyo Grande,"En fisuras de roca y en raíces humoso-arcillosos de Nothofagus pumilio, en orilla de la cascada",150 m,"54°47'S, 68°18’W",N° 1182417,Typed,no type status
0238_C2079596F.jpg,H. Roivainen,H. Roivainen,N/A,1352,21.12.1969,1969-12-21,N/A,Isoterygium pulchellum (Brid.) Jaeg.,Isoterygium pulchellum (Brid.) Jaeg.,Ochyra,1996,N/A,Argentina,Tierra del Fuego,N/A,N/A,"Tierra del Fuego australis, Valle del río Pipo",Valle del río Pipo,"suelo humoso húmedo en el pendiente del río, bastante conspícamente",300 m s.m.,"54°46'S, 68°20'W",Nº 1182415,Mix of Handwritten and Typed,no type status
0239_C2079597F.jpg,E. P. Killip & A. C. Smith,E. P. Killip,A. C. Smith,14971,November 19. 1926,1926-11-19,N/A,Isoterygium strigosum (C. Müll.) Var.,Isoterygium tenerum (Sw.) Mitt.,R. R. Ireland,1988,N/A,Colombia,Santander,N/A,N/A,"Between Pueblo Viejo and Puerto Santos, North Santander",Between Pueblo Viejo and Puerto Santos,On trunks of trees,1100-1150 meters,N/A,No. 14971,Mix of Handwritten and Typed,no type status
0240_C2079598F.jpg,RICHARD EVANS SCHULTES,R.E. Schultes,N/A,s.n.,"Dec., 1950",1950-12-00,N/A,Isoterygium tenerrimum (Sw.) Mitt.,Isoterygium tenerrimum (Sw.) Mitt.,Dana Griffini III,19 88,N/A,Colombia,Meta,N/A,Villavicencio,Intendencia del Meta: alrededores de Villavicencio,[precise locality unknown],N/A,Alt. 500 m.,N/A,1055473,Mix of Handwritten and Typed,no type status
0241_C2079599F.jpg,D.C. Geijskes,D.C. Geijskes,N/A,s.n.,29-9-1952,1952-09-29,1952-09-29,Isopterigium tenerum (Sw.) Mitt.,Isopterigium tenerum (Sw.) Mitt.,H.R. Zielman,N/A,N/A,Suriname,N/A,N/A,N/A,"Marowijne River, Lawa Falls rainforest","Marowijne River, Lawa Falls rainforest","On rocks and roots on bank of river, shai.",N/A,N/A,1073518,Typed,no type status
0242_C2079600F.jpg,Ynes Mexia,Y. Mexia,N/A,8043,"July 6, 1930",1930-07-06,1930-07-06,Isopterygium brasiliense (Hampe) Jaeg. sp. of Isopterygium tenerum (Sw.) Mitt.,Isopterygium tenerum (Sw.) Mitt.,R.R. Ireland,1988,N/A,Brazil,Minas Gerais,N/A,Viçosa,"Agricultural College land, Horticultural Hill","Agricultural College land, Horticultural Hill","Cut-over woods near base, on twigs & logs, Abundant",Alt. 870 m,N/A,1039979,Typed,no type status
0243_C2079601F.jpg,Ynes Mexia,Y. Mexia,N/A,4888,"July 21, 1930",1930-07-21,N/A,Isoperygum laxum (Hpe. ex Broth.) Broth.,Isopterygium tenerum (Sw.) Mitt.,R.R. Ireland,1988,N/A,Brazil,Minas Geraes,N/A,Viçosa,Viçosa Agricultural College bank,Agricultural College bank,"Corriga Ribberro, Shady streambank, On rotten wood",Alt. 675 m.,N/A,873365,Mix of Handwritten and Typed,no type status
0244_C2079602F.jpg,Ynes Mexia,Y. Mexia,N/A,8386,"Dec. 9, 1930",1930-12-09,1930-12-09,Isopterygium brachyneuron (Tayl.) Mitt. Legit,Isopterygium tenerum (Sw.) Mitt.,R.R. Ireland,1988,N/A,Brazil,Minas Gerais,N/A,N/A,Road to Sao Luiz.,Road to Sao Luiz.,Dense forest. On rotten logs. In fruit.,Alt. 710 m.,N/A,870841,Typed,no type status
0245_C2079603F.jpg,Ynes Mexia,Y. Mexia,N/A,54421,"Dec. 23, 1930",1930-12-23,N/A,Isopterygium tenerum (Sw.) Mitt.,Isopterygium tenerum (Sw.) Mitt.,R.R. Ireland,1988,N/A,Brazil,Minas Gerais,N/A,N/A,Viçosa Agricultural College lands. Base of Horticultural Hill.,[precise locality unknown],On rotting logs in woods.,Alt. 670 m.,N/A,3785283,Typed,no type status
0246_C2079604F.jpg,"H. S. Irwin, R. M. Harley, C. L. Smith",H.S. Irwin,"R.M. Harley, C.L. Smith",31332,2 March 1971,1971-03-02,N/A,Isoterygium tenerum (Sw.) Mitt.,Isoterygium tenerum (Sw.) Mitt.,R.R. Ireland,1988,N/A,Brazil,N/A,N/A,N/A,Valley of the Rio das Ondas,Valley of the Rio das Ondas,"On the bark and exposed roots of Coccoloba sp., and on adjacent soil, at river bank. Out-crop gallery forest and adjacent cerrado, ca. 10km W. of Barreiras.",ca. 500m.,N/A,1059328,Typed,no type status
0247_C2079606F.jpg,Ynes Mexia,Y. Mexia,N/A,4834,"July 21, 192",192-07-21,N/A,Isopterygium tenerum (Sw.) Mitt.,Isopterygium tenerum (Sw.) Mitt.,R.R. Ireland,1988,N/A,Brazil,Minas Gerais,N/A,Vicosa,"Vicosa Agricultural College lands, Corrego Feliz","Vicosa Agricultural College lands, Corrego Feliz","Shady streambank, on rotten logs",Alt. 675 m.,N/A,N/A,Typed,no type status
0248_C2079607F.jpg,Ynes Mexia ,Y. Mexia,N/A,4690,"May 14, 1930",1930-05-14,N/A,Isopterygium tenerum (Sw.) Mitt.,Isopterygium tenerum (Sw.) Mitt.,R. R. Ireland,1988,N/A,Brazil,Minas Gerais,N/A,N/A,"Vicosa, Fazenda de Crosluma","Vicosa, Fazenda de Crosluma, Wood on slope, On rotten log.",Wood on slope,Alt. 700 m.,N/A,870839,Typed,no type status
0249_C2079608F.jpg,Ynes Mexia,Y. Mexia,N/A,4884,"July 21, 1930",1930-07-21,N/A,Isoterygium cumylaoicum (G.M.) Mitt.,Isopterygium tenerum (Sw.) Mitt.,R.R. Ireland,1988,N/A,Brazil,Minas Gerais,N/A,N/A,Viçosa Agricultural College lands. Corrego Riibero.,Viçosa Agricultural College lands. Corrego Riibero.,"Shady streambank, on rotten log.",Alt. 675 m,N/A,1039977,Typed,no type status
0250_C2079609F.jpg,Ynes Mexia,Y. Mexia,N/A,4545,"March 31, 1930",1930-03-31,N/A,Isoterygium curviramulum (Mitt.) Mitt. det. Bartram,Isoterygium tenerum (Sw.) Mitt.,R.R. Ireland,1988,N/A,Brazil,State of Minas Geraes,Vicos,N/A,Road to São Miguel; near stream 'Turbio'.,Road to São Miguel; near stream 'Turbio'.,Out over woods on slope. On rotting tree trunk.,Alt. 710 m.,N/A,1039978,Typed,no type status
0251_C2079611F.jpg,Schäffer,Schäffer,N/A,2898,s.d.,s.d.,s.d.,Isopterygium araucaricola (C. Muell.) Broth. ex Moenkem.,Isopterygium tenerum (Sw.) Mitt.,R.R. Ireland,1988,N/A,Brazil,São Paulo,N/A,N/A,"prope urbem Curityban-Crescit, in pineta, 670 m. s. m. Jal Ir.",prope urbem Curityba,"Crescit, in pineta",670 m. s. m.,N/A,102176,Typed,no type status
0252_C2079856F.jpg,Ynes Mexia,Y. Mexia,N/A,4641,"July 6, 1930",1930-07-06,1930-07-06,Isoterygium brachyphyllum (Mitt.) Mitt. et P. de la Varde.,Isoterygium tenerum (Sw.) Mitt.,R.R. Ireland,1988,N/A,Brazil,Minas Gerais,N/A,N/A,Viçosa Agricultural College lands.,Viçosa Agricultural College lands,Over woods near base. Cutting logs,alt. 670 m.,N/A,870311,Typed,no type status
0253_C2079858F.jpg,R. S. Williams,R.S. Williams,N/A,2025,"Dec 2, 1901",1901-12-02,1901-12-02,Isopterygium tenerum (Sw.) Mitt.,Isopterygium tenerum (Sw.) Mitt.,R.R. Ireland,1988,N/A,Bolivia,N/A,N/A,N/A,San Jose,San Jose,"In dense forest, 1200 meters, on rocks",1200 meters,N/A,N/A,Typed,no type status
0254_C2079859F.jpg,R. S. Williams,R.S. Williams,N/A,2037,1901-1902,1901-00-00,1902-12-31,Isopterygium tenerum (Sw.) Mitt.,Isopterygium tenerum (Sw.) Mitt.,R.S. Williams,1902,N/A,Bolivia,N/A,N/A,N/A,N/A,[precise locality unknown],N/A,N/A,N/A,1014912,Typed,no type status
0255_C2010970F.jpg,Leg. I. Hagen,I. Hagen,N/A,s.n.,s.d.,s.d.,N/A,Hylocomium umigmatum (L.) Br. et Sch. var. affine (Bridel) Sulliv.,Hylocomium umigmatum (L.) Br. et Sch. var. affine (Bridel) Sulliv.,N/A,N/A,N/A,Norway,Sør-Trøndelag,N/A,N/A,Norvegia Värde bot. Stordalen pr. Stören,Stordalen near Stören,N/A,altit. mtr. 700-900 m,N/A,N/A,Handwritten,no type status
0256_C2010972F.jpg,N/A,N/A,N/A,s.n.,s.d.,0000-00-00,0000-00-00,Pogonatum urnigerum (L.) P. Beauv.,Pogonatum urnigerum (L.) P. Beauv.,N/A,N/A,N/A,United Kingdom,England,N/A,N/A,England,[precise locality unknown],N/A,N/A,N/A,N/A,Typed,no type status
0257_C2000534F.jpg,Pyrenaicis: Coego de Joret,N/A,N/A,"""s.n.""",1878,1878-00-00,N/A,Pyrolaceae; Pyrola uniflora,Pyrola uniflora,N/A,N/A,N/A,France,N/A,N/A,N/A,Pyrenaicis: Coego de Joret,Coego de Joret,N/A,N/A,N/A,N/A,Handwritten,no type status
0258_C2000536F.jpg,Ex Herb. W. Mitten,W. Mitten,N/A,s.n.,s.d.,s.d.,N/A,Pogonatum urnigerum,Pogonatum urnigerum,N/A,N/A,N/A,United Kingdom,England,Sussex,N/A,"Sussex, England","Sussex, England [precise locality unknown]",N/A,N/A,N/A,1096014,Typed,no type status
0259_C2000538F.jpg,Webb,Webb,N/A,s.n.,[no date]([circa] 1830–40),1830-00-00,1840-00-00,Isoetes longissima,Isoetes longissima,N/A,N/A,N/A,Spain,Canarias,N/A,N/A,"Upper part of Cumbre, on the Canary Isl[ands].","Upper part of Cumbre, Canary Islands",N/A,N/A,N/A,N/A,Mix of Handwritten and Typed,no type status
0260_C2000542F.jpg,Leg. E. Jeanpert,E. Jeanpert,N/A,N/A,13-17/6/98,1898-06-13,1898-06-17,Sphagnum medium var. imbricatum ,Sphagnum medium var. imbricatum,N/A,N/A,N/A,France,Île-de-France,Seine-et-Oise,Villiers-le-Bel,"Villiers-le-Bel, à la tourbière","Villiers-le-Bel, à la tourbière",[precise locality unknown],N/A,N/A,108477,Handwritten,no type status
0261_C2000932F.jpg,C. Maler Frth.,C. Maler Frth,N/A,s.n.,9. Sept. 1905,1905-09-09,1905-09-09,Polytrichum urnigerum (L.) P. Beauv. c. fr.,Polytrichum urnigerum (L.) P. Beauv. c. fr.,N/A,N/A,N/A,Germany,Saxony,N/A,N/A,Seeb. Raben auf Erde in Felsspalten zwischen Bärenklau und Seeblick am Feldberge,[precise locality unknown],auf Erde in Felsspalten,ca. 1210 m. w. S.,N/A,1123491,Mixed of Handwritten and Typed,no type status
0262_C2000934F.jpg,leg. Zd. Pilous,Z. Pilous,N/A,s.n.,V. 1946,1946-05-00,N/A,Pleogymnium undigonum P.B.,Pleogymnium undigonum P.B.,N/A,N/A,N/A,Czech Republic,Bohemia,N/A,N/A,"in declivis graminosis silvaticis prope pagum Hoření Vrchlabí, ca 850 m",in grassy slopes of forests near Hoření Vrchlabí,N/A,ca 850 m,N/A,N/A,Mix of Handwritten and Typed,no type status
0263_C2000936F.jpg,Collected in 1843 by James Thompson,J. Thompson,N/A,s.n.,1843,1843-00-00,1843-00-00,Gonatium semiglobularum,Gonatium semiglobularum,J. Thompson,N/A,N/A,United Kingdom,Scotland,N/A,N/A,N/A,[precise locality unknown],N/A,N/A,N/A,N/A,Handwritten,no type status
0264_C2000938F.jpg,,,,,,,,,,,,,,,,,,,,,,,,
0265_C2000940F.jpg,N/A,N/A,N/A,s.n.,MAY 1945,1945-05-00,1945-05-00,Polytrichum alpinum Hedw.,Polytrichum alpinum Hedw.,N/A,N/A,N/A,N/A,N/A,N/A,N/A,"Warren Co., Tennessee","Warren Co., Tennessee",N/A,N/A,N/A,115326,Typed,no type status
0266_C2000943F.jpg,C. Jensen,C. Jensen,N/A,s.n.,25/10 1901,1901-10-25,1901-10-25,Pogonatum urnigerum (Hedw.) P. Beauv.,Pogonatum urnigerum (Hedw.) P. Beauv.,N/A,N/A,N/A,Denmark,Sjælland,N/A,N/A,Maglebrækkov by Hvalsø in a gravel-pit,Maglebrækkov by Hvalsø in a gravel-pit,N/A,N/A,N/A,APR 1953,Typed,no type status
0267_C2000945F.jpg,P.A. Jeanpert,P.A. Jeanpert,N/A,s.n.,15 Octobre 1859,1859-10-15,1859-10-15,Bryum marginatum (Lambda.) C.M.,Bryum marginatum,N/A,N/A,N/A,France,N/A,N/A,N/A,N/A,[precise locality unknown],N/A,[precise locality unknown],N/A,1058475,Handwritten,no type status
0268_C2000947F.jpg,N/A,N/A,N/A,s.n.,s.d.,N/A,N/A,Drosera intermedia Hayne,Drosera intermedia Hayne,N/A,N/A,N/A,N/A,N/A,N/A,N/A,N/A,[precise locality unknown],bords tourbeux (translated: turfy edges),N/A,N/A,1058481,Handwritten,no type status
0269_C2000949F.jpg,Gift of Elmer J. Richards,N/A,N/A,s.n.,MAY 1946,1946-05-00,N/A,Sphagnum palustre,Sphagnum palustre,N/A,N/A,N/A,Scotland,N/A,N/A,N/A,Scotland,[precise locality unknown],N/A,N/A,N/A,1182976,Typed,no type status
0270_C2010614F.jpg,Leg. J. G. Stafleu,J.G. Stafleu,N/A,s.n.,IX 26. 1936,1936-09-26,N/A,Sphagnum junghuhnianum Dozy & Molk.,Sphagnum junghuhnianum Dozy & Molk.,N/A,N/A,N/A,Indonesia,Java,N/A,N/A,"Idjen Hochplateau, Poentjak Idjen, Djember.","Idjen Hochplateau, Poentjak Idjen, Djember","Moeras (Dutch for ""marsh"")",ca. 1850 m,N/A,1050871,Typed,no type status
0271_C2010616F.jpg,M. Arnaud,M. Arnaud,N/A,76.13670,le 7.07.1976,1976-07-07,N/A,Syrrhopodon viviparus (Schwägr.) Besch.,Syrrhopodon viviparus (Schwägr.) Besch.,N/A,N/A,N/A,Guinea,N/A,N/A,N/A,"Falaise forestière, alt. ±100m",Falaise forestière,[precise locality unknown],alt. ±100m,N/A,1050867,Typed,no type status
0272_C2010618F.jpg,N/A,N/A,N/A,N/A,N/A,N/A,N/A,N/A,Pyrrhobryum spiniforme,N/A,N/A,N/A,N/A,N/A,N/A,N/A,N/A,[precise locality unknown],N/A,N/A,N/A,1058318,Typed,no type status
0273_C2010620F.jpg,Jacq. Schiner u. Stitzenberger,Jacq.,"Schiner, U. Stitzenberger",9684,23. August 1850,1850-08-23,N/A,Pogonatum urnigerum (L.) P. Beauv.,Pogonatum urnigerum (L.) P. Beauv.,N/A,N/A,N/A,Austria,Tyrol,N/A,N/A,Am Waldrande bei Salzb.,Am Waldrande bei Salzb.,N/A,N/A,N/A,1054838,Typed,no type status
0274_C2010622F.jpg,Dr. Hüpp,s.n.,N/A,995B,17 Oktober 1862,1862-10-17,1862-10-17,Pogonatum urnigerum (L.) P. Beauv.,Pogonatum urnigerum (L.) P. Beauv.,N/A,N/A,N/A,Austria,N/A,N/A,N/A,An einem Waldwege und auf einem Sandsteinfelse oberhalb Dörfles,an einem Waldwege und auf einem Sandsteinfelse oberhalb Dörfles [precise locality unknown],N/A,N/A,N/A,10559381,Typed,no type status
0275_C2010624F.jpg,A. L. Kroeber et Schaffhausen,A.L. Kroeber,Schaffhausen,s.n.,September 1862,1862-09-00,1862-09-00,Pogonatum urnigerum (L.) P. Beauv.,Pogonatum urnigerum (L.) P. Beauv.,N/A,N/A,N/A,N/A,N/A,N/A,N/A,N/A,[precise locality unknown],N/A,N/A,N/A,1055050,Typed,no type status
0276_C2010626F.jpg,C. Jensen,C. Jensen,N/A,s.n.,"November 21, 1904",1904-11-21,1904-11-21,BRYOPHYTA DANICA EXSICCATA 104. Pogonatum urnigerum (Hedw.) P. c. f.,Pogonatum urnigerum (Hedw.) P. c. f.,N/A,N/A,N/A,New Zealand,N/A,N/A,N/A,sandy soil in Mangataksowen south of Hvalsö,sandy soil in Mangataksowen south of Hvalsö,N/A,N/A,N/A,N/A,Typed,no type status
0277_C2010974F.jpg,P. Allorge,P. Allorge,N/A,s.n.,Avril 1921,1921-04-01,1921-04-30,Bryotheca Iberica,Bryotheca Iberica,P. Allorge,Avril 1921,N/A,Spain,Navarra,N/A,Puerto de Ibañeta,"Puerto de Ibañeta (Navarra) talus argileux (schistes) avec Alnus salsa L., Loiseleuria procumbens (L.) Desv., Arctostaphylos uva-ursi (L.) Spreng., Rhododendron ferrugineum L. etc.",Puerto de Ibañeta,"talus argileux (schistes) avec Alnus salsa L., Loiseleuria procumbens (L.) Desv., Arctostaphylos uva-ursi (L.) Spreng., Rhododendron ferrugineum L. etc.",N/A,N/A,N/A,Mix of Handwritten and Typed,no type status
0278_C2010976F.jpg,leg. Zd. Pilous,Z. Pilous,N/A,s.n.,VII.1949,1949-07-00,1949-07-00,Pogonatum urnigerum Pal. var. humile Brid.,Pogonatum urnigerum var. humile,N/A,N/A,N/A,Slovakia,N/A,N/A,N/A,"Slovensko, Montes Mtsz Tatry: In terra montis Dumbier, cca 1840 m",Montes Mtsz Tatry; In terra montis Dumbier,[habitat information not provided on the label],cca 1840 m,N/A,135087,Typed,no type status
0279_C1042257F.jpg,S. Churchill et al.,S. Churchill,N/A,22865,12 May 2004,2004-05-12,N/A,Neckera scabridens C. Müller,Neckera scabridens C. Müller,S. Churchill,Jun 2004,N/A,Bolivia,Chuquisaca,Belisario Boeto,N/A,"Monte Grande, ca. 82 km de Villa Serrano. Bosque montano de yungas. Con Purpurothyrsus exigua, Podocarpus, Myracinehes.","Monte Grande, approximately 82 kilometers from Villa Serrano, Yungas montane forest","Yungas montane forest with Purpurothyrsus exigua, Podocarpus, Myracinehes",2740 m,"18°43'36""S 64°29'07""W",1193467,Typed,no type status
0280_K000931304.jpg,E. C. de Oliveira (30%) y Melo & K. Pinheiro,E.C. de Oliveira,"y Melo, K. Pinheiro",s.n.,23/IV/2007,2007-04-23,N/A,Vigna peduncularis (Kunth) Fawc. & Rendle,Ancistrotropis peduncularis (Fawcett & Rendle) A. Delgado,G.P. Lewis,12.2012,N/A,Brazil,Pernambuco,N/A,Mirandiba,"Municipio de Mirandiba, Serra das Umburanas (afloramento rochoso)",Serra das Umburanas,Baixa vegetação arbustiva; Sítio Pedra do entulho; embasamento cristalino,457 m,"08°42'S, 38°32'W",K000931304,Mix of Handwritten and Typed,no type status
0281_EIG.6763.jpg,Ilkka Kukkonen,I. Kukkonen,N/A,11003,13. Sept. 1981,1981-09-13,N/A,Arthropteris tenella (G. Forst.) J. Sm. ,Arthropteris tenella (G. Forst.) J. Sm.,S. Kurvela,1932,N/A,Australia,Queensland,N/A,Atherton Tableland,"Atherton Tableland, Lamins Hill rainforest, N. of Malanda. ","Atherton Tableland, Lamins Hill rainforest, north of Malanda",Fern climbing on tree stems. ,N/A,N/A,H.132150,Typed,no type status
0282_K001046329.jpg,,,,,,,,,,,,,,,,,,,,,,,,
0283_K000964719.jpg,W. Hoehne,W. Hoehne,N/A,s.n.,s.d.,00-00-00,00-00-00,SOLANACEAE Cestrum corymbosum Schltdl.,Cestrum corymbosum Schltdl.,M. Kuhlmann,N/A,N/A,Brazil,São Paulo,"Cantareira, São Paulo",N/A,"Cantareira, São Paulo, ""...""","Cantareira, São Paulo",N/A,Alt. -,N/A,K000964719,Typed,no type status
0284_EIG.5460.jpg,H. Eggert,H. Eggert,N/A,s.n.,s.d.,s.d.,s.d.,Cystopteris bulbifera,Cystopteris bulbifera (L.) Bernh.,N/A,N/A,N/A,United States,Missouri,N/A,N/A,Hillsboro,Hillsboro,N/A,N/A,N/A,112645,Handwritten,no type status
0285_EIG.435.jpg,Tilada Tuulonen 12608,T. Tuulonen,N/A,12608,8.XI.1982,1982-11-08,1982-11-08,Dryopteris inaequalis (Schlechtend.) Kuntze,Dryopteris inaequalis (Schlechtend.) Kuntze,J. Sarvela,1983,N/A,Ethiopia,Bale Adm. Reg.,N/A,N/A,"Bale Adm. Reg., Saneti plateau and Mount Batu, 06°55'N 39°40'E",Saneti plateau and Mount Batu,"On the way to Saneti plateau from Robe, Steep forested slope of a river canyon, E.g. Juniperus procera covered slope, Pastured slope",c. 4000-4200 m,06°55'N 39°40'E,H148739,Typed,no type status
0286_E00570050.jpg,"M.A. Vallejo, M.I. Murray",M.A. Vallejo,M.I. Murray,s.n.,23 Mar 2012,2012-03-23,2012-03-23,Mimulus peregrinus,Mimulus peregrinus,N/A,N/A,N/A,Scotland,N/A,N/A,N/A,"bedsides Loch, Kinord, South of Tomintoul, Sterling. OS Ref: NJ 3529 0157, WGS84 coordinates: N57E23.7, W003E15.7","bedsides Loch Kinord, South of Tomintoul, Sterling",Occurring on the banks of a stream on a substrate of sand and silt/clay,500 m,"N57E23.7, W003E15.7",E00571060,Typed,HOLOTYPE
0287_K000773283.jpg,R.V. Lansdowne,R.V. Lansdowne,N/A,648,"Aug. 9, 1902",1902-08-09,N/A,Orobanche Hederacea Sm. Benth. in Sm.,Orobanche Hederacea Sm.,N/A,N/A,N/A,United Kingdom,England,Surrey,N/A,"Witley, nr. Haslemere","Witley, near Haslemere",[precise locality unknown],N/A,N/A,266; RBG Kew,Typed,no type status
0288_BR0000006918378.jpg,Bart Van de Vijver & W. Van Looken,B. Van de Vijver,W. Van Looken,s.n.,25/04/2007,2007-04-25,2007-04-25,Ophrys oestrifera subsp. garganensis Van de Vijver & W. Van Looken,Ophrys oestrifera subsp. garganensis,N/A,s.d.,N/A,Italy,N/A,N/A,N/A,Promontorio del Gargano / Madonna di Loreto / Behind the Chapel of Madonna di Loreto,"Promontorio del Gargano, Madonna di Loreto, behind the Chapel of Madonna di Loreto",macchia-shrub with Cistus and Pinus,N/A,N/A,BR - S.P. 691 837,Typed,no type status
0289_K001207911.jpg,G Hatschbach & Z.C. de Mello Regala,G. Hatschbach,Z.C. de Mello Regala,196179,9-VII-85,1985-07-09,N/A,Platycyamus regnellii Benth.,Platycyamus regnellii Benth.,L. Pedersen,1991,N/A,Brazil,Paraná,N/A,N/A,Rio Iguaçu próx. barr.do Perdido(mun.Laranjeiras do Sul) ,Rio Iguaçu próximo à barragem do Perdido (município Laranjeiras do Sul),"Em terreno arenoso, margens de rio.",770m,S24º - W52º,N/A,Typed,no type status
0290_K000263710.jpg,"J.J. de Wilde, B.J.E. de Wilde-Duyfjes & P. van der Veken",J.J. de Wilde,"B.J.E. de Wilde-Duyfjes, P. van der Veken",10130,22-1-1991,1991-01-22,N/A,Rhynchopetalum gabonense Jongkind,Rhynchopetalum gabonense Jongkind,Jongkind,N/A,N/A,Gabon,N/A,N/A,N/A,"About 10 km. on the road from N'Tchibléle to Voula, O 04 N., O 13 E.",About 10 kilometers on the road from N'Tchibléle to Voula,In long tree in roadside,alt. it: 580 m.,"O 04 N., O 13 E.",K000236710,Typed,ISOTYPE
0291_BM000934757.jpg,WILHELM SUKSDORF,W. Suksdorf,N/A,12045,Aug. 1926,1926-08-00,1926-08-00,Solanum triflorum Nutt.,Solanum triflorum Nutt.,T. Särkinen,2014,N/A,United States,Washington,Klickitat,N/A,High sandy river-bank at Bingen,High sandy river-bank at Bingen,High sandy river-bank,N/A,N/A,BM000934987,Mix of Handwritten and Typed,no type status
0292_K000536956.jpg,J. Francis Macbride,J.F. Macbride,N/A,5234,"AUG. 27-SEPT. 1, 1922",1922-08-27,1922-09-01,Tococa umbellata Macbr.,Tococa umbellata Macbr.,N/A,N/A,N/A,Peru,N/A,N/A,La Merced,Mountain slope,Mountain slope,Mountain slope,ABOUT 4000 FEET,N/A,N/A,Typed,Lectotype
0293_B%2010%200375227.jpg,"X. Cornejo, C. Bonifaz",X. Cornejo,C. Bonifaz,5822,19 JULII 1997,1997-07-19,N/A,Capparis scerophylla Iltis nov.sp.,Capparis scerophylla Iltis,N/A,N/A,"C. heterophylla, C. scabrida, C. lanceolata y C. crotonoides",Ecuador,Manabí ,N/A,N/A,"Bosque seco tropical deciduo, fuertemente intervenido. Bahia de Caraquez & 3 km Alrededores de Universidad Católica",Bahia de Caraquez & 3 kilometers surroundings of Universidad Católica,"Bosque seco tropical deciduo, fuertemente intervenido",40-45 m,00.40 S; 80.32 W,N/A,Typed,ISOTYPUS
0294_B%2010%200185601.jpg,M. l'Abbé Delavay,M. l'Abbé Delavay,N/A,s.n.,22 avril 1887,1887-04-22,1887-04-22,Gentiana albescens Hook. f.,Gentiana albescens Hook. f.,N/A,N/A,N/A,China,Yunnan,N/A,N/A,Plantes de Chine (Province de Yen-Nan),[precise locality unknown],N/A,3100-3200 m.,N/A,N/A,Handwritten,no type status
0295_B%2010%200030508.jpg,P.J.M. Maas & H. Maas,P.J.M. Maas,H. Maas,3685,16-19 de abril 1993,1993-04-16,1993-04-19,Hieronymiella subg. Clonobotrys (Pax) Chatrou,N/A,N/A,N/A,N/A,Venezuela,Distrito Federal,Estado Miranda,N/A,Fila Maestra-Río Caracolazo; Fila Juan Torres-Río Brazo Grande,[precise locality unknown],Fila Maestra-Río Caracolazo; Fila Juan Torres-Río Brazo Grande,500 msnm,N/A,N/A,Typed,Isotype
0296_B%2010%200069251.jpg,Kessler 283,N/A,N/A,283,21.12.1988,1988-12-21,,Mallotus paniculatus,Mallotus paniculatus,Kessler,16 APR 1994,N/A,Malaysia,Sarawak,1st Division,Base of Gunung Pueh,"1st Division, Base of Gunung Pueh",[precise locality unknown],Secondary vegetation along road,alt. up to 200 m.,N/A,P.K 283,Typed,no type status
0297_B%2010%200279821.jpg,M. Jacobs,M. Jacobs,N/A,5005,Aug. 1,1958-08-01,1958-08-01,Piptospatha grabowskii (Engl.) Engl. (Syn. P. havilandii (Engl.) Engl.),Piptospatha grabowskii (Engl.) Engl.,N/A,N/A,N/A,Malaysia,Sarawak,N/A,N/A,"1st div, Slopes of Mount Penrissen (S. of Kuching), approx. 1° 7' N., 110° 5' E. Primary forest on sandstone substratum.",Slopes of Mount Penrissen (south of Kuching),Primary forest on sandstone substratum,ca. 700-900 M,"approx. 1° 7' N., 110° 5' E.",B B500200406,Typed,no type status
0298_B%2010%200030420.jpg,"P. J. M. & H. Maas, L. Kollemann",P.J.M. Maas,"H. Maas, L. Kollemann",8833,16 Feb 1939,1939-02-16,N/A,Pseudoxandra sp. nov.,Pseudoxandra sp. nov.,P.J.M. Maas,1999,N/A,Brazil,Espírito Santo,Santa Teresa,N/A,Estação Biológica de Santa Lúcia,Estação Biológica de Santa Lúcia,"high forest on brown sand, vegetation with big amount of terrestrial and epiphytic Bromeliaceae",700 m,19°58'S 40°32'W,B 10 0094020,Typed,ISOTYPE
0299_B%2010%200385068.jpg,"I. Berazaín, J. Bisse, M. A. Díaz, H. Dietrich, L. Gonzalez, R. Giegele, J. Gutierrez, E. Kohler, L. Lepper, U. Rindel, H. Scharaschmidt",I. Berazaín,"J. Bisse, M. A. Díaz, H. Dietrich, L. Gonzalez, R. Giegele, J. Gutierrez, E. Kohler, L. Lepper, U. Rindel, H. Scharaschmidt",HFC30908,09-11-1979,1979-11-09,N/A,Planodes virginicum var. virescens Urb.,Planodes virginicum var. virescens Urb.,H. Manitz,2007,N/A,Cuba,Guantanamo,San Antonio del Sur,N/A,"Mun. San Antonio del Sur: Abra de Mariana, loma al oeste del barranco","Abra de Mariana, loma al oeste del barranco",Coordenadas de la cuadricula (Cuba 1:250000): 16/71 [precise locality unknown],1.5-1.7m,N/A,N/A,Typed,Isotypes