associatedTaxa,collectedBy,country,firstPoliticalUnit,habitat,identifiedBy,latestScientificName,locality,maximumEventDate,minimumEventDate,municipality,originalMethod,otherCatalogNumbers,recordNumber,secondPoliticalUnit,secondaryCollectors,typeStatus,verbatimCollectors,verbatimCoordinates,verbatimDateIdentified,verbatimElevation,verbatimEventDate,verbatimIdentification,verbatimLocality
N/A,H. Fleischer,Australia,Queensland,Urwald (primeval forest),N/A,Macromitrium,Eumundi (approximately 100 kilometers north of Brisbane) ,N/A,1903-04-25,N/A,Mix of Handwritten and Typed,1076713 1044984,B 2734,N/A,N/A,no type status,H Fleischer nr B 2734,N/A,N/A,N/A,25 4 1903,Macromitrium,Eumundi (ca 100 km nordlich Brisbane) Urwald
N/A,W. Fleischer,Australia,Queensland,Urwald (primeval forest),N/A,Macromitrium,Eumundi (about 100 kilometers north of Brisbane) ,N/A,1903-03-29,N/A,Typed,1076659 | 1041125,B 2692,N/A,N/A,no type status,W Fleischer nr B 2692,N/A,N/A,N/A,29 3 1903,Macromitrium,Eumundi (ca 100 km nordlich Brisbane) Urwald
N/A,M. Fleischer,Australia,New South Wales,N/A,N/A,Macromitrium,"Blue Mountains near Sydney, Wentworth Falls ",N/A,1903-04-06,N/A,Typed,1076821,B 2952,N/A,N/A,no type status,M Fleischer nr B 2952,N/A,N/A,N/A,6.4.1903,Macromitrium,"Blue Mountains bei Sydney, Wentworth Falls"
N/A,M. Fleischer,Australia,Queensland,N/A,N/A,Macromitrium,near Brisbane,N/A,1903-03-20,Brisbane,Mix of Handwritten and Typed,1076705 | 1044145,B 2697,N/A,N/A,no type status,M Fleischer nr B 2697,N/A,N/A,N/A,20 3 1903,Macromitrium,bei Brisbane
N/A,T. Nakajima,Japan,Wakayama,On vertical face of rock,A. Noguchi | Z. Iwatsuki,Macromitrium gymnostomum,"On vertical face of rock, Ohara, Yata ",N/A,1971-03-27,Ohara,Typed,1043494,s.n.,N/A,N/A,no type status,T Nakajima,N/A,N/A,330 m,"Mar. 27, 1971",Macromitrium gymnostomum Sull. et Lesq. c. fr.,"On vertical face of rock, 330 m alt., Ohara, Yata, Nishimuro-gun, Wakayama Prefecture"
Fagus crenata,T. Nakajima,Japan,Nara Prefecture,On trunks of Fagus crenata,A. Noguchi,Macromitrium gymnostomum,"On trunks of Fagus crenata, Mount Ohako ",N/A,1958-05-04,N/A,Typed,1043492,s.n.,N/A,N/A,no type status,N/A,N/A,N/A,ca. 1200 m.,"May 4, 1958",Macromitrium gymnostomum Sull. et Lesq.,"On trunks of Fagus crenata, ca. 1200 m. alt., Mt. Ohako; Nara Prefecture"
N/A,T. Nakajima,Japan,Wakayama,On rocks,A. N.,Macromitrium gymnostomum,"On rocks, approximately 100 meters altitude, Sōryama-chō",N/A,1967-03-28,N/A,Typed,1043491,s.n.,N/A,N/A,no type status,T Nakajima,N/A,N/A,ca. 100 m,"March 28, 1967",Macromitrium gymnostomum Sull. & Lesq.,"On rocks, ca. 100 m alt., Sōryama-chō, Nishimuro-gun, Wakayama Prefecture"
N/A,S. Hattori,Japan,Miyazaki,ad arborum truncos,A. Noguchi,Macromitrium gymnostomum,Minamimata Sakatani ,N/A,1946-10-01,N/A,Mix of Handwritten and Typed,1235073,s.n.,N/A,N/A,no type status,S Hattori,N/A,N/A,ca 500 m,1 X 1946,Macromitrium gymnostomum Sull et Lesq,KIUSHIU Miyazaki Minamimata Sakatani
N/A,R. P. J. B. Faurie,Japan,N/A,N/A,Thériot,Macromitrium gymnostomum,[precise locality unknown],N/A,1898-04-20,N/A,Typed,1000415,s.n.,N/A,N/A,no type status,R.P.J.B. Faurie,N/A,N/A,N/A,20.4.1898,Macromitrium gymnostomum S. L.,Iles Liou-Kiou - Centre de l'ile
N/A,R. P. J. B. Ferrié,Japan,N/A,N/A,Thériot,Macromitrium gymnostomum,Yaku-Sima,1898-11-00,1898-10-00,N/A,Typed,1000416,s.n.,N/A,N/A,no type status,R.P. J.B. Ferrié,N/A,N/A,N/A,oct.nov.1898,Macromitrium gymnostomum S. L. = m. rupestre Mitt. Bull. Card.,Yaku-Sima
N/A,N/A,Papua New Guinea,Morobe,N/A,D. H. Vitt,Macromitrium incurvifolium,In fork of Plumeria tree in garden,N/A,1975-03-09,N/A,Typed,1142151,14660,Lae,N/A,no type status,N/A,N/A,N/A,c 20 m,9-3- 1975,Macromitrium incurvifolium (Hook. & Grev.) Schwaegr,In fork of Plumeria tree in garden
N/A,A. Touw,Papua New Guinea,West Sepik,Wet forest on slope above river on trees along river,D. H. Vitt,Macromitrium longicaule,Forest on slope above Ok Din river west of Busilmin on trees along Ok Din River ,N/A,1975-05-20,N/A,Typed,1141855,18543,Star Mountains,N/A,no type status,A Touw No 18543,5°S 141°05'E,N/A,c 1500 - 1550 m,20 5 1975,Macromitrium longicaule C Müll,Busilmin West forest on slope above Ok Din river W of Busilmin on trees along Ok Din River
N/A,N/A,Papua New Guinea,West Sepik,on stems and branches of trees and shrubs in summit scrub,D. H. Vitt,Macromitrium macrosporum,NE summit of Mt Capella ,N/A,1975-05-08,N/A,Typed,1142194,s.n.,Star Mts.,N/A,no type status,N/A,c 5°S141°05E,N/A,c. 3900 m.,8.5. 1975,Macromitrium macrosporum Broth.,c 5°S141°05E NE summit of Mt. Capella; on stems and branches of trees and shrubs in summit scrub
N/A,A. Touw,Papua New Guinea,West Sepik,Limestone ridge near camp about 4-5 meters high stunted forest on ridge,D. H. Vitt,Macromitrium macrosporum,Mt Capella Base Camp Limestone ridge near camp about 4-5 meters high stunted forest on ridge,N/A,1975-04-17,N/A,Typed,1142178,16376,N/A,N/A,no type status,A Touw No 16376,c 5°S141°05E,N/A,c 3600 m,17.4.1975,Macromitrium macrosporum Broth,West Sepik Distr Star Mts c 5°S141°05E Mt Capella Base Camp Limestone ridge near camp c 4 -5 m high stunted forest on ridge
N/A,A. Touw,Papua New Guinea,West Sepik,N/A,D. H. Vitt,Macromitrium macrosporum,NE Summit of Mt Capella Summit of ridge between Mt Capella Base Camp and Mt Capella ridge on isolated tree ,N/A,1975-05-08,N/A,Typed,1142156,17312,Star Mountains,N/A,no type status,N/A,c. 5°S 141°05'E,N/A,c. 3650 m,Dat. 8.5. 1975,Macromitrium macrosporum Broth.,c. 5°S 141°05'E NE Summit of Mt. Capella. Summit of ridge between Mt. Capella Base Camp and Mt. Capella ridge; on isolated tree
N/A,A. Touw,Papua New Guinea,West Sepik,Forest remnant in deep chasm near the summit on soaking wet bark of trees,D. H. Vitt,Macromitrium macrosporum,Mount Capella northeast summit ,N/A,1975-04-19,N/A,Typed,1142175,16420,Star Mountains,N/A,no type status,A Touw No 16420,c 5°S 141°05'E,N/A,c 3300 m,19.4.1975,Macromitrium macrosporum Broth,Mt Capella NE summit; forest remnant in deep chasm near the summit on soaking wet bark of trees
N/A,A. Touw,Papua New Guinea,West Sepik,Open sub-alpine scrub. At base of limestone rock faces.,D. H. Vitt,Macromitrium macrosporum,"Near Mt. Capella Base Camp, along trail to Tamanagabip ",N/A,1975-05-05,N/A,Typed,1141880,17205,Star Mts.,N/A,no type status,A. Touw No. 17205,c. 5°S 141°05'E,N/A,c. 3450 m.,5.5. 1975,Macromitrium macrosporum Broth.,"Near Mt. Capella Base Camp, along trail to Tamanagabip; open sub-alpine scrub. At base of limestone rock faces."
N/A,A. Touw,Papua New Guinea,West Sepik District,Pendulous from heavy tree branches and slanting trunks,D. H. Vitt,Macromitrium megalocladon,Upper montane forest between Folongonom and Artis' Camp,N/A,1975-05-14,N/A,Typed,1142187,18046,Star Mts,N/A,no type status,A Touw No 18046,c 5°14'05E,N/A,c 2500 - 2600 m,14.5.1975,Macromitrium megalocladon Fleisch,c 5°14'05E Upper montane forest between Folongonom and Artis' Camp
N/A,A. Touw,Papua New Guinea,West Sepik,On vertical face of moss covered limestone boulder at edge of kuni,D. H. Vitt,Macromitrium megalocladon,Small Kuki (grassfield) southwest of Mount Capella Base Camp; on vertical face of moss covered limestone boulder at edge of kuni,N/A,1975-04-21,N/A,Mix of Handwritten and Typed,1142432,16555,Star Mountains,N/A,no type status,A. Touw No. 16555,c. 5°(40'SE),N/A,c. 3400 m,21.4.1975,Macromitrium megalocladon Fleisch.,c. 5°(40'SE) Small Kuki (grassfield) SW of Mt. Capella Base Camp; on vertical face of moss covered limestone boulder at edge of kuni
N/A,A. Touw,Papua New Guinea,West Sepik,Terrestrial in open shrubbery on ridge Dense moss vegetation covering soil rocks and the lower portion of shrubs Dominant,D. H. Vitt,Macromitrium megalocladon,Ridge above Camp 2 Tel Basin ,N/A,1975-04-07,N/A,Typed,1142300,15768,Star Mts,N/A,no type status,A Touw No 15768,c 5°S141°05'E,N/A,c 3350 m,7.4. 1975,Macromitrium megalocladon Fleisch,Tel Basin; Ridge above Camp 2
N/A,S. Hattori,Japan,Kyushu,"rupicola, photophila, ca 50 m",A. Noguchi,Macromitrium incurvum,"Minaminiaka, Obi, on rocks, light-loving, about 50 meters",N/A,1946-08-00,N/A,Typed,1235066,s.n.,Miyazaki,N/A,no type status,S Hattori,N/A,unsure and check,ca 50 m,VIII 1946,Macromitrium incurvum (Lindb.) Par.,"KIUSHIU: Miyazaki, Minaminiaka, Obi, rupicola, photophila, ca 50 m"
N/A,K. Mayebara,Japan,Kumamoto,On exposed rocks,A. Noguchi,Macromitrium incurvum,"On exposed rocks, 60 meters above sea, Yosiho ",N/A,1951-12-25,N/A,Typed,1043529,s.n.,N/A,N/A,no type status,K Mayebara,N/A,N/A,60 m. above sea,"December 25, 1951",Macromitrium incurvum (Lindb.) Par.,"On exposed rocks, 60 m. above sea, Yosiho, Kumamoto Prefecture"
N/A,K. Mayebara,Japan,Kumamoto,On rocks,A. Noguchi,Macromitrium gymnostomum,"On rocks, approximately 100 meters above sea, Koonose ",N/A,1952-02-11,N/A,Typed,1043490,s.n.,N/A,N/A,no type status,K Mayebara,N/A,N/A,ca. 100m. above sea,"February 11, 1952",Macromitrium gymnostomum Sull. et Lesq.,"On rocks, ca. 100m. above sea, Koonose, Kumamoto Prefecture"
N/A,K. Mayebara,Japan,Kumamoto,On rocks,A. Noguchi,Macromitrium gymnostomum,"On rocks, approximately 1000 meters altitude, Hitoyoshi ",N/A,1952-03-00,N/A,Typed,4043493,s.n.,N/A,N/A,no type status,A Noguchi,N/A,N/A,ca. 1000m,March 1952,Macromitrium gymnostomum Sull. et Lesq.,"On rocks, ca. 1000m alt., Hitoyoshi, Kumamoto County"
N/A,H. H. Chung,China,Fukien,On rock,Theriot,Macromitrium gymnostomum,Kushan near Foochow ,N/A,unsure and check,N/A,Mix of Handwritten and Typed,1122334,B.206,N/A,N/A,no type status,N/A,N/A,N/A,altitude 500 m.,s.d.,Macromitrium gymnostomum S. & L.,Kushan near Foochow
N/A,H. H. Chung,China,Fukien,On rock in bamboo forest,Theriot,Macromitrium gymnostomum,[precise locality unknown],N/A,unsure and check,N/A,Mix of Handwritten and Typed,1122721,2.20,N/A,N/A,no type status,N/A,N/A,N/A,N/A,s.d.,Macromitrium gymnostomum Sull.,On rock in bamboo forest
N/A,T. Koponen,Papua New Guinea,Morobe,Rather open montane forest with dominating Pandanus trees,Dale H. Vitt,Macromitrium longicaule,"Lake Wamba 5 kilometers South of Teptep airstrip, 1 kilometer South of lake",N/A,1981-07-23,N/A,Typed,1142665,35590,N/A,N/A,no type status,Timo Koponen,"6°31'S, 146°33'E",1989,2400 m,23 July 1981,Macromitrium longicaule C. Müll.,"Lake Wamba 5 km S of Teptep airstrip, Rather open montane forest with dominating Pandanus trees 1 km S of lake, alt. 2400 m, 6°31'S, 146°33'E, on stump"
N/A,N/A,China,Fukien,On shady rocks or bark,N/A,Macromitrium japonicum,[precise locality unknown],N/A,N/A,N/A,Typed,1172825,B4,N/A,N/A,no type status,N/A,N/A,N/A,N/A,s.d.,Macromitrium japonicum (Dz & Mk) C M Syn,On shady rocks or bark
N/A,T. Koponen,Papua New Guinea,Morobe,"Open alpine grassland and ""subalpine"" forest",Dale H. Vitt,Macromitrium microstomum,Mount Sarawaket Southern Range 25 kilometers south of Lake Gwam at Lake Kenzoroh east of Mount Enggom ,N/A,1981-07-09,N/A,Typed,1142666,33571,N/A,N/A,no type status,Timo Koponen,6°21'S 147°07'E,Det: Dale H Vitt 1989,3550 m,9 July 1981,Macromitrium microstomum Broth,"Mt Sarawaket Southern Range 2,5 km S of L Gwam Open alpine grassland and ""subalpine"" forest at L Kenzoroh E of Mt Enggom alt 3550 m 6°21'S 147°07'E"
N/A,N. Kitagawa,Japan,Ibaraki,on tree trunk,A. Noguchi | T. Iwatsuki,Macromitrium gymnostomum,[precise locality unknown],N/A,1973-10-21,N/A,Typed,1049048,s.n.,N/A,T. Yoshimura,no type status,N/A,N/A,N/A,1-10 m,"Oct. 21,1973",Macromitrium gymnostomum Sull. et Lesq.,"Ibaraki, Sosei, 1-10 m alt., on tree trunk"
N/A,N/A,Japan,Honshu,N/A,N/A,Macromitrium incurvum,[precise locality unknown],N/A,N/A,N/A,Typed,1356480,s.n.,N/A,N/A,no type status,N/A,N/A,N/A,N/A,s.d.,Macromitrium incurvum (Lindb.) Paris,"Honshu, Musashi, prope Tama-ri Kobotoké, pleiophylla"
N/A,R. Saito,Japan,Kagoshima,On rock,A. Noguchi,Macromitrium gymnostomum,"Sumiyo-mura, Amami-ohshima Island ",N/A,1970-04-03,N/A,Typed,1051109,s.n.,N/A,N/A,no type status,R SAITO,N/A,N/A,elevation about 120 m,"April 3, 1970",Macromitrium gymnostomum SULL. & LESQ.,"Sumiyo-mura, Isl. Amami-ohshima, Kagoshima Pref."
N/A,V. Allorge,Portugal,Azores,N/A,N/A,Pogonatum urnigerum,[precise locality unknown],N/A,1937-06-14,N/A,Typed,1181624,s.n.,N/A,P. Allorge,no type status,V et P Allorge,N/A,N/A,vers 700 m,14.VI.1937,Pogonatum urnigerum (Hedw.) P.B.,Iles Açores
N/A,M. Lewis,Bolivia,La Paz,Supra humid Ceja de Montaña forests following ravines In small rill in dripping area of small waterfall,N/A,Philonotis,"Between 5-6 kilometers south of Tacacoma along road to Quiabaya, 16-17 kilometers north of Sorata ",N/A,1983-01-20,N/A,Typed,1100485,83-224,Larecaja,N/A,no type status,Marko Lewis 83-224,"15°36'S, 68°39'W",N/A,ca 3550 m,20 Jan 1983,Philonotis,"DEPTO LA PAZ PROV LARECAJA: Utacoma 21 Between 5-6 km S of Tacacoma along road to Quiabaya, 16-17 km N of Sorata 15°36'S, 68°39'W ca 3550 m"
N/A,M. Lewis,Bolivia,La Paz,Eroding bank,Crum,Philonotis,Along road 1 mile from Sorata towards Achacachi ,N/A,1979-03-29,N/A,Typed,1078755,79-1314,Larecaja,N/A,no type status,Marko Lewis,"15° 45' S, 68° 42' W",N/A,2740 m,29 March 1979,Philonotis fide Crum,"Along road 1 mi from Sorata towards Achacachi, 15° 45' S, 68° 42' W"
N/A,M. Lewis,Bolivia,Cochabamba,Cloud forest ravine with tree ferns,N/A,Philonotis,"Slope of Cerro Khachi, north of Corani, on stones and banks of steep creek in cloud forest ravine ",N/A,1979-06-01,N/A,Typed,1078769,79-2315,Chapare,N/A,no type status,"Marko Lewis, no. 79-2315","17° 11' S., 65° 54' W",N/A,3030 m,1 June 1979,Philonotis,"DEPTO. COCHABAMBA. PROV. CHAPARE: Slope of Cerro Khachi, N. of Corani, 3030 m., 17° 11' S., 65° 54' W. On stones and banks of steep creek in cloud forest ravine, with tree ferns"
N/A,E. W. D. Holway,Bolivia,N/A,N/A,N/A,unsure and check,Unduavi ,N/A,1950-10-13,N/A,Typed,2013011,6867,N/A,N/A,no type status,Mrs E W D Holway,N/A,N/A,10000 ft,13 Oct 1950,N/A,UNDUAVI 10000 ft
N/A,W. M. A. Brooke,Bolivia,N/A,N/A,N/A,unsure and check,Unduavi ,N/A,1950-10-13,N/A,Typed,5989,6865,N/A,N/A,no type status,Mrs W M A Brooke,N/A,N/A,10000 ft,13 Oct 1950,N/A,UNDUAVI 10000 ft
N/A,M. Lewis,Bolivia,Cochabamba,"On stones and banks of seepy creek in cloud forest ravine, with tree ferns",N/A,Philonotis,"Slope of Cerro Khachi, north of Corani ",N/A,1979-06-01,N/A,Typed,1050327,79-2315,Chapare,N/A,no type status,"Marko Lewis, no. 79-2315","17° 11' S., 65° 54' W.",N/A,3030 m.,1 June 1979,PHILONOTIS,"Slope of Cerro Khachi, N. of Corani, 3030 m., 17° 11' S., 65° 54' W."
N/A,R. Rewald,Peru,Amazonas,"Fels, Erde, Mauer, Baum, Strauch, Holz, See, Bach",D. S. Griffin III,Psilonatis ephemerascens,Las Palmas between Balsas and Leimebamba ,N/A,1971-08-31,N/A,Mix of Handwritten and Typed,1061647,s.n,N/A,N/A,no type status,R Rewald,N/A,N/A,3000 m,31.8.1971,Psilonatis ephemerascens (Besch.),Las Palmas zw. Balsas u. Leimebamba
N/A,F. D. Bowers,Mexico,Baja California Sur,Oak-pine and grassland with dry and flowing streams,A. J. Sharp,Braunia secunda,"15 miles east of Todos Santos, Sierra de Laguna, on boulder, open valley",N/A,1973-12-25,N/A,Typed,1045263,5166,N/A,C. Delgadillo M. | P. Somers,no type status,"Frank D Bowers, Claudio Delgadillo M & Paul Somers",N/A,N/A,ca 4300 ft,25 December 1973,Braunia secunda (Hook) B S G,"Oak-pine and grassland with dry and flowing streams at Sierra de Laguna, 15 miles east of Todos Santos, On boulder, meso, open valley"
N/A,A. J. Sharp,Mexico,Oaxaca,"Partial shade, moist, road side cliff",Efrain De Luna,Braunia andrieuxii,Near El Punto on Highway 175 ,N/A,1973-06-23,N/A,Typed,1045218,2081,N/A,E. B. Sharp | B. E. Classon | R. R. Thornburgh,no type status,"A. J. and E. B. Sharp, B. E. Classon, R. R. Thornburgh",N/A,1992,2625 m,"June 23, 1973",Braunia secunda (Hook.) B.S.G.,"Near El Punto on Hwy. 175, Oaxaca; Mexico. 2625 m."
N/A,A. J. Sharp,Mexico,Jalisco,"Partial shade, moist, vert. surface of boulder",Efrain De Luna,Braunia andrieuxii,"El Mirador on highway 80, 3 miles above San Martin Hidalgo ",N/A,1973-07-04,N/A,Typed,1045251,2736,N/A,S. S. Sharp | E. B. Clebsch | K. R. Thornburgh,no type status,"A.J. and S.S. Sharp, E.B. Clebsch, K.R. Thornburgh",N/A,1992,1750 m,"July 4, 1973",Braunia secunda (Hook.) B.S.G.,"El Mirador on hwy. 80, 3 mi. above San Martin Hidalgo, Jalisco, Mexico. 1750 m."
N/A,C. G. Pringle,Mexico,Jalisco,On rocks,unsure and check,Braunia andrieuxii,On rocks near Guadalajara,N/A,1906-09-30,Guadalajara,Mix of Handwritten and Typed,1172132,10619,N/A,N/A,no type status,C G Pringle,N/A,N/A,5000 ft,30 Sept 1906,Braunia Andrieuxii Lorentz,On rocks near Guadalajara 5000 ft
N/A,C. G. Pringle,Mexico,Hidalgo,N/A,unsure and check,Braunia andrieuxii,[precise locality unknown],N/A,1906-09-17,N/A,Typed,1045265,10627,N/A,N/A,no type status,C G PRINGLE,N/A,N/A,N/A,17 Sept 1906,"Braunia plicata, Mitt, var canescens, Card n var",N/A
N/A,E. Mayr,Mexico,Jalapa,N/A,Efrain De Luna,Braunia secunda,[precise locality unknown],N/A,N/A,N/A,Mix of Handwritten and Typed,1031423,s.n.,N/A,F. Mayr,no type status,Edi & Franz Mayr,N/A,1992,2300m,s.d.,Braunia secunda (Hook.) B.S.G.,Haube an der Strasse Zalapa-Perote
N/A,F. J. Hermann,Mexico,Chiapas,Oak-pine forest with Abies,N/A,Braunia secunda,"Highway 10 about 7 miles east of La Ciudad, on boulder, partial shade",N/A,1950-10-07,N/A,Typed,1036945,20657,N/A,N/A,no type status,F. J. Hermann,N/A,N/A,elev. 8100 ft.,"Oct. 7, 1950",Braunia secunda (Hook.) B.S.G.,"Oak-pine forest with Abies, highway 10 about 7 miles east of La Ciudad, on boulder, partial shade, elev. 8100 ft."
N/A,A. J. Sharp,Mexico,Distrito Federal,Siliceous boulder,H. A. Crum,Braunia secunda,"Siliceous boulder in mountains, above Contreras ",N/A,1941-07-23,N/A,Mix of Handwritten and Typed,1045239,116,N/A,N/A,no type status,A J SHARP,N/A,N/A,N/A,"July 23, 1941",Braunia secunda (Hook.) BSG,"Siliceous boulder in mts, above Contreras, D.F., MEXICO"
N/A,A. J. Sharp,Mexico,Chiapas,"Partial shade, moist",E. Bowers,Braunia squarrulosa,"Loma Bonita, Pueblo Nuevo, (about 55 kilometers northwest of Tuxtla-Gutierrez), trail side bank",N/A,1972-12-19,N/A,Typed,1045274,4247,N/A,F. D. Bowers | J. A. Crum | G. L. Smith | R. A. Hattaway | P. Somers Jr.,no type status,"A.J. Sharp, F.D. Bowers, J.A. Crum, G.L. Smith, R.A. Hattaway, Paul Somers, Jr.",N/A,N/A,+ 6500 ft.,"Dec. 19, 1972",Braunia squarrulosa (Hampe) Broth.,"Partial shade, moist, trail side bank. Loma Bonita, Pueblo Nuevo, (about 55 km. northwest of Tuxtla-Gutierrez), Chiapas, + 6500 ft."
N/A,F. J. Hermann,Mexico,Chiapas,On oak trunk in oak-pine woods,F. J. Hermann,Braunia squarrulosa,15 miles southeast of San Cristobal de las Casas ,N/A,1975-02-09,San Cristobal de las Casas,Typed,1052129,26429,N/A,N/A,no type status,F.J. Hermann 26429,N/A,"Feb.9,1975",6800 ft.,"Feb.9,1975",Braunia squarrulosa (Hampe) Broth.,"On oak trunk in oak-pine woods, alt. 6800 ft. 15 mi. S.E. of San Cristobal de las Casas, Chiapas, Mexico."
N/A,A. J. Sharp,Mexico,Oaxaca,"Dry, full shade, oak branch. Oak-pine woods",E. De Luna,Braunia squarrulosa,"Roadside near San Pablo Ayutla, about 70 kilometers east of Oaxaca ",N/A,1972-12-31,San Pablo Ayutla,Typed,1045269,2980-a,N/A,P. D. Bowers | D. K. Smith | R. A. Hattaway | P. Somers Jr,no type status,"A.J. Sharp, P.D. Bowers, D.K. Smith, R.A. Hattaway, Paul Somers, Jr",N/A,1992,2000 ft,"Dec. 31, 1972",Braunia squarrulosa (Hampe) Broth,"Roadside near San Pablo Ayutla, (about 70 km. east of Oaxaca.)"
N/A,H. A. Crum,Mexico,Jalisco,"On dead limb, fallen Oak forest",E. De Luna,Braunia squarrulosa,"Slopes of La Ferreria, above Manzanilla",N/A,1949-07-23,N/A,Typed,1058541,917,N/A,N/A,no type status,Howard A Crum,N/A,1992,7300 feet,23 July 1949,Braunia squarrulosa (Hampe) Broth,"Slopes of La Ferreria, above Manzanilla"
N/A,C. G. Pringle,Mexico,Federal District,Base of trees,E. De Luna,Braunia squarrulosa,"Base of trees, Cima, 10,000 feet ",N/A,1906-07-17,N/A,Mix of Handwritten and Typed,1172439,10550,N/A,N/A,no type status,C G PRINGLE,N/A,1992,"10,000 ft.",17 July 1906,"Braunia squarrulosa, (Hpe.) Broth.","Base of trees, Cima, 10,000 ft."
N/A,Eggers,Mexico,Chiapas,oak-pine forest,E. De Luna,Braunia squarrosula,km 100 on the road Ocosingo-San Cristobal ,N/A,1979-03-10,N/A,Mix of Handwritten and Typed,1031467,s.n.,N/A,J. P. Frahm,no type status,LEG. EGGERS & FRAHM 10.3.79(24),N/A,1992,2050 MSM,10.3.79(24),Braunia squarrosula (Hamp.) Broth.,KM 100 AN DER STR. OCOSINGO-SAN CRISTOBAL EICHEN-KIEFERNWALD 2050 MSM
N/A,L. Edgers,Mexico,Chiapas,oak-pine forest,N/A,Braunia squarrulosa,km 100 on the road Ocosingo-San Cristobal ,N/A,1979-03-10,San Cristobal,Handwritten,1031495,29,N/A,F. Frank,no type status,LEO EDGERS & FRANK 10.3.79(29),N/A,N/A,2250 MSM,10.3.79,Braunia squarrulosa (Hampe)Broth,KM 100 AN DER STR OCOSINGO-SAN CRISTOBAL EICHEN-KIEFERNWALD 2250 MSM
N/A,F. J. Hermann,Mexico,Chiapas,"On oak trunk in oak-pine woods along Route 190, alt. 6800 ft.",Eliane De Luna,Braunia squarrulosa,15 miles southeast of San Cristobal de las Casas ,N/A,1975-02-09,N/A,Typed,1045277,26429,N/A,N/A,no type status,F J Hermann 26429,N/A,1992,6800 ft.,"February 9, 1975","Braunia squarrulosa (Hampe) Broth., c.fr.","Estado de Chiapas, 15 miles SE. SAN CRISTOBAL DE LAS CASAS"
N/A,D. Griffin,Costa Rica,San Jose,Bosque primario montano bajo muy húmedo y potreros,E. De Luna,Braunia squarrulosa,"Valle de Copey, about 30 kilometers south of Cartago",N/A,1979-02-04,N/A,Typed,1029423,s.n.,N/A,M. Morales,no type status,"Dana Griffin, III y Maria Morales",N/A,1992,2000 m,4 feb. 1979,Braunia squarrulosa (Hampe) C. Müll.,"Valle de Copey, ca. 30 kms al sur de Cartago. Bosque primario montano bajo muy húmedo y potreros. Alt. 2000 m"
N/A,S. Churchill,Bolivia,Tarija,Remnant Tucumano-Bolivian montane forest,S. Churchill,Braunia exserta,"Serranía Huacayoj, approximately 35 kilometers west of Entre Ríos (road to Tarija)",N/A,2001-08-04,N/A,Typed,1183435,20792,N/A,N/A,no type status,S. Churchill 20792,21°25'S 64°19'W,2001,2300 m,4 Ago 2001,Braunia exserta C. Müller,"Tarija: Burnet O'Connor Serranía Huacayoj. Ca. 35 km oeste de Entre Ríos (carretera a Tarija). Bosque montano Tucumano-Boliviano, remanente"
N/A,B. Sparre,Argentina,Tucuman,"Subtropical rainforest, epiphyte",N/A,Braunia cirrhifolia,"Rio Cochuna, 1000 meters above sea level ",N/A,1946-11-27,N/A,Typed,1136355,811750,N/A,N/A,no type status,B Sparre,N/A,N/A,1000 m a s l,27 November 1946,Braunia cirrhifolia (Mitt) Jaeg,"Prov Tucuman, Choligasta, Rio Cochuna, 1000 m a s l"
N/A,M. Lewis,Bolivia,La Paz,In ravine with waterfall,E. De Luna,Braunia cirrhifolia,"Canyon 1 kilometer east of Cachipata, southeast of Sorata ",N/A,1979-04-06,N/A,Typed,1032380,79-1625,Larecaja,N/A,no type status,Marko Lewis,"15° 48' S., 68° 36' W.",1992,3250 m.,6 April 1979,Braunia cirrhifolia (Mitt.) Wils. ex Jaeg.,"Canyon 1 km. E. of Cachipata, SE of Sorata, 3250 m., 15° 48' S., 68° 36' W."
N/A,M. Lewis,Bolivia,La Paz,"Arid woodland and cliff area, many cacti present At base of cliffs near river amongst a boulder pile in a deep canyon Small trees, tree cacti and shrubs in shady, protected area",D. Griffin III,Braunia plicata,"Along the Río Chalusuyu, a branch of the Río San Cristóbal, 5 kilometers northwest of Suri",N/A,1982-12-09,N/A,Handwritten,1091412,82-303,N/A,N/A,no type status,Marko Lewis 82-303,"16°44'S, 68°41'W",1990,ca 2450 m,9 Dec 1982,Braunia plicata (Mitt.) Jaeg,"PROV INQUISIVI: Río Chalusuyu' along the Río Chalusuyu, a branch of the Río San Cristóbal, 5 km NW of Suri, 16°44'S, 68°41'W ca 2450 m"
N/A,M. Lewis,Bolivia,La Paz,Abundant on exposed rock face,E. De Luna,Braunia plicata,Near large red outcrop 2 miles from Sorata down Rio Consata ,N/A,1979-03-22,N/A,Typed,1032384,79-1230,Larecaja,N/A,no type status,M. Lewis no. 79-1230,"15° 41' S., 68° 43' W.",1992,2600 m.,22 March 1979,Braunia plicata (Mitt.) Jaeg.,"Near large red outcrop 2 mi. from Sorata down Rio Consata, 15° 41' S., 68° 43' W."
N/A,M. Lewis,Bolivia,La Paz,Banks of trail,E. De Luna,Braunia plicata,Trail between Charazani and Nino Korin; NNW of Chuma ,N/A,1979-03-05,N/A,Typed,1032341,79-947,Saavedra,N/A,no type status,N/A,"15°11' S, 69° 04' W",1992,3200-3240 m,5 March 1979,Braunia plicata (Mitt.) Jaeg.,"Trail between Charazani and Nino Korin; NNW of Chuma, 15°11' S, 69° 04' W"
N/A,M. Lewis,Bolivia,La Paz,Banks of trail,Efrain De Luna,Braunia plicata,"Trail between Charasani and Nino Korin, NNW of Chuma",N/A,1979-03-05,N/A,Typed,1032381,79-940,Saavedra,N/A,no type status,"Marko Lewis, no. 79-940","15° 11' S, 69° 04' W",1992,3200 m,5 March 1979,Braunia plicata (Mitt.) Jaeg.,"Trail between Charasani and Nino Korin, NNW of Chuma, 15° 11' S, 69° 04' W"
N/A,M. Lewis,Bolivia,La Paz,Along bank of trail,N/A,Hedwigidium integrifolium,"Trail between Charazani and Nino Korin, northwest of Charazani ",N/A,1979-03-05,N/A,Mix of Handwritten and Typed,1032366,79-935,Saavedra,N/A,no type status,"Marko Lewis, no. 79-935","15° 11' S, 69° 04' W",N/A,3200 m,5 March 1979,Hedwigidium integrifolium (P. Beauv.) Dix.,"Trail between Charazani and Nino Korin, NNW of Charazani, 15° 11' S, 69° 04' W"
N/A,M. Lewis,Bolivia,Tarija,Dirt bank in Khena forest,N/A,Hedwigidium integrifolium,"Dirt bank in Khena forest, 5 miles northeast of Iscayachi; east slope of mountains (hike from summit of road into canyon north of Tarija-Iscayachi Highway)",N/A,1979-02-10,N/A,Handwritten,1032358,79-615,Mendez,N/A,no type status,Marko Lewis,"21° 27' S, 64° 54' W",N/A,3350 m,10 February 1979,Hedwigidium integrifolium (P. Beauv.) Dix,"Dirt bank in Khena forest, 3350 m, 5 mi NE of Iscayachi; E slope of mountains (hike from summit of road into canyon N of Tarija-Iscayachi Hwy), 21° 27' S, 64° 54' W"
N/A,M. Dillon,Peru,Ancash,Growing on branches,Dana Griffin III,Braunia secunda,"Approximately 25 kilometers northeast of Yungay, slopes below Laguna de Llanganuco ",N/A,1983-01-28,N/A,Typed,1111860,3120D,Yungay,U. Molau | P. Matekaitis,no type status,"M Dillon, U Molau, & P Matekaitis 3120D",N/A,28 Jan 1983,+ 3380 m,28 Jan 1983,Braunia secunda (Hook) BSG,"Ca 25 km NE of Yungay, slopes below Laguna de Llanganuco + 3380 m Growing on branches"
N/A,D. Griffin,Venezuela,Merida,Sobre roca + seca a baja luz,H. De Luna,Braunia secunda,"Quebrada Gavidia, south of Mucujún, between peña La Virgen and Pico El Toro, near the town of Gavidia ",N/A,1983-03-05,N/A,Typed,1064457,PV-1143,N/A,E. Dugarte,no type status,Dana Griffin III y Efrain Dugarte,N/A,1992,3100-3300 m,5 marzo 1983,Braunia secunda (Hook.) BSG,"ESTADO MERIDA: Quebrada Gavidia, al sur de Mucujún, entre la peña La Virgen y el Pico El Toro, cerca del pueblo de Gavidia Páramo con Espeletia schultzii Alt 3100-3300 m"
N/A,M. Lewis,Bolivia,Tarija,On rocks in dry deciduous forest,E. De Luna,Braunia subincana,"Casteon, at summit of mountain above and west of Puente Rios, along road to Tarija ",N/A,1979-02-02,N/A,Typed,1032377,79-489A,O'Connor,N/A,no type status,Marko Lewis,"21° 28' S., 64° 12' W.",1992,1750 m,2 February 1979,Braunia laxifolia Herz.,"Casteon, at summit of mountain above and W. of Puente Rios, along road to Tarija, 21° 28' S., 64° 12' W."
N/A,F. J. Hermann,Bolivia,Cochabamba,N/A,Efrain De Luna,Braunia subincana,[precise locality unknown],N/A,1972-12-24,N/A,Typed,1045267,25278,Chapare,N/A,no type status,F J Hermann 25278,N/A,1992,ca 9500 ft,"December 24, 1972",Braunia suplicata E.G.Britt,"From the Province of Chapare, alt ca 9500 ft Purchased in market at COCHABAMBA"
N/A,S. R. Gradstein,Bolivia,Cochabamba,On cliff under scrub in area of wet meadows and secondary woodlands,H. O. van Zanten,Racopilum intermedium,Incachaca 5 kilometers south of road Cochabamba - Villa Tunari kilometer 95 ,N/A,1989-11-12,N/A,Typed,1081583,7560,Chapare,M. Lewis,no type status,S R Gradstein & M Lewis 7560,N/A,N/A,2300 m,12 November 1989,Racopilum intermedium Hampe det H O van Zanten,Dept Cochabamba Prov Chapare Incachaca 5 km S of road Cochabamba - Villa Tunari km 95 alt 2300 m
N/A,M. Lewis,Bolivia,La Paz,On rocks in shady fruit orchard Fruit and coffee plantations,N/A,Racopilum tomentosum,3 km south of Coroico along road between Coroico and Yolosa,N/A,1983-02-07,Coroico,Typed,1100456,83-503,Nor Yungas,N/A,no type status,Marko Lewis 83-503,"16°11'S, 67°43'W",N/A,ca. 1650 m,7 Feb 1983,Racopilum tomentosum (Hedw.) Brid.,'Coroico' 3 km S of Coroico along road between Coroico and Yolosa
N/A,Y. Mexia,Brazil,Minas Gerais,Cut over woods,E. Bartram,Rhacoplium tomentosum,"Fazenda do F Lopes, on rotting log ",N/A,1930-11-11,N/A,Mix of Handwritten and Typed,N/A,5281-a,N/A,N/A,no type status,"Ynes Mexia, No",N/A,N/A,720 m,"Nov 11, 1930",Rhacoplium tomentosum (Hedw.) Brid,"Fazenda do F. Lopes, Cut over woods, On rotting log"
Psidium guajava,S. M. Gradstein,Ecuador,Galápagos,on rather dry shaded rocks,W. A. Weber,Rhacoplium tomentosum,"Isla Floreana, Psidium guajava woodlands and pampas east of Cruz Farm ",N/A,1976-04-24,N/A,Typed,1023912,950-354,N/A,H. J. M. Sipman | W. A. Weber,no type status,"S M Gradstein, H J M Sipman & W A Weber",N/A,N/A,N/A,24.IV.1976,Rhacoplium tomentosum (Hedw.)Brid.,"GALAPAGOS ISLANDS, Isla Floreana, Psidium guajava woodlands and pampas east of Cruz Farm, on rather dry shaded rocks"
N/A,P. Hegewald,Peru,Amazonas,N/A,N/A,Racopilum tomentosum,Leimebamba Caullamar near Balzas ,N/A,1973-08-31,N/A,Mix of Handwritten and Typed,1026724,5726,Chachapoyas,E. Hegewald,no type status,P & E Hegewald,N/A,N/A,m,31 8 1973,Racopilum tomentosum (Hedw.) Brid,Leimebamba Caullamar ca Balzas
N/A,J. Florschütz,Suriname,N/A,On decaying log,P. A. Florschütz | J. Florschütz-de Waard,Racopilum tomentosum,"Brownsberg, trail to Leo fall ",N/A,1975-12-18,N/A,Typed,1028580,4715,N/A,P. A. Florschütz,no type status,J. & P. A. Florschütz,N/A,unsure and check,N/A,18.XII.1975,Racopilum tomentosum (Hedw.)Brid,"Hab. Brownsberg, trail to Leo fall"
N/A,E. Linares,Colombia,Meta,On log in forest,N/A,Racopilum tomentosum,forest of the Bavaria brewery near río Guaitiquía ,N/A,1984-09-26,N/A,Typed,1065598,1543,Villavicencio,S. R. Gradstein | B. O. van Zanten,no type status,"E. Linares, S.R. Gradstein and B.O. van Zanten 1543",N/A,N/A,600 m,26 Sept. 1984,RACOPILUM TOMENTOSUM (Hedw.) Brid.,"forest of the Bavaria brewery near río Guaitiquía, alt. 600 m. On log in forest."
N/A,M. Lewis,Bolivia,La Paz,Fruit and coffee plantations Bark of fruit trees in orchard,N/A,Racopilum tomentosum,1 km south of Coroico along road between Coroico and Yolosa ,N/A,1983-02-07,Coroico,Typed,1100344,83-511,Nor Yungas,N/A,no type status,Marko Lewis 83-511,"16°11'S, 67°43'W",N/A,ca 1650 m,7 Feb 1983,Racopilum tomentosum (Hedw.) Brid,'Coroico' 1 km S of Coroico along road between Coroico and Yolosa
N/A,Y. Mexia,Peru,Huanuco,old tree trunk in dense shade,N/A,Rhacopilum tomentosum,Distrito Churubamba; Hacienda Mercedes; Poca Parga; old tree trunk in dense shade,N/A,1936-09-15,N/A,Typed,N/A,8190a,N/A,N/A,no type status,"Ynes Mexia, No.8190a",N/A,N/A,1550 m.,"Sept. 15,1936",Rhacopilum tomentosum (Sw.) Brid.,"Departamento and Provincia Huanuco, Distrito Churubamba; Hacienda Mercedes; Poca Parga; old tree trunk in dense shade"
N/A,Y. Mexia,Peru,Huanuco,on rock in wood,N/A,Rhacopilum tomentosum,Hacienda Exito; bank of Rio Ysabel; on rock in wood,N/A,1936-09-09,N/A,Typed,1036304,8165a,N/A,N/A,no type status,"Ynes Mexia, No. 8165a",N/A,N/A,1100 m.,"Sept. 9,1936",Rhacopilum tomentosum (Sw.) Brid.,"Departamento and Provincia Huanuco, Distrito Churubamba; Hacienda Exito; bank of Rio Ysabel; on rock in wood"
N/A,Y. Mexia,Peru,Huanuco,on rock in woods,N/A,Rhacoplium tomentosum,Hacienda Exito; bank of Rio Ysabel; on rock in woods,N/A,1936-09-06,N/A,Typed,1036249,8168a,N/A,N/A,no type status,"Ynes Mexia, No. 8168a",N/A,N/A,1100 m.,"Sept. 6,1936",Rhacoplium tomentosum (Sw.) Brid.,"Departamento and Provincia Huanuco, Distrito Churubamba; Hacienda Exito; bank of Rio Ysabel; on rock in woods"
N/A,R. E. Schultes,Colombia,Amazonas,"On wet, fallen log",N/A,Leucomium lignicola,Rio Miritiparaná: Caño Guacayá ,N/A,1952-05-19,N/A,Mix of Handwritten and Typed,1055165,16563,N/A,I. Cabrera,no type status,Richard Evans Schultes et Isidoro Cabrera,"Lat 0° 30' S, Long 70° 40' W",N/A,Altitude about 700 feet,"May 19, 1952",Leucomium lignicola Spruce ex Mitt,"Rio Miritiparaná: Caño Guacayá Altitude about 700 feet General location: Lat 0° 30' S, Long 70° 40' W"
N/A,D. Griffin III,Colombia,Magdalena,Bosque nublado montano bajo,S. R. Gradstein,Leiomitum lignicola,Parque Nacional de la Sierra Nevada de Santa Marta Vertiente oriental del Rio Buritaca ,1977-08-00,1977-07-00,N/A,Typed,1029476,"50,186",N/A,O. Rangel | G. van Reenen,no type status,"Dana Griffin III, Orlando Rangel y Guido van Reenen",N/A,N/A,1600-1700 m,Julio-Agosto 1977,Leiomitum lignicola sp. ex Mitt,Parque Nacional de la Sierra Nevada de Santa Marta. Vertiente oriental del Rio Buritaca. Bosque nublado montano bajo
N/A,S. P. Churchill,Colombia,Antioquia,In secondary montane forest,S. P. Churchill,Trachyxyphium tenue,Cerro San Miguel south of San Miguel ,N/A,1987-07-06,N/A,Typed,1139980,15466,N/A,N/A,no type status,S P Churchill et al 15466,5°55' N 75°17' W,N/A,2460-2620 m,6 July 1987,Trachyxyphium tenue (Mitt) Buck (= Hookeriopsis tenue Mitt),Mun de la Union Cerro San Miguel S of San Miguel 5°55' N 75°17' W alt 2460-2620 m In secondary montane forest
N/A,D. Griffin,Costa Rica,Cartago,Very humid lower montane forest,N/A,Hypnella pilifera,"Reserva Forestal Tapantí, eastern slope of Río Macho ",1977-07-04,1977-07-03,N/A,Typed,1025621,s.n.,N/A,M. I. Morales | D. E. de Retana,no type status,"Dana Griffin, III, María Isabel Morales y Dora Emilia de Retana",N/A,N/A,"1,300-1,600 m.","Julio 3-4, 1977",Hypnella pilifera (Hook. et Wils.) Jaeg.,"CARTAGO: Reserva Forestal Tapantí, vertiente oriental del Río Macho. Bosque muy húmedo montano bajo. Alt. 1,300-1,600 m."
N/A,J. J. Wurdack,Venezuela,Bolívar,Frequent on fallen logs in forest between Camps 3 and 2,E. B. Bartram,Hypnella cymbifolia,[precise locality unknown],N/A,1953-00-00,N/A,Typed,1026297,34365,N/A,N/A,no type status,John J. Wurdack,N/A,N/A,elev. 1250 - 1200 m.,N/A,Hypnella cymbifolia (Hpe.) Jaeg.,"Estado Bolívar, Venezuela"
N/A,W. R. Buck,Brazil,Amazonas,On branches at summit,N/A,Hookeriopsis parkeriana,"Slopes and summit of Serra Curicuriari, from Igarapé Arabu of the Rio Curicuriari to the summit",1979-07-12,1979-07-03,N/A,Typed,1125553,2445,N/A,N/A,no type status,William R Buck 2445,"00°20'S, 66°50'W",N/A,ca 450 m at summit,3-12 July 1979,Hookeriopsis parkeriana (Hook & Grev) Jaeg,"Slopes and summit of Serra Curicuriari, from Igarapé Arabu of the Rio Curicuriari to the summit, ca 450 m at summit, 00°20'S, 66°50'W"
N/A,R. B. Foster,Peru,Pasco,In Weinmannia forest,W. C. Steere,Hypnella pilifera,"E slope of Cordillera Yanachaga, on Tunque- Chuchurras trail ",N/A,1981-07-30,N/A,Typed,1059405,4722,N/A,N/A,no type status,Robin B Foster 4722,"10°30'S, 75°30'W",N/A,1900 m,30 July 1981,HYPNELLA PILIFERA (Hook & Wils) Jaeg,"E slope of Cordillera Yanachaga, on Tunque- Chuchurras trail, 1900 m, 10°30'S, 75°30'W In Weinmannia forest"
N/A,J. M. Fitzpatrick,Peru,Cusco,Extremely mossy elfin cloud forest near shallow ravine,N/A,Hypnella pilifera,"Slopes above Pillahuata, near kilometer 126 on Cospipata Highway, 2850 meters ",N/A,1981-12-04,N/A,Typed,1059455,s.n.,N/A,D. E. Willard,no type status,J.M. Fitzpatrick & D.E. Willard s.n.,"13°11'S, 71°22'W",N/A,2850 m.,4 Dec. 1981,Hypnella pilifera (Hook. & Wils.) Jaeg.,"Slopes above Pillahuata, near km. #126 on Cospipata Hwy., 2850 m., 13°11'S, 71°22'W. Extremely mossy elfin cloud forest near shallow ravine."
N/A,S. P. Churchill,Colombia,Antioquia,"On talud, in secondary montane forest",S. P. Churchill,Hypnella diversifolia,"Road to Pueblo Nuevo, Ventanas ",N/A,1992-07-11,N/A,Typed,1139992,18335,N/A,N/A,no type status,S P Churchill et al 18335,"7°5' N, 75°25' W",N/A,1950 m,11 July 1992,Hypnella diversifolia (Mitt) Jaeg,"Mun de Valdivia, road to Pueblo Nuevo, Ventanas, 7°5' N, 75°25' W, alt 1950 m On talud, in secondary montane forest"
N/A,E. B. Bartram,Venezuela,Bolivar,Fruiting scantily on logs Occasional in rain-forest between Camps 2 and 3,N/A,Hypnella cymbifolia,[precise locality unknown],N/A,1953-01-07,N/A,Typed,1026299,34056,N/A,N/A,no type status,E. B. Bartram,N/A,N/A,elev. 1200-1250 m,"January 7, 1953",Hypnella cymbifolia (Hpe.) Jaeg.,"Estado Bolivar, Venezuela"
N/A,R. B. Foster,Peru,Pasco,In Weinmannia forest,N/A,Hypnella pallescens,"E slope of Cordillera Yanachaga, on Yanque- Chuchurras trail ",N/A,1981-07-30,N/A,Typed,1059403,4720,N/A,N/A,no type status,Robin B. Foster 4720,"10°30'S, 75°30'W",N/A,1900 m.,30 July 1981,HYPNELLA PALLESCENS (Hook.) Jaeg.,"E slope of Cordillera Yanachaga, on Yanque- Chuchurras trail, 1900 m., 10°30'S, 75°30'W. In Weinmannia forest."
N/A,J. J. Wurdack,Venezuela,Bolívar,Forest,S. R. Hartram,Frullania cuspidifolia,Frequent on fallen logs in forest between Camps 3 and 2,N/A,1953-02-11,N/A,Typed,1026300,34305,N/A,N/A,no type status,John J. Wurdack,N/A,N/A,elev. 1250 - 1200 m.,"February 11, 1953",Frullania cuspidifolia (Hpe.) Jaeg.,"Frequent on fallen logs in forest between Camps 3 and 2, elev. 1250 - 1200 m."
N/A,T. Husnot,France,Orne,Rochers schisteux de la Saboterie,N/A,Weisia compacta,"Calais, near Athis",N/A,N/A,Calais,Mix of Handwritten and Typed,1084497,s.n.,N/A,N/A,no type status,T Husnot,N/A,N/A,N/A,s.d.,Weisia compacta Brid.,"à Calais, par Athis (Orne)"
Pinus thunbergii,H. Inoue,Japan,N/A,On bark of Pinus thunbergii,Z. Iwatsuki,Macromitrium japonicum,"Around Shirahama, Iriomote Island, Ryukyu Islands ",N/A,1973-01-11,N/A,Typed,1021837,s.n.,N/A,N/A,no type status,H Inoue,N/A,N/A,elevation about 10 m,"Jan 11, 1973",Macromitrium japonicum Doz. et Molk.,"Around Shirahama, Iriomote Isl., the Ryukyu Isls."
N/A,L. B. Smith,Brazil,Santa Catarina,rupestre,N/A,Campylopus arctocarpus,Campo dos Padres ,N/A,1956-03-17,Bom Retiro,Mix of Handwritten and Typed,N/A,2464,N/A,N/A,no type status,L. B. Smith,N/A,N/A,1950 msm,17.3.1956,Campylopus arctocarpus (Hornsch.) Mitt.,"Campo dos Padres, Bom Retiro"
N/A,J. P. Frahm,Brazil,São Paulo,epiphytisch im Podocarpus-Wald,Frahm,Campylopus arctocarpus,"Serra do Bocaina, lee side, on the road from Campos da Cunha to São José dos Barreiros ",N/A,1977-07-22,São José dos Barreiros,Typed,1026026,s.n.,N/A,N/A,no type status,Frahm 22.7.1977,N/A,N/A,1200 msm,22.7.1977,Campylopus arctocarpus (Hornsch.) Mitt.,"Serra do Bocaina, Leeseite, an der Straße Campos da Cunha - São José dos Barreiros"
N/A,F. Reitz,Brazil,Santa Catarina,rupestre,N/A,Campylopus atrouirens,Morro do Bau ,N/A,1953-01-20,Itajaí,Mix of Handwritten and Typed,N/A,3912,N/A,N/A,no type status,F. Reitz,N/A,N/A,Altit 900 msm,20-1-1953,Campylopus atrouirens (Hornsch) Broth,"Morro do Bau, Itajaí"
N/A,Schäfer-Verwimp,Brazil,São Paulo,"Campo vegetation in summit area, shady rock face",Schäfer-Verwimp,Campylopus griseus,Pedra Grande near Atibaia ,N/A,1987-09-05,N/A,Typed,1097651,9019,N/A,N/A,no type status,Schäfer-Verwimp 5.9.1987 no. 9019 Schäfer-Verwimp,N/A,N/A,1400 msm,5.9.1987,Campylopus griseus (HORNSCH.) JAEG.,"Pedra Grande bei Atibaia, Campo-Vegetation im Gipfelbereich, schattenreicher Felshand; 1400 msm"
N/A,J. P. Frahm,Peru,Amazonas,cloud forest,N/A,Campylopus heterostachys,"Cajamarca - Chachapoyas road km 417.5 above Leimebamba, on overgrown boulder in cloud forest ",N/A,1982-09-06,N/A,Typed,1053590,s.n.,N/A,N/A,no type status,J-P Frahm 6 9 1982,N/A,N/A,2655 m,6 9 1982,Campylopus heterostachys (Hamp.)Jaeg.,"Dep. Amazonas, Strasse Cajamarca - Chachapoyas km 417,5 oberhalb Leimebamba, auf übererdeten Steinblock im Nebelwald 2655 m."
