Image,verbatimCollectors,collectedBy,secondaryCollectors,recordNumber,verbatimEventDate,minimumEventDate,maximumEventDate,verbatimIdentification,latestScientificName,identifiedBy,verbatimDateIdentified,associatedTaxa,country,firstPoliticalUnit,secondPoliticalUnit,municipality,verbatimLocality,locality,habitat,substrate,verbatimElevation,verbatimCoordinates,otherCatalogNumbers,originalMethod,typeStatus
0000_V0573776F.jpg,E.D. Merrill,E.D. Merrill,N/A,852,"Jan. 10 to Feb. 9, 1904",1904-01-10,1904-02-09,Cyperus maculatus Boeck.,Cyperus maculatus Boeck.,L. Kucyniak,19.10.1947,N/A,Democratic Republic of the Congo,Congo Free State,N/A,N/A,"""Rhino Camp,"" Lado Enclave, Congo Free State","""Rhino Camp,"" Lado Enclave",N/A,,N/A,N/A,N/A,Typed,no type status
0001_V0576008F.jpg,F. G. Overlaet,F. G. Overlaet,N/A,1923-24,1923-24,1923-00-00,1924-00-00,Habenaria,Habenaria,B. Pettersson,1984,N/A,Democratic Republic of the Congo,N/A,N/A,N/A,N/A,[precise locality unknown],N/A,,N/A,N/A,752356,Typed,no type status
0002_V0576279F.jpg,R.A. Maas Geesteranus,R.A. Maas Geesteranus,N/A,4924,d.d. 14-VII-1949,1949-07-14,N/A,Pycreus sanguinolentus (Vahl) C.B.Cl.,Pycreus sanguinolentus (Vahl) C.B.Cl.,N/A,N/A,N/A,Kenya,Nyanza Province,Londiani Distr.,N/A,"Londiani Distr., Tinderet Forest Reserve, Camp I","Tinderet Forest Reserve, Camp I","Glade surrounded by rather open, tall forest, containing among others Dombeya mastersii and Olea hochstetteri",,2260 m. s.m.,"lat. 0° 5' S., long. 35° 27' E.",1447352,Typed,no type status
0003_V0577013F.jpg,M. de Ceballos,M. de Ceballos,N/A,20135,d.d. 3-5-6,unsure and check,unsure and check,Bulbophyllum scaberulum (Rolfe) Bolus var. scaberulum,Bulbophyllum scaberulum (Rolfe) Bolus var. scaberulum,Olga Kosenkovsky,2011,N/A,Gabon,N/A,N/A,N/A,"ca 6 km NW of Oveny, chantier Rougler & Cie., Océan","ca 6 kilometers northwest of Oveny, chantier Rougier & Cie., Océan",Primary rain forests,,N/A,01 41 N 11 07 E,N/A,Typed,no type status
0004_V0577892F.jpg,Carvalho 2102,Carvalho,N/A,2102,26-VII-1980,1980-07-26,N/A,Mariscus alternifolius Vahl,Mariscus alternifolius Vahl,"C. Cebolla & M.A. Rivas Ponce (UAM), 1995",1995,N/A,Equatorial Guinea,Bioko,N/A,Malabo,"""Malabo, finca las Carboneras, 32NMK7415, m. Bosque secundario y terrenos inclusos""","Malabo, finca las Carboneras",Bosque secundario y terrenos inclusos,,N/A,32NMK7415 ,N/A,Typed,no type status
0005_V0578553F.jpg,M. Carvalho & M.A. Ramos Ponce,M. Carvalho,M.A. Ramos Ponce,11206,5-II-1989,1989-02-05,N/A,Agrostis mannii (Hooker fil.) Stapf,Agrostis mannii (Hooker fil.) Stapf,C. Cebolla & M.A. Ramos Ponce,1993,N/A,Equatorial Guinea,Bioco,N/A,N/A,"Bioco: cumbre del pico Basilé, 32NMJ7396, 2270 m., márgenes de la pista, Fernández Casas 11206, 5-II-1989",cumbre del pico Basilé,márgenes de la pista,,2270 m,32NMJ7396,2200806,Typed,no type status
0006_V0574052F.jpg,COLL. I. F. OVERLAET,I. F. Overlaet,N/A,1932-4,s.d.,s.d.,s.d.,Scleria sp.,"Scleria melanotricha Welw. ex A. Rich. Det. H. & R. Kral, 1960",H. & R. Kral,1960,N/A,Democratic Republic of the Congo,N/A,N/A,N/A,N/A,[precise locality unknown],N/A,,N/A,N/A,752378,Typed,no type status
0007_V0577681F.jpg,C.J.P. Seegeler,C.J.P. Seegeler,N/A,2806,dd.-23 October 1972,1972-10-23,1972-10-23,Vernonia amygdalina Sch. Bip.,Vernonia amygdalina Sch. Bip.,G.J.H. Amshoff,Det.:G.J.H. Amshoff 1982,N/A,Ethiopia,Nazareth,N/A,N/A,"1 km from Matahara, on road to Nazareth. In full sun on a clay rock.","1 kilometer from Matahara, on road to Nazareth",In full sun on a clay rock,,253 m,"8°56'N, 39°55'E",2302805,Typed,no type status
0008_V0597557F.jpg,N/A,N/A,N/A,s.n.,s.d.,s.d.,s.d.,Cirsium heptacanthum Fres,Cirsium heptacanthum Freyn,N/A,N/A,N/A,Democratic Republic of the Congo,Sud-Kivu,Kabare,N/A,Habité: Musisi,Musisi,N/A,,Altitude:,Coordonnées géographiques:,N°: 2257689,Typed,no type status
0009_V0594376F.jpg,J.M. Fay,J.M. Fay,N/A,80I7,25 May 1987,1987-05-25,N/A,Burkea africana Hook.,Burkea africana Hook.,J.M. Fay,N/A,N/A,Central African Republic,N/A,N/A,N/A,"Park Manovo-Gounda-St. Floris, Vicinity of Camp Koumbala","Park Manovo-Gounda-St. Floris, Vicinity of Camp Koumbala",N/A,,1200 m,"08°29' N, 21°12' E","NCI # Wood G578/OO65, Bark G578/OO66, Root G578/OO67, Leaves G578/OO68",Typed,no type status
0010_V0597275F.jpg,P.C.M. Jansen,P.C.M. Jansen,N/A,s.n.,s.d.,s.d.,s.d.,Cirsium vulgare (Savi) Ten.,Cirsium vulgare (Savi) Ten.,C.C.H. Jongkind,14 April 1976,N/A,Ethiopia,Harerge,N/A,N/A,"around Damota Village, near Alema Legna Betwee Chat and Sorghum fields.","around Damota Village, near Alema Brewery between Chat and Sorghum fields",Ground roots are drunk against gonorrhea.,,2900m,N/A,2302849,Typed,no type status
0011_V0597626F.jpg,"Amanda Koch, Wilson Saikwa, AK61",A. Koch,W. Saikwa,AK61,"October 22, 2003",2003-10-22,N/A,Acacia reficiens merissa (Vatke) Brenan,Acacia reficiens merissa (Vatke) Brenan,P. Mutiso,"November 02, 2003",N/A,Kenya,Kajiado District,N/A,Oloishobor,Kenya: Kajiado District: Oloishobor,[precise locality unknown],Dry bushland,,N/A,N/A,2309478,Typed,no type status
0012_V0597688F.jpg,C. H. Shaw,C.H. Shaw,N/A,s.n.,About 1931,1931-00-00,1931-00-00,Albizia gummifera (J.F.Gmel.) C.A. Sm.,Albizia gummifera (J.F.Gmel.) C.A. Sm.,N/A,N/A,N/A,Democratic Republic of the Congo,Équateur,N/A,Coquilhatville (Mbandaka),Congo Belge. Équateur : Coquilhatville (Mbandaka),"Équateur, Coquilhatville (Mbandaka)",N/A,,N/A,N/A,867368,Typed,no type status
0013_V0588237F.jpg,N/A,N/A,N/A,N/A,25. 12. 1957,1957-12-25,1957-12-25,Digitaria perrottetii (Hochst. ex A. Rich.) Stapf,Digitaria perrottetii (Hochst. ex A. Rich.) Stapf,N/A,N/A,N/A,Kenya,N/A,N/A,Tsavo – Taita Andei,"Tsavo – Taita Andei, Kenya",Tsavo – Taita Andei,N/A,,N/A,N/A,Ward cut no 207,Typed,no type status
0014_V0580026F.jpg,H. Callens,H. Callens,N/A,s.n.,Juillet 1958,1958-07-00,1958-07-00,Palicourea guianensis Aubl.,Palicourea guianensis Aubl.,H. Callens,1/9/58,N/A,Democratic Republic of the Congo,Kisantu,N/A,N/A,Kisantu (Congo Belge),Kisantu,N/A,,N/A,N/A,1584065,Typed,no type status
0015_V0580516F.jpg,G. Troupin,G. Troupin,N/A,6333,10/2/1958,1958-02-10,N/A,Mikania cordata (Burm. f.) B.L. Robinson,Mikania cordata (Burm. f.) B.L. Robinson,N/A,N/A,N/A,Democratic Republic of the Congo,Kivu,N/A,Walikale,"Territ. Walikale, Vers 110 mystere Kama-Kibambi-Tshibati-Tshibimbi, Alt. 1550 m.",Vers 110 mystere Kama-Kibambi-Tshibati-Tshibimbi,Forêt ombrophile,,1550 m.,N/A,1543353,Typed,no type status
0016_V0574490F.jpg,Gordon McPherson,G. McPherson,N/A,13781,20 Mars 1989,1989-03-20,N/A,Corynanthe mayumbensis (R. Good ex Halle) N. Halle Det. Wilks & McPherson 1989,Corynanthe mayumbensis (R. Good ex Halle) N. Halle,Wilks & McPherson,1989,N/A,Gabon,Ogooue-Ivindo,Reserve de la Lope,N/A,"Chantier SODEFOR, au sud d'Ayem; 0°25'S 11°30'E","Chantier SODEFOR, south of Ayem",N/A,,c. 200 m,0°25'S 11°30'E,LP: A665-0223-G; BR: A665-0224-H; WD: A665-0225-I.,Typed,no type status
0017_V0574226F.jpg,J. M. Fay,J. M. Fay,N/A,8294,4 March 1988,1988-03-04,N/A,Millettia zechiana Harms,Millettia zechiana Harms,D. K. Assi,1998,N/A,Cameroon,N/A,N/A,N/A,"On the Sangha River across from Makao gorilla study area. In seasonally flooded forest with Guibourtia demeusei, Pericopsis spp., Bombax sp.",On the Sangha River across from Makao gorilla study area,"In seasonally flooded forest with Guibourtia demeusei, Pericopsis spp., Bombax sp.",,385 m,02°20'N 16°08'E,N/A,Typed,no type status
0018_V0580728F.jpg,E. J. H. Corner,E. J. H. Corner,N/A,199,29.vii.1959,1959-07-29,1959-07-29,Phaseolus lunatus L.,Phaseolus lunatus L.,N/A,N/A,N/A,Indonesia,Jambi,N/A,N/A,"South West of Crater Lake. Clearing in wood, scrambling over herbage.",South West of Crater Lake,"Clearing in wood, scrambling over herbage",,N/A,N/A,1624518,Typed,no type status
0019_V0578764F.jpg,E. P. Phillips and P. L. Greenway,E. P. Phillips,P. L. Greenway,2,"June 1-8, 1934",1934-06-01,1934-06-08,Hyparrhenia filipendula (Hochst.) Stapf ex Burtt Davy,Hyparrhenia filipendula (Hochst.) Stapf ex Burtt Davy,N/A,N/A,N/A,Kenya,N/A,N/A,Mathiga,"Mathiga, near Nairobi","Mathiga, near Nairobi",N/A,,"1,700 meters",N/A,N/A,Typed,no type status
0020_V0594158F.jpg,A. Leonard,A. Leonard,N/A,3149,19/2/1959,1959-02-19,N/A,"Oxynanthes speciosa DC. Gilg., indet.",Oxynanthes speciosa DC.,N/A,N/A,N/A,Democratic Republic of the Congo,N/A,N/A,N/A,Muabi,Muabi,Vieille forêt secondaire,,1900m,N/A,2086095,Typed,no type status
0021_V0573054F.jpg,Herbier des services forestiers L'Indochine recoilet par le P.F. Léprieur,P.F. Leprieur,N/A,s.n.,s.d.,N/A,N/A,Herbariastrum labordei,Herbariastrum labordei,N/A,N/A,N/A,Vietnam,N/A,N/A,N/A,N/A,precise locality unknown,N/A,,N/A,N/A,N/A,Typed,no type status
0022_V0601010F.jpg,James T. Allen,J.T. Allen,N/A,41,"September 23, 1996",1996-09-23,1996-09-23,Dissotis rotundifolia (Sm.) Triana,Dissotis rotundifolia (Sm.) Triana,N/A,N/A,N/A,Ghana,Volta Region,N/A,N/A,LATAR; Centre for Scientific Research into Plant Medicine (CSRPM) farm,Centre for Scientific Research into Plant Medicine farm,N/A,,N/A,N/A,2200652,Typed,no type status
0023_V0602418F.jpg,J. E. Amoah,J.E. Amoah,N/A,5632,March 1952,1952-03-00,1952-03-00,Chrysophyllum perpulchrum Mildbr.,Chrysophyllum perpulchrum Mildbr.,N/A,N/A,N/A,Ghana,Ashanti,Kumasi District,Kumasi,Kumasi Township Forest Reserve,Kumasi Township Forest Reserve,N/A,,N/A,N/A,1601919,Typed,no type status
0024_V0604513F.jpg,J. Nemba & D.W. Thomas,J. Nemba,D.W. Thomas,s.n.,15 June 1987,1987-06-15,N/A,Donella welwitschii Pierre ex Engl.,Donella welwitschii Pierre ex Engl.,D.W. Thomas,1987,N/A,Cameroon,Southwest,N/A,N/A,secondary growth and old growth forest along Kumba-Mamfe road at mile 14 L&K oil,secondary growth and old growth forest along Kumba-Mamfe road at mile 14 L&K oil,secondary growth and old growth forest,,200 m,04°44'N 09°29'E,2041320,Typed,no type status
0025_V0572217F.jpg,J. Deaw,J. Deaw,N/A,No. 283,"4, IV, 79",1979-04-04,1979-04-04,Eugenia coronata,Eugenia coronata,N/A,N/A,N/A,Ghana,Greater Accra Region,N/A,Accra,Accra,Accra,"A shrub about 6' high. Flowering pedicels fascicled, 1"" from axil bud, calyx persistent at the apex.",,N/A,N/A,1753422,Typed,no type status
0026_V0602609F.jpg,A. Braun & H. Hartmann,A. Braun,H. Hartmann,s.n.,s.d.,s.d.,s.d.,Rumex nervosus Vahl,Rumex nervosus Vahl,N/A,N/A,N/A,Ethiopia,Eritrea,N/A,N/A,Agordat; fonte der fluss Barka am djenadelt Makedar,Agordat near the source of the Barka River at Makedar,N/A,,1500-1800 m.,N/A,71288,Typed,no type status
0027_V0606178F.jpg,R.B. & A.J. Faden,R.B. Faden,A.J. Faden,77/11,7 March 1977,1977-03-07,N/A,Toddaliopsis biseriata (Engl.) Engl. confirmed J.O. Kokwaro,Toddaliopsis biseriata (Engl.) Engl.,J.O. Kokwaro,N/A,N/A,Kenya,Kwale District,N/A,N/A,"Chale Peninsula, ca. 4º26'S, 39º32'E",Chale Peninsula,"Coastal rain forest, 5m",,5m,"4º26'S, 39º32'E",Nº 2153520,Typed,no type status
0028_V0603038F.jpg,F. Szafranski,F. Szafranski,N/A,1378,2.2.1988,1988-02-02,1988-02-02,Commelinaceae Floscopa glomerata (Roe. et Schult.) Hassk.,Floscopa glomerata (Roe. et Schult.) Hassk.,N/A,N/A,N/A,Democratic Republic of the Congo,Haut-Zaire,Haut-Uele,Isiro,"Haut-Zaire, S.-Rég., Haut-Uele, Isiro",[precise locality unknown],bas fond marécageux près de la route aux environs de l'usine Sogoodia,,N/A,N/A,N/A,Typed,no type status
0029_V0606676F.jpg,F.H.W. Milford,F.H.W. Milford,N/A,394,2.1.38,1938-01-02,N/A,Solanum spp.,Solanum aculeatissimum Jacq.,M. Nee,"Dec. 3, 1977",N/A,Cameroon,N/A,N/A,Bameda,"Bamenda, British Cameroons",Bamenda,Shrub very thorny and spiny. Flower not seen. Fruit pale yellow in life,,alt. 4500 ft.,N/A,1441275,Typed,no type status
0030_V0601406F.jpg,T.C. Wrigley & P. Hulleville,T.C. Wrigley,P. Hulleville,52,10 July 1959,1959-07-10,N/A,Canthium rhomboides (Hiern) ex Alston,Canthium rhomboideum,A.W. Exell,1961,N/A,Tanzania,Arusha,N/A,N/A,Amborijo Ridge west of Crater Lake,Amborijo Ridge west of Crater Lake,Open woodland,,1200ft,N/A,N/A,Mix of Handwritten and Typed,no type status
0031_V0604673F.jpg,William Burger,W. Burger,N/A,1296,27 May 1963,1963-05-27,1963-05-27,Rubus apetalus Poir,Rubus apetalus Poir,W.J. Kress,N/A,N/A,Ethiopia,Harar Prov.,N/A,N/A,"6.2 mi. E. of Adea on road from Harar along escarpment, Harar Prov., Ethiopia",6.2 miles East of Adea on road from Harar along escarpment,Steep slopes with remnant cedar-juniper-persea forest,,9200 feet,N/A,1825230,Typed,no type status
0032_V0565514F.jpg,J.D. Sauer,J.D. Sauer,N/A,s.n.,15 June 1963,1963-06-15,N/A,Aerva lanata (L.) Juss.,Aerva lanata (L.) Juss.,N/A,N/A,N/A,Kenya,Coast Province,Kwale District,N/A,"Coast Province, Kwale District, near Mombasa, Bumburi Beach, N of Mombasa","near Mombasa, Bumburi Beach, north of Mombasa","Beach ridge, shallow open coast",,N/A,N/A,595547,Typed,no type status
0033_V0565977F.jpg,C. Vigne,C. Vigne,N/A,s.n.,s.d.,0000-00-00,0000-00-00,Esenbeckia pentaphylla Engl. ,Esenbeckia pentaphylla Engl. ,N/A,N/A,N/A,India,N/A,N/A,N/A,N/A,[precise locality unknown],N/A,,N/A,N/A,839434,Typed,no type status
0034_V0566108F.jpg,Enam Abdo,E. Abdo,N/A,1026,Collected in 1999,1999-00-00,1999-00-00,Uvaria versicolor Pierre,Uvaria versicolor Pierre,N/A,N/A ,N/A ,Ghana,N/A,N/A,N/A,N/A,[precise locality unknown],N/A,,N/A,N/A,2325285,Typed,no type status
0035_V0567164F.jpg,A. Akinwu,A. Akinwu,N/A,398,22 iii 71,1971-03-22,N/A,Peponia dacemis,N/A,A. Akinwu,19 71,N/A,Ghana,N/A,N/A,Awutu,Awutu - Winneba Road.,Awutu - Winneba Road,A climber among grasses.,,N/A,N/A,1753348,Typed,no type status
0036_V0591661F.jpg,D.W. Thomas,D.W. Thomas,N/A,6850,1987,1987-00-00,1987-00-00,Cola flavovelutina K. Schum,Cola flavovelutina K. Schum,D.W. Thomas,1987,N/A,Cameroon,Southwest,N/A,N/A,PRCV. SOUTHWEST: Korup National Park. Primary rain forest,"Korup National Park, Primary rain forest",Primary rain forest,,60 m,05°02'N 08°50'E,2041255,Typed,no type status
0037_V0567306F.jpg,Sue A. Thompson,S.A. Thompson,N/A,1522,9 July 1984,1984-07-09,N/A,Impatiens macroptera Hook. f.,Impatiens macroptera Hook. f.,N/A,N/A,N/A,Cameroon,Sud-Ouest,Dept. Fako,Bakinigli,"CAMEROON: Prov. Sud-Ouest, Dept. Fako: Bakinigli",Bakinigli,"Trail up Mt. Cameroon, growing on wet rocks",,Alt. 50-250 m.,"4°04'N, 9°02'E.",N/A,Typed,no type status
0038_V0606921F.jpg,A. Maitland,A. Maitland,N/A,4847,16/8/27-...,1927-08-16,N/A,Englerina woodfordioides (Engl.) Gilg.,Tapinanthus pentagonus,Leach,s.d.,N/A,Kenya,Kitui,N/A,N/A,40 km N.E. of Kangonde on road to Embu,40 kilometers northeast of Kangonde on road to Embu,Thickets,,c. 4500 ft.,N/A,1864166,Typed,no type status
0039_V0605928F.jpg,Sue A. Thompson & John E. Rawlins,S.A. Thompson,J.E. Rawlins,1333,3 June 1984,1984-06-03,N/A,Avicennia africana P. Beauv.,Avicennia africana P. Beauv.,N/A,N/A,N/A,Cameroon,Sud-Ouest,Fako,Bakiki-Bilingi,"Prov. Sud-Ouest; Dept. Fako: Bakiki-Bilingi; 4°04'N, 9°02'E",[precise locality unknown],N/A,,Alt. 0 m.,"4°04'N, 9°02'E",2088074,Typed,no type status
0040_V0605675F.jpg,N/A,N/A,N/A,6047,3.XII.1958,1958-12-03,N/A,Tina sp. Cybianthus (Buiss) Bremek,Tina sp. Cybianthus (Buiss) Bremek,N/A,N/A,N/A,Cameroon,Taraba,Takamanda,N/A,"vrs Terra rossa Kountamvillé, pente raide ","vers Terra rossa Kountamville, pente raide ","forêt ombrophile. Ossam Ed, 11,500 m.",,950 - 900 m.,N/A,1543374,Typed,no type status
0041_V0571550F.jpg,A. Pappi,A. Pappi,N/A,s.n.,14-15-VIII-1902,1902-08-14,1902-08-15,Lavandula pubescens Decaisne,Lavandula pubescens Decaisne,T.M. Upson,2/4/1996,N/A,Eritrea,Assaorta,N/A,N/A,Eritrea: Assaorta - Lungo il torrente Haddas,vicinity of the Haddas stream in Assaorta,[precise locality unknown],,N/A,N/A,N/A,Typed,no type status
0042_V0607392F.jpg,William Burger,W. Burger,N/A,1953,14 Feb. 1962,1962-02-14,1962-02-14,Juniperus procera Hochst. ex Endl.,Juniperus procera Hochst. ex Endl.,W. Burger,N/A,N/A,Ethiopia,Harar Province,N/A,N/A,N.W. from Gara Mullata Mtn. ca. 50 km. due E of Harar,Northwest from Gara Mullata Mountain approximately 50 kilometers due east of Harar,on steep slopes with mixed forest,,alt. 2850 - 3200m,N/A,1632855,Typed,no type status
0043_V0570163F.jpg,C. D. Ekpe,C. D. Ekpe,N/A,s.n.,1/12/1952,1952-12-01,1952-12-01,TERMINALIA GLAUCESCENS,Terminalia glaucescens,N/A,N/A,N/A,Ghana,Volta Region,N/A,Ho,"HO, VOLTA REGION GHANA","Ho, Volta Region","A tree, c. 40ft high, in the open. Secondary, plants yellow or brownish yellow",,N/A,N/A,N/A,Typed,no type status
0044_V0570543F.jpg,Schimper,Schimper,N/A,s.n.,sine dato,1862-11-00,1863-11-00,Ipomoea quamoclit Linn.,Ipomoea quamoclit L.,N/A,N/A,N/A,Ethiopia,N/A,N/A,N/A,Abyssinia,Abyssinia,N/A,,N/A,N/A,373793,Handwritten,no type status
0045_V0607965F.jpg,D.W. Thomas,D.W. Thomas,N/A,6988,18 May 1987,1987-05-18,N/A,DICHAPETALACEAE Tapura africana Oliv.,Tapura africana Oliv.,D.W. Thomas,1987,N/A,Cameroon,Southwest,Kupe,N/A,"Degraded forest at Barombi Kang, Kumba",Degraded forest at Barombi Kang,Degraded forest,,150 m,04°36'N 09°27'E,2040825,Typed,no type status
0046_V0570471F.jpg,E.A. Mearns,E.A. Mearns,N/A,1114,"September 6-7, 1909",1909-09-06,1909-09-07,Euphorbia aequilata,Euphorbia aequilata,N/A,N/A,N/A,Kenya,N/A,N/A,N/A,"Vicinity of Thika, British East Africa",Vicinity of Thika,N/A,,altitude about 1350 meters,N/A,463287,Typed,no type status
0047_V0570108F.jpg,G. Jackson,G. Jackson,N/A,s.n.,s.d.,N/A,N/A,Combretum schumannii Engl.?,Combretum schumannii Engl.?,N/A,N/A,N/A,Kenya,N/A,N/A,N/A,N/A,[precise locality unknown],N/A,,N/A,N/A,856357,Typed,no type status
0048_V0570110F.jpg,J. M. Fay,J. M. Fay,N/A,8271,28 February 1988,1988-02-28,1988-02-28,Combretum smeathmannii G. Don,Combretum smeathmannii G. Don,"Ake Assi, 1988",1988,N/A,Cameroon,N/A,N/A,N/A,"Along the Sangha River adjacent to the island of Kilona. In riparian forest adjacent to seasonally flooded forest with Irvingia, Erythrina, Guibourtia demeusei, Berlinia sp.",Along the Sangha River adjacent to the island of Kilona,In riparian forest adjacent to seasonally flooded forest,,1400 m,02°21'N 16°09'E 385 m.,N/A,Typed,no type status
0049_V0590787F.jpg,D.D. Soejarto,D.D. Soejarto,N/A,4793,"April 1, 1978",1978-04-01,N/A,Diospyros tricolor Hiern,Diospyros tricolor Hiern,N/A,N/A,"Thespesia populnea, Sophora accidental is",Ghana,Greater Accra Province,N/A,Botianor Village,"20 km west of Accra, Sea coast","20 kilometers west of Accra, Sea coast",on sandy soil,,N/A,N/A,1842606,Typed,no type status
0050_V0040586F.jpg,Narciso Reyna B.,N. Reyna,N/A,s.n.,15 diciembre 1967,1967-12-15,1967-12-15,"""Carahuasca amarilla"" - arból, bosque húmedo tropical",Gustavia scalarinervia D.R. Simpson,D.R. Simpson,N/A,N/A,Peru,Loreto,Maynas,Santa María de Nanay,"Santa María - Río Nanay, distr. Alto Nanay, Dept. Loreto, prov. Maynas.",Santa María - Río Nanay,bosque húmedo tropical,,N/A,N/A,2314700,Typed,HOLOTYPE
0051_V0081497F.jpg,M. O. Dillon & D. Dillon,M.O. Dillon,D. Dillon,3776,1 Nov 1983,1983-11-01,1983-11-01,Galvezia fruticosa Gmel.,Galvezia eisensii M.O. Dillon & Quipuscoa,M.O. Dillon & Quipuscoa,N/A,N/A,Peru,Arequipa,Caraveli,N/A,"Lomas of Atiquipa, ca. 10.5 km N of turn-off to Atiquipa, km 584 S of Lima","Lomas of Atiquipa, approximately 10.5 kilometers north of turn-off to Atiquipa, kilometer 584 south of Lima","Erect, glutinous shrub to 0.75 m; flowers red",,ca. 150-200 m,N/A,1940835,Typed,HOLOTYPE
0052_V0042484F.jpg,C. Kotschy,C. Kotschy,N/A,s.n.,1836,1836-00-00,1836-00-00,Tetracera rubrivernia var. genuinum Hochst. & Steudel,Tetracera rubrivernia var. genuinum Hochst. & Steudel,F. Pax,N/A,N/A,"unsure [since the label does not specify the country, and the collector's information alone is not sufficient to determine it]",N/A,N/A,N/A,Inter tropicos comm. Abyssiniae,[precise locality unknown],N/A,,N/A,N/A,875422,Handwritten,Isosyntype
0053_V0092855F.jpg,José Campos & O. Díaz,J. Campos,O. Díaz,2490,9 Febrero 1996,1996-02-09,N/A,Amorimia camporum W.R. Anderson,Amorimia camporum W.R. Anderson,W.R. Anderson,"Novon 16(2): 179, 2006.",N/A,Peru,Cajamarca,San Ignacio Province,Distrito Chirinos,Entre La Catagua y Tablón.,Entre La Catagua y Tablón,Trepadora; flor amarilla.,,550 - 650,05°19'S; 078°47'W,2296033,Typed,ISOTYPE
0054_V0078059F.jpg,Ruiz & Pavon,H. Ruiz & J. Pavon,N/A,s.n.,(1779-1788),1779-00-00,1788-00-00,Nolana spathulata Ruiz & Pav.,Nolana spathulata Ruiz & Pav.,T. Mee,Fl. Neotrop. 26: 136. 1981.,N/A,Peru,N/A,N/A,N/A,in vice-regno Peruivano et Chilensi lectae,[precise locality unknown],N/A,,N/A,N/A,N/A,Typed,ISOLECTOTYPE
0055_V0092864F.jpg,Camilo Díaz & Antonio Peña,C. Díaz,A. Peña,9809,4 Diciembre 1996,1996-12-04,N/A,Symplocos ovata Stahl,Symplocos ovata Stahl,B. Stahl,"Novon 20(1): 91, fig. 4A-B, 2010",N/A,Peru,Amazonas,Luya Province,N/A,"Camporedondo, Tullanya, Pascana ""Pájaro Tigre""","Camporedondo, Tullanya, Pascana ""Pájaro Tigre""",Liana con frutos verdes. Pecínculos largos.,,2850–2360 m,N/A,2296023,Typed,Isotype
0056_V0092900F.jpg,Ruiz & Pavón,N/A,N/A,s.n.,1775-1788,1775-00-00,1788-00-00,Bomarea purpurea (Ruiz & Pavón) Herb.,Bomarea purpurea (Ruiz & Pavón) Herb. determined by Hofreiter in 2007,T. Hofreiter,2007,N/A,Peru,N/A,N/A,N/A,N/A,[precise locality unknown],N/A,,N/A,N/A,916119,Mix of Handwritten and Typed,isotype
0057_V0092906F.jpg,"V. Quipuscoa S., A. Sagástegui A., S. Leiva G. & M. Berruano C.",V. Quipuscoa,"A. Sagástegui, S. Leiva, M. Berruano",13778,20 agostos 1998,1998-08-20,N/A,Lithospermum cinerascens (A.DC.) Johnst. ,"Lithospermum leymebambense WEIGEND & NÜRK, sp. nov. inded.",M. Weigend,s.a. 2006,N/A,Peru,Amazonas,Prov. Chachapoyas,N/A,"Distrito Leymebamba, Carretera a Celendín, entre Ishpingo - Pomacocha. Bosque montano fragmentado.",Road between Ishpingo and Pomacocha,Bosque montano fragmentado,,2800-3000 m,N/A,2211679,Typed,Isotype
0058_V0092915F.jpg,Llewelyn Williams,L. Williams,N/A,6999,"Jan.-Feb., 1929",1929-01-00,1929-02-00,Marcgraviastrum racemosum (Triana & Planch.) Bedell,Marcgraviastrum racemosum (Triana & Planch.) Bedell,G. Lozano-Contreras,2010,N/A,Peru,San Martín,Rioja,N/A,"Nuevo Loreto, forest Roque, San Martin","forest Roque, Nuevo Loreto",N/A,,alt. 1800-1900 m.,N/A,624474,Mix of Handwritten and Typed,no type status
0059_V0092918F.jpg,Cheesman,N/A,N/A,s.n.,1778-1788,1778-00-00,1788-00-00,Marcgraviastrum obovatum (G. Don) Bedell = Marcgravia macroscypha Gilg,Marcgraviastrum obovatum (G. Don) Bedell,H.G. Bedell,Utrecht VIII. 1982,N/A,Peru,N/A,N/A,N/A,N/A,[precise locality unknown],N/A,,N/A,N/A,843295,Typed,Isotype
0060_V0092921F.jpg,Plantae a: Ruiz et Pavon: in vice-regno Peruviano et Chilensi lectae.,A. Ruiz,Pavon,s.n.,(1775-1788),1775-00-00,1788-00-00,Marquesia obovata (R & P) Don.,Marquesia macrophylla Spruce ex Benth.,H. G. Balslev,VIII 1982,N/A,N/A,N/A,N/A,N/A,N/A,[precise locality unknown],N/A,,N/A,N/A,842882,Typed,ISOTYPE
0061_V0190732F.jpg,Robin B. Foster,R.B. Foster,N/A,8752,13 Sept. 1982,1982-09-13,N/A,Aciotis venezuelana (Pax & K.Hoffm.) Webster,Aciotis venezuelana (Pax & K.Hoffm.) Webster,M.J. Huft,1983,N/A,Peru,Huánuco,N/A,Pachitea,"Pachitea; Puerto Inca to Sungaro, Foot trail between Río Pachitea and Río Sungaro, Forested low hills and ravines, alt. 250-300m T.N.W.S.W. 9°08' S.","Puerto Inca to Sungaro, forested low hills and ravines",Forested low hills and ravines,,alt. 250-300m,T.N.W.S.W. 9°08' S.,N° 1921102,Typed,no type status
0062_V0277652F.jpg,José Schunke Vigo,J. Schunke Vigo,N/A,6505,27 May 1964,1964-05-27,1964-05-27,Tinomiscium peruvianum,Tinomiscium peruvianum,A. M. W. Mennega,III 1972,N/A,Peru,San Martín,Mariscal Cáceres,N/A,"Quebrada Huicte (rio Huallaga), in tall forest","Quebrada Huicte (rio Huallaga), in tall forest",N/A,,529 m.,N/A,1751666,Typed,no type status
0063_V0152152F.jpg,Manuel Rimachi Y.,M. Rimachi,N/A,4268,"February 8, 1979",1979-02-08,N/A,Nectandra krukovii (A.C. Smith) Kosterm.,Endlicheria anomala (Nees) Mez,A. C. Chautems,2001,N/A,Peru,Loreto,Requena,s.n.,"Rio Ucayali, Quebrada de Aucayacu, above Genaro Herrera, marginal forest, ""muema,"" ","Rio Ucayali, Quebrada de Aucayacu, above Genaro Herrera","marginal forest, ""muema,"" ",,8 m,N/A,2058606,Typed,no type status
0064_V0277223F.jpg,Salvador Timaná P.,S. Timaná,N/A,95 (P-1-2),Julio/82,1982-07-00,1982-07-00,Faramea torquata Ducke,Faramea torquata Ducke,T. Plowman 1985,1985,N/A,Peru,Loreto,Maynas,Ampiyacu-Pebas,AMP-IYACU-PEBAS,Ampiyacu-Pebas,Bosque secundario 35 años,,100 m.,N/A,1968315,Typed,no type status
0065_V0195906F.jpg,Percy Nuñez & S. Walsh,P. Nuñez,S. Walsh,s.n.,29 October 1986,1986-10-29,N/A,Euphorbia heterophylla L.,Euphorbia heterophylla L.,M.J. Huft,1987,N/A,Peru,Cuzco,La Convención,Quillabamba,"Dept. CUZCO: La Convención, Quillabamba, Salasampa.",Salasampa,N/A,,Alt. 1110 m.,N/A,1982606,Typed,no type status
0066_V0290180F.jpg,Jose Schunke,J. Schunke,N/A,9560,30 Mayo 1977,1977-05-30,N/A,"""Palicourea"" cf. maricrosea",Palicourea cf. maricrosea,J. Dyer,1980,N/A,Peru,San Martín,Lamas,Alonso de Alvarado,"San Juan de Pacaistapa, km. 72 carretera Tarapoto-Moyobamba","San Juan de Pacaisapa, kilometer 72 on the road Tarapoto-Moyobamba","En bosque secundario, con abundante luz solar",,1000-1050 m,N/A,1872133,Typed,no type status
0067_V0201636F.jpg,"G. Bueno, L. J. Rúdz",G. Bueno,L. J. Rúdz,138,18-8-81,1981-08-18,1981-08-18,Ficus maxima P. Miller,Ficus maxima P. Miller,William O. Burger,1982,N/A,Peru,Loreto,N/A,N/A,"Quistococha, 14km north of Iquitos, 600m elev","Quistococha, 14 kilometers north of Iquitos","Tree of 20m. Important medicinal plant. ""milk"" from the bark is drunk.",,600m,N/A,N/A,Typed,no type status
0068_V0251887F.jpg,E.P. Killip & A.C. Smith,E.P. Killip,A.C. Smith,26721,"July 23-27, 1929",1929-07-23,1929-07-27,Psychotria macrocarpa (Rusby) Standl.,Psychotria macrocarpa (Rusby) Standl.,N/A,N/A,N/A,Peru,Junín,Chanchamayo,N/A,Dept. Junín: Chanchamayo; La Merced; along forest,La Merced; along forest,dense forest,,N/A,N/A,607534,Typed,no type status
0069_V0243915F.jpg,M. O. Dillon and I. Sánchez V.,M. O. Dillon,I. Sánchez V.,6310,s.d.,s.d.,s.d.,"Wissadula grandiflora Baker ex Rusby det. T. Fryxell, 1983",Wissadula grandiflora Baker ex Rusby,T. Fryxell,1983,N/A,Peru,Piura,Huancabamba,Canchaque,"Dep. Piura, Prov. Huancabamba, ca. 2 Km N of Canchaque",approximately 2 kilometers north of Canchaque,N/A,,1450 m alt.,5°24'S 79°36'W,N° 2119563,Typed,no type status
0070_V0187051F.jpg,J. Francis Macbride,J.F. Macbride,N/A,4800,"June 22, 1923",1923-06-22,1923-06-22,Croton Billiaei Croizat,Croton Billiaei Croizat,N/A,N/A,N/A,Peru,Cueva Grande,N/A,N/A,Cueva Grande,Cueva Grande,About 3000 feet humid,,about 3000 feet,N/A,N/A,Typed,no type status
0071_V0258426F.jpg,A. Sagástegui A.,A. Sagástegui,N/A,2820,13-IV-1962,1962-04-13,N/A,Geranium,Geranium chillonense Kunth,B. Háldan-Nielsen,1993,N/A,Peru,Cajamarca,Prov. Contumazá,Contumazá,"Prov. Contumazá, Dpto. Cajamarca.",Prov. Contumazá,Caliza.,,2720 m.s.n.m.,N/A,1684365,Typed,no type status
0072_V0193750F.jpg,J. Mostacero L.; S. Lopez C.; F. Mejia C.; J. Puliz; M. Quezada B.,J. Mostacero,"S. Lopez, F. Mejia, J. Puliz, M. Quezada",1040,14-11-1986,1986-11-14,N/A,Jaltomata procumbens (Cav.) J.L. Gentry,Jaltomata procumbens (Cav.) J.L. Gentry,M. J. Huft (1991),N/A,N/A,Peru,Cajamarca,Cutervo,N/A,La Pucarilla (Socota-San Andrés),La Pucarilla,Ladera al borde de carretera,,2450 m.s.n.m.,N/A,199382,Typed,no type status
0073_V0228073F.jpg,"SPICHIGER, R. & P.-A. LOIZEAU",R. Spichiger,P.-A. Loizeau,3012,10-4-86,1986-04-10,N/A,Pourouma guianensis subsp. guianensis Aubl. non Aubl. s.l./ S.F.,Pourouma guianensis subsp. guianensis,N/A,N/A,N/A,Peru,Loreto,Jenaro Herrera,N/A,"Bosque de terraza alta, Loreto arenoso.",Bosque de terraza alta,"Bosque de terraza alta, Loreto arenoso.",,Alt. 125 m.,N/A,2027582,Typed,no type status
0074_V0100062F.jpg,G. Klug,G. Klug,N/A,660,Diciembre 1929,1929-12-00,N/A,Pedersenia chocoensis Benth.,Pedersenia chocoensis Benth.,N/A,N/A,N/A,Peru,Loreto,N/A,N/A,"Mishuyacu, near Iquitos, alt on meters",Mishuyacu near Iquitos,Forest,,100 m.,N/A,613565,Typed,no type status
0075_V0198402F.jpg,T. R. Dudley,T.R. Dudley,N/A,12063,24 Aug. 1968,1968-08-24,N/A,Dendrophthora membranthyliotrix Urb. & T.M.Taylor ex L.O. Williams var. membranthyliotrix,Dendrophthora sp.,Job Kuijt,18 Dec. 1984,N/A,Peru,Dept. Ayacucho,Prov. La Mar,N/A,"eastern Massif of the Cordillera Oriental on San Miguel Mt., Ayacucho-La Mar Dept. boundary c. 4 km. from the Hacienda Luisiana","eastern Massif of the Cordillera Oriental on San Miguel Mountain, around 4 kilometers from Hacienda Luisiana",Dense forest; 1800-2100 meters in high elfin and montane forests as timberline,,3200 meters,N/A,N/A,Typed,no type status
0076_V0225274F.jpg,G. Klug,G. Klug,N/A,1596,"April 19, 1935",1935-04-19,N/A,Ficus trigona L.f.,Ficus trigona L.f.,M. Vásquez Avila,Utrecht 1983,N/A,Peru,Loreto,Maynas,N/A,"Mishuyacu, near Iquitos","Mishuyacu, near Iquitos",forest,,100 meters,N/A,873381,Typed,no type status
0077_V0224820F.jpg,Mildred E. Mathias and Dermot Taylor,M.E. Mathias,D. Taylor,5576,18 July to 19 61,1961-07-18,1961-07-19,Malpighia(?) ,Malpighia,W.R. Anderson,1973,N/A,Peru,Loreto,N/A,Requena,Peru: Loreto: vicinity of Requena,vicinity of Requena,"""Barbasco silvestre""",,N/A,N/A,1733057,Typed,no type status
0078_V0304780F.jpg,José Schunke Vigo,J. Schunke Vigo,N/A,6677,Oct. 1970,1970-10-00,1970-10-00,Paulinia spicata Radlk.,Paulinia bracteosa Radlk.,D.R. Simpson,8.I.1993,N/A,Peru,Loreto,Datem del Marañón,"Unsure (The label mentions ""Quebrada de Iaguia,"" which may refer to a locality rather than a municipality, and this might require local knowledge to determine the current closest municipality.)","Quebrada de Iaguia, (Contamana) in tall forest, 220 m","[precise locality unknown] (The verbatimLocality implies the Quebrada de Iaguia in tall forest, but without more specific information, we cannot provide a more precise locality.)",Tall forest,,220 m,N/A,1717601,Typed,no type status
0079_V0238260F.jpg,Llewelyn Williams,L. Williams,N/A,3363,"Sept.-Oct., 1929",1929-09-00,1929-10-00,Psychotria ipecacuanha (Brot.) Stokes,Psychotria ipecacuanha (Brot.) Stokes,N/A,N/A,N/A,Peru,Loreto,Alto Rio Itaya,s.n.,"Forest of Poinia, Alto Itaya",Forest of Poinia,s.n.,,Alt. 145 m.,s.n.,61.4121,Typed,no type status
0080_V0225047F.jpg,"T. Plowman, A. Sagástequi A., J. Mostacero L., F. R. Mejía & F. Peláez",T. Plowman,"A. Sagástequi A., J. Mostacero L., F. R. Mejía, F. Peláez",14242,12 July 1986,1986-07-12,N/A,Abutilon mollisimum (Cav.) Sweet,Abutilon molle (Kunth) Sweet var. molle,N. N. Kisleva,1979,N/A,Peru,Cajamarca,Jaén,s.n.,"Road from Pucará to Chambira, km. 21 east of Pucará, along Río Huancabamba","Road from Pucará to Chambira, 21 kilometers east of Pucará, along Río Huancabamba",Dry scrub forest on steep slopes,,Alt. 700 m,N/A,1973380,Typed,no type status
0081_V0239614F.jpg,Magda Chanco with Michelle McMahon and Larry Hufford,M. Chanco,"M. McMahon, L. Hufford",s.n.,14 April 2003,2003-04-14,2003-04-14,Abutilon sp.,Abutilon sp.,N/A,N/A,N/A,Peru,Cajamarca,N/A,N/A,CAJAMARCA: Chilet-San Pablo road about 15 km from Chilet,Cajamarca: Chilet-San Pablo road about 15 kilometers from Chilet,N/A,,3614 feet elevation,07° 09.555' S 78° 46.055' W,2253555,Typed,no type status
0082_V0414961F.jpg,"Marcos Ríos, Tory Mori, Nigel Pitman, Luis Torres, Corine Vriesendorp",M. Ríos,"T. Mori, N. Pitman, L. Torres, C. Vriesendorp",4399,13 octubre 2014,2014-10-13,N/A,Andira macrothyrsa Ducke,Andira macrothyrsa Ducke,N/A,N/A,N/A,Peru,Loreto,Requena,s.d.,"Prov. Requena, Dto. de Soplin, Quebrada Yanayacu-Río Blanco, Campamento Wiswinche del inventario rápido #27, de la región Tipishca-Blanco","Prov. Requena, Dto. de Soplin, Quebrada Yanayacu-Río Blanco, Campamento Wiswinche",Bosque de Plancie Inundable aguas blancas,,A. W. 90 m,"05°33'S; 73°15'33""W",2818558,Typed,no type status
0083_V0414962F.jpg,Marcos Rios,M. Rios,N/A,4399,13 octubre 2014,2014-10-13,N/A,Andira macrothyrsa,Andira macrothyrsa Ducke,N/A,N/A,N/A,Peru,Loreto,N/A,Requena,"Dtto. de Soplin. Quebrada Yanayacu-Rio Blanco. Campamento Wistincha del intervato ripablo 477, de la region Pacaya-Samiria","Dtto. de Soplin, Quebrada Yanayacu-Rio Blanco, Campamento Wistincha","Bosque de Palme inundable de aguas blancas (Aguajal). Arbor 7 m, Flores amarillas y los botones son de color biehs",,Alt. 90,"05°43'S 75°13'58""W",2318537,Typed,no type status
0084_V0462893F.jpg,Ynes Mexia,Y. Mexia,N/A,8265,"Oct. 9, 1936",1936-10-09,N/A,Piper oblongum Ruiz & Pavon,Piper oblongum Ruiz & Pavon,N/A,N/A,N/A,Peru,Huanuco,N/A,Huánuco,"Near confluence Rio Huallaga with R. Huacrachuco, forested slope above road.","Near confluence of Rio Huallaga with Rio Huacrachuco, forested slope above road",Forested slope above road.,,805 m.,N/A,1066596,Typed,no type status
0085_V0462895F.jpg,Ynes Mexia,Y. Mexia,N/A,6127,"Nov. 24, 1931",1931-11-24,N/A,Piper cullowii Ruiz & Pav.,Piper cullowii Ruiz & Pav.,Trelease,N/A,N/A,Peru,Departamento de Loreto,N/A,N/A,Above Pongo de Manseriche. Right bank of mouth of Rio Santiago; dense forest.,"Above Pongo de Manseriche, right bank of mouth of Rio Santiago",Dense forest,,N/A,N/A,N/A,Typed,no type status
0086_V0441679F.jpg,Donald R. Simpson & José Schunke V.,D.R. Simpson,J. Schunke V.,565,"January 4, 1958",1958-01-04,N/A,Ipomoea carnea Jacq.,Ipomoea carnea Jacq.,D. R. Simpson,Jan. 1969,N/A,Peru,Tumbes,N/A,Tumbes,Dpto. Tumbes: Prov. Tumbes: En bosque seco tropical (Instit. Nac. 1964) cerca de El Caucho entre El Caucho y Pampa de Hospital.,En bosque seco tropical cerca de El Caucho entre El Caucho y Pampa de Hospital,"Common from the dry, deciduous forest zone, downward into the very dry thorn-scrub. Along the road about 10 km northwest of Tumbes.",,N/A,N/A,1897948,Typed,no type status
0087_V0441677F.jpg,T. Plowman & P. M. Rury,T. Plowman,P. M. Rury,11105,6 December 1981,1981-12-06,1981-12-06,Ipomoea cairica (L.) Sweet,Ipomoea cairica (L.) Sweet,A.M. McDonald,1983,N/A,Peru,Huánuco,N/A,N/A,Dept. Huanuco: Prov. Huanuco. 8 km. northeast of Huanuco on road to Tingo Maria,8 kilometers northeast of Huanuco on road to Tingo Maria,Scandent shrub on roadside near houses,,alt. 1750 m,"Approx. 9°52'5."", 76°11'W.",1896900,Typed,no type status
0088_V0401892F.jpg,Robin B. Foster,R.B. Foster,N/A,s.n.,"Aug. 19, 1978",1978-08-19,1978-08-19,Aechmea,Aechmea corymbosa (Mart. ex Schult. & Schult.f.) Mez,E.J. Gouda,2012-05-20,N/A,Peru,Loreto,Maynas,Iquitos,Caserio Muyuna 30KM SW of Iquitos,Caserio Muyuna 30 kilometers southwest of Iquitos,Terrestrial in white sand scrub; bracts bright red-pink; flowers white. Forested hills on white or brown sand soils.,,N/A,N/A,1852637,Typed,no type status
0089_V0460617F.jpg,"J. Farfán, L. Valenzuela, I. Huamantupa, A. Carazas, L. Aragón",J. Farfán,"L. Valenzuela, I. Huamantupa, A. Carazas, L. Aragón",1262,23 Octubre 2006,2006-10-23,N/A,Anthurium clavigerum Poepp.,Anthurium clavigerum Poepp.,Thomas B. Croat,2008,N/A,Peru,Cusco,La Convención,N/A,"Dist. Vilcabamba, Chaunquiri camino a Rioamba","District of Vilcabamba, Chaunquiri on the way to Rioamba",Bosque Secundario,,1009 m,"12°47'15""S 073°10'10""W",2315782,Typed,no type status
0090_V0469643F.jpg,Thomas B. Croat,T.B. Croat,N/A,28120,"July 18, 1977",1977-07-18,1977-07-18,Agave americana L.,Agave americana L.,N/A,N/A,N/A,Peru,Loreto,N/A,N/A,Lago Agria 12-15 km SW of Iquitos on road to Santo Tomas; secondary road to Quisto-cocha,"Lago Agria 12 to 15 kilometers southwest of Iquitos on road to Santo Tomas, secondary road to Quisto-cocha","from crevices in a few inflorescences arising from a green, basal rosette",,N/A,N/A,1759629,Typed,no type status
0091_V0075820F.jpg,T. R. Dudley,T.R. Dudley,N/A,10783,4 July 1968,1968-07-04,1968-07-04,Thelypteris linkiae (F. Sch.) Chaloner,Thelypteris dudleyi R. A. Smith,Alan R. Smith,1989,N/A,Peru,Cuzco,La Convención,N/A,"In full sun on old open landslide, just above the cloud forest, between camp 4&5; almost to Camp 5, at ca. 2825 m.; one of the commonest colonizers of landslide.","In full sun on old open landslide, just above the cloud forest, between camp 4 and 5, almost to Camp 5",terrestrial type with bright green foliage and purplish-black glossy petioles; on a moist vertical rock face,,ca. 2825 m,12° 37' S; 73° 32' W,1719861,Mix of Handwritten and Typed,Isotype
0092_V0075836F.jpg,S. Knapp,S. Knapp,N/A,5881,4 July 1982,1982-07-04,1982-07-04,Trichipteris pinnata Stolze,Trichipteris pinnata Stolze,R. G. Stolze,1984,N/A,Panama,Colón,N/A,N/A,"Santa Rita Ridge road, 21-26 km from Transisthmian Highway","Santa Rita Ridge road, 21 to 26 kilometers from Transisthmian Highway",Tropical wet forest,,500-550 m.,N/A,1932768,Typed,HOLOTYPE
0093_C0616676F.jpg,J. Dorantes,J. Dorantes,N/A,455,01/01/1972,1972-01-01,1972-01-01,Woodardia spinulosa Mart. & Gal.,Woodardia spinulosa Mart. & Gal.,N/A,N/A,N/A,Mexico,Veracruz,Jalapa,N/A,"Lito del Gato, MAPA 38.5 29.0",Lito del Gato,"Bosque caducifolio suelo rojo arcilloso muy abundante helech perenne veg, ripari",,N/A,MAPA 38.5 29.0,P005051,Typed,no type status
0094_C0644079F.jpg,"A. Monteagudo, C. Mateo, G. Ortiz",A. Monteagudo,"C. Mateo, G. Ortiz",4909,10 Abril 2003,2003-04-10,2003-04-10,Blechnum occidentale L.,Blechnum occidentale L.,H. van der Werff,2005,N/A,Peru,Pasco,Oxapampa,Distrito Pozuzo,"Parque Nacional Yanachaga Chemillen Pozuzo Sector Pan de Azúcar, Zona de Recuperación","Parque Nacional Yanachaga Chemillen, Pozuzo Sector Pan de Azúcar, Zona de Recuperación",Bosque ribereño,,1100-1250m,10°15' 75°13'W,Nº 2287355,Typed,no type status
0095_C0658238F.jpg,Ynes Mexia,Y. Mexia,N/A,8066,"May 14, 1936",1936-05-14,N/A,Adiantum pulverulentum L.,Adiantum pulverulentum L.,E. B. Copeland,1937,N/A,Peru,Cuzco,La Convencion,N/A,Departamento Cuzco. Province La Convencion; upper valley of Rio Sambray; western affluent of Vilcanota; along stream in virgin forest.,Upper valley of Rio Sambray; western affluent of Vilcanota; along stream in virgin forest,Along stream in virgin forest,,Alt. about 1800 m.,N/A,1005396,Typed,no type status
0096_C0637474F.jpg,J. I. Calzada,J.I. Calzada,N/A,5759,24-enero-1980,1980-01-24,1980-01-24,Diplazium francoisii Lellinger,Diplazium francoisii Lellinger,R. C. Moran,1983,Liquidambar styraciflua; Quercus sp.; Alnus sp.,México,Veracruz,Xico,N/A,Ranchoita de Coatitlán,Ranchoita de Coatitlán,"Bosque Caducifolio, húmedo",,1800 m. s. n. m.,19°29' N 97°04' W,1894963,Typed,no type status
0097_C0636906F.jpg,Antonio Molina R.,A. Molina R.,N/A,1427,"Nov. 4, 1948",1948-11-04,N/A,Thelypteris pilosa-spidae (Hook) Morton,Thelypteris rudis (Kunze) Proctor,A. R. Smith,1974,N/A,Honduras,Department of Morazan,N/A,N/A,"8 km de La Uyuca, camino Talanga, Labranzagrande","8 kilometers from La Uyuca, on the road to Talanga, Labranzagrande",Helecho arboreo. Bosque lluvioso montane de la Mta. Uyuca,,Alt. 1800 m.,Longitude 87° W. and Latitude 14° N.,N/A,Typed,no type status
0098_C0665739F.jpg,"E.León, J.Young & N.Valenzuela",E. León,"J. Young, N. Valenzuela",2911,10 setiembre 1991,1991-09-10,N/A,Thelypteris euchlora (Sod.) Rendle,Thelypteris euchlora (Sod.) Rendle,R. C. Moran,19 92,N/A,Peru,Cuzco,Paucartambo,N/A,"Region de Nubes, Rio Mapacho, 10 setiembre 1991","Region de Nubes, Rio Mapacho","En ladera, Selva de Nubes",,1700-1800 m,N/A,2112158,Handwritten,no type status
0099_C0626158F.jpg,"Louis O. Williams, Antonio Molina R., Terua P. Williams, Doreothy N. Gibson, and Chester Lankowski",L.O. Williams,"A. Molina R., T.P. Williams, D.N. Gibson, C. Lankowski",27621,"April 15, 1966",1966-04-15,N/A,Polypodium blepharodes Maxon,Grammitis blepharodes (Maxon) Seymour,R. Stolze,1965,N/A,Nicaragua,Matagalpa,N/A,N/A,"Montane rain-forest, -- cloud forest, Dipartate de Potter, Sta. María de Ostuma, Cordillera Central de Nicaragua, Department of Matagalpa, 1400 meters, April 15, 1966.","Montane rain-forest, cloud forest, Dipartate de Potter, Santa María de Ostuma","Montane rain-forest, cloud forest",,1400 meters,N/A,1626179,Typed,no type status
0100_C0665657F.jpg,Ken Young & Mark Eisenberg 265,K. Young,M. Eisenberg,265,20 April 1981,1981-04-20,1981-04-20,Thelypteris (subg. Amauropelta) The thelypteris (sic) (nudges Kuntze),Thelypteris (subg. Amauropelta) The thelypteris (nudges Kuntze),A.R. Smith,s.d.,N/A,Peru,Cuzco,La Convencion,N/A,"Dept. Cuzco, Prov. La Convencion. Just east of Quillabamba. Finca Chicaña; coca coffee yuca, mango, bamboo corner crops 90%IL.","Just east of Quillabamba, Finca Chicaña",Terrestrial,,Alt. 1300-1400 m.,N/A,2038794,Typed,no type status
0101_C0045536F.jpg,Thomas G. Lammers,T.G. Lammers,N/A,10674,9 May 1998,1998-05-09,N/A,Dryopteris carthusiana (Vill.) H.P. Fuchs,Dryopteris carthusiana (Vill.) H.P. Fuchs,N/A,N/A,N/A,United States of America,Illinois,Cook,N/A,"Cook Co.: Palos Twp. Swallow Cliff Woods Forest Preserve, southwest of the jct. of US Hwy 45 and State Hwy 83. Local in mesic maple-basswood forest on steep slopes of deep ravine south of toboggan run.","Palos Township, Swallow Cliff Woods Forest Preserve, Southwest of the junction of US Highway 45 and State Highway 83",Local in mesic maple-basswood forest on steep slopes of deep ravine,,N/A,N/A,2228497,Typed,no type status
0102_C0627900F.jpg,Antonio Molina R.,A. Molina R.,N/A,212562,"Mayo 22, 1963",1963-05-22,1963-05-22,Polypodium montigenum Maxon,Polypodium montigenum Maxon,A. Molina R.,N/A,N/A,El Salvador,Santa Ana,N/A,N/A,"Bosque abierto de Montaña Montecristo , Department Santa Ana",Bosque abierto de Montaña Montecristo,N/A,,Alt. 2000 m.,N/A,N/A,Typed,no type status
0103_V0082645F.jpg,M. O. Dillon,M. O. Dillon,N/A,5376,21 Dec 1987,1987-12-21,N/A,Notholaena mollis Kunze,Notholaena mollis Kunze,N/A,N/A,N/A,Chile,Antofagasta,N/A,N/A,"Cerro Perales, ca. 85 km E of Taltal, 600-850 m alt.","Cerro Perales, approximately 85 kilometers east of Taltal","Terrestrial, growing in rock crevices",,600-850 m alt.,"(25°25' S, 70°25' W)",N° 2010984,Typed,no type status
0104_C0666362F.jpg,Rolla M. & Alice F. Tryon,R.M. Tryon,A.F. Tryon,6566,23 October 1965,1965-10-23,N/A,"Thelypteris ruiziana (Polz.) A. R. Smith, ined. s.s.str.","Thelypteris ruiziana (Polz.) A. R. Smith, ined. s.s.str.",A.R. Smith,"1979, 1982",N/A,Peru,Ancash,N/A,N/A,"Road from Huaras to Cusma, west valley.","Road from Huaras to Cusma, west valley",damp shaded rocks,,2800 m.,N/A,1833066,Typed,no type status
0105_C0666207F.jpg,E. R. Kuntz,E.R. Kuntz,N/A,274,"September 23, 1929",1929-09-23,1929-09-23,Dryopteris megalodus (Schl.) Urban,Thelypteris pentagona (Poiret) C.V. Morton,Alan R. Smith,1989,N/A,Peru,Loreto,N/A,Soledad,"Dept. Loreto: Soledad, on Rio Itaya; about 110 meters dense forest","Soledad, on Rio Itaya",dense forest,,about 110 meters,N/A,152068,Typed,no type status
0106_C0666206F.jpg,H. E. Stork,H.E. Stork,N/A,s.n.,June 1929,1929-06-00,1929-06-00,Thelypteris penata (Poir.) Morton,Thelypteris pinnata (Poir.) C. Morton,A. R. Smith,1989,N/A,Peru,Loreto,San Antonio,N/A,"Dept. Loreto: San Antonio, on Rio Itaya","San Antonio, on Rio Itaya",dense swampy forest,,about 100 meters,N/A,1520667,Typed,no type status
0107_C0666203F.jpg,Macbride & Featherstone,J.F. Macbride,N/A,s.n.,"July 8-22, 1922",1922-07-08,1922-07-22,Thelypteris Pavoniana Kl.,Thelypteris pavoniana (Kl.) Tryon,A.R. Smith,1979,N/A,Peru,Mitú,N/A,N/A,Summit; right top of the pass,Summit right top of the pass,In shrub formation,,About 9000 ft.,N/A,518129,Typed,no type status
0108_C0666202F.jpg,J. J. Wurdack,J. J. Wurdack,N/A,No. 705,1 June 1962,1962-06-01,1962-06-01,Thelypteris (Thelypteris) pavoniana (Klotzsch),Thelypteris pavoniana (Klotzsch) Tryon,Alan R. Smith,"1979 , 1989",N/A,Peru,Amazonas,Provincia de Chachapoyas,N/A,Upper slopes of Puma-urcu east-southeast of Chachapoyas,Upper slopes of Puma-urcu east-southeast of Chachapoyas,"On banks, locally frequent",,2700-3000 m,N/A,1647265,Typed,no type status
0109_C0666112F.jpg,E. C. Ogden and R. F. Theriot,E.C. Ogden,R.F. Theriot,5202,"Aug. 13, 1956",1956-08-13,1956-08-13,Deparia acrostichoides (Sw.) M. Kato,Thelypteris opulenta (Kaulf.) Fosberg,A. R. Smith,1979,N/A,Peru,Loreto,Maynas,N/A,"Rio Itaya, 10 km. s. of Iquitos. In old banana planting.","Rio Itaya, 10 kilometers south of Iquitos, in old banana planting","In old banana planting, fertile leaf, sterile pinnae, fertile pinnae",,N/A,N/A,1587072,Typed,no type status
0110_C0639123F.jpg,"Louis O. Williams, Antonio Molina R., Terua P. Williams",L.O. Williams,"A. Molina R., T.P. Williams",23634,s.d.,1963-08-13,1963-08-13,Lycopodium clavatum L.,Lycopodium clavatum L.,C.V. Morton & D.B. Lellinger,1964,N/A,Nicaragua,Matagalpa,Jinotega,N/A,"Cloud forest area, Sta. Maria de Ostuma, Cordillera Central de Nicaragua between Matagalpa and Jinotega, Department of Matagalpa, 1300-1800 meters","Cloud forest area, Santa Maria de Ostuma, Cordillera Central de Nicaragua",Terrestrial on open bank,,1300-1800 meters,N/A,N/A,Typed,no type status
0111_C0675553F.jpg,"John T. Atwood, Jr.",J.T. Atwood,N/A,77105,8 Feb. 1977,1977-02-08,N/A,Adiantum trapeziforme L.,Adiantum ochraceum McCarthy & Hickey,N/A,N/A,N/A,Nicaragua,Granada,N/A,N/A,Volcan Mombacho. Lower cloud forest near Finca Cuirre.,"Volcan Mombacho, lower cloud forest near Finca Cuirre",Lower cloud forest,,N/A,N/A,1868242,Typed,no type status
0112_C0675619F.jpg,Geo. B. Hinton et al.,G.B. Hinton,et al.,7644,May et al. 23-36,1936-05-23,1936-05-36,Adiantum trapeziforme L.,Adiantum ebracteatum McCarthy & Hickey,M. Palacios-Rios,Agosto/1986,N/A,Mexico,Mexico,Temascaltepec,N/A,"5 Temascaltepec, Méx.","Temascaltepec, Mexico",dry barranca,,N/A,N/A,N/A,Handwritten,no type status
0113_C0355438F.jpg,R.A. Maas Geesteranus,R.A. Maas Geesteranus,N/A,5744,dd. 12-III-49,1949-03-12,N/A,Asplenium sandersonii Hook.,Asplenium sandersonii Hook.,R. Faden,1976,N/A,Kenya,Lykens Province,Kericho Distr.,N/A,"South ""Western Kikuyu Reserve, camp 8","South Western Kikuyu Reserve, camp 8","riparian-woodland along the river Itare, among others with Cynopolis glabristriata",,1920 m,"Lat. 0°36'30"" S., Long. 35°10'20"" E.",1444540,Typed,no type status
0114_C0359489F.jpg,"J. Charo, H. Sains, J.M. López y F. Esteban",J. Charo,"H. Sains, J.M. López, F. Esteban",s.n.,N/A,2005-02-22,2005-02-22,Lophosoria quadripinnata (J.F. Gmel.) C. Chr. var quadripinnata,Lophosoria quadripinnata var. quadripinnata,M. Véliz,22/XI/2005,N/A,Guatemala,Jalapa,N/A,Mataquescuintla,"Aldea San Raymundo, finca Los Manzanalillos","Aldea San Raymundo, finca Los Manzanillos",Bosque de Quercus sp.,,2308 meters,"14°33'47.9''N, 90°16'07.0''W",2298970,Typed,no type status
0115_C0662895F.jpg,C. S. Millspaugh & C. M. Cook,C.S. Millspaugh,C.M. Cook,893,Jan. 20-Feb. 6.,1900-01-20,1900-02-06,Asplenium dentatum L.,Asplenium dentatum L.,N/A,N/A,N/A,Jamaica,N/A,N/A,Port Antonio,Port Antonio,[precise locality unknown],N/A,,N/A,N/A,10502,Handwritten,no type status
0116_C0363828F.jpg,T. G. Yuncker,T.G. Yuncker,N/A,"17,429","Nov. 17, 1957",1957-11-17,N/A,Lycopodium cernuum L.,Lycopodium cernuum L.,N/A,N/A,N/A,Jamaica,St. Andrew,N/A,N/A,"Scrambling over side of cut, along trail near Bellevue.",trail near Bellevue,Scrambling over side of cut,,Alt. 3000-4000 ft.,N/A,1482756,Typed,no type status
0117_C0363985F.jpg,Carvalho 2092,Carvalho,N/A,2092,25-IV-1986,1986-04-25,N/A,Lycopodiella cernua (L.) Pic.-Serm.,Lycopodiella cernua (L.) Pic.-Serm.,J. Fernandez Casas,1991,N/A,Equatorial Guinea,Bioko,Malabo - Basile,N/A,"Bioko: Malabo - Basile, km 13, cerca de Basile, 32NMK7870",Km 13 near Basile,Margins of the road,,390 m,32NMK7870,2201362,Typed,no type status
0118_C0363442F.jpg,Henk van der Werff 11699,H. van der Werff,N/A,11699,12 June 1990,1990-06-12,1990-06-12,Diplazium amlwille (Endl.) Bedd.,Diplazium amlwille (Endl.) Bedd.,N/A,N/A,N/A,Australia,Queensland,N/A,N/A,"Boonjee logging area, at base of Mt. Bartle Frere","Boonjee logging area, at base of Mount Bartle Frere",Rainforest,,N/A,145°43' E 17°25' S,N/A,Typed,no type status
0119_C0378283F.jpg,M. Togawa & K. Iwatsuki,M. Togawa,K. Iwatsuki,11550,"July 28, 1956",1956-07-28,N/A,Diplazium umbilicatum (Mett.) Tagawa,Diplazium umbilicatum (Mett.) Tagawa,N/A,N/A,N/A,Japan,Kagoshima,N/A,N/A,"Kyushu. Pref. Kagoshima: western slope of Mt. Koyahsi, south of Kanoya City","Western slope of Mount Koyahsi, south of Kanoya City",Wet rocky slope in densely wooded ravine,,N/A,N/A,N/A,Typed,no type status
0120_C0364726F.jpg,W. Takeuchi & J.B. Malingtau,W. Takeuchi,J.B. Malingtau,3665,"February 5, 1994",1994-02-05,1994-02-05,Blechnum induratum Brause,Blechnum induratum Brause,N/A,N/A,N/A,Papua New Guinea,New Ireland,N/A,Hans Meyer Range,"Camp Mendol, Hans Meyer Range, Site 4 on the expedition report","Camp Mendol, Hans Meyer Range","Hygropetric rainforest, forest dominated by bryophytes and fern growth",,c. 1800 m,4°25'S x 152°39'E,02702684-A,Typed,no type status
0121_C0366013F.jpg,Tagawa & Iwatsuki 886,M. Tagawa,K. Iwatsuki,886,"May 20, 1956",1956-05-20,N/A,Dryopteris crassirhizoma Nakai,Dryopteris crassirhizoma Nakai,N/A,N/A,N/A,Japan,N/A,N/A,N/A,Sheet #2,[precise locality unknown],N/A,,N/A,N/A,N/A,Typed,no type status
0122_C0366453F.jpg,J. Ohwi,J. Ohwi,N/A,s.n.,April 1951,1951-04-00,1951-04-00,Polystichum tripteron Frasl,Polystichum tripteron Frasl,N/A,N/A,N/A,Japan,Honshu,N/A,"Jumoji, In Sengami",Honshu: Jumoji; In Sengami,"Honshu, Jumoji, In Sengami",N/A,,N/A,N/A,1464206,Typed,no type status
0123_C0364207F.jpg,Father M. Vanoverbergh,M. Vanoverbergh,N/A,3591,April 13,0000-04-13,N/A,Asplenium contiguum Kaulf.,Asplenium contiguum Kaulf.,N/A,N/A,N/A,Philippines,Luzon,Bontoc Subprovince,N/A,"Bontoc Subprovince, Luzon",[precise locality unknown],N/A,,N/A,N/A,393429,Typed,no type status
0124_C0376117F.jpg,R.B & A.J.Faden,R.B. Faden,A.J. Faden,77/53,5 Jan. 1977,1977-01-05,N/A,Pyrossia lanceolata (L.) Farw. det. D.B. Lellinger 1979,Pyrossia lanceolata (L.) Farw.,D.B. Lellinger,1979,N/A,Sri Lanka,Central Province,Kandy,N/A,"North Western Province, Kurunegala District, Doluwa, Uskavanda Hill, ca.","North Western Province, Kurunegala District, Doluwa, Uskavanda Hill",Forest,,ca. 600 m,N/A,2014294,Typed,no type status
0125_C0377881F.jpg,"Albert N. Steward, C. Y. Chiao, H. C. Cheo",A.N. Steward,"C.Y. Chiao, H.C. Cheo",3444,"Sept. 6, 1931",1931-09-06,1931-09-06,"Dryopteris squamiseta T. Moore in partly burning slopes, Soil black",Thelypteris squamiseta (Hook.) Ching,N/A,N/A,N/A,China,Kweichow Province,N/A,N/A,"Tso Yieng Shan, To Yo Hsien","Tso Yieng Shan, To Yo Hsien","In partly burning slopes, Soil black",,alt. 880 m.,N/A,779919,Typed,no type status
0126_C0382365F.jpg,Julie F. Barcelona,J.F. Barcelona,N/A,48,Nov.—1989.,1989-11-00,1989-11-00,Selaginella cf. nipponica,Selaginella cf. nipponica,J.F. Barcelona,Nov. —1989.,N/A,Philippines,N/A,N/A,N/A,"Visayas, Panay Isl., Antique Prov., Culasi, Northwest Panay Peninsula, Mataas na Gulod","Northwest Panay Peninsula, Mataas na Gulod","Igba-o, shaded & moist areas",,N/A,N/A,PNH n. 190235,Typed,no type status
0127_C0368029F.jpg,L. & A. Fay,L. Fay,A. Fay,1206,11 Apr 1985,1985-04-11,N/A,Drynaria laurentii (Christ.) Hieron.,Drynaria laurentii (Christ.) Hieron.,N/A,N/A,N/A,Liberia,N/A,N/A,N/A,Cuttington University College,Cuttington University College,"On tree trunk about 10' from ground; common in groves of rubber trees, on trunks.",,Alt. 250 m.,N/A,N° 2111378,Typed,no type status
0128_C0356535F.jpg,H. St. John,H. St. John,N/A,16662,"Aug. 26, 1934",1934-08-26,N/A,Humata banksii Alston,Humata banksii Alston,E. B. Copeland,N/A,N/A,Austral Islands,Raivavae,N/A,N/A,"Northwest slope of Teie, Teit woods","Northwest slope of Teie, Teit woods","Epiphytic on mossy tree limb, in woods",,350 meters,N/A,1435764,Typed,no type status
0129_C0383576F.jpg,T. G. Yuncker,T.G. Yuncker,N/A,"18,561","Mar. 30, 1958",1958-03-30,N/A,Selaginella plana (Div.) Hieron.,Selaginella plana (Div.) Hieron.,N/A,N/A,N/A,Jamaica,Portland,N/A,N/A,"On wet embankment along trail, rain forest, John Crow Mts., 1.5-2 miles southwest of Ecclesdown.","On wet embankment along trail, rain forest, John Crow Mountains, one and a half to two miles southwest of Ecclesdown",Rain forest,,Alt. 1500-2500 ft.,N/A,1481955,Typed,no type status
0130_C0383180F.jpg,A. Carissi,A. Carissi,N/A,s.n.,1871,1871-00-00,1871-00-00,Lycopodium complanatum L.,Lycopodium complanatum L.,Joan H. Wllce,1962,N/A,Italy,N/A,N/A,Valaisen,Salita alla boscarela presso Sozzello in Valaisen 1871,Salita alla boscarela near Sozzello in Valaisen,Salita alla boscarela presso Sozzello in Valaisen 1871,,N/A,N/A,N/A,Typed,no type status
0131_C0358423F.jpg,G.J. Chamberlain,G.J. Chamberlain,N/A,s.n.,"Oct. 15, 1911",1911-10-15,1911-10-15,Trichomanes reniforme,Trichomanes reniforme,N/A,N/A,N/A,New Zealand,N/A,N/A,Ohakune,Ohakune,Ohakune,N/A,,N/A,N/A,1407795,Typed,no type status
0132_C0662992F.jpg,"R.L. Dunn, H.A. Hespenheide, D.R. Wiseman",R.L. Dunn,"H.A. Hespenheide, D.R. Wiseman",815,2 August 1964,1964-08-02,N/A,Cnemidaria grandifolia (Willd.) Proctor var. grandifolia,Cnemidaria grandifolia var. grandifolia,R.L. Wilbur,1966,N/A,Dominica,St. Paul,N/A,N/A,Disturbed rainforest in the upper Layou Valley about 2 miles from Clarke Hall towards Pont Cassé.,Disturbed rainforest in the upper Layou Valley about two miles from Clarke Hall towards Pont Cassé,Common fern with trunk 2 dm high. Fronds 2 m. long,,N/A,N/A,1670026,Typed,no type status
0133_C0377971F.jpg,R.B.A. Jayasundera,R.B.A. Jayasundera,N/A,s.n.,2 Jan 1977,1977-01-02,1977-01-02,Thelypteris,Trigonospora thwaitesii (Bedd.) Holttum,N/A,N/A,N/A,Sri Lanka,Central Province,Nuwara Eliya District,N/A,between mile posts 46/3 and 46/4 on Nuwara Eliya-Kandy road,Between mile posts 46/3 and 46/4 on Nuwara Eliya-Kandy road,Shady moist bank near stream,,ca 1950 m,"6°59'50"" 80°45'E",N/A,Typed,no type status
0134_C0272257F.jpg,leg. H. et P. Sydow,H. Sydow,P. Sydow,s.n.,14. 8. 1903.,1903-08-14,N/A,"Entyloma crastophilum Sacc. Michelia I, p. 540; Sacc. Syll. VII, p. 491.",Entyloma crastophilum Sacc.,N/A,N/A,N/A,Germany,Sachsen,N/A,Schmilka,"am ""Grossen Winterberge"" Zweisel bei Schmilka.",am Grossen Winterberge Zweisel near Schmilka,Auf Blättern von Holcus lanatus.,,N/A,N/A,C0272257F,Typed,no type status
0135_C0272323F.jpg,"O. Mattirolo, comm. G. Lagerheim",O. Mattirolo,N/A,s.n.,27/9 1895,1895-09-27,1895-09-27,Neovossia Moliniae (Thüm.) Körn.,Neovossia Moliniae (Thüm.) Körn.,N/A,N/A,N/A,Italy,Como,N/A,Rodero,"Rodero, prov. Como in ovarii Moliniae coerulae",ovaries of Molinia coerulae,N/A,,N/A,N/A,C0272323F,Typed,no type status
0136_C0272329F.jpg,"Richard W. Pohl, Gerrit Davidse",R.W. Pohl,G. Davidse,11146,25 September 1968,1968-09-25,1968-09-25,Oplismenus setarius (Lam.) Roem. & Schult.,Oplismenus setarius (Lam.) Roem. & Schult.,N/A,N/A,N/A,Costa Rica,Puntarenas,N/A,N/A,5 KM NW of the Carretera Interamericana in Boruca area,5 kilometers northwest of the Carretera Interamericana in Boruca area,Carpeting the ground at the margin of forest and savanna,,elev. 450 m.,N/A,C0272329F,Typed,no type status
0137_C0272400F.jpg,E. W. D. Holway,E.W.D. Holway,N/A,s.n.,"Aug. 8, 1901",1901-08-08,1901-08-08,"Tuburcinia Clintoniae, Kom. 1899: Fungi Rossiae, p. 260. On Streptopus rosens.",Tuburcinia Clintoniae,N/A,N/A,Streptopus rosens.,Canada,British Columbia,N/A,N/A,"Glacier, Brit. Columbia","Glacier, British Columbia",N/A,,N/A,N/A,C0272400F,Typed,no type status
0138_C0272404F.jpg,F. Bubak,F. Bubak,N/A,s.n.,Majo,1900-05-00,1900-05-00,Tuburcinia anemones (Pers.) Lirol.,Tuburcinia anemones (Pers.) Lirol.,N/A,N/A,Anemones nemorosae,Czech Republic,Bohemia,N/A,Poděbrady,ad folia viva Anemones nemorosae ad Poděbrad,ad folia viva Anemones nemorosae ad Poděbrad,N/A,,N/A,N/A,CO272404F,Typed,no type status
0139_C0272225F_%201.jpg,Harold E. Parks and Joseph P. Tracy,H.E. Parks,J.P. Tracy,13207,"June 3, 1934",1934-06-03,N/A,Exobasidium Vaccinii (Fuckl.) Wor.,Exobasidium Vaccinii (Fuckl.) Wor.,N/A,N/A,Vaccinium ovatum Pursh,United States,California,Humboldt,Trinidad,Trinidad,Trinidad,N/A,,N/A,N/A,C0272225F,Typed,no type status
0140_C0272229F_%201.jpg,Lee Bonar,L. Bonar,N/A,s.n.,21 August 1954,1954-08-21,1954-08-21,Exobasidium Vaccinii (Fckl.) Wor.,Exobasidium Vaccinii (Fckl.) Wor.,N/A,N/A,Arctostaphylos patula Greene.,United States,California,Shasta County,N/A,"Manzanita Lake, Lassen National Park, Shasta County.","Manzanita Lake, Lassen National Park",N/A,,N/A,N/A,C0272229F,Typed,no type status
0141_C0272218F_%201.jpg,H. E. Parks and J. P. Tracy,H. E. Parks,J. P. Tracy,s.n.,"Sept. 15, 1930",1930-09-15,1930-09-15,"Exobasidium Vaccinii (Fckl.) Wor. Host, Arbutus Menziesii Pursh.",Exobasidium Vaccinii (Fckl.) Wor.,N/A,N/A,Arbutus Menziesii Pursh.,United States,California,Humboldt County,N/A,"Kneeland, Bald Hills","Kneeland, Bald Hills",[precise locality unknown],,N/A,N/A,C0272218F,Typed,no type status
0142_C0003693F.jpg,H.K.,H.K.,N/A,68/641,5.VII.1968,1968-07-05,1968-07-05,Crucibulum laeve (Huds.) Kambly,Crucibulum laeve (Huds.) Kambly,N/A,N/A,"Cyathea dealbata, C. smithii, Phyllocladus, Podocarpus, etc.",New Zealand,Coromandel Peninsula,N/A,Kaueranga Valley,"Kaueranga Valley, Coromandel Peninsula, N.Z.","Kaueranga Valley, Coromandel Peninsula","In humus unter Cyathea dealbata, C. smithii, Phyllocladus, Podocarpus, etc.",,N/A,N/A,1017207,Typed,no type status
0143_C0004429F.jpg,Singer,N/A,N/A,"""B 7463""",14 V 1973,1973-05-14,1973-05-14,HYDROCYBE DIMORPHOBASIDIATA Sing. ,N/A,N/A,N/A,N/A,Ecuador,Napo,N/A,N/A,Lago Agrio,Lago Agrio,N/A,,N/A,N/A,1017827,Typed,TYPE
0144_C0004430F.jpg,Singer M0517,R. Singer,N/A,M0517,23 II 1988,1988-02-23,N/A,"HYDROCYBE FUEGIANA Sing ( = H. rosea, sensu Horak)",HYDROCYBE FUEGIANA Sing,N/A,N/A,"Sphagnum spec., Rubus geoides",Argentina,Tierra del Fuego,Departamento Ushuaia,N/A,"va. road Ushuaya-Lago Fagnano, SW of higheest point","road Ushuaya-Lago Fagnano, southwest of highest point",Gregarious in bog margin with Sphagnum species and Rubus geoides,,N/A,N/A,F1075922,Typed,Holotype
0145_C0209265F_3143.jpg,P. Ponce de Leon,P. Ponce de Leon,N/A,s.n.,"September 21, 1978",1978-09-21,1978-09-21,Amanita,Amanita,N/A,N/A,N/A,United States,Alaska,N/A,N/A,"At or above timberline, windswept slopes of mountains about 20-30 miles north of Mt. McKinley, with mosses, lichens, Vaccinium spp. and other Ericads.","At or above timberline, windswept slopes of mountains about 20-30 miles north of Mt. McKinley","With mosses, lichens, Vaccinium spp. and other Ericads.",,N/A,N/A,F 1075812,Typed,no type status
0146_C0225578F_7209.jpg,P. Ponce de Leon,P. Ponce de Leon,N/A,303,"September 21, 1978",1978-09-21,1978-09-21,Lycoperdon,Lycoperdon,N/A,N/A,N/A,United States,Alaska,N/A,N/A,"At or above timberline, windswept slopes of mountains 20-30 miles north of Mt. McKinley","At or above timberline, windswept slopes of mountains 20-30 miles north of Mount McKinley","Cream color. On high slopes above timberline. With mosses, lichens, Vaccinium spp. and other Ericads.",,N/A,N/A,F:1074604,Typed,no type status
0147_C0227005F_7903.jpg,P. Ponce de Leon,P. Ponce de Leon,N/A,267,"September 20, 1978",1978-09-20,N/A,No. 267. (Agaricaceae),N/A,N/A,N/A,"Albies, Prunus, Betula, Alnus species",United States,Alaska,N/A,N/A,"Boggy area south of Yukon, just below the Chatanika River, about 25 miles north of Fairbanks, Alaska.","Boggy area south of Yukon, just below the Chatanika River, about 25 miles north of Fairbanks","In hummocks composed of grasses, lichens, mosses and Ericads, under Albies, Prunus, Betula and Alnus species",,N/A,N/A,F 1075800,Typed,no type status
0148_C0237407F_12659.jpg,Leg. Chr. King,C. King,N/A,s.n.,1988,1988-00-00,1988-00-00,Psilocybe muliercula Sing. & Smith,Psilocybe muliercula Sing. & Smith,Singer,N/A,N/A,New Zealand,South Island,N/A,N/A,N/A,[precise locality unknown],N/A,,N/A,N/A,C0237407F,Typed,no type status
0149_C0275073F.jpg,PAUL C. STANDLEY,P.C. Standley,N/A,82917,"JAN. 9, 1941",1941-01-09,1941-01-09,Phoradendron vitis (Humb.) Spreng. On Vitis tiliifolia H. & B.,Phoradendron vitis (Humb.) Spreng.,N/A,N/A,Vitis tiliifolia H. & B.,Guatemala,Huehuetenango,N/A,San Rafael Petzal,"Near crossing of Río San Juan Ixtán, east of San Rafael Petzal","Near crossing of Rio San Juan Ixtan, east of San Rafael Petzal",N/A,,alt. about 1730 m.,N/A,The Field Museum (F) C0275073F,Typed,no type status
0150_C0275088F.jpg,PAUL C. STANDLEY,P.C. Standley,N/A,86140,"FEB. 5, 1941",1941-02-05,1941-02-05,Mainmia rubi (Sied. & Holw.) Jacks. O.I. II :III On Rubus eriocarpus Liebm.,Gervasía,Arthur,N/A,Rubus eriocarpus Liebm.,Guatemala,Quetzaltenango,N/A,N/A,"Dept. Quetzaltenango: Oak-pine forest, above Los Vahos, Cerro Quemado","Oak-pine forest, above Los Vahos, Cerro Quemado",Oak-pine forest,,alt. 2900–3000 m.,N/A,C0275088F,Mix of Handwritten and Typed,no type status
0151_C0291873F.jpg,E. W. D. Holway,E.W.D. Holway,N/A,27,"Jan. 27, 1915",1915-01-27,N/A,Ravenelia appendiculata Lagerh. & Diet. on Phyllanthus sp.,Ravenelia appendiculata Lagerh. & Diet.,E.B. Mains,s.d.,Phyllanthus sp.,Guatemala,Sololá,N/A,Sololá,"Sololá, Guatemala","Sololá, Guatemala",N/A,,N/A,N/A,C0291873F,Typed,no type status
0152_C0264367F.jpg,W.G. Bramley,W.G. Bramley,N/A,s.n.,s.d.,00-00-00,00-00-00,Nectria cinnabarina (Tode ex Fr.) Fr. with Tubercularia vulgaris,Nectria cinnabarina (Tode ex Fr.) Fr.,T. Petch,10 Jan. 1938,Tubercularia vulgaris,United Kingdom,England,Yorkshire,Bolton Percy,"Bolton Percy, Yorkshire","Bolton Percy, Yorkshire",On Crataegus,,N/A,N/A,C0264367F,Typed,no type status
0153_C0095081F.jpg,H. Imshaug & K. Ohlsson,H. Imshaug,K. Ohlsson,49793,9 October 1971,1971-10-09,1971-10-09,Xanthoparmelia mougeotii (Schaer.) Hale,Xanthoparmelia mougeotii (Schaer.) Hale,N/A,N/A,"Anthobryum, Berberis",Chile,Magallanes,N/A,N/A,Scattered Anthobryum and Berberis on low hill near Primera Angostura,on low hill near Primera Angostura,N/A,,N/A,"52° 27' S., 69° 36' W.",N/A,Typed,no type status
0154_C0095120F.jpg,W. L. Culberson & R. Ornduff,W. L. Culberson,R. Ornduff,22493,"September 3, 1998",1998-09-03,1998-09-03,"Xanthoria parietina (L.) Th.Fr. in N. Acta Reg. Soc. Sc. Upsal., ser. 3, 3:67. 1861.",Xanthoria parietina (L.) Th.Fr.,W. L. Culberson,N/A,Zyophyllum sp.,South Africa,Western Cape,N/A,N/A,"15 km SE of Oudtshoorn, on the road above Blossoms.","15 kilometers southeast of Oudtshoorn, on the road above Blossoms",On twigs of Zyophyllum sp.,,N/A,N/A,N/A,Typed,no type status
0155_C0090513F.jpg,HENRY A. IMSHAUG & FREDERICK H. IMSHAUG,H.A. Imshaug,F.H. Imshaug,31340,21 September 1963,1963-09-21,N/A,Bamblyliospora chloritis (Nyl.) Zahlbr.,Bamblyliospora chloritis (Nyl.) Zahlbr.,N/A,N/A,N/A,Tobago,N/A,N/A,N/A,"Main Ridge along ""Mt. St. George - Castara Track"" (near Castara)",Main Ridge along Mt. St. George - Castara Track near Castara,Scattered cultivations in clearings of rain forest,,ca. 1200 ft.,N/A,N/A,Typed,no type status
0156_C0053622F.jpg,Edward M. Wheeler,E.M. Wheeler,N/A,s.n.,7 Jan 1989,1989-01-07,1989-01-07,Buellia bahiana Malme on Ilex glabra,Hafellia bahiana (Malme) Sheard,R.J. Salm,20 August 2019,Ilex glabra,United States,Florida,Polk County,N/A,"POLK COUNTY: Tiger Creek Preserve, just to right of Wakeford Road Entrance","Tiger Creek Preserve, just to right of Wakeford Road Entrance",N/A,,N/A,N/A,N/A,Typed,no type status
0157_C0052970F.jpg,Shirley Tucker,S. Tucker,N/A,16863,"March 17, 1977",1977-03-17,N/A,Buellia punctata (Hoffm.) Mass.,Amandinea punctata (Hoffm.) Coppins & Scheid.,R. J. Salm,3 July 2019,Taxodium,United States,Louisiana,St. Tammany Parish,N/A,"Fontainebleau State Park, north shore of Lake Pontchartrain","Fontainebleau State Park, north shore of Lake Pontchartrain",Common on Taxodium,,N/A,"30°20'N, 90°03'W",N/A,Typed,no type status
0158_C0090117F.jpg,H. T. Lumbsch,H.T. Lumbsch,N/A,10566 b,14.7.1994,1994-07-14,1994-07-14,Acarospora,Acarospora,N/A,N/A,N/A,USA,Arizona,Gila Co.,San Carlos,"San Carlos Lake, E exposed slopes above dam, just N of Coolidge","San Carlos Lake, east exposed slopes above dam, just north of Coolidge",On siliceous rocks,,N/A,"33°11'N, 110°32'W",N/A,Typed,no type status
0159_C0090150F.jpg,"N. Hladun, H.T. Lumbsch & A. Henssen",N. Hladun,H.T. Lumbsch & A. Henssen,925d,1983/05/24,1983-05-24,N/A,Acarospora,Acarospora,N/A,N/A,N/A,Spain,Catalunya,Prov. Gerona,Torroella de Fluvia,"Les Torruelles, bei Torroella de Fluvia, auf Granitfelsen im Kalkfadmoor","Les Torruelles near Torroella de Fluvia, on granite rocks in the limestone peat bog",N/A,,N/A,N/A,N/A,Typed,no type status
0160_C0090526F.jpg,H.T. Lumbsch,H.T. Lumbsch,N/A,8890,10.5.1983,1983-05-10,1983-05-10,Bellemerea,Bellemerea,N/A,N/A,N/A,Italy,South Tyrol,N/A,N/A,"Italien, Südtirol, Vinschgau, Gomagoi, E des Ortes. An Silikatgestein.","Italy, South Tyrol, Vinschgau, Gomagoi, east of the place on silicate rock",On silicate rock,,N/A,N/A,N/A,Typed,no type status
0161_C0090341F.jpg,"T. Feuerer, H. Hertel & H. Kilias",T. Feuerer,H. Hertel & H. Kilias,282,12.X.1977,1977-10-12,1977-10-12,Buellia schaerereri DNOT.,Buellia schaerereri DNOT.,N/A,N/A,N/A,Italy,Südtirol,N/A,N/A,"Dolomiten, Rosengarten-Gruppe Purtschellerhaus-Tal (on the road between Nigerepass and Tiers), near the deviation of the path into Tschamin-Tal at Rungun, 1220 m (meters)","Dolomites, Rosengarten Group Purtschellerhaus-Tal (on the road between Nigerepass and Tiers), near the deviation of the path into Tschamin-Tal at Rungun",Sparse larch stand on alpine meadowland. On the trunk base and on slightly sloping stems of European larch (Larix decidua) in abundance,,1220 m,N/A,N/A,Typed,no type status
0162_C0095075F.jpg,Henry A. Imshaug,H.A. Imshaug,N/A,60155,3 October 1976,1976-10-03,1976-10-03,Xanthoria fallax (Hepp) Arn.,Xanthoria fallax (Hepp) Arn.,N/A,N/A,on Acer,United States,Michigan,Chippewa County,Drummond Island,"CHIPEWA COUNTY (DRUMMOND ISLAND): Along road at Drummond airport, Sec. 25, T. 42 N., R. 5 E.","Along road at Drummond airport, Section 25, Township 42 North, Range 5 East",N/A,,N/A,46° 01' N and 83° 44' W,N/A,Typed,no type status
0163_C0055249F.jpg,H. Mietzsch,H. Mietzsch,N/A,6246,27.8.1988,1988-08-27,1988-08-27,Baemyces fungoides Sw.,Baemyces fungoides Sw.,N/A,N/A,N/A,Switzerland,Graubünden,N/A,Zernez,"Schweiz, Graubünden, Unterengadin, TK 25: 1218 Zernez, Marangun, Sursaas","Unterengadin, Marangun, Sursaas",Auf Erde,,2150-2300 m alt.,N/A,N/A,Typed,no type status
0164_C0089982F.jpg,H. Mietszsch,H. Mietszsch,N/A,6983,26.8.1989,1989-08-26,1989-08-26,Xanthoparmelia somloensis (Gyelnik) Hale,Xanthoparmelia somloensis (Gyelnik) Hale,N/A,N/A,N/A,Switzerland,Graubünden,N/A,Savognin,"Schweiz, Graubünden, Albula-Tal, TK 25: 1236 Savognin, Straße von Latsch nach Stugl","Albula Valley, TK 25: 1236 Savognin, road from Latsch to Stugl",Locker an Gestein,,1600 m alt.,N/A,N/A,Typed,no type status
0165_C0090059F.jpg,leg. Aino Henssen,A. Henssen,N/A,s.n.,29.8.1971,1971-08-29,1971-08-29,Xanthoria elegans (Link) Th. Fr.,Xanthoria elegans (Link) Th. Fr.,N/A,N/A,N/A,Switzerland,Graubünden,N/A,N/A,"Graubünden, Albula Pass, auf Dolomit",Albula Pass on dolomite,N/A,,2000 m ü.M.,N/A,21 931 a,Typed,no type status
0166_C0095147F.jpg,William L. Culberson,W.L. Culberson,N/A,s.n.,9.VIII.1996,1996-08-09,1996-08-09,Xanthoria polycarpa (Ehrh.) Riebcr,"Polycauliona polycarpa (Hoffmann) Frödén, Arup & Søchting",R.J. Salm,7 July 2019,N/A,USA,Washington,Spokane County,Spokane,"In urbe Spokane, loco Riverside State Park. Ad ramunculos fruticis in Pineto (Pinus ponderosa).",Riverside State Park near the branches of shrubs in a Ponderosa Pine forest,N/A,,N/A,N/A,N/A,Typed,no type status
0167_C0052862F.jpg,G. Follmann,G. Follmann,N/A,s.n.,s.d.,s.d.,s.d.,Abrothallus parmeliarum (SOMM.) ARN. (anam. Vouauxiomyces santessonii HAWKSW.) Patellariaceae,Abrothallus parmeliarum (SOMM.) ARN. (anam. Vouauxiomyces santessonii HAWKSW.),G. Follmann,N/A,N/A,Germany,Rheinland-Pfalz,N/A,N/A,"Deutschland, Rheinland-Pfalz: zerstreut in der Oberinde der Lagerlappen von Hypogymnia physodes (L.) NYL., 450 m, NW – SW, pH 6,0; Heckengürtel am Südfuß des Schwirzheimer Kopfes zwischen Gerolstein und Prüm in der Hocheifel","Oberinde der Lagerlappen von Hypogymnia physodes, am Südfuß des Schwirzheimer Kopfes zwischen Gerolstein und Prüm in der Hocheifel",zerstreut in der Oberinde der Lagerlappen von Hypogymnia physodes; Heckengürtel,,450 m,N/A,KOELN,Typed,no type status
0168_C0052873F.jpg,H.T. Lumbsch & E. Mietzsch,H.T. Lumbsch,E. Mietzsch,5135 b,24.5.1987,1987-05-24,N/A,Buellia punctata (Hoffm.) Massal.,Amandinea punctata (Hoffm.) Coppins & Scheid.,R.J. Salm,3 July 2019,N/A,Germany,Rheinland-Pfalz,Landkreis Mainz/Bingen,6013 Bingen,TK 25: Ockenheimer Hörnchen,Ockenheimer Hörnchen,An Populus,,N/A,N/A,N/A,Typed,no type status
0169_C0053240F.jpg,N/A,N/A,N/A,MTB5608,9.7.90,1990-07-09,N/A,Aspicilia caesiocinerea Nyl. ex Malbr.,"Circinaria caesiocinerea (Nyl. ex Malbr.) A. Nordin, Savic & Tibell","A. Nordin, Savic, Tibell",3 July 2019,N/A,N/A,N/A,N/A,N/A,N/A,[precise locality unknown],N/A,,450m,N/A,8000,Mix of Handwritten and Typed,no type status
0170_C0053210F.jpg,H.T. Lumbsch & E. Mietzsch,H.T. Lumbsch,E. Mietzsch,5127 a,24.5.1987,1987-05-24,N/A,Aspicilia contorta,"Circinaria contorta (Hoffm.) A. Nordin, Savic & Tibell",R.J. Salm,3 July 2019,N/A,Germany,Rheinland-Pfalz,Landkreis Mainz-Bingen,Ingelheim am Rhein,"BRD, Rheinland-Pfalz, Landkreis Mainz-Bingen, TK 25: 6014 Ingelheim am Rhein, Weg von Gau-Algesheim zum Ockenheimer Hörnchen. An Mörtel.","TK 25: 6014 Ingelheim am Rhein, way from Gau-Algesheim to Ockenheimer Hörnchen on mortar",on mortar,,N/A,N/A,N/A,Typed,no type status
0171_C0090185F.jpg,"H.T. Lumbsch, E. Mietzsch & C.",H.T. Lumbsch,E. Mietzsch & C.,7103 f,19.11.1989,1989-11-19,N/A,Xanthoparmelia conspersa (Ach.) Hale,Xanthoparmelia conspersa (Ach.) Hale,N/A,N/A,N/A,Germany,Hessen,Stadt Wiesbaden,Dotzheim,"TK 25: 5925 Wiesbaden, Dotzheim, Fels am Weilburger Bach. An Silikatgestein",Fels am Weilburger Bach,An Silikatgestein,,N/A,N/A,N/A,Typed,no type status
0172_C0090105F.jpg,H.T. Lumbsch,H.T. Lumbsch,N/A,12159,26.08.2001,2001-08-26,2001-08-26,Arctoparmelia centrifuga,Arctoparmelia centrifuga,N/A,N/A,N/A,Norway,Sogn og Fjordane,N/A,N/A,"NORWEGEN. Sogn og Fjordane. Jotunheimen, alpine Matten an der Straße 55 zwischen Turtegrö und Hervassbu","Jotunheimen, alpine Matten at road 55 between Turtegrö and Hervassbu",Auf Silikatgestein,,1400 m alt.,N/A,N/A,Typed,no type status
0173_C0020034F.jpg,R. M. Schuster,R. M. Schuster,N/A,68-1644,Aug. 17 68,1968-08-17,1968-08-17,Anastrophyllum minutum + gemm.,Anastrophyllum minutum,R. M. Schuster,N/A,Diplophyllum taxifolium,Canada,Newfoundland and Labrador,N/A,N/A,"Along Humber R., in Squires Memorial Park, near Rte 1A.","Along Humber River, in Squires Memorial Park, near Route 1A",N/A,,N/A,N/A,N/A,Typed,no type status
0174_C0020052F.jpg,R. M. Schuster & K. Damsholt,R. M. Schuster,K. Damsholt,82-1049,July 3.,1982-07-03,N/A,Anastrophylum minutum (SCHREB.) SCHUST. v.grandis (GOTT.) SCHUST.,Anastrophylum minutum v.grandis,R. M. Schuster,1982,Cephalozia bicuspidata (L.) DUM.,Greenland,N/A,N/A,Frederiksdal,"Frederiksdal 60°00'N lat., 44°40'W. long.",Frederiksdal,N/A,,N/A,"60°00'N lat., 44°40'W. long.",S1,Typed,no type status
0175_C0025138F.jpg,R. M. Schuster,R. M. Schuster,N/A,9067,June 30 1951,1951-06-30,N/A,"Frullania asagrayana Mont., male, can per. Plagiochila tridenticulata Dum. (traces)",Frullania asagrayana Mont.,N/A,N/A,Plagiochila tridenticulata Dum. (traces),United States,North Carolina,N/A,N/A,"Balsam Gap, N.C., ca. 25 mi. n. of Asheville, along Blue Ridge Parkway","Balsam Gap, approximately 25 miles north of Asheville, along Blue Ridge Parkway",on Abies fraseri,,5220-5260 feet,N/A,N/A,Typed,no type status
0176_C0025164F.jpg,R. M. Schuster,R. M. Schuster,N/A,79-488,April 14 19 79,1979-04-14,N/A,Frullania asagrayana,Frullania asagrayana,N/A,N/A,N/A,United States,Arkansas,Stone Co.,N/A,"Ozark Natl. Forest. Barkshed Camp, ca. 10 mi E. of Big Flat.","Ozark National Forest, Barkshed Camp, approximately 10 miles east of Big Flat",N/A,,N/A,N/A,N/A,Typed,no type status
0177_C0000578F.jpg,"John J. Engel, Matt von Konrat & John E. Braggins",J.J. Engel,"M. von Konrat, J.E. Braggins",23773,12 February 2003,2003-02-12,N/A,Telaranea lindenbergii var. papillata Engel & Merr.,Telaranea lindenbergii var. papillata Engel & Merr.,N/A,N/A,"Blechnum novae-zelandiae, Weinmannia, Dicksonia squarrosa, Leptospermum scoparium",New Zealand,Auckland,N/A,N/A,"NORTH ISLAND. AUCKLAND PROV.: Whareorino Forest, start of track to Leitch's Hut","North Island, Auckland Prov., Whareorino Forest, start of track to Leitch's Hut","On clayey bank. Clay banks with Blechnum novae-zelandiae overhang, Weinmannia and Dicksonia squarrosa dominant canopy and occasional Leptospermum scoparium.",,280 m,"38° 24.5' S., 174° 49.8' E.",C00005788F,Typed,HOLOTYPE
0178_C2079898F.jpg,Marko Lewis,M. Lewis,N/A,78-6284,21-22 November 1978,1978-11-21,1978-11-22,Kindbergia praelonga (Hedw.) Ochyra,Kindbergia praelonga (Hedw.) Ochyra,V. C. Steere,N/A,N/A,Ecuador,Imbabura,N/A,N/A,Wet bank of runoff ravine. E. side of Cerro Cotacachi,"East side of Cerro Cotacachi, wet bank of runoff ravine",Wet bank of runoff ravine,,3750 m.,"0°22'N, 78°20'W",1065158,Typed,no type status
0179_C2077559F.jpg,Marko Lewis,M. Lewis,N/A,78-3163,8 December 1978,1978-12-08,1978-12-08,Hedwigia ciliata (Hedw.) P. Beauv.,Hedwigia ciliata (Hedw.) P. Beauv.,E. de Luna,1992,N/A,Ecuador,Azuay,N/A,N/A,"Prov. Azuay: Area Nacional de Recreación ""Cajas"", forested hills S. of ""Surocuchu"" (laguna Llaviuco), SW of Sayausí","Area Nacional de Recreación ""Cajas"", forested hills south of ""Surocuchu"", southwest of Sayausí",Stone wall,,3240 m.,N/A,1065433,Typed,no type status
0180_C2077563F.jpg,"León, B. et l'Im. Drion",B. León,l'Im. Drion,4659 pp.,s.d.,s.d.,s.d.,Hedwigia albicans (Web.) Lindb.,Hedwigia ciliata (Hedw.) P. Beauv.,Erwin de Luna,1992,N/A,Ecuador,N/A,N/A,Quito,environs de Quito.,environs de Quito,N/A,,N/A,N/A,1039453,Typed,no type status
0181_C2077564F.jpg,R. Benoist,R. Benoist,N/A,s.n.,27 Novembre 1930,1930-11-27,N/A,Hedwigia albicans (Web.) Lindb.,Hedwigia ciliata (Hedw.) P. Beauv.,E. de Lima,1992,N/A,Ecuador,Pichincha,N/A,Quito,Sur rocher granitique,Sur rocher granitique,N/A,,N/A,N/A,N/A,Typed,no type status
0182_C2077565F.jpg,R. S. Williams,R.S. Williams,N/A,1850,"April 30, 1902",1902-04-30,1902-04-30,Hedysarum albicans M. & Nicolle,Hedysarum ciliatum (Hedw.) F. Beauv.,E.E. Luna,1992,N/A,Bolivia,N/A,N/A,N/A,"near Pilichuco, on wetter",near Pilichuco,[precise locality unknown],,3700 meters,N/A,1063451,Handwritten,no type status
0183_C2077566F.jpg,Marko Lewis,M. Lewis,N/A,79-1237A,22 March 1979,1979-03-22,N/A,Hedwigia ciliata (Hedw.) P. Beauv.,Hedwigia ciliata (Hedw.) P. Beauv.,E. De Luna,1992,N/A,Bolivia,La Paz,Larecaja,N/A,"DEPTO. LA PAZ, PROV. LARECAJA: Near large red out-crop 2 mi. from Sorata town Rio Consata, ",Near large red outcrop 2 miles from Sorata town Rio Consata,Bromeliad habitat. Abundant on rock faces of exposed cliffs,,2630 m.,"15° 41' S, 68° 43' W",1032221,Typed,no type status
0184_C2077567F.jpg,Marko Lewis,M. Lewis,N/A,79-1232,22 March 1979,1979-03-22,N/A,Hedwigia ciliata (Hedw.) P. Beauv.,Hedwigia ciliata (Hedw.) P. Beauv.,E. De Luna,1982,N/A,Bolivia,La Paz,Larecaja,N/A,"DEPTO. LA PAZ, PROV. LARECAJA: Near large red outcrop 2 mi. from Sorata down Rio Consata, 15° 41' S, 68° 43’ W.",Near large red outcrop 2 miles from Sorata down Rio Consata,"Bromeliad-grass habitat on exposed cliffs, 2630 meters",,2630 m.,"15° 41' S, 68° 43’ W.",1032219,Typed,no type status
0185_C2077568F.jpg,Marko Lewis,M. Lewis,N/A,79-1114,6 March 1979,1979-03-06,1979-03-06,Hedwigia ciliata (Hedw.) P. Beauv.,Hedwigia ciliata (Hedw.) P. Beauv.,E. De Luna,1992,N/A,Bolivia,Depto. La Paz,Prov. Saavedra,N/A,"On mountain side directly N. of river, beneath Niño Kariña, NW of Chuma, ","On mountain side directly north of river, beneath Niño Kariña, northwest of Chuma",Humid cliffs and steep slopes,,3320 m,"15°08' S, 69°03' W",1032220,Typed,no type status
0186_C2077569F.jpg,F. J. Hermann,F. J. Hermann,N/A,25152,"December 27, 1972",1972-12-27,1972-12-27,Hedwigia ciliata (Hedw.) P. Beauv.,Hedwigia ciliata (Hedw.) P. Beauv.,Elinor Lehto,N/A,N/A,Bolivia,Cochabamba,N/A,N/A,"On conglomerate boulder on shrubby NW slope of Mt. Tunari, near Liriuni Aguas Termales Hotel, alt. ca. 2700 m., 28 km. NW Cochabamba","On conglomerate boulder on shrubby northwest slope of Mount Tunari near Liriuni Aguas Termales Hotel, 28 kilometers northwest Cochabamba",N/A,,alt. ca. 2700 m.,N/A,1040675,Typed,no type status
0187_C2077570F.jpg,Ynes Mexia,Y. Mexia,N/A,6804,"Dec. 2, 1931",1931-12-02,N/A,Philonotis subchlorophylla Grout,Philonotis subchlorophylla Grout,Bartram,N/A,N/A,Peru,Loreto,N/A,N/A,Above Pongo de Manseriche. Streamlet near mouth of Rio Santiago,"Above Pongo de Manseriche, near mouth of Rio Santiago","Streamlet, on fallen log",,400 m,N/A,1075692,Typed,no type status
0188_C2077571F.jpg,Ynes Mexía,Y. Mexía,N/A,6804,"Dec. 9, 1931",1931-12-09,1931-12-09,Philonotis subulato-loriformis,Philonotis subulato-loriformis,Det. Bartram,N/A,N/A,Peru,Loreto,N/A,N/A,Above Pongo de Manseriche. Streamlet near mouth of Rio Santiago. On fallen logs,Above Pongo de Manseriche. Streamlet near mouth of Rio Santiago. On fallen logs,N/A,,Alt. 400 m.,N/A,N/A,Typed,no type status
0189_C2077572F.jpg,A.C. Smith,A.C. Smith,N/A,s.n.,"Dec. 14-15, 1937",1937-12-14,1937-12-15,Pilosium flavolutescens (Mitt.),Pilosium flavolutescens (Mitt.),Det. E.B. Bartram,N/A,N/A,Guyana,N/A,N/A,N/A,"Basin of Essequibo River, near mouth of Ororo Creek, lat. about 1°53'N.; dense forest","Basin of Essequibo River, near mouth of Ororo Creek","On decayed wood, in swamp, dense forest",,N/A,N/A,1027351,Typed,no type status
0190_C2077573F.jpg,J. Fluorschütz-de Waard & Riehlman,J.F. de Waard,Riehlman,s.n.,5-11-1981,1981-11-05,N/A,Pilotrichum cholorozum (Horw. ex C. Müll.) A. jaeger,Pilotrichum cholorozum (Horw. ex C. Müll.) A. jaeger,J.F. de Waard,5-11-1981,N/A,Suriname,Nickerie,N/A,N/A,"area of Kabalebo Dam project, distr. Nickerie, SE NW from road km 39,5, p. Second quarry","area of Kabalebo Dam project, southeast northwest from road kilometer 39.5, patch Second quarry",on rotting log with Cecropia (boopaja),,ALT. 0-50 m,N/A,1073523,Typed,no type status
0191_C2077574F.jpg,J. Fluorschütz-de Waard & R. Zijlman,J. Fluorschütz-de Waard,R. Zijlman,5254,3-11-1981,1981-11-03,N/A,Pilotrichum chlorophyllum(Hornsch.) C. Müll.,Pilotrichum chlorophyllum(Hornsch.) C. Müll.,Zijlman,N/A,N/A,Suriname,N/A,N/A,N/A,"area of Kabalebo Dam project, along the Meclerie Line NN from road km 39,5, P. 51 SWM QU, SE, Savannah forest, on rotting logs","area of Kabalebo Dam project, along the Meclerie Line north-north from road kilometer 39.5, Savanna forest on rotting logs","Savannah forest, on rotting logs",,0-50 m.,N/A,1073529,Typed,no type status
0192_C2077575F.jpg,J. Fluoricht & de Waard & R. Zeileman,J. Fluoricht,"de Waard, R. Zeileman",5098,3-10-1981,1981-10-03,N/A,Pilotrichum chlorophyllum (Bonm.) Mitt.,Pilotrichum chlorophyllum (Bonm.) Mitt.,R. Zeileman,N/A,N/A,Suriname,Nickerie,N/A,N/A,"Hab.: Aves of Kabalebo Dam Project, distr. Nickerie, Line W from road 34 km, P. 5NM cu, SP., Rainforest, on rotting logs.","Aves of Kabalebo Dam Project, Line West from road 34 kilometers","Rainforest, on rotting logs",,Alt.: 0 - 50 m.,N/A,1073528,Typed,no type status
0193_C2077576F.jpg,"J.C. Lindeman, A. A. Gortman-van Rhijn, M. Jansen-Jacobs & A. J. ter Steege ",J.C. Lindeman,"A.A. Gortman-van Rhijn, M. Jansen-Jacobs, A.J. ter Steege",243 A,3-7-X-1980,1980-10-03,1980-10-07,Philodendron chlorophyllum (Hemsl.) C. M. Hill,Philodendron chlorophyllum (Hemsl.) C. M. Hill,E.J. Kleinman,s.d.,N/A,Suriname,Nickerie,s.n.,s.n.,"Area of Kabalebo Dam Project, distr. Nickerie",Area of Kabalebo Dam Project,"Forest c km 28.7, epiphyte on tree trunk",,Alt.; 30 - 130 m.,"4° 30' N, 57° 30' 590"" W.",N/A,Typed,no type status
0194_C2077577F.jpg,J. Florschütz-de Waard and R. Zielemann,J. Florschütz-de Waard,R. Zielemann,5141,31 October 1981,1981-10-31,1981-10-31,Pilotium chilomitrophyllum (Hornsch.) C. Müll.,Pilotium chilomitrophyllum (Hornsch.) C. Müll.,R. Ziemann,N/A,Astrocaryum,Suriname,Dist. Nickerie,N/A,Kabalebo river area,"Distr. Nickerie, Kabalebo river area, 1 km W. from road km 34.","Kabalebo river area, 1 kilometer West from road kilometer 34",decaying log in marsh forest,,alt. 0-50 m,"4°5'N, 58°W",1673863,Typed,no type status
0195_C2077578F.jpg,J. and P.A. Florschütz,J. Florschütz,P.A. Florschütz,4690,18 December 1975,1975-12-18,N/A,Pilotsum chlorophyllum (Turner) C. Muell.,Pilotsum chlorophyllum (Turner) C. Muell.,R. Ziemann and J. Florschütz-de Waard,N/A,N/A,Suriname,Brokopondo,N/A,N/A,"Brownsberg, trail to Leo Val",Brownsberg trail to Leo Val,On rotting log in rainforest,,alt. ca. 500 m,N/A,N° 1065613,Typed,no type status
0196_C2077579F.jpg,H. Cornelissen & S. R. Gradstein ,H. Cornelissen ,S. R. Gradstein ,C076 ,8 March 1977 ,1977-03-08 ,N/A ,Pilotrichum chlorophyllum (Hornsch.) C. Müll. ,Pilotrichum chlorophyllum (Hornsch.) C. Müll. ,J. Florschütz-de Waard ,N/A ,N/A ,Guyana ,N/A ,N/A ,N/A ,"Mabura Hill, 180 km S of Georgetown ","Mabura Hill, 180 kilometers south of Georgetown ",On rotting tree base in mixed rain forest ,,alt. 0-50 m ,5°20'N 58°40'W ,N° 1691586,Typed ,no type status
0197_C2077580F.jpg,Marc im Thurn,M. im Thurn,N/A,321,March 1891,1891-03-00,N/A,"Stenochlaena tenuifolia, Hk.",Ptilosium chlorophyllum (Hornsch.) C. Müll. in Broth.,R.R. Ireland and W.R. Buck,1992,N/A,Panama,N/A,N/A,N/A,"prov. Panama, forest",[precise locality unknown],N/A,,N/A,N/A,N/A,Mix of Handwritten and Typed,no type status
0198_C2077581F.jpg,Richard Evans Schultes & Isidoro Cabrera,R.E. Schultes,I. Cabrera,7922,"Oct. 22, 1952",1952-10-22,N/A,Pilotrichum chlorophyllum (Hornsch.) Jaeg.,Pilotrichum chlorophyllum (Hornsch.) Jaeg.,H. A. Crum,1956,N/A,Colombia,Vaupes,N/A,N/A,"Rio Vaupes: Mitú and vicinity, Cerro Mitú",Cerro Mitú,N/A,,N/A,"Lat. 1° 10' N, Long. 70° 15' W",1055492,Typed,no type status
0199_C2077582F.jpg,Richard Evans Schultes et Isidoro Cabrera,R.E. Schultes,I. Cabrera,14294,"October 4-6, 1951",1951-10-04,1951-10-06,Pilosium chlorophyllum (Hornsch.) C. Muell,Pilosium chlorophyllum (Hornsch.) C. Muell,E. H. A. Cruz,1956,N/A,Colombia,Vaupés,N/A,Yapobodá,"Rio Kuduyarí (affluent of Rio Vaupés), Yapobodá, quartzite savannah.","Rio Kuduyarí (affluent of Rio Vaupés), Yapobodá",quartzite savannah,,N/A,N/A,N/A,Typed,no type status
0200_C2077583F.jpg,Richard Evans Schultes,R.E. Schultes,N/A,12309,s.d.,s.d.,s.d.,Pilosium chlorophyllum (Hornsch.) C. Muell. in Broth. ,Pilosium chlorophyllum (Hornsch.) C. Muell. in Broth.,D.G. Griffin III,June 1951,N/A,Colombia,Vaupés,N/A,N/A,"Cerro Isibukuri, Rio Apaporis, Serrania ","Cerro Isibukuri, Rio Apaporis, Serrania",On trunks,,N/A,N/A,1055490,Typed,no type status
0201_C2077584F.jpg,Richard Evans Schultes ,R.E. Schultes,N/A,11128,Dec. 1950,1950-12-00,1950-12-00,Pilotrichum chlorophyllum (Besch.) C. Müll. in Broth.,Pilotrichum chlorophyllum (Besch.) C. Müll. in Broth.,D.A. Griffin III,N/A,N/A,Colombia,N/A,N/A,San José del Guaviare,San José del Guaviare,[precise locality unknown],N/A,,N/A,N/A,1055489,Typed,no type status
0202_C2077585F.jpg,Ynes Mexia,Y. Mexia,N/A,6014,"Aug. 31, 1931",1931-08-31,N/A,Pilotrichum chlorophyllum (Hitch.) A. Jarm. var. brasiliense (Glaz.) W. R. Buck,Pilotrichum chlorophyllum var. brasiliense,N/A,N/A,N/A,Brazil,N/A,N/A,N/A,"Districto Acre', [Thomé Assú; down Rio Acre 3 km.","Districto Acre', [precise locality unknown]",On fallen log,,35 m.,N/A,N/A,Handwritten,no type status
0203_C2077586F.jpg,Ynes Mexia,Y. Mexia,N/A,5914,"July 16, 1931",1931-07-16,N/A,Pilotrichum Chlorophyllum (Bisch.) C. Mull.,Pilotrichum Chlorophyllum (Bisch.) C. Mull.,N/A,N/A,N/A,Brazil,Pará,N/A,Thomé Assú,Distrito Acará; Thomé Assú; Japanese Colony. On rotting log in woods. Abundant.,Japanese Colony,On rotting log in woods. Abundant.,,about 30 m,N/A,870829,Typed,no type status
0204_C2078862F.jpg,"D. Griffin III, Manul Lopez",D. Griffin III,M. Lopez,PV-1525,s.n.,s.d.,s.d.,Brachythecium plumosum (Hedw.) BSG,Brachythecium plumosum (Hedw.) BSG,N/A,N/A,N/A,Venezuela,Trujillo,N/A,N/A,"Paramo de Guirigay, arista del páramo de Las Piedras. Entre El Aguila y El Hato, en superficie silicosa,","Paramo de Guirigay, arista del paramo de Las Piedras, Entre El Aguila y El Hato, en superficie silicosa","Sobre roca húmeda, lecho de riachuelo, a sol.",,"3,100 m.s.n.m.",N/A,1064449,Typed,no type status
0205_C2078913F.jpg,P. Dusén,P. Dusén,N/A,5872,22 February 1897,1897-02-22,N/A,Brachythecium albicans (Hedw.) Schimp.,Brachythecium albicans (Hedw.) Schimp.,W. R. Buck,N/A,N/A,Chile,Patagonia,N/A,N/A,cerca Cerro Colorado,near Cerro Colorado,N/A,,N/A,N/A,B11749,Typed,no type status
0206_C2078924F.jpg,Ynes Mexia,Y. Mexia,N/A,8001,"April 10,1936",1936-04-10,1936-04-10,Brachythecium austro-glareosum (C. Muell.) Kindb.,Brachythecium austro-glareosum (C. Muell.) Kindb.,K. D. McFarland,Sept 1982,N/A,Chile,Territorio Magallanes,N/A,N/A,"Territorio Magallanes: Est. Antonio Varas; Península Antonio Varas, opposite Isla Riesco","Estacion Antonio Varas; Peninsula Antonio Varas, opposite Isla Riesco",Damp inlet; Nothofagus wood in moist earth,,Alt. 25 m.,N/A,N/A,Typed,no type status
0207_C2078925F.jpg,Marko Lewis,M. Lewis,N/A,79-2108,25 May 1979,1979-05-25,N/A,Brachythecium cf. colligonoides Broth. in Herz.,Brachythecium cf. colligonoides Broth. in Herz.,R. Ochyra,February 1982,N/A,Bolivia,Oruro,Sajama,N/A,"DEPTO. ORURO, PROV. SAJAMA: Rio Juntuma Khuchu, 2 mi. down from Aguas termales de Rio Juntuma Khuchu.","Rio Juntuma Khuchu, 2 miles down from Aguas termales de Rio Juntuma Khuchu",N/A,,4350 m.,"18° 07' S, 69° 00' W",1049405,Typed,no type status
0208_C2078926F.jpg,Marko Lewis,M. Lewis,N/A,79-2109,25 May 1979,1979-05-25,1979-05-25,Brachythecium callirgonoides Broth. in Herz.,Brachythecium callirgonoides Broth. in Herz.,R. Ochyra,1982,N/A,Bolivia,Oruro,Sajama,N/A,"DEPTO. ORURO, PROV. SAJAMA: Rio Juntuma Khuchu, 2 mii. down river from Aguas termales de Rio Juntuma Khuchu, 18°07' S, 69°00' W. In warmish creek.","Rio Juntuma Khuchu, 2 miles down river from Aguas termales de Rio Juntuma Khuchu",In warmish creek,,4350 m,"18°07' S, 69°00' W",1049406,Typed,no type status
0209_C2078927F.jpg,Marko Lewis,M. Lewis,N/A,79-2112,25 May 1979,1979-05-25,1979-05-25,Brachythecium camillae-gonzales Broth. in Herz.,Brachythecium camillae-gonzales Broth. in Herz.,E. Ochyra,1982,N/A,Bolivia,Oruro,Sajama,N/A,"DEPTO. ORURO, PROV. SAJAMA: Rio Jhuntuama Khuchu, 2 mi. down river from Aguas termales de Rio Jhuncuma, 4350, 18º 07' S, 69º 00' W. In warmish creek.","Rio Jhuntuama Khuchu, 2 miles down river from Aguas termales de Rio Jhuncuma",In warmish creek,,4350,"18º 07' S, 69º 00' W",1049407,Typed,no type status
0210_C2078928F.jpg,Marko Lewis,M. Lewis,N/A,no. 79-2115,25 May 1979,1979-05-25,1979-05-25,Brachythecium colligeronoides Broth. in Herz.,Brachythecium colligeronoides Broth. in Herz.,R. Ochyra,1982,N/A,Bolivia,Oruro,Sajama,N/A,"DEPTO. ORURO, PROV. SAJAMA: Río Jhntuma Khuchu, 2 mi. down river from Aguas termales de Rio Jhntuma Khuchu","Río Jhntuma Khuchu, 2 miles down river from Aguas termales de Rio Jhntuma Khuchu",In warmish creek,,4380 m.,"18° 07' S, 69° 00' W",1049409,Typed,no type status
0211_C2078929F.jpg,Marko Lewis,M. Lewis,N/A,79-2117,25 May 1979,1979-05-25,N/A,Brachythecium callirgenoides Broth. in Herz.,Brachythecium callirgenoides Broth.,R. Ochyra,1982,N/A,Bolivia,Oruro,Sajama,N/A,"Prov. SAJAMA: Rio Jhutuma Khuchu, 2 mi. down river from Aguas termales de Rio Jhuma Khuchu","Prov. SAJAMA: Rio Jhutuma Khuchu, 2 miles down river from Aguas termales de Rio Jhuma Khuchu",In warmish creek,,N/A,S. 18°07'; W. 69°00',1049410,Typed,no type status
0212_C2078930F.jpg,"Marko Lewis, no.79-2118",M. Lewis,N/A,79-2118,25 May 1979,1979-05-25,1979-05-25,"Brachythecium sellowianum sinnemis à Brachythecium albicans [Note: Text not fully clear; ""sinnemis"" and ""à"" are not standard terms in this context]",Brachythecium calliergonoides,R. Ochyra,1982,N/A,Bolivia,Oruro,N/A,N/A,"DEPTO. ORURO, PROV. SAJAMA: Rio Juntuma thuma 2 km. down river from Aguas termales de Rio Juntuma Khuchi, 4350 m, 18° 07' S, 69° 00' W. In warnish creek.","DEPTO. ORURO, PROV. SAJAMA: Rio Juntuma thuma 2 kilometers downriver from Aguas termales de Rio Juntuma Khuchi [precise locality unknown]",Warnish creek,,4350 m,"18° 07' S, 69° 00' W",1049411,Typed,no type status
0213_C2078931F.jpg,Marko Lewis,M. Lewis,N/A,79-2107,25 May 1979,1979-05-25,N/A,Brachythecium callirggonoides Broth. in Herz.,Brachythecium callirggonoides Broth. in Herz.,R. Ochyra,1982,N/A,Bolivia,Oruro,N/A,N/A,"DEPTO. ORURO, PROV. SAJAMA: Río Jhurthuma Khuchu, 2 mi. down river from Aguas termales de Río Jhurthuma Khuchu","Río Jhurthuma Khuchu, 2 miles down river from Aguas termales de Río Jhurthuma Khuchu",In warmish creek,,4350 m.,"18° 07' S, 69° 00' W",1049404,Typed,no type status
0214_C2078932F.jpg,Marko Lewis,M. Lewis,N/A,79-2919,25 May 1979,1979-05-25,N/A,Brachythecium callitrichoides Broth. in Herz.,Brachythecium callitrichoides Broth. in Herz.,R. Ochyra,1982,N/A,Bolivia,Oruro,N/A,N/A,"DEPTO. ORURO, PROV. SAJAMA: Rio Jhuthuma Khuchu, 2 mi. down river from Aguas termales de Rio Juntuma Khuchu","Rio Jhuthuma Khuchu, 2 miles down river from Aguas termales de Rio Juntuma Khuchu",In warmish creek,,4350 m.,"17° 08' S, 69° 00' W",1049412,Typed,no type status
0215_C2079350F.jpg,Ynes Mexia,Y. Mexia,N/A,6149,"Nov. 23, 1931",1931-11-23,N/A,Vesicularia amphibola (Spr.) Broth.,Vesicularia amphibola (Spr.) Broth.,N/A,N/A,N/A,Peru,Departamento de Loreto,N/A,N/A,Above Pongo de Manseriche. Left bank of Rio Santiago.,Above Pongo de Manseriche on the left bank of Rio Santiago,On stone in overflow forest,,Alt. 200 m.,N/A,873368,Typed,no type status
0216_C2079351F.jpg,N/A,N/A,N/A,s.n.,"May 25, 1931",1931-05-25,1931-05-25,Vesicularia umbiliphora (Spr.) Broth.,Vesicularia umbiliphora (Spr.) Broth.,E. Bartram,N/A,N/A,Peru,Loreto,N/A,N/A,Above Pongo de Manseriche. Right bank of Rio Santiago.,"Above Pongo de Manseriche, right bank of Rio Santiago",Dense forest on log,,Alt. 200 m.,N/A,873367,Typed,no type status
0217_C2079352F.jpg,Ynes Mexia,Y. Mexia,N/A,6217-a,"Dec. 4, 1931.",1931-12-04,N/A,Vesicularia amphipoda (Spr.) Broth.,Vesicularia amphipoda (Spr.) Broth.,N/A,N/A,N/A,Peru,Loreto,N/A,N/A,"Above Pongo Manseriche, Streamlet on right bank of Rio Santiago.","Above Pongo Manseriche, streamlet on right bank of Rio Santiago",On rocks wet by spray.,,Alt. 250 m.,N/A,N/A,Typed,no type status
0218_C2079353F.jpg,Ynes Mexia,Y. Mexia,N/A,6259,"Dec. 12, 1931",1931-12-12,1931-12-12,Vestibularia amphipholia (Spruce) Broth.,Vestibularia amphipholia (Spruce) Broth.,E. Bartram,N/A,N/A,Peru,Loreto,N/A,Above Pongo de Manseriche,"Above Pongo de Manseriche, Crocker Carapish.","Above Pongo de Manseriche, Crocker Carapas",In forests.,,Alt. 215 m.,N/A,870867,Typed,no type status
0219_C2079354F.jpg,Ynes Mexia,Y. Mexia,N/A,6354,"Jan. 3, 1932",1932-01-03,N/A,Vesicularia subpilbosa (Spr.) Broth. det. by Bartram,Vesicularia subpilbosa (Spr.) Broth.,E. Bartram,N/A,N/A,Peru,Loreto,N/A,N/A,Above Pongo de Manseriche. ,Above Pongo de Manseriche,On earth collected on inclined tree trunk.,,Alt. 215 m.,N/A,823869,Typed,no type status
0220_C2079355F.jpg,Ynes Mexia,Y. Mexia,N/A,6375,"Jan. 3, 1932",1932-01-03,1932-01-03,Vesicularia amphibola (Spr.) Broth. + Taxithelium planum (Brid.) Mitt.,Vesicularia amphibola (Spr.) Broth.,N/A,N/A,Taxithelium planum (Brid.) Mitt.,Peru,Loreto,N/A,N/A,"Above Pongo de Manseriche, Creek Tinche.","Above Pongo de Manseriche, Creek Tinche","On rotten log, Senticole",,Alt. 215 m,N/A,1039121,Typed,no type status
0221_C2079356F.jpg,Ynes Mexia,Y. Mexia,N/A,6379,"Jan. 3, 1938.",1938-01-03,1938-01-03,Vestibulina negrensis (Spruce) Brotherus in Besch.,Ynes Mexia No. 6379 *Vestibulina negrensis (Spruce) Brotherus in Besch.,N/A,N/A,N/A,Peru,Loreto,N/A,N/A,Above Pongo de Manseriche,Above Pongo de Manseriche,On rotten log,,Alt. 215 m.,N/A,570880,Mix of Handwritten and Typed,no type status
0222_C2079357F.jpg,Ynes Mexia,Y. Mexia,N/A,6377,"Jan. 3, 1932",1932-01-03,1932-01-03,Vesicularia amphibia (Spr) Broth.,Vesicularia amphibia (Spr) Broth.,N/A,N/A,N/A,Peru,Loreto,N/A,N/A,Above Pongo de Manseriche. Crook Inche.,"Above Pongo de Manseriche, Crook Inche",On rotten log,,Alt. 215 m.,N/A,S70873,Typed,no type status
0223_C2079358F.jpg,Ynes Mexia,Y. Mexia,N/A,8070,"May 14,1936",1936-05-14,1936-05-14,Vesselowskya amphipetala (Spr.) Froth. determinavit Bartram,Vesselowskya amphipetala (Spr.) Froth.,N/A,N/A,N/A,Peru,Cuzco,N/A,N/A,Provincia La Convencion; upper valley of the Sambay; affluent of the Vilcanota; on rotten logs in virgin forest.,Provincia La Convencion; upper valley of the Sambay; affluent of the Vilcanota; on rotten logs ,In virgin forest,,Alt. 1800 Mts.,N/A,1031895,Typed,no type status
0224_C2079359F.jpg,Ynes Mexia No. 8070,Y. Mexia,N/A,8070,"May 14,1936",1936-05-14,1936-05-14,Vestia lycioides (Spr.) Schoth. ex Bartram,Vestia lycioides (Spr.) Schoth. ex Bartram,N/A,N/A,N/A,Peru,Cuzco,La Convencion,N/A,upper valley of the Sambayá; affluent of the Vilcanota,un upper valley of the Sambayá; affluent of the Vilcanota,on rotten logs in virgin forest,,Alt. 1600 m.,N/A,1039122,Typed,no type status
0225_C2079360F.jpg,R. Reitz,R. Reitz,N/A,s.n.,Data: 9.I.49,1949-01-09,1949-01-09,Hypnum vaucheriaceum var. schimperi (Schwagr.) Broth.,Hypnum vaucheriaceum var. schimperi (Schwagr.) Broth.,N/A,1949,N/A,Brasil,Santa Catarina,N/A,N/A,"R. Bom Jesus, Braço","R. Bom Jesus, Braço",Densidade da mata virgem,,Alt. 550 m,N/A,N. 2222,Typed,no type status
0226_C2079361F.jpg,F. J. Hermann,F.J. Hermann,N/A,20519,"December 19, 1972",1972-12-19,1972-12-19,Vesicularia vesicularis (Schwaegr.) Broth.,Vesicularia vesicularis (Schwaegr.) Broth.,H. Robinson,N/A,N/A,Colombia,Santander,N/A,Paraguitas,"On base of tree trunk, Paraguitas, 1/4 mile NW.","On base of tree trunk, Paraguitas, one quarter mile northwest",N/A,,alt. ca. 4000 ft.,N/A,1009141,Typed,no type status
0227_C2079362F.jpg,RICHARD EVANS SCHULTES,R.E. Schultes,N/A,11107,"Dec., 1950",1950-12-01,1950-12-31,Vesicularia vesicularis (Schwgr.) Broth.,Vesicularia vesicularis (Schwgr.) Broth.,D.G. Griffin III,"Dec., 1950",N/A,Colombia,Intendencia del Meta,N/A,N/A,alrededores de Villavicencio,alrededores de Villavicencio,N/A,,Alt 500 m.,N/A,N/A,Typed,no type status
0228_C2079715F.jpg,"J.P. Frahm, P. Geissler, S.R. Gradstein, G. Philippi, W. Schultze-Motel",J.P. Frahm,"P. Geissler, S.R. Gradstein, G. Philippi, W. Schultze-Motel",875,4.9.1982,1982-09-04,N/A,Entodon jamesonii (Tayl.) Mitt.,Entodon jamesonii (Tayl.) Mitt.,W. Schultze-Motel,N/A,N/A,Peru,Amazonas,Chachapoyas,N/A,"Prov. Chachapoyas, Straße Chachapoyas Cajamarca oberhalb Leimebamba km 417, sexponierter Hang, hochandiner Regenwald auf Kalkstein","Prov. Chachapoyas, Strasse Chachapoyas Cajamarca above Leimebamba km 417, sexponierter Hang, high Andean rainforest on limestone",hochandiner Regenwald auf Kalkstein,,2800 msn.,N/A,1767822,Typed,no type status
0229_C2079716F.jpg,J. Kenneth Wright,J.K. Wright,N/A,48606,1 April 1964,1964-04-01,1964-04-01,"Entodon jamesonii (Tayl.) Mitt. dupl. det. H. Robinson, 1966",Entodon jamesonii (Tayl.) Mitt.,H. Robinson,1966,N/A,Peru,Amazonas,Chachapoyas,N/A,"Cerros Calla Calla, este side, 5 km. above Leimebamba on the road to Balsas, at San Miguel (no buildings at this locality).","Cerros Calla Calla, east side, 5 kilometers above Leimebamba on the road to Balsas, at San Miguel (no buildings at this locality)",N/A,,Altitude 4300 meters,N/A,1028164,Typed,no type status
0230_C2079717F.jpg,Dan Griffin,D. Griffin,N/A,PV-966,30 Jan. 1985.,1985-01-30,1985-01-30,Entodon jamesonii (Tayl.) Broth.,Entodon jamesonii (Tayl.) Broth.,D. Griffin,N/A,N/A,Venezuela,Estado Merida,N/A,Finca de Los Granates,al borde del rio de Los Granates y en los bancos arenosos,"Finca de Los Granates, along the edge of the river Los Granates and on the sandy banks","Sobre roca seca, a sombra.",,"ca. 3,000-3,100 m",N/A,1064416,Typed,no type status
0231_C2079718F.jpg,Ynes Mexia,Y. Mexia,N/A,5697,"April 21, 1931",1931-04-21,1931-04-21,Entodon Lindbergii Hedw.,Entodon Lindbergii Hedw.,A.L. Andrews,N/A,N/A,Brazil,Minas Gerais,N/A,Cordisburgo,"Pau de Fruta, Fazenda do Diamante, Campo viridibus, in terreno arenoso, Base of living tree in shade.","Fazenda do Diamante, Campo Viridibus, base of living tree in shade","Campo viridibus, in terreno arenoso, base of living tree in shade",,Alt. 500 m.,N/A,807181,Typed,no type status
0232_C2079719F.jpg,legit S. Watson,S. Watson,N/A,1023,s.d.,0000-00-00,0000-00-00,Entosthodon longirostris (Hedw.) Grout,Entosthodon longirostris (Hedw.) Grout,N/A,s.d.,N/A,United States of America,North Carolina,N/A,N/A,N/A,[precise locality unknown],N/A,,N/A,N/A,1078203,Typed,no type status
0233_C2079720F.jpg,Marko Lewis,M. Lewis,N/A,79-590,8 February 1979,1979-02-08,1979-02-08,Entodon cf. nanc-limaicum C. Mü. ( = E. micans Herz.),Entodon micans,W. Buck,1980,N/A,Bolivia,Tarija,N/A,N/A,"DEPTO. TARIJA, PROV. MÉNDEZ;PROV. CERCADO;PROV. AVILÉS; Canyon 5 mi SW of Tablada, SW of Tarija; 31.5°, 64.5° W.","Canyon 5 miles southwest of Tablada, southwest of Tarija",Bank of creek,,2160 m.,"31.5°, 64.5° W.",N/A,Typed,no type status
0234_C2079721F.jpg,Marko Lewis,M. Lewis,N/A,79-1220,22 March 1979,1979-03-22,N/A,Entodon nano-climacium C. M. (E = M clincis Herz.),Entodon nano-climacium C. M. (E = M clincis Herz.),M. Buck,1980,N/A,Bolivia,La Paz,Larecaja,Sorata,"DEPTO. LA PAZ, PROV. LARECAJA: Near large cut-crop 2 mi. from Sorata down Rio Constata, 15° 41' S., 68° 43' W.",Near large cut-crop 2 miles from Sorata down Rio Constata,Very shady ground along creek in humid shrubs,,2600 m.,"15° 41' S., 68° 43' W.",1678759,Typed,no type status
0235_C2079722F.jpg,Harry Ward Foote,H.W. Foote,N/A,s.n.,Sept. 3,1911-09-03,1911-09-03,Erpodium glaziovii Mitt.,Erpodium glaziovii Mitt.,N/A,N/A,N/A,Peru,N/A,N/A,N/A,"On rocks near San Miguel, 1000ft",On rocks near San Miguel,N/A,,1000ft,N/A,N/A,Mix of Handwritten and Typed,no type status
0236_C2079723F.jpg,Marko Lewis,M. Lewis,N/A,79-1346,1 April 1979,1979-04-01,N/A,cf. Entodon polycaapus ,cf. Entodon polycaapus ,W. Buck,1980,N/A,Bolivia,La Paz,Larecaja,N/A,"DEPTO. LA PAZ, PROV. LARECAJA: Between Abra Huallatani and waterfall at Millipaya",Between Abra Huallatani and waterfall at Millipaya,"Waterfall ravine, highest extension of shrubs",,3780 m.,"15°51' S, 68°39' W.",1068734,Typed,no type status
0237_C2079595F.jpg,H. Roivainen,H. Roivainen,N/A,2095,25.I.1970,1970-01-25,N/A,Isopterygium pulchellum (Hedw.) Jaeg.,Isopterygium pulchellum (Hedw.) Jaeg.,R. Ochyra,1996,N/A,Argentina,Tierra del Fuego Austral,N/A,Ushuaia,"Ushuaia, Arroyo Grande, en fisuras de roca y en raices humoso-arcillosos de Nothofagus pumilio, en orilla de la cascada","Ushuaia, Arroyo Grande, rock fissures and humus-clayey roots of Nothofagus pumilio, on the edge of the waterfall","In rock fissures and humus-clayey roots of Nothofagus pumilio, on the edge of the waterfall",,150 m,"54°47'S, 68°14'W",N° 1182417,Typed,no type status
0238_C2079596F.jpg,H. Roivainen,H. Roivainen,N/A,1352,21.12.1969,1969-12-21,N/A,Isoterygium pulchellum (Brid.) Jaeg.,Isoterygium pulchellum (Brid.) Jaeg.,Ochyra 1996,N/A,N/A,Argentina,Tierra del Fuego,N/A,N/A,"Tierra del Fuego australis, Valle del río Pipo",Valle del río Pipo,Suelo humoso húmedo en el pendiente del río,,300 m s.m.,"54°46'S, 68°20'W",1182415,Typed,no type status
0239_C2079597F.jpg,E. P. Killip & A. C. Smith,E. P. Killip,A. C. Smith,14971,"November 29, 1926",1926-11-29,N/A,Isoterygium stigonocarpum (Cal.) Par.,Isoterygium tenerum (Sw.) Mitt.,R. R. Ireland,1988,N/A,Colombia,Santander,N/A,N/A,Between Puerto Wilches and Puerto Santos,between Puerto Wilches and Puerto Santos,N/A,,N/A,N/A,1034009,Mix of Handwritten and Typed,no type status
0240_C2079598F.jpg,Richard Evans Schultes,R.E. Schultes,N/A,11110,"Dec., 1950",1950-12-00,1950-12-00,Isoptrygium tenerum (Sw.) Mitt.,Isoptrygium tenerum (Sw.) Mitt.,D.A. Griffin III,1988,N/A,Colombia,Meta,N/A,Villavicencio,Intendencia del Meta: alrededores de Villavicencio,Alrededores de Villavicencio,N/A,,500 m.,N/A,N/A,Typed,no type status
0241_C2079599F.jpg,D.C. Geijskes,D.C. Geijskes,N/A,s.n.,29-9-1952,1952-09-29,1952-09-29,Isopterygium tenerum (Sw.) Mitt.,Isopterygium tenerum (Sw.) Mitt.,H.R. Zijlman,N/A,N/A,Suriname,N/A,N/A,N/A,"Marowijne River, Armina Falls rainforest","Marowijne River, Armina Falls rainforest","On roots and rocks on bank of river, shai.",,N/A,N/A,1073518,Typed,no type status
0242_C2079600F.jpg,Ynes Mexia,Y. Mexia,N/A,8041,"July 6-7, 1930",1930-07-06,1930-07-07,Isopterygium brasiliense (Sw.) Mitt. var. Viçosae,Isopterygium tenerum (Sw.) Mitt.,R.R. Ireland,1988,N/A,Brazil,Minas Gerais,N/A,Viçosa,"Agricultural College land, Horticultural Hill","Agricultural College land, Horticultural Hill",On oozing woods near base. Abundant.,,Alt. 870 m,N/A,1039979,Typed,no type status
0243_C2079601F.jpg,Ynes Mexia,Y. Mexia,N/A,4888,"July 21, 1930",1930-07-21,N/A,Isopogrygium laxum auct. non (Hedw.) Broth.,Isoterygium tenerum (Sw.) Mitt.,R.R. Ireland,1988,N/A,Brazil,Minas Gerais,N/A,N/A,Viçosa Agricultural College,Viçosa Agricultural College,Shady streambanks. On rotten wood.,,Alt. 675 m.,N/A,837365,Typed,no type status
0244_C2079602F.jpg,"Ynes Mexia, No. 8030",Y. Mexia,N/A,8030,"Dec. 8, 1930",1930-12-08,1930-12-08,Isopogonum brachypogon (Tayl.) Mitt. var. viosca,Isoterygium tenerum (Sw.) Mitt.,R.R. Ireland,1988,N/A,Brazil,Minas Gerais,N/A,N/A,Road to Sao Luiz.,Road to Sao Luiz,Dense forest on rotten log. In fruit.,,Alt. 710 m.,N/A,870841,Typed,no type status
0245_C2079603F.jpg,Ynes Mexia,Y. Mexia,N/A,54421,"Dec. 23, 1930",1930-12-23,N/A,Isoterygium tenerum (Sw.) Mitt.,Isoterygium tenerum (Sw.) Mitt.,R.R. Ireland,1988,N/A,Brazil,Minas Gerais,N/A,Viçosa,Viçosa Agricultural College lands. Base of Horticulture Hill.,"Viçosa Agricultural College lands, base of Horticulture Hill",On rotting log in woods. Abundant.,,Alt. 670 m.,N/A,370883,Typed,no type status
0246_C2079604F.jpg,"H. S. Irwin, R. M. Harley, G. L. Smith",H.S. Irwin,"R.M. Harley, G.L. Smith",31332,2 March 1971,1971-03-02,N/A,Isoterygium tenerum (Sw.) Mitt.,Isoterygium tenerum (Sw.) Mitt.,R.R. Ireland,1988,N/A,Brasil,N/A,N/A,N/A,Valley of the Rio das Ondas,"On the bark and exposed roots of Cecropiaceae, and on adjacent soil, at river bank, Curva-care, gallery forest and adjacent out-rider, ca. 10km W. of Barreiras ",gallery forest and adjacent out-rider,,ca. 500m.,N/A,N/A,Typed,no type status
0247_C2079606F.jpg,Ynes Mexia,Y. Mexia,N/A,4844,"July 21, 1929",1929-07-21,N/A,Isopterygium tenerum (Sw.) Mitt.,Isopterygium tenerum (Sw.) Mitt.,R.R. Ireland,1988,N/A,Brazil,Minas Gerais,N/A,N/A,"Viçosa Agricultural College lands, Corrego Feliz","Viçosa Agricultural College lands, Corrego Feliz","Shady streambank, on rotten logs",,Alt. 675 m.,N/A,830845,Typed,no type status
0248_C2079607F.jpg,Ynes Mexia,Y. Mexia,N/A,4690,"May 14, 1930",1930-05-14,1930-05-14,Isoptrygium curvifolium (Sw.) Mitt. Ex P.,Isoptrygium tenerum (Sw.) Mitt.,R. R. Ireland,1988,N/A,Brazil,Minas Gerais,N/A,Viçosa,"Fazenda de Crosstuma, Viçosa, Minas Gerais",Fazenda de Crosstuma,"Wood on slope, on rotten logs",,Alt. 700 m.,N/A,870839,Typed,no type status
0249_C2079608F.jpg,Ynes Mexia,Y. Mexia,N/A,4884,"July 21, 1930",1930-07-21,1930-07-21,Isopterygium cumulicola (Hampe) Mitt.,Isopterygium tenerum (Sw.) Mitt.,R.R. Ireland,19 88,N/A,Brazil,Minas Geras,N/A,Viçosa,Viçosa Agricultural College lands. Carrigo Ribeiro.,"Viçosa Agricultural College lands, Carrigo Ribeiro","Shady stream bank, on rotten log.",,Alt. 675 m.,N/A,1039977,Typed,no type status
0250_C2079609F.jpg,Ynes Mexia,Y. Mexia,N/A,4545,"March 31, 1930",1930-03-31,N/A,Isopterygium tenerum (Sw.) Mitt.,Isopterygium tenerum (Sw.) Mitt.,R.R. Ireland,1988,N/A,Brazil,Mato Grosso,N/A,Vicos,Road to São Miguel. Over rotten tree trunk.,Road to São Miguel; On rotting tree trunk.,"Near stream ""turba"". Out over woods on slope. On rotting tree trunk.",,710 m.,N/A,N/A,Typed,no type status
0251_C2079611F.jpg,W. Schieffner,W. Schieffner,N/A,2898,1951-56-57,1951-00-00,1957-00-00,Isopterygium aurantiacum (Mitt.) Jaeg.,Isopterygium tenerum (Sw.) Mitt.,R.R. Ireland,1988,N/A,Brazil,Sao Paulo,N/A,N/A,"prope urbem Cerqueira-Cesar, in palude","prope urbem Cerqueira-Cesar, in palude",in palude,,650 m.,N/A,N/A,Typed,no type status
0252_C2079856F.jpg,Ynes Mexia,Y. Mexia,N/A,4641,"July 6, 1930",1930-07-06,N/A,Isoterygium brachyneuron (Hook. W.) Mitt. ex P. de la Varde,Isoterygium tenerum (Sw.) Mitt.,R.R. Ireland,1988,N/A,Brazil,Minas Geraes,N/A,s.d.,Viçosa Agricultural College lands. ,Viçosa Agricultural College lands,Horticultural Hill. Cut over woods near base. On rotting logs. Abundant.,,alt. 670 m.,N/A,N/A,Mix of Handwritten and Typed,no type status
0253_C2079858F.jpg,R. S. Williams,R.S. Williams,N/A,2035,"June 2, 1901",1901-06-02,N/A,Isoterygium tenerrimum (Sw.) Mitt.,Isoterygium tenerrimum (Sw.) Mitt.,R.R. Ireland,1988,N/A,Bolivia,N/A,N/A,N/A,"San Vicente, 1300 meters, on rocks","San Vicente, on rocks",on rocks,,1300 meters,N/A,1039993,Mix of Handwritten and Typed,no type status
0254_C2079859F.jpg,R.S. Williams,R.S. Williams,N/A,2037,s.d.,1901-00-00,1902-00-00,Isopterygium tenerum (Sw.) Mitt. Thuidium,Isopterygium tenerum (Sw.) Mitt.,R.E. Ireland,1988,N/A,Bolivia,N/A,N/A,N/A,N/A,[precise locality unknown],N/A,,N/A,N/A,N/A,Mix of Handwritten and Typed,no type status
0255_C2010970F.jpg,I. Hagen,I. Hagen,N/A,s.n.,s.d.,s.d.,s.d.,Sphagnum auriculatum (Schpr.) à la Sagne (Schultze),Sphagnum auriculatum (Schpr.) à la Sagne (Schultze),N/A,N/A,N/A,Norway,N/A,N/A,N/A,Norvegia Wildebouffjorden (east of L. Fritjobjn),Wildebouffjorden (east of L. Fritjobjn),[precise locality unknown],,altit. mtr. 700-1200 mtr,N/A,N/A,Handwritten,no type status
0256_C2010972F.jpg,N/A,N/A,N/A,s.n.,s.d.,N/A,N/A,Pogonatum urnigerum (L.) P. Beauv.,Pogonatum urnigerum (L.) P. Beauv.,N/A,N/A,N/A,United Kingdom,N/A,N/A,N/A,England,England ,N/A,,N/A,N/A,65531,Typed,no type status
0257_C2000534F.jpg,Geo Creplin,G. Creplin,N/A,s.n.,1878,1878-00-00,1878-00-00,Polytrichum alpestre Hoppe,Polytrichum alpestre Hoppe,N/A,N/A,N/A,Andorra,N/A,N/A,N/A,Pyrénées: Corces de Joret,Corces de Joret,[habitat description not available],,N/A,N/A,N/A,Typed,no type status
0258_C2000536F.jpg,Ex Herb. W. Hitten,W. Hitten,N/A,s.n.,s.d.,s.d.,s.d.,Pogonatum urnigerum,Pogonatum urnigerum,N/A,N/A,N/A,United Kingdom,England,Sussex,N/A,"Sussex, England","Sussex, England",N/A,,N/A,N/A,1096014,Handwritten,no type status
0259_C2000538F.jpg,E.H. Eames,E.H. Eames,N/A,s.n.,s.d.,s.d.,s.d.,Isoetes engelmannii,Isoetes engelmannii,N/A,N/A,N/A,United States,Connecticut,N/A,Upper Stepney,Upper Stepney Conn.,"Upper Stepney, Connecticut",N/A,,N/A,N/A,1182972,Mix of Handwritten and Typed,no type status
0260_C2000542F.jpg,Herbarium Ed. Jeanpert,N/A,N/A,s.n.,s.d.,N/A,N/A,Sphagnum medium Limpr. var microphyllum VILL. à HUET,Sphagnum medium Limpr. var microphyllum VILL. à HUET,N/A,N/A,N/A,N/A,N/A,N/A,N/A,"Font.- l'Évêque and Bois Luissant, terrain",[precise locality unknown],N/A,,N/A,N/A,1058477,Handwritten,no type status
0261_C2000932F.jpg,C. Müller Frhr.,C. Müller Frhr.,N/A,s.n.,9. Sept. 1905,1905-09-09,1905-09-09,Pogonatum urnigerum (L.) P. Beauv. c. fr.,Pogonatum urnigerum (L.) P. Beauv. c. fr.,E. Beier,Nov. 10. 1909,N/A,Germany,N/A,N/A,N/A,"Raben: auf Erde in Felsritzen zwischen Düben und Seerbeek am Fichtelberge, (etwa 1210 m. ü. M.)",Felsritzen zwischen Düben und Seerbeek am Fichtelberge,auf Erde in Felsritzen,,etwa 1210 m. ü. M.,N/A,s.n.,Handwritten,no type status
0262_C2000934F.jpg,leg. Zd. Pilous,Zd. Pilous,N/A,s.n.,V.1946,1946-05-00,1946-05-00,Regmatium umbrorum Rchb.,Regmatium umbrorum Rchb.,N/A,N/A,Musci xeniolovii et orthotrici assocati,Czech Republic,Bohemia,N/A,N/A,"Bohemia, montes Krkonose, In declivis graminosis silvaticis prope pagum Horni Vrchlabi, ca 580 m","montes Krkonose, In declivis graminosis silvaticis prope pagum Horni Vrchlabi",N/A,,ca 580 m,N/A,N/A,Handwritten,no type status
0263_C2000936F.jpg,Collected in 1843 by James Thompson,J. Thompson,N/A,s.n.,1843,1843-00-00,1843-00-00,Gonatobotrys simplex,Gonatobotrys simplex,N/A,N/A,N/A,United Kingdom,Scotland,N/A,N/A,N/A,[precise locality unknown],N/A,,N/A,N/A,1230790,Handwritten,no type status
0264_C2000938F.jpg,Ed. Jeanpert,Ed. Jeanpert,N/A,s.n.,s.d.,s.d.,s.d.,Hypnum cupressiforme,Hypnum cupressiforme,N/A,N/A,N/A,N/A,N/A,N/A,N/A,Fontainebleau,Fontainebleau,N/A,,N/A,N/A,1058446,Typed,no type status
0265_C2000940F.jpg,N/A,N/A,N/A,s.n.,N/A,1945-05-00,1945-05-00,Polytrichum alpinum Hedw.,Polytrichum alpinum Hedw.,N/A,N/A,N/A,USA,Minnesota,Cook,Grand Marais,"Grand Marais, Cook, Minnesota",[precise locality unknown],N/A,,N/A,N/A,1153426,Typed,no type status
0266_C2000943F.jpg,C. Jensen,C. Jensen,N/A,s.n.,25/10 1901,1901-10-25,1901-10-25,Pogonatum urnigerum (Hedw.) P. Beauv.,Pogonatum urnigerum (Hedw.) P. Beauv.,N/A,N/A,N/A,Denmark,Sjælland,N/A,N/A,Maglebrækkov by Rørvig,Maglebrækkov by Rørvig,in a gravel-pit,,N/A,N/A,AP 1953,Typed,no type status
0267_C2000945F.jpg,P.A. Pételot,P.A. Pételot,N/A,s.n.,20 October 1939,1939-10-20,N/A,Bryum argentium Brid.,Bryum argentium Brid.,N/A,N/A,N/A,Vietnam,Tonkin,N/A,N/A,Tonkin,[precise locality unknown],N/A,,N/A,N/A,1058475,Handwritten,no type status
0268_C2000947F.jpg,N/A,N/A,N/A,s.n.,s.d.,N/A,N/A,Sphaeradenia microcephala Type de La Reunion (Bois Court Grand),Sphaeradenia microcephala,N/A,N/A,N/A,Reunion,N/A,N/A,N/A,Bois Court Grand,Bois Court Grand,N/A,,N/A,N/A,1058481,Typed,type
0269_C2000949F.jpg,N/A,N/A,N/A,s.n.,MAY 1946,1946-05-00,1946-05-00,Sphagnum cuspidatum,Sphagnum cuspidatum,N/A,N/A,N/A,Scotland,N/A,N/A,N/A,N/A,[precise locality unknown],N/A,,N/A,N/A,1182976,Mix of Handwritten and Typed,no type status
0270_C2010614F.jpg,G. Arsène,G. Arsène,N/A,s.n.,Xe 18. 07 1942,1942-07-18,1942-07-18,Sporobolus virginicus (L.) Kunth var. tenuissimus Mez,Sporobolus virginicus var. tenuissimus,G. Arsène,s.d.,N/A,Brazil,Rio de Janeiro,N/A,N/A,"près d'une hutte, Val d'Avicenne","près d'une hutte, Val d'Avicenne","[habitat unknown, insufficient data]",,1750m,N/A,1050871,Handwritten,no type status
