associatedTaxa,collectedBy,country,firstPoliticalUnit,habitat,identifiedBy,latestScientificName,locality,maximumEventDate,minimumEventDate,municipality,originalMethod,otherCatalogNumbers,recordNumber,secondPoliticalUnit,secondaryCollectors,typeStatus,verbatimCollectors,verbatimCoordinates,verbatimDateIdentified,verbatimElevation,verbatimEventDate,verbatimIdentification,verbatimLocality
N/A,M. Fleischer,Australia,Queensland,N/A,PASS,Macromitrium,[precise locality unknown],N/A,1903-03-25,N/A,Typed,PASS,B 2734,PASS,N/A,no type status,PASS,N/A,N/A,N/A,25.3.1903,Macromitrium,"(ca. 100 km nördlich Brisbane), Urwald."
N/A,M. Fleischer,Australia,Queensland,N/A,N/A,Macromitrium,[precise locality unknown],N/A,PASS,N/A,PASS,1076699,1041123,PASS,N/A,no type status,leg. M. Fleischer nr. B 2692,N/A,N/A,N/A,PASS,Macromitrium,PASS
N/A,M. Fleischer,Australia,New South Wales,N/A,N/A,Macromitrium,PASS,N/A,PASS,PASS,PASS,PASS,PASS,PASS,N/A,no type status,leg. M. Fleischer nr. B 2552,N/A,N/A,N/A,PASS,Macromitrium,PASS
N/A,M. Fleischer,Australia,Queensland,N/A,N/A,Macromitrium,[precise locality unknown],N/A,1903-03-20,N/A,PASS,PASS,B 2697,PASS,N/A,no type status,PASS,N/A,N/A,N/A,20.3.1903,Macromitrium,bei Brisbane
N/A,PASS,Japan,PASS,N/A,PASS,Macromitrium gymnostomum,PASS,N/A,PASS,PASS,Typed,PASS,PASS,PASS,PASS,no type status,PASS,N/A,PASS,PASS,PASS,Macromitrium gymnostomum,PASS
N/A,PASS,Japan,Nara Prefecture,N/A,A. Noguchi,PASS,PASS,N/A,1958-05-04,N/A,Typed,PASS,PASS,N/A,PASS,no type status,PASS,N/A,PASS,PASS,"May 4, 1958",PASS,PASS
PASS,PASS,Japan,PASS,PASS,A. Noguchi,PASS,PASS,N/A,1967-03-28,PASS,Typed,PASS,1043491,PASS,PASS,no type status,,PASS,PASS,PASS,"March 28, 1967",PASS,PASS
N/A,Donald Richards,Japan,PASS,N/A,Musci Japonici,Macromitrium gymnostomum,PASS,N/A,PASS,PASS,PASS,1285078,s.n.,PASS,N/A,no type status,Donald Richards,N/A,PASS,ca 500 m,s.d.,PASS,PASS
N/A,PASS,Japan,PASS,N/A,Thériot,Macromitrium gymnostomum,[precise locality unknown],N/A,1898-04-20,N/A,PASS,1000415,s.n.,PASS,PASS,no type status,PASS,N/A,N/A,N/A,20.4.1898,Macromitrium gymnostomum S. L.,N/A
N/A,PASS,Japan,PASS,N/A,Thériot,Macromitrium gymnostomum,PASS,1898-11-00,1898-10-00,N/A,PASS,PASS,s.n.,N/A,PASS,no type status,PASS,N/A,N/A,N/A,PASS,Macromitrium gymnostomum S. L.,PASS
PASS,D.H. Vitt,Papua New Guinea,Morobe,PASS,D.H. Vitt,PASS,[precise locality unknown],N/A,1975-09-03,Lae,Typed,PASS,1142151,PASS,N/A,no type status,D.H. Vitt,N/A,N/A,PASS,PASS,PASS,PASS
N/A,N/A,Papua New Guinea,West Sepik Distr.,N/A,PASS,Macromitrium longicaule,PASS,N/A,1975-05-20,PASS,Typed,A. Touw No. 18543,PASS,Star Mts.,N/A,no type status,PASS,PASS,N/A,1500 - 1550 m.,20.5.1975,Macromitrium longicaule C. Müll.,Wet forest on slope above Ok Din river W of Busilmin; on trees along Ok Din River.
N/A,PASS,Papua New Guinea,West Sepik Distr.,PASS,PASS,Macromitrium macrosporium,[precise locality unknown],N/A,1975-05-08,N/A,Typed,PASS,PASS,N/A,N/A,no type status,PASS,PASS,N/A,c. 3900 m.,8.5. 1975,Macromitrium macrosporium Broth.,PASS
N/A,PASS,Papua New Guinea,PASS,PASS,PASS,Macromitrium macrosporium,PASS,N/A,1975-04-17,N/A,Typed,A. Touw No. 16376,1142178,PASS,PASS,no type status,PASS,PASS,N/A,3600 m.,17.4.1975,Macromitrium macrosporium Broth.,PASS
N/A,PASS,Papua New Guinea,West Sepik Distr.,N/A,D.H. Vitt,PASS,PASS,N/A,1975-05-08,N/A,Typed,A. Touw No. 17312,1142156,Star Mts.,N/A,no type status,PASS,PASS,N/A,3650 m.,8.5. 1975,PASS,PASS
PASS,D.H. Vitt,Papua New Guinea,West Sepik Distr.,forest remnant in deep chasm near the summit on soaking wet bark of trees.,D.H. Vitt,Macromitrium macrosporium,[precise locality unknown],N/A,1975-04-19,PASS,Typed,A. Town No. 16420,1142175,PASS,,no type status,,PASS,N/A,3900 m.,19.4.1975,Macromitrium macrosporium Broth.,PASS
N/A,PASS,Papua New Guinea,PASS,PASS,D.H. Vitt,Macromitrium macrosporium,PASS,N/A,1975-05-05,N/A,Typed,PASS,1141880,PASS,N/A,no type status,PASS,PASS,N/A,PASS,5.5.1975,Macromitrium macrosporium Broth.,PASS
N/A,PASS,Papua New Guinea,West Sepik Distr.,PASS,PASS,Macromitrium megalocladon,PASS,N/A,1975-05-14,N/A,Typed,PASS,1142187,Star Mts.,N/A,no type status,PASS,PASS,PASS,2500 - 2600 m.,14.5.1975,Macromitrium megalocladon Fleisch.,PASS
N/A,PASS,Papua New Guinea,PASS,N/A,D.H. Vitt,Macromitrium megalocladon,Small Kuni (grassfield) SW of Mt. Capella Base Camp; on vertical face of moss covered limestone boulder at edge of kuni.,N/A,1975-04-21,N/A,PASS,A. Touw No. 16555,1142432,PASS,PASS,no type status,PASS,PASS,N/A,PASS,21.4.1975,PASS,Small Kuni (grassfield) SW of Mt. Capella Base Camp; on vertical face of moss covered limestone boulder at edge of kuni.
N/A,D. H. Vitt,Papua New Guinea,West Sepik Distr.,PASS,D. H. Vitt,Macromitrium megalocladon,[precise locality unknown],N/A,1975-04-07,N/A,Typed,PASS,1142300,PASS,N/A,no type status,PASS,N/A,PASS,3350 m.,7.4. 1975,Macromitrium megalocladon Fleisch.,PASS
N/A,PASS,Japan,Miyazaki,PASS,A. Noguchi,Macromitrium incurvum,PASS,N/A,PASS,PASS,Typed,PASS,PASS,PASS,N/A,no type status,PASS,N/A,PASS,PASS,PASS,Macromitrium incurvum (Lindb.) Par.,PASS
N/A,K. Mayebara,Japan,PASS,N/A,A. Noguchi,Macromitrium incurvum,PASS,N/A,1951-12-25,PASS,Typed,PASS,PASS,N/A,N/A,no type status,Coll. K. Mayebara,N/A,PASS,PASS,"December 25, 1951",PASS,PASS
N/A,K. Mayebara,Japan,Honshu,N/A,A. Noguchi,PASS,PASS,N/A,1952-02-11,PASS,Typed,1043490,PASS,PASS,PASS,no type status,PASS,N/A,N/A,PASS,"February 11, 1952",PASS,PASS
N/A,PASS,Japan,Hitoehi,N/A,PASS,PASS,PASS,N/A,1952-03-00,N/A,Typed,PASS,PASS,Kumamoto County,N/A,no type status,PASS,N/A,N/A,PASS,March 1952,PASS,PASS
PASS,PASS,China,Fukien Province,PASS,PASS,Macromitrium gymnostomum,PASS,N/A,1925-08-00,PASS,Typed,PASS,B.206,PASS,PASS,no type status,PASS,PASS,PASS,PASS,PASS,PASS,PASS
N/A,H. H. Chung,China,PASS,PASS,H. H. Chung,Macromitrium gymnostomum,PASS,N/A,PASS,PASS,PASS,1122721,B.20,PASS,PASS,no type status,PASS,PASS,PASS,PASS,PASS,Macromitrium gymnostomum Sull.,PASS
PASS,Timo Koponen,PASS,Morobe Prov.,PASS,Dale H. Vitt,Macromitrium longicaule,PASS,N/A,1981-07-23,N/A,Typed,PASS,PASS,N/A,N/A,no type status,Timo Koponen,"6°01’S, 146°33’E",1989,PASS,23 July 1981,Macromitrium longicaule C. Mull.,PASS
N/A,H. H. Chung,China,PASS,PASS,N/A,Macromitrium japonicum,[precise locality unknown],N/A,1945-03-00,N/A,Typed,1122615,PASS,PASS,PASS,no type status,H. H. Chung,PASS,PASS,PASS,"March, 1945",PASS,On shady rocks or bark.
N/A,Timo Koponen,Papua New Guinea,PASS,PASS,Dale H. Vitt,PASS,"Mt. Sarawaket Southern Range 2,5 km S of L. Gwam",N/A,1981-07-09,N/A,Typed,PASS,PASS,N/A,N/A,no type status,PASS,PASS,1989,3550 m,9 July 1981,PASS,PASS
N/A,PASS,Japan,PASS,N/A,Z. Iwatsuki,Macromitrium gymmostomum,[precise locality unknown],N/A,1975-01-23,N/A,Typed,PASS,PASS,PASS,PASS,no type status,PASS,N/A,PASS,PASS,PASS,Macromitrium gymmostomum Sull. et Lesq.,PASS
N/A,PASS,Japan,Honshu,N/A,PASS,Macromitrium incurvum,[precise locality unknown],N/A,PASS,N/A,Typed,1356480,PASS,Musashi,PASS,no type status,PASS,N/A,1936,N/A,PASS,PASS,PASS
N/A,K. Saito,Japan,PASS,N/A,K. Saito,Macromitrium gymnostomum,PASS,N/A,1970-04-03,N/A,Typed,1051109,PASS,N/A,N/A,no type status,K. SAITO,N/A,N/A,PASS,"April 3, 1970",PASS,PASS
PASS,S. Miguel,Portugal,PASS,N/A,V. et P. Allorge,PASS,PASS,N/A,1937-06-14,N/A,PASS,1181624,133,N/A,PASS,no type status,PASS,N/A,N/A,700 m.,14.VI.1937,PASS,PASS
N/A,M. Lewis,Bolivia,La Paz,Super humid Ceja de Montana forests following ravines. In small rill in dripping area of small waterfall.,PASS,Philonotis,PASS,N/A,1983-01-20,PASS,Typed,PASS,PASS,PASS,N/A,no type status,Marko Lewis,PASS,N/A,"1536'S, 68°39'W ca. 3550 m.",20 Jan 1983,Philonotis,PASS
N/A,Marko Lewis,Bolivia,Depto. La Paz,N/A,N/A,Philonotis fide Crum,PASS,N/A,1979-03-29,N/A,Typed,1078795,PASS,Prov. Larecaja,N/A,no type status,Marko Lewis,PASS,PASS,PASS,29 March 1979,BRYOPHYTA OF BOLIVIA Philonotis fide Crum,PASS
N/A,Marko Lewis,Bolivia,Cochabamba,PASS,PASS,Philonotis,PASS,N/A,1979-06-01,N/A,Typed,PASS,79-2315,PASS,N/A,no type status,PASS,PASS,PASS,3030 m,1 June 1979,PASS,"Slope of Cerro Khachi, N. of Corani, 3030 m."
PASS,PASS,Bolivia,PASS,PASS,N/A,PASS,PASS,N/A,1950-10-13,PASS,Handwritten,PASS,PASS,PASS,PASS,no type status,PASS,PASS,PASS,10000 ft.,13 Oct. 1950,PASS,Unduavi
N/A,PASS,Bolivia,N/A,PASS,N/A,Philotris,Unduavi,N/A,1950-10-13,N/A,PASS,PASS,6865,N/A,N/A,no type status,PASS,N/A,N/A,10000 ft.,13 Oct. 1950,PASS,PASS
N/A,M. Lewis,Bolivia,Cochabamba,PASS,M. Lewis,Philonotis,PASS,N/A,1979-06-01,PASS,Typed,1050327,PASS,Chapare,N/A,no type status,Marko Lewis,PASS,PASS,3030 m,1 June 1979,PASS,PASS
N/A,P.E. Hegewald,Peru,Amazonas,"Fels, Erde, Mauer, Baum, Strauch, Holz, See, Bach",PASS,PASS,PASS,N/A,1973-08-31,PASS,PASS,PASS,PASS,PASS,PASS,no type status,,N/A,N/A,3000 m.,31.8.1973,PASS,PASS
N/A,PASS,Mexico,Baja California Sur,PASS,PASS,Braunia secunda,PASS,N/A,1973-12-25,N/A,Typed,PASS,PASS,N/A,PASS,no type status,PASS,N/A,1992,PASS,25 December 1973,PASS,PASS
N/A,PASS,Mexico,Oaxaca,PASS,PASS,PASS,PASS,N/A,1973-06-23,N/A,Typed,1045248,2281,N/A,PASS,no type status,PASS,N/A,PASS,PASS,"June 23, 1973",PASS,PASS
N/A,PASS,Mexico,Jalisco,PASS,A.J. Sharp,Braunia secunda,PASS,N/A,1973-07-04,N/A,Typed,1045251,2736,N/A,PASS,no type status,PASS,N/A,PASS,1750 m.,"July 4, 1973",PASS,PASS
N/A,C G Pringle,Mexico,Jalisco,N/A,PASS,PASS,PASS,N/A,PASS,N/A,PASS,PASS,10619,N/A,N/A,no type status,C. G. Pringle,N/A,1992,"5,000 ft.",PASS,PASS,"On rocks near Guadalajara, 5,000 ft."
N/A,PASS,Mexico,Hidalgo,N/A,PASS,PASS,PASS,N/A,PASS,N/A,Typed,PASS,10627,N/A,N/A,no type status,C. G. Pringle,N/A,1992,N/A,PASS,Braunia andrieuixii Lor.,PASS
N/A,PASS,Mexico,PASS,PASS,PASS,Braunia secunda,PASS,N/A,PASS,PASS,Typed,C0341205F,PASS,PASS,PASS,no type status,PASS,N/A,1992,PASS,PASS,PASS,PASS
N/A,F. D. Bowers,Mexico,Durango,PASS,PASS,Brnunia secunda,PASS,N/A,1972-12-30,N/A,PASS,1036945,5067,N/A,PASS,no type status,PASS,N/A,PASS,PASS,30 December 1972,PASS,PASS
N/A,A. J. Sharp,Mexico,Rio,N/A,PASS,Braunia secunda,PASS,N/A,1941-07-23,N/A,PASS,C0341213F,PASS,N/A,N/A,no type status,PASS,N/A,PASS,N/A,"July 23, 1941",PASS,PASS
N/A,PASS,Mexico,PASS,PASS,PASS,Braunia squarrulosa,PASS,N/A,1972-12-19,N/A,PASS,1045274,4217,N/A,PASS,no type status,PASS,N/A,PASS,PASS,"Dec. 19, 1972",Braunia squarrulosa (Hampe) C. Muell.,PASS
PASS,PASS,Mexico,Chiapas,PASS,PASS,Braunia squarrulosa,PASS,N/A,1975-02-09,PASS,Typed,1052129,26429,PASS,PASS,no type status,PASS,PASS,PASS,PASS,PASS,Braunia squarrulosa (Hampe) Broth.,PASS
N/A,PASS,Mexico,Oaxaca,N/A,Efrain de la Luna,Braunia squarrulosa,PASS,N/A,1972-12-23,N/A,Typed,1045269,PASS,N/A,PASS,no type status,PASS,N/A,1992,PASS,"Dec. 23, 1972",PASS,PASS
N/A,PASS,Mexico,Jalisco,"On dead limb, fallen. 7300 feet. Oak forest.",Efrain Da Luna,Braunia squarrulosa,PASS,N/A,1949-07-23,N/A,Typed,PASS,No.917,N/A,N/A,no type status,PASS,N/A,1992,7300 feet,23 July 1949,PASS,PASS
N/A,PASS,Mexico,Federal District,PASS,PASS,Braunia squarrulosa,[precise locality unknown],N/A,1908-07-17,N/A,Typed,PASS,10550,N/A,PASS,no type status,PASS,N/A,PASS,"10,000 ft.",PASS,Braunia squarrulosa (Hpe.) Broth.,PASS
N/A,PASS,Mexico,Chiapas,N/A,PASS,PASS,PASS,N/A,PASS,N/A,Typed,1031467,PASS,N/A,N/A,no type status,PASS,PASS,PASS,PASS,PASS,PASS,PASS
N/A,E. Luna,Mexico,Chiapas,N/A,E. Luna,PASS,PASS,N/A,PASS,N/A,Typed,PASS,1031495,N/A,N/A,no type status,PASS,N/A,PASS,PASS,1992,PASS,PASS
N/A,PASS,Mexico,PASS,PASS,PASS,Braunia squarrulosa,PASS,N/A,1975-02-09,N/A,PASS,1045277,26429,N/A,N/A,no type status,F.J. Hermann,N/A,1992,PASS,"February 9, 1975",Braunia squarrulosa (Hampe) Broth.,PASS
N/A,Dana Griffin,Costa Rica,San Jose,N/A,PASS,PASS,PASS,N/A,1979-02-04,N/A,PASS,1029423,s.n.,PASS,Maria Isabel Morales,no type status,"Dana Griffin, III | Maria Isabel Morales",N/A,1992,PASS,PASS,PASS,PASS
N/A,S. Churchill,Bolivia,Tarija,PASS,S. Churchill,Braunia exserta,PASS,N/A,2001-08-04,N/A,PASS,PASS,PASS,PASS,N/A,no type status,PASS,PASS,2001,2300 m,4 Ago 2001,PASS,PASS
PASS,PASS,Argentina,Prov. Tucuman,"Subtropical rainforest, epiphyte",W. R. Buck,PASS,PASS,N/A,1946-11-27,Rio Cochuna,PASS,PASS,PASS,PASS,PASS,no type status,PASS,PASS,PASS,1000 m a.s.l.,27 November 1946,PASS,1000 m a.s.l.
PASS,PASS,Bolivia,La Paz,In ravine with waterfall,Efrain De Luna,PASS,[precise locality unknown],N/A,1979-04-06,PASS,Typed,1032380,79-1625,Larecaja,PASS,no type status,Marko Lewis,"15° 48' S., 68° 36' W.",1992,3250 m.,6 April 1979,PASS,PASS
N/A,M. Lewis,Bolivia,La Paz,"Arid woodland and cliff area, many cacti present. At base of cliffs near river amongst a boulder pile in a deep canyon. Small trees, tree cacti and shrubs in shady, protected areas.",Dana Griffin III,Braunia plicata,PASS,N/A,1982-12-09,N/A,Typed,1091412,PASS,N/A,N/A,no type status,PASS,PASS,1990,PASS,9 Dec 1982,Braunia plicata (Mitt.) Jaeg.,PASS
N/A,M. Lewis,Bolivia,La Paz,PASS,Efrain De Luna,Braunia plicata,PASS,N/A,1979-03-22,N/A,PASS,PASS,79-1230,PASS,N/A,no type status,Marko Lewis,PASS,1992,2600 m.,22 March 1979,PASS,PASS
N/A,M. Lewis,Bolivia,La Paz,"Banks of trail, 3200-3240 m.",Erwin De Luna,Braunia plicata,PASS,N/A,1979-03-05,N/A,PASS,1032341,79-947,PASS,N/A,no type status,PASS,PASS,1992,3200-3240 m.,5 March 1979,Braunia plicata (Mitt.) Jaeg.,PASS
N/A,PASS,Bolivia,La Paz,"Banks of trail, 3200 m.",PASS,Braunia pilicata,[precise locality unknown],N/A,1979-03-05,N/A,Typed,PASS,79-940,Prov. Saavedra,N/A,no type status,Marko Lewis,PASS,1992,3200 m.,5 March 1979,Braunia pilicata (Mitt.) Jaeg.,PASS
PASS,M. Lewis,Bolivia,La Paz,N/A,Efrain De Luna,PASS,[precise locality unknown],N/A,1979-03-05,PASS,Typed,1032366,79-935,PASS,PASS,no type status,Marko Lewis,PASS,Nov. 1991,3200 m.,5 March 1979,PASS,PASS
PASS,M. Lewis,Bolivia,Depto. Tarija,PASS,PASS,PASS,PASS,N/A,1979-02-10,N/A,Typed,PASS,79-615,Prov. Mendez,N/A,no type status,PASS,PASS,Nov. 1991,PASS,10 February 1979,PASS,PASS
N/A,M. Dillon,Peru,Depto. Ancash,PASS,Dana Griffin III,Braunia secunda,PASS,N/A,1983-01-28,N/A,Typed,PASS,3128D,Prov. Yungay,PASS,no type status,PASS,N/A,28 Jan. 1983,+ 3380 m.,28 Jan. 1983,Braunia secunda (Hook.) B.S.G.,PASS
N/A,PASS,Venezuela,PASS,PASS,Dana Griffin III,PASS,PASS,PASS,PASS,N/A,PASS,PASS,PASS,PASS,PASS,no type status,PASS,N/A,PASS,"3,100-3,200 m",PASS,PASS,PASS
PASS,PASS,Bolivia,PASS,N/A,PASS,PASS,PASS,N/A,1979-02-02,PASS,Typed,1032377,79-489A,PASS,N/A,no type status,PASS,"21°28' S, 64°12' W.",1992,1750 m.,2 February 1979,PASS,PASS
PASS,F. J. Hermann,Bolivia,PASS,PASS,PASS,Braunia subincana,PASS,N/A,1972-12-24,PASS,Typed,PASS,25278,PASS,PASS,no type status,Purchased in market at Cochabamba,PASS,1992,PASS,PASS,Braunia subincana Broth.,PASS
N/A,PASS,Bolivia,Dept. Cochabamba,On cliff under scrub in area of wet meadows and secondary woodlands.,B.O. van Zanten,PASS,PASS,N/A,1989-11-12,PASS,Typed,1091583,7560,Prov. Chapare,M. Lewis,no type status,S.R. Gradstein & M. Lewis,N/A,PASS,PASS,12 November 1989,PASS,"5 km S of road Cochabamba - Villa Tunari km 95, alt. 2300 m."
N/A,M. Lewis,Bolivia,PASS,Fruit and coffee plantations. On rocks in shady fruit orchard.,PASS,PASS,PASS,N/A,1983-02-07,N/A,Typed,PASS,PASS,PASS,N/A,no type status,PASS,N/A,PASS,PASS,7 Feb 1983,PASS,PASS
N/A,PASS,Brazil,Minas Gerais,PASS,PASS,PASS,PASS,N/A,PASS,N/A,Typed,PASS,5281-a,N/A,PASS,no type status,PASS,N/A,N/A,Alt. 720 m.,"Nov. 11, 1930",PASS,PASS
N/A,PASS,PASS,Isla Floreana,PASS,PASS,PASS,PASS,N/A,1976-04-24,N/A,PASS,PASS,PASS,N/A,PASS,no type status,PASS,N/A,N/A,PASS,24.IV.1976,PASS,PASS
N/A,PASS,Peru,Amazonas,N/A,PASS,Racopilum tomentosum,PASS,N/A,1973-08-31,N/A,Typed,1026724,6726,Prov.Chachapoyas,PASS,no type status,PASS,N/A,PASS,PASS,31.8.1973,Racopilum tomentosum (Hedw.) Brid.,PASS
PASS,PASS,Suriname,PASS,PASS,PASS,PASS,PASS,N/A,1975-12-18,PASS,Typed,1028580,4715,PASS,PASS,no type status,PASS,PASS,PASS,PASS,PASS,PASS,PASS
N/A,E. Linares,Colombia,Dept. Meta,PASS,S. Rob Gradstein,Racopilum tomentosum,PASS,N/A,1984-09-26,N/A,Typed,1065598,1543,Villavicencio,S.R. Gradstein | B.O. van Zanten,no type status,PASS,N/A,N/A,PASS,26 Sept. 1984,"BRYOPHTA NEOTROPICA EXSICCATA Fascicle II (1986), edited by S. Rob Gradstein distributed by the Institute of Systematic Botany, Utrecht","forest of the Bavaria brewery near rio Guatiquia, alt. 600 m. On log in forest"
N/A,M. Lewis,Bolivia,PASS,Fruit and coffee plantations. Bark of fruit trees in orchard,PASS,Racopilum tomentosum,PASS,N/A,1983-02-07,PASS,Typed,1100344,83-511,PASS,N/A,no type status,Marko Lewis,PASS,PASS,PASS,7 Feb 1983,Racopilum tomentosum (Hedw.) Brid.,PASS
N/A,PASS,Peru,PASS,PASS,PASS,Rhacomitrium tomentosum,PASS,N/A,1936-09-15,PASS,Typed,PASS,8190a,PASS,PASS,no type status,PASS,N/A,PASS,PASS,"Sept. 15, 1936",Rhacomitrium tomentosum (Sw.) Brid.,PASS
N/A,PASS,Peru,PASS,N/A,Bartram,Rhacomitrium tomentosum,PASS,N/A,1936-09-09,N/A,Typed,1036304,PASS,PASS,N/A,no type status,PASS,N/A,N/A,Alt. 1100 m.,PASS,Rhacomitrium tomentosum (Sw.) Brid.,PASS
PASS,Y. Mexia,Peru,PASS,PASS,Bartram,PASS,PASS,N/A,1936-09-09,PASS,Typed,C0341807F,PASS,PASS,PASS,no type status,Ynes Mexia,PASS,PASS,Alt. 1100 m.,PASS,PASS,PASS
N/A,Det. H. A. Crum,Colombia,Amazonas,PASS,Det. H. A. Crum,Leucomium lignicola,PASS,N/A,1952-05-19,N/A,Typed,PASS,16563,N/A,PASS,no type status,PASS,PASS,PASS,PASS,"May 19, 1952",PASS,PASS
N/A,PASS,Colombia,Magdalena,N/A,PASS,PASS,[precise locality unknown],1977-08-00,1977-07-00,N/A,Typed,1029476,"50,186",PASS,PASS,no type status,PASS,N/A,PASS,PASS,PASS,PASS,PASS
N/A,PASS,Colombia,Antioquia,In secondary montane forest.,PASS,PASS,PASS,N/A,1987-07-06,PASS,Typed,1139980,15466,PASS,PASS,No type status,S.P. Churchill et al.,PASS,PASS,2460-2620 m.,6 July 1987,PASS,PASS
N/A,PASS,Costa Rica,Cartago,PASS,PASS,PASS,PASS,1977-07-04,1977-07-03,PASS,Typed,1025621,215,PASS,PASS,no type status,"Dana Griffin III, Maria Isabel Morales y Dora Emilia de Retana",PASS,PASS,PASS,"Julio 3-4, 1977",PASS,PASS
N/A,PASS,Venezuela,PASS,PASS,E. B. Bartram,Hypnella cymbifolia,PASS,PASS,PASS,N/A,Typed,1026297,34365,N/A,N/A,no type status,PASS,N/A,PASS,PASS,PASS,Hypnella cymbifolia (Hpe.) Jaeg.,PASS
N/A,William R. Buck,Brazil,Amazonas,PASS,PASS,Hookeriopsis parkeriana,PASS,1979-07-12,1979-07-09,N/A,Typed,PASS,2445,N/A,N/A,no type status,PASS,PASS,N/A,450 m,9-12 July 1979,Hookeriopsis parkeriana (Hook. & Grev.) Jaeg.,PASS
N/A,R. B. Foster,Peru,Pasco,PASS,PASS,PASS,PASS,N/A,1981-07-30,N/A,Typed,1059405,4722,N/A,N/A,no type status,Robin B. Foster 4722,PASS,PASS,1900 m.,30 July 1981,PASS,PASS
N/A,PASS,Peru,PASS,Extremely mossy elfin cloud forest near shallow ravine.,PASS,Hypnella filifera,PASS,N/A,1981-12-04,N/A,Typed,C0342123F,PASS,N/A,PASS,no type status,PASS,"13°11’S, 71°22’W.",N/A,2850 m.,4 Dec. 1981,Hypnella filifera (Hook. & Wils.) Jaeg.,PASS
N/A,PASS,Colombia,Antioquia,PASS,PASS,Hypnella diversifolia,PASS,N/A,1992-07-11,N/A,Typed,1139992,18335,N/A,PASS,no type status,S.P. Churchill et al. 18335,PASS,1996,1950 m.,11 July 1992,PASS,PASS
N/A,J. J. Wurdack,Venezuela,PASS,PASS,E. B. Bartram,PASS,PASS,N/A,1953-01-07,N/A,Typed,PASS,PASS,N/A,N/A,no type status,John J. Wurdack,N/A,N/A,PASS,"January 7, 1953",PASS,PASS
N/A,R. B. Foster,Peru,PASS,PASS,W. C. Steere,Hypnella pallescens,PASS,N/A,1981-07-30,N/A,PASS,PASS,4720,N/A,N/A,no type status,Robin B. Foster 4720,"10°30'S, 75°30'W",PASS,1900 m.,30 July 1981,Hypnella pallescens (Hook.) Jaeg.,PASS
PASS,J. J. Wurdack,Venezuela,Estado Bolivar,PASS,E. B. Bartram,Hypnella cymbifolia,PASS,N/A,1953-02-11,PASS,Typed,1026300,PASS,PASS,PASS,no type status,Collected by John J. Wurdack,PASS,N/A,PASS,"February 11, 1953",PASS,PASS
N/A,T. Husnot,France,N/A,N/A,T. Husnot,PASS,[precise locality unknown],N/A,N/A,N/A,Typed,PASS,PASS,N/A,N/A,no type status,PASS,N/A,N/A,N/A,PASS,PASS,PASS
N/A,PASS,Japan,PASS,PASS,Z. Iwatsuki,Macromitrium japonicum,Around Shirahama,N/A,1973-01-11,N/A,PASS,PASS,PASS,Ryukyu Isls.,N/A,no type status,PASS,N/A,Det.,PASS,PASS,PASS,On bark of Pinus thunbergii
N/A,E. R. Reitz,PASS,Santa Catarina,PASS,N/A,PASS,PASS,N/A,1948-12-17,PASS,PASS,PASS,PASS,PASS,PASS,no type status,PASS,N/A,N/A,PASS,Data 17.12.1948,PASS,PASS
N/A,PASS,Brazil,PASS,epiphytisch im Podocarpus-Wald,PASS,Campylopus arctocarpus,PASS,N/A,1977-07-22,PASS,Typed,PASS,PASS,PASS,N/A,no type status,PASS,N/A,PASS,1200 m,22.7.1977,Campylopus arctocarpus (Hornsch.) Mitt.,PASS
N/A,PASS,Brazil,PASS,PASS,N/A,PASS,PASS,N/A,PASS,N/A,PASS,PASS,PASS,N/A,N/A,no type status,PASS,N/A,PASS,PASS,PASS,PASS,PASS
PASS,PASS,Brazil,São Paulo,PASS,N/A,Campylopus griseus,[precise locality unknown],N/A,PASS,PASS,Typed,C087863F,PASS,PASS,PASS,no type status,Jan-Peter Frahm,PASS,PASS,PASS,PASS,PASS,PASS
N/A,J. P. Frahm,Peru,PASS,N/A,J. P. Frahm,Campylopus heterostachys,[precise locality unknown],N/A,1982-06-09,PASS,Typed,PASS,PASS,PASS,N/A,no type status,PASS,N/A,PASS,2600 m.,6.9.1982,Campylopus heterostachys (Hamp.) Jaeg.,PASS
