imageName,verbatimCollectors,collectedBy,secondaryCollectors,recordNumber,verbatimEventDate,minimumEventDate,maximumEventDate,verbatimIdentification,latestScientificName,identifiedBy,verbatimDateIdentified,associatedTaxa,country,firstPoliticalUnit,secondPoliticalUnit,municipality,verbatimLocality,locality,habitat,verbatimElevation,verbatimCoordinates,otherCatalogNumbers,originalMethod,typeStatus
https://fm-digital-assets.fieldmuseum.org/2491/485/C0268502F_p.jpg,M. Fleischer nr. B 2734,M. Fleischer,nr. B 2734,1076713,25.3.1903,1903-03-25,N/A,Macromitrium,Macromitrium,N/A,N/A,N/A,Australia,Queensland,N/A,N/A,"(ca. 100 km nördlich Brisbane), Uralwald.","(ca. 100 km nördlich Brisbane), Uralwald.",N/A,N/A,N/A,Cob368202,Typed,no type status
https://fm-digital-assets.fieldmuseum.org/2491/486/C0268508F_p.jpg,M. Fleischer nr. B 2692,M. Fleischer,nr. B 2692,1044123,25.3.1903,1903-03-25,N/A,Macromitrium,Macromitrium,N/A,N/A,N/A,Australia,Queensland,N/A,N/A,"Eumundi (ca. 100 km nordlich Brisbane), Urald.","ca. 100 km north of Brisbane, Urald",N/A,N/A,N/A,1076699,Typed,N/A
https://fm-digital-assets.fieldmuseum.org/2491/488/C0268514F_p.jpg,leg. M. Fleischer nr. B 2552,M. Fleischer,,1076824,6.4.1903,1903-04-06,N/A,Macromitrium,Macromitrium,N/A,N/A,,Australia,New South Wales,,,"Blue Mountains bei Sydney, Wentworth Falls.","Blue Mountains, Wentworth Falls, New South Wales, Australia",N/A,N/A,N/A,,Typed,no type status
https://fm-digital-assets.fieldmuseum.org/2491/491/C0268520F_p.jpg,leg. M. Fleischer nr. B 2697,M. Fleischer,B 2697,1076705,20.3.1903,1903-03-20,N/A,Macromitrium,Macromitrium,N/A,N/A,N/A,Australia,Queensland,N/A,N/A,bei Brisbane.,near Brisbane.,N/A,N/A,N/A,N/A,Typed,no type status
https://fm-digital-assets.fieldmuseum.org/2303/612/C0268544F.jpg,"Nishimura-gun, Wakoyama Prefecture Coll. & det. T. Nakajima",T. Nakajima,"Nishimura-gun, Wakoyama Prefecture",1043494,"Mar. 27, 1971",1971-03-27,N/A,"Macromitrium gymnostomum Stull. et Lesq. c.f. On vertical face of rock, 330 m alt., Ohara, Ooto-mura, Fukui Prefecture, Japan",Macromitrium gymnostomum,T. Nakajima,"Mar. 27, 1971",Macromitrium gymnostomum,Japan,Fukui Prefecture,Nishimura-gun,"Ohara, Ooto-mura","On vertical face of rock, 330 m alt., Ohara, Ooto-mura, Fukui Prefecture, Japan","On vertical face of rock, 330 meters above sea level, Ohara, Ooto-mura, Fukui Prefecture, Japan",On vertical face of rock,330 m alt.,N/A,C0288544F,Typed,no type status
https://fm-digital-assets.fieldmuseum.org/2303/613/C0268545F.jpg,T. Nakajima,T. Nakajima,A. Noguchi,1043492,"May 4, 1958",1958-05-04,1958-05-04,Macromitrium gymnostomum Sull. et Lesq.,Macromitrium gymnostomum,A. Noguchi,Ser. 15 (1959),Fagus crenulata,Japan,Nara Prefecture,,,"On trunks of Fagus crenulata, ca. 1200 m alt., Mt. Obaka, Nara Prefecture","On trunks of Fagus crenulata, 1200 meters altitude, Mt. Obaka, Nara Prefecture","On trunks of Fagus crenulata, 1200 meters altitude, Mt. Obaka, Nara Prefecture",ca. 1200 m alt.,,,Handwritten,no type status
https://fm-digital-assets.fieldmuseum.org/2303/614/C0268546F.jpg,N/A,N/A,N/A,1043491,s.d.,N/A,N/A,Musci Japonici,Macromitrium gymnostomum,A. Noguchi,1967-03-28,N/A,Japan,Wakayama,N/A,Shirohama-cho,"On rocks, ca. 100 m alt., Syōgawa, Shirahama-chō, Nishimuro-gun, Wakayama Prefecture Coll. & det. T. Nakajima","On rocks, at an altitude of approximately 100 meters, Syōgawa, Shirahama-chō, Nishimuro-gun, Wakayama Prefecture",N/A,100 m,N/A,C0288546F,Typed,no type status
https://fm-digital-assets.fieldmuseum.org/2303/617/C0268548F.jpg,"Kiushiu, Miyazaki, Minaminaka, Sakatani, ad arborum truncos, ca 500 m.",Hattori S.,Kiushiu | Miyazaki | Minaminaka | Sakatani,1285078,Oct 1948,1948-10-01,N/A,Musci Japonici Ser. I (1947) det. A. Noguchi,Macromitrium gymnostomum,A. Noguchi,N/A,N/A,Japan,Miyazaki,Minaminka,Sakatani,"Japan, Miyazaki, Minaminaka, Sakatani, ad arborum truncos, ca 500 m.","Japan, Miyazaki, Minaminaka, Sakatani, ad arborum truncos, ca 500 m.",N/A,ca 500 m.,N/A,C22868481,Typed,no type status
https://fm-digital-assets.fieldmuseum.org/2303/619/C0268549F.jpg,R.P. J.B. Ferrie,R. P. Ferrie,J. B. Ferrie,1000415,20.4.1898,1898-04-20,1898-04-20,Macromitrium gymnostomum S. L.,Macromitrium gymnostomum,Thériot,N/A,N/A,Japan,Ile Liou-Kiou,N/A,Centre de l'ile,Japon : Ile Liou-Kiou - Centre de l'ile,Japan Ile Liou-Kiou Centre de l'ile,N/A,N/A,N/A,C026854F,Typed,no type status
https://fm-digital-assets.fieldmuseum.org/2303/621/C0268550F.jpg,R.P. J.B. Ferrie Theriot,R. P. J. B. Ferrie,Theriot,1000416,oct.nov.1898,1898-10-00,1898-11-00,Macromitrium gymnostomum S. L. = m. rupestre Mitt. Sull. Card.,Macromitrium gymnostomum,N/A,N/A,N/A,Japan,N/A,N/A,N/A,Japan: Yaku-Sima,Japan: Yaku-Sima,N/A,N/A,N/A,C0288550E,Typed,no type status
https://fm-digital-assets.fieldmuseum.org/2303/629/C0268554F.jpg,s.n.,N/A,N/A,No. 1142151,9-3 - 1975,1975-09-03,N/A,Macromitrium incurvifolium (Hook. & Grev.) Schwägr.,Macromitrium incurvifolium,D. H. Vitt,N/A,N/A,Papua New Guinea,Morobe,N/A,N/A,"Papua New Guinea, Morobe Distr., Lae. In fork of Plumeria tree in garden.","Papua New Guinea, Morobe District, Lae. In fork of Plumeria tree in garden.",N/A,Alt.c 20 m.,N/A,A. Town No. 14660,Typed,no type status
https://fm-digital-assets.fieldmuseum.org/2303/633/C0268557F.jpg,N/A,N/A,N/A,18543,20.5.1975,1975-05-20,N/A,Macromitrium longicaule C. Mull.,Macromitrium longicaule,D.H. Vitt,N/A,N/A,Papua New Guinea,Sepik Distr.,N/A,N/A,"Star Mts., c. 52'S 141'05'E Buslimin; wet forest on slope above Ok Din river, W of Buslimin; on trees along Ok Din River.","West Sepik District. Star Mountains, c. 52'S 141'05'E Buslimin; wet forest on slope above Ok Din River, west of Buslimin; on trees along Ok Din River.","wet forest on slope above Ok Din River, west of Buslimin; on trees along Ok Din River",Alt.: c. 1500 - 1550 m.,N/A,N/A,Typed,no type status
https://fm-digital-assets.fieldmuseum.org/2303/635/C0268558F.jpg,N°: 1142194,N/A,N/A,1142194,8.5. 1975,1975-05-08,N/A,Flora of New Guinea A. Town No. 17369 Macromitrium macrosporum Brot. Det.: D.H. Vitt.,Macromitrium macrosporum,D. H. Vitt,N/A,N/A,Papua New Guinea,West Sepik Dist.,N/A,N/A,c. 5° S 141° 05'E NE summit of Mt. Capella; on stems and branches of trees and shrubs in summit scrub.,West Sepik Dist. c. 5° S 141° 05'E NE summit of Mt. Capella; on stems and branches of trees and shrubs in summit scrub.,N/A,Alt.: c. 3900 m.,c. 5° S 141° 05'E,C0286558F,Typed,no type status
https://fm-digital-assets.fieldmuseum.org/2303/637/C0268559F.jpg,A. Town No. 16376,A. Town,,1142178,17.4.1975,1975-04-17,N/A,Macromitrium macrosporum Brot. Det. D.H. Vitt.,Macromitrium macrosporum,D. H. Vitt,N/A,,New Guinea,West Sepik District,,,"Papua New Guinea, West Sepik Dist., Star Mts., c. 5' 5141'05E Mt. Capella Base Camp. Limestone ridge near camp; c. 4 - 5 m. high stunted forest on ridge.","Papua New Guinea, West Sepik District, Star Mts.",Limestone ridge near camp; c. 4 - 5 m. high stunted forest on ridge.,c. 4 - 5 m.,c. 5° 5141'05E,No.,Typed,no type status
https://fm-digital-assets.fieldmuseum.org/2303/639/C0268560F.jpg,s.coll.,N/A,N/A,17312,8.5. 1975,1975-05-08,N/A,Macromitrium macrosporum Brot.,Macromitrium macrosporum,D. H. Vitt,N/A,N/A,Indonesia,Papua New Guinea,West Sepik,N/A,"Papua New Guinea, West Sepik Distr., Star Mts., c. 5° 14'10""E NE Summit of Mt. Capella. Summit of ridge between Mt. Capella Base Camp and Mt. Capella ridge; on isolated tree.","Papua New Guinea, West Sepik District, Star Mountains, 5° 14'10""E NE Summit of Mount Capella, Summit of ridge between Mount Capella Base Camp and Mount Capella ridge; on isolated tree",N/A,Alt.: c 3650 m.,N/A,1142156,Typed,no type status
https://fm-digital-assets.fieldmuseum.org/2303/641/C0268561F.jpg,D. H. Vitt,D. H. Vitt,N/A,16420,19. 4. 1975,1975-04-19,N/A,Macromitrium macrosporum Brot.,Macromitrium macrosporum,D. H. Vitt,N/A,N/A,Papua New Guinea,West Sepik,N/A,"Star Mts., c. 5′ 141′ 05′ E",Mt. Capella NE summit; forest remnant in deep chasm near the summit on soaking wet bark of trees.,"Star Mts., c. 5′ 141′ 05′ E",Mt. Capella NE summit; forest remnant in deep chasm near the summit on soaking wet bark of trees.,3900 m.,N/A,No: 1142175,Typed,no type status
https://fm-digital-assets.fieldmuseum.org/2303/643/C0268562F.jpg,D.H. Vitt,D. H. Vitt,N/A,17205,5. 5. 1975,1975-05-05,N/A,Macromitrium macrosporum Brotn.,Macromitrium macrosporum,D. H. Vitt,N/A,N/A,Papua New Guinea,West Sepik,N/A,N/A,"Papua New Guinea, West Sepik Distr., Star Mts., 53° 54′ 00″ S 141° 03′ 00″ E near Mt. Sepik Base Camp, along trail to Tamanagabip; open sub-alpine scrub. At base of limestone rock faces.","Papua New Guinea, West Sepik Distr., Star Mts., 53° 54′ 00″ S 141° 03′ 00″ E near Mt. Sepik Base Camp, along trail to Tamanagabip; open sub-alpine scrub. At base of limestone rock faces.",N/A,Alt.: c. 3450 m.,53° 54′ 00″ S 141° 03′ 00″ E,1141880,Typed,no type status
https://fm-digital-assets.fieldmuseum.org/2303/645/C0268563F.jpg,Field Museum of Natural History,D. H. Vitt,N/A,1142187,14.5.1975,1975-05-14,N/A,Macromitrium megalocladon Fleisch. Det: D.H. Vitt,Macromitrium megalocladon,D. H. Vitt,N/A,N/A,Papua New Guinea,West Sepik Distr.,N/A,N/A,"Star Mts., c. 5'5 141'05E Upper montane forest between Folongolom and Artis' Camp. Pendulous from heavy tree branches and slanting trunks.","Star Mts., c. 5'5 141'05E Upper montane forest between Folongolom and Artis' Camp. Pendulous from heavy tree branches and slanting trunks.",Upper montane forest between Folongolom and Artis' Camp. Pendulous from heavy tree branches and slanting trunks.,Alt.: c. 2500 - 2600 m.,N/A,C0268863F,Typed,no type status
https://fm-digital-assets.fieldmuseum.org/2303/647/C0268564F.jpg,A. Touw,A. Touw,,16555,21. 4. 1975,1975-04-21,N/A,Macromitrium megalocladon Fleisch.,Macromitrium megalocladon,D.H. Vitt,,,Papua New Guinea,Sepik,West Sepik,,"Papua New Guinea, West Sepik Distr., Star Mts., c. 5°51'19°S/141°5'E Small Kuni (grassfield) SW of Mt. Capella Base Camp; on vertical face of moss covered limestone boulder at edge of kuni.","Papua New Guinea, West Sepik Distr., Star Mts., c. 5°51'19°S/141°5'E Small Kuni (grassfield) SW of Mt. Capella Base Camp; on vertical face of moss covered limestone boulder at edge of kuni.",,Alt. c. 3400 m.,,No: 1142432,Typed,no type status
https://fm-digital-assets.fieldmuseum.org/2303/649/C0268565F.jpg,D.H. Vitt,D. H. Vitt,,1142300,7. 4. 1975,1975-04-07,N/A,Macromitrium megalocladon Fleisch.,Macromitrium megalocladon,D.H. Vitt,,,Papua New Guinea,West Sepik Distr.,,,"c. 5 km N/NW of Tel Basin; Ridge above Camp 2, Terrestial in open shrubbery on ridge. Dense moss vegetation covering soil, rocks and the lower portion of shrubs. Dominant.","c. 5 km N/NW of Tel Basin; Ridge above Camp 2, Terrestial in open shrubbery on ridge. Dense moss vegetation covering soil, rocks and the lower portion of shrubs. Dominant.","c. 5 km N/NW of Tel Basin; Ridge above Camp 2, Terrestial in open shrubbery on ridge. Dense moss vegetation covering soil, rocks and the lower portion of shrubs. Dominant.",Alt. c. 3350 m.,,A. Town No. 15768,Typed,no type status
https://fm-digital-assets.fieldmuseum.org/2303/651/C0268566F.jpg,leg. S. Hattori,S. Hattori,,1228066,VIII. 1946,1946-08-00,1946-08-00,"Macromitrium incurvum (Lindb.) Par. KIUSHU, Miyazaki, Minaminaka, Obi, rupicola, photophilia, ca 50 m.",Macromitrium incurvum,A. Noguchi,OCT 1948,,Japan,Miyazaki,Minaminaka,Obi,"KIUSHU, Miyazaki, Minaminaka, Obi, rupicola, photophilia, ca 50 m.",Miyazaki Minaminaka Obi rupicola photophilia ca 50 m,,ca 50 m,,,Typed,no type status
https://fm-digital-assets.fieldmuseum.org/2303/658/C0268569F.jpg,Coll. K. Mayebara,K. Mayebara,N/A,1043529,"December 25, 1951",1951-12-25,N/A,Macromitrium incurvum (Lindb.) Par.,Macromitrium incurvum,A. Noguchi,N/A,N/A,Japan,N/A,N/A,N/A,"On exposed rocks, 60 m. above sea, Yoshio, Kumamoto Prefecture","On exposed rocks, 60 m. above sea, Yoshio, Kumamoto Prefecture",N/A,N/A,N/A,C0268560F,Typed,no type status
https://fm-digital-assets.fieldmuseum.org/2303/661/C0268571F.jpg,"Coll. K. Mayebara, February 11, 1952",K. Mayebara,Det. A. Noguchi,1043490,"February 11, 1952",1952-02-11,N/A,Macromitrium gymnostomum Sull. et Lesq.,Macromitrium gymnostomum,A. Noguchi,N/A,N/A,Japan,N/A,N/A,N/A,"On rocks, ca. 100 m. above sea, Koonose, Kumamoto Prefecture","On rocks at 100 meters above sea level, Koonose, Kumamoto Prefecture",On rocks at 100 meters above sea level,100 m. above sea,N/A,C0266871F,Typed,no type status
https://fm-digital-assets.fieldmuseum.org/2303/663/C0268572F.jpg,Collected by or collectors maybe prefixed by leg. or sometimes legit.,A. Noguchi,N/A,1043493,1932-03-00,1932-03-00,N/A,Musci Japonici,Macromitrium gynostomum,A. Noguchi,1953-03-00,N/A,Japan,Kumamoto,N/A,Hitoyoshi,"On rocks, ca. 100m. alt., Hitoyoshi, Kumamoto County","On rocks, ca. 100m. alt., Hitoyoshi, Kumamoto County",N/A,100m. alt.,N/A,C028857ZF,Typed,no type status
https://fm-digital-assets.fieldmuseum.org/2303/668/C0268574F.jpg,H. H. CHUNG,H. H. CHUNG,N/A,B.206,"Augur, 1925",1925-01-01,N/A,Macromitrium gymnostomum S. & L. Det. Theriot.,Macromitrium gymnostomum,Theriot,N/A,N/A,China,Fukien Province,N/A,Kushan near Foochow,"On rock, altitude 500 m.","On rock, altitude 500 meters.",N/A,altitude 500 m.,N/A,C0268574F,Typed,no type status
https://fm-digital-assets.fieldmuseum.org/2303/669/C0268575F.jpg,H. H. CHUNG,H. H. CHUNG,N/A,No. B.20,"May 2, 1985",1985-05-02,N/A,Macromitrium gymostomum Sull. det. Theriot,Macromitrium gymostomum,Theriot,"May 2, 1985",N/A,China,Fujien Province,N/A,N/A,"On rock in bamboo forest. Theriot, CHUNCHOW",On rock in bamboo forest,N/A,N/A,N/A,C2288575F,Typed,no type status
https://fm-digital-assets.fieldmuseum.org/2303/676/C0268579F.jpg,Dale H. Vitt 1989,Dale H. Vitt,,No: 1142665,23 July 1981,1981-07-23,N/A,Macromitrium longicaule C. Mull.,Macromitrium longicaule,Dale H. Vitt,Dale H. Vitt 1989,,Papua New Guinea,Morobe,,,Wamba 5 km S of Teptep airstrip. Rather open montane forest with dominating Pandanus tregs 1 km S of lake. alt. 2400 m.,Wamba 5 km S of Teptep airstrip. Rather open montane forest with dominating Pandanus tregs 1 km S of lake. alt. 2400 m.,open montane forest with dominating Pandanus,2400 m,"6°01″S, 146°33′E, on stump",Field Museum (F) #33590,Typed,no type status
https://fm-digital-assets.fieldmuseum.org/2303/680/C0268581F.jpg,H. H. Chuang,H. H. Chuang,,1122615,,,,Macromitrium japonicum (Dz. &  Mk.) J.C.M.,Macromitrium japonicum,H. H. Chuang,"March, 1955",,China,Fujien Province,,,"Nanpuao, Anxi","Nanpuao, Anxi",On shady rocks or bark.,,,C0028651F,Typed,no type status
https://fm-digital-assets.fieldmuseum.org/2303/687/C0268585F.jpg,Timo Koponen #3571,Timo Koponen,,1142666,9 July 1981,1981-07-09,N/A,Macromitrium macrosporum Brot. Det: Dale H. Vitt 1989,Macromitrium macrosporum,Dale H. Vitt,1989,,Papua New Guinea,,,,"PAPUA NEW GUINEA. Morobe Prov.: Mt. Sarawaket Southern Range 2,5 km S of L. Gwam. Open alpine grassland and ""subalpine"" forest at L. Kenzorong E of Mt. Enggum, alt. 3550 m, 6°21'14""S, 147°07'E, on bush","Papua New Guinea Morobe Prov.: Mt. Sarawaket Southern Range 2,5 km S of L. Gwam. Open alpine grassland and ""subalpine"" forest at L. Kenzorong E of Mt. Enggum, alt. 3550 m","Open alpine grassland and ""subalpine"" forest at L. Kenzorong E of Mt. Enggum, alt. 3550 m, on bush",3550 m,"6°21'14""S, 147°07'E",,Typed,no type status
https://fm-digital-assets.fieldmuseum.org/2303/691/C0268587F.jpg,M. Mizutani and I. Yoshimura,M. Mizutani,I. Yoshimura,104904S,"Jan. 23, 1975",1975-01-23,N/A,Musci Japonici Exsiccati,Macromitrium gymnostomum,A. Noguchi,N/A,N/A,Japan,N/A,N/A,N/A,"Isil. Triomote, Sonal, 1-10 m alt., on tree trunk","Isil. Triomote, Sonal, 1-10 m alt., on tree trunk",N/A,N/A,N/A,N/A,Typed,N/A
https://fm-digital-assets.fieldmuseum.org/2303/693/C0268588F.jpg,N/A,N/A,N/A,1356480,JUL 1950,1950-07-00,N/A,Macromitrium incurvum (Lindb.),Macromitrium incurvum,N/A,N/A,N/A,Japan,Honshu,Musashi,"prope fauces d. Kobotoke, rupicola, photophila, leg. et det. K. Sakurai","prope fauces d. Kobotoke, rupicola, photophila, leg. et det. K. Sakurai","Honshu Musashi prope fauces d. Kobotoke, rupicola, photophila, leg. et det. K. Sakurai",N/A,N/A,N/A,N/A,Typed,no type status
https://fm-digital-assets.fieldmuseum.org/2303/695/C0268589F.jpg,K. SAITO,K. Saito,N/A,1051109,"April 3, 1970",1970-04-03,N/A,Macromitrium gymnostomum SULL. & LESQ.,Macromitrium gymnostomum,D. A. Noguchi,N/A,N/A,Japan,Kagoshima,N/A,Amami-oshima,On rock; elevation about 120 m.,On rock; elevation about 120 m.,N/A,elevation about 120 m.,N/A,N/A,Typed,no type status
https://fm-digital-assets.fieldmuseum.org/2302/601/C0268725F.jpg,V. et P. Allorge,V. Allorge,P. Allorge,1181624,1937,1937-06-14,1937-06-14,BRYOPHYTA AZORIKA,BRYOPHYTA AZORIKA,V. Allorge,APR 1946,PONATAM URNIGER,Portugal,ILES ACORES,N/A,N/A,SALTO do CAVALO vers 700 m.,SALTO do CAVALO vers 700 m.,N/A,vers 700 m.,N/A,C0266725F,Typed,no type status
https://fm-digital-assets.fieldmuseum.org/2307/796/C0341037F.jpg,Marko Lewis,Marko Lewis,,1100485,20 Jan 1983,1983-01-20,N/A,Philonotis,Philonotis,Marko Lewis,20 Jan 1983,,Bolivia,Depto. La Paz,,,"Prov. Larecaja: 'Tacatacoma 3' Between 5-6 km S of Tacacoma along road to Quiabaya, 16-17 km N of Sorata. 15°36'S, 68°39'W ca. 3550 m.","Between 5-6 km S of Tacacoma along road to Quiabaya, 16-17 km N of Sorata. 15°36'S, 68°39'W ca. 3550 m.",Super humid Ceña de Montana forests following ravines. In small rill in dripping area of small waterfall.,3550 m.,"15°36'S, 68°39'W",C0341037F,Typed,no type status
https://fm-digital-assets.fieldmuseum.org/2307/797/C0341038F.jpg,N/A,N/A,N/A,1078795,29 March 1979,1979-03-29,N/A,Philonotis fide Crum,Philonotis,N/A,N/A,N/A,Bolivia,La Paz,Larecaja,Sorata,"DEPTO. LA PAZ, PROV. LARECAJA: Along road 1 mi. from Sorata towards Achacache, 15° 45’ S., 68° 42’ W.","DEPTO. LA PAZ, PROV. LARECAJA: Along road 1 mi. from Sorata towards Achacache, 15° 45’ S., 68° 42’ W.",N/A,2740 m.,"15° 45’ S., 68° 42’ W.",C0341088F,Typed,no type status
https://fm-digital-assets.fieldmuseum.org/2307/798/C0341040F.jpg,"Marko Lewis, no. 79-2315",Marko Lewis,N/A,C0341040F,1 June 1979,1979-06-01,N/A,Philonotis,Philonotis,N/A,N/A,N/A,Bolivia,Cochabamba,N/A,N/A,"DEPTO. COCHABAMBA, PROV. CHAPARE: Slope of Cerro Khachi, N. of Corrani, 3030 m., 17° 11' 1' S., 65° 54' W. On stones and banks of seepy creek in cloud forest ravine, with tree ferns.","DEPTO. COCHABAMBA, PROV. CHAPARE: Slope of Cerro Khachi, N. of Corrani, 3030 m., 17° 11' 1' S., 65° 54' W. On stones and banks of seepy creek in cloud forest ravine, with tree ferns.","On stones and banks of seepy creek in cloud forest ravine, with tree ferns.",3030 m.,"17° 11' 1' S., 65° 54' W.",N/A,Typed,no type status
https://fm-digital-assets.fieldmuseum.org/2307/803/C0341047F.jpg,Ms W. M. A. BROUWER,Ms W. M. A. BROUWER,N/A,6867,15 Oct.1950,1950-10-15,N/A,N/A,N/A,N/A,N/A,N/A,Bolivia,Unduavi,N/A,N/A,UNDUAVI,UNDUAVI 10000 ft.,N/A,10000 ft.,N/A,1013011,Typed,no type status
https://fm-digital-assets.fieldmuseum.org/2307/804/C0341048F.jpg,Ms W. M. A. Bruton,Ms W. M. A. Bruton,,6865,13 Oct. 1950,1950-10-13,N/A,Phellorins,Phellorins,N/A,N/A,N/A,Bolivia,Unduavi,N/A,N/A,UNDUAVI,Unduavi 10000 ft.,N/A,10000 ft.,N/A,1013012,Typed,no type status
https://fm-digital-assets.fieldmuseum.org/2307/806/C0341051F.jpg,"Marko Lewis, no. 79-2315",Marko Lewis,N/A,1050327,1 June 1979,1979-06-01,N/A,PHILONOTIS,PHILONOTIS,N/A,N/A,N/A,Bolivia,Cochabamba,Chapare,N/A,"DEPTO. COCHABAMBA, PROV. CHAPARE: Slope of Cerro Khachi, N. of Corani, 3030 m, 17° 11' S, 65° 54' W. On stones and banks of seepy creek in cloud forest ravine, with tree ferns.","Slope of Cerro Khachi, north of Corani, Cochabamba, Bolivia","On stones and banks of seepy creek in cloud forest ravine, with tree ferns.",3030 m,"17° 11' S, 65° 54' W",C0341051F,Typed,no type status
https://fm-digital-assets.fieldmuseum.org/2307/879/C0341117F.jpg,Herbarium Eberhard und Pirkko Hegewald (EPH) Moosflora von Peru,Dana Griffin III,N/A,Nr. 6989,31.8.1973,1973-08-31,N/A,Philonotis sphaerocarpa (Hedw.) Brid.,Philonotis sphaerocarpa,Dana Griffin III,N/A,N/A,Peru,Amazonas,N/A,N/A,Prov. Chachapoyas,Province Chachapoyas,"Fels, Erde, Mauer, Baum, Strauch, Holz, See, Bach. Höchste 3000 m.",3000 m.,N/A,1061647,Typed,N/A
https://fm-digital-assets.fieldmuseum.org/2307/513/C0341152F.jpg,"Frank D.Bowers, Claudio Delgado M. & Paul Somers, Jr.",Frank D.Bowers,"Claudio Delgado M. | Paul Somers, Jr.",1045263,25 December 1973,1973-12-25,N/A,Braunia secunda (Hook.) B.S.G.,Braunia secunda,Efrain De Luna,1992,N/A,United States of America,California,San Diego,N/A,"TERRA, BAJA CALIFORNIA SUR: Oak-pine and grass-land with dry and flowing streams at Sierra de Laguna. 15 miles east of Todos Santos. On boulder, meso, open valley.","On boulder, meso, open valley in Baja California Sur, San Diego County",N/A,Alt. ca. 6300 ft.,N/A,C034112E,Typed,no type status
https://fm-digital-assets.fieldmuseum.org/2307/538/C0341164F.jpg,K.R. and E.B. Thornburgh,K.R. Thornburgh,| E.B. Thornburgh,1045248,"June 23, 1973",1973-06-23,N/A,Bryaunia secunda (Hook.) B.S.G.,Bryaunia secunda,A. J. Sparp,N/A,N/A,Mexico,Oaxaca,N/A,N/A,"Near El Punto on Hwy. 175, Oaxaca; Mexico. 1625 m.","Near El Punto on Hwy. 175, Oaxaca; Mexico. 1625 m.","Partial shade, moist side cliff.",1625 m.,N/A,C0541164F,Typed,no type status
https://fm-digital-assets.fieldmuseum.org/2307/547/C0341169F.jpg,"A.J. and E.B. Sharp, E.C. Clebsch, K.R. Thornburgh",A. J. Sharp,J. and E. B. Sharp | E. C. Clebsch | K. R. Thornburgh,2736,"July 4, 1973",1973-07-04,N/A,Braunia andreieuxi Lor. Det. Erain Da Luna 1992 Duke University Herbarium,Braunia secunda,E. Da Luna,1992,,Mexico,Jalisco,N/A,San Martin Hidalgo,"El Mirador on hwy. 80, 9 mi. above San Martin Hidalgo, Jalisco; Mexico.","El Mirador on hwy. 80, 9 miles above San Martin Hidalgo, Jalisco; Mexico.","Partial shade, moist, vert. surface of boulder.",1750 m.,N/A,C0241188F,Typed,no type status
https://fm-digital-assets.fieldmuseum.org/2307/568/C0341179F.jpg,Col. De Luna,De Luna,N/A,10619,"30, Sept., 1908",1908-09-30,N/A,Bryum andreieuxii Lor.,Bryum andreieuxii Lor.,Det. E. De Luna,1992,N/A,Mexico,Jalisco,N/A,N/A,"On rocks near Guadalajara, 6,000 ft.","On rocks near Guadalajara, 6,000 feet",N/A,"6,000 ft.",N/A,10619,Typed,no type status
https://fm-digital-assets.fieldmuseum.org/2307/570/C0341180F.jpg,Donald Richards,Donald Richards,N/A,1045265,N/A,N/A,N/A,Braunia andrieuxii Lor.,Braunia andrieuxii,Det. Erain De Luna,1992,N/A,Mexico,Hidalgo,N/A,N/A,"10627 Braunia plicata, Mitt., var. canescens, Card. n. var. Cuyamaloga.","Mexico Hidalgo 10627 Braunia plicata, Mitt., var. canescens, Card. n. var. Cuyamaloga.",N/A,N/A,N/A,CC041180F,Typed,no type status
https://fm-digital-assets.fieldmuseum.org/2307/619/C0341205F.jpg,Efrain De Luna,Efrain De Luna,N/A,1031423,1992,1992-01-01,N/A,Braunia secunda (Hook.) Bruch & Schimp.,Braunia secunda,Efrain De Luna,1992,N/A,Mexico,Veracruz,N/A,"Edu. Veracruz, Sierra Madre An Der Str. F55","Edu. Veracruz, Sierra Madre An Der Str. F55, Zapote, Jalapa, Kiffner-Eichhorn-Zwetkow Leg. Eggers & Frahn 23.2.79(13)","Edu. Veracruz, Sierra Madre An Der Str. F55, Zapote, Jalapa, Kiffner-Eichhorn-Zwetkow",N/A,N/A,N/A,C0341205F,Typed,no type status
https://fm-digital-assets.fieldmuseum.org/2307/621/C0341207F.jpg,"Frank D.Bowers, Claudio Degavilillo (F.), Det. A.J.Sharp",Frank D. Bowers,Claudio Degavilillo | F. | Det. A.J. Sharp,1036945,30 December 1972,1972-12-30,N/A,Braunia secunda (Hook.) Bruch & Schimp.,Braunia secunda,Det. A.J. Sharp,N/A,N/A,Mexico,Durango,N/A,N/A,"DURANGO: Oak-pine forest with Mairrona along Highway 10 about 9 miles west of La Ciudad. On boulder, partial shade, meso, Ridge.","Durango, Oak-pine forest with Mairrona along Highway 10 about 9 miles west of La Ciudad. On boulder, partial shade, meso, Ridge.","Oak-pine forest with Mairrona along Highway 10 about 9 miles west of La Ciudad. On boulder, partial shade, meso, Ridge.",N/A,N/A,N/A,Typed,no type status
https://fm-digital-assets.fieldmuseum.org/2307/910/C0341213F.jpg,Collected by or collectors may be prefixed by leg. or sometimes legit,A. J. Sharp,N/A,1145,"July 23, 1941",1941-07-23,N/A,Braunia secunda (Hook.) Brug,Braunia secunda,H.A. Crum,N/A,N/A,Mexico,Durango,N/A,N/A,"D.F., Mexico.","Durango, Mexico.","Siliceous boulder in Rio, above Cantreras",N/A,N/A,00341213F,Typed,no type status
https://fm-digital-assets.fieldmuseum.org/2307/712/C0341223F.jpg,Efrain De Luna,Efrain De Luna,N/A,1045274,"Dec. 19, 1972",1972-12-19,N/A,Bryum squarrulosa (Hampe) C. Muell.,Bryum squarrulosa (Hampe) C. Muell.,F. Bowers,N/A,N/A,Mexico,Chiapas,N/A,Tuxtla Gutierrez,"northeast of Tuxtla-Gutierrez, Chiapas, Mexico","northeast of Tuxtla Gutierrez, Chiapas, Mexico","Partial shade, moist, trail side bank",6800 ft,N/A,CO3412323,Typed,no type status
https://fm-digital-assets.fieldmuseum.org/2307/716/C0341228F.jpg,Efrain De Luna,Efrain De Luna,N/A,1052129,"Feb. 9, 1975",1975-02-09,N/A,Braunia squarrulosa (Hampe) C. Muell.,Braunia squarrulosa,F. J. Hermann,"Feb. 9, 1975",N/A,Mexico,Chiapas,N/A,N/A,"On oak trunk in oak-pine woods, alt. 6800 ft., 15 mi. S.E. of San Cristobal de las Casas, Chiapas, Mexico.","On oak trunk in oak-pine woods, at 6800 feet, 15 miles Southeast of San Cristobal de las Casas, Chiapas, Mexico.",N/A,alt. 6800 ft.,N/A,C0341228F,Typed,N/A
https://fm-digital-assets.fieldmuseum.org/2307/719/C0341231F.jpg,"A.J. Sharp, F.D. Bowers, D.K. Smith, R.A. Hattaway, Paul Somers, Jr.",A.J. Sharp,"F.D. Bowers | D.K. Smith | R.A. Hattaway | Paul Somers, Jr.",2980-a,"Dec. 23, 1972",1972-12-23,N/A,Braunia squarrulosa (Hampe) C. Muell.,Braunia squarrulosa,Efrain De Luna,1992,N/A,Mexico,Oaxaca,N/A,N/A,"Dry, full shade, oak branch. Oak-pine woods, Roadside near km. east of Oaxaca. Ayala (about 70 ft. San Pablo Ayala.)","Dry, full shade, oak branch. Oak-pine woods, Roadside near kilometer 70, east of San Pablo Ayala, Oaxaca.","Dry, full shade, oak branch. Oak-pine woods, Roadside near kilometer 70, east of San Pablo Ayala, Oaxaca.",6000 ft.,N/A,CC341231F,Typed,no type status
https://fm-digital-assets.fieldmuseum.org/2307/722/C0341234F.jpg,Det. Efraín Da Luna 1992,Efraín Da Luna,N/A,1089541,APR 1953,1953-04-00,N/A,Braunia squarrulosa (Hampe) C. Muell.,Braunia squarrulosa,Efraín Da Luna,N/A,N/A,Mexico,Jalisco,N/A,N/A,"Slopes of La Ferreira, above Manantlan.","Slopes of La Ferreira, above Manantlan.","On dead limb, fallen. 7300 feet, Oak forest.",7300 feet,N/A,C0541234F,Typed,no type status
https://fm-digital-assets.fieldmuseum.org/2307/724/C0341237F.jpg,Donald Richards,Donald Richards,N/A,1172449,DEC 1945,1945-12-00,N/A,"Braunia squarrulosa (Hamp.) C. Mue. Det. Efraín De Luna, 1992 Duke University Herbarium",Braunia squarrulosa,Efraín De Luna,1992,N/A,Mexico,Mexico City,N/A,N/A,"Mexico, Distrito Federal","Mexico City, Distrito Federal",N/A,"10,000 ft.",N/A,C2041237T,Mixed of Handwritten and Typed,no type status
https://fm-digital-assets.fieldmuseum.org/2307/725/C0341238F.jpg,Det. Efrain De Luna 1992,Efrain De Luna,N/A,1031467,N/A,N/A,N/A,Braunia squarrulosa (Hampe) C. Muell.,Braunia squarrulosa,Efrain De Luna,1992,N/A,Mexico,Chiapas,N/A,N/A,"MEXICO,CHIAPAS, KM 100 AN DER STR.JUCUSINGO-SAN CRISTOBAL EICHEN-KIEFERNW ALD 2250 MSM","KM 100 on the road between JUCUSINGO and SAN CRISTOBAL, near pine and fir forest 2250 meters above sea level",N/A,2250 MSM,N/A,C034128F,Typed,no type status
https://fm-digital-assets.fieldmuseum.org/2307/726/C0341239F.jpg,"Det. Efrain De Luna, 1992",Efrain De Luna,N/A,1031495,s.d.,N/A,N/A,Braunia squarrulosa (Hampe) C. Muell.,Braunia squarrulosa,Efrain De Luna,1992,N/A,Mexico,Chiapas,N/A,N/A,"MEXICO:EDO. CHIAPAS, KM 100 AN DER STR. OCUSINGO-SAN CRISTOBAL EICHEN-KIEFERNW ALD 2250 MSM.",KM 100 an der Strasse Ocúcingo-San Cristóbal Eichen-Kiefernwald 2250 meters above sea level,N/A,2250 MSM,N/A,N/A,Typed,no type status
https://fm-digital-assets.fieldmuseum.org/2307/729/C0341242F.jpg,Ex Herb Fred J. Hermann Dec 1975,F. J. Hermann,N/A,1045277,"February 9, 1975",1975-02-09,N/A,"Braunia squarrulosa (Hampe) C.Muell. Det. Efrain de Luna, 1992",Braunia squarrulosa,Efrain de Luna,1992,N/A,Mexico,Chiapas,N/A,San Cristobal de las Casas,"On oak trunk in oak-pine woods along Route 190, alt. 6800 ft. 15 miles SE.","On oak trunk in oak-pine woods along Route 190, alt. 6800 ft. 15 miles SE.",N/A,alt. 6800 ft.,N/A,C0341242F,Typed,no type status
https://fm-digital-assets.fieldmuseum.org/2307/733/C0341246F.jpg,Duke University Herbarium,Dan Griffin,Mary Isabel Morales,1029423,feb. 1979,1979-02-01,N/A,Brauenia squarrulosa (Hampe) C. Muell,Brauenia squarrulosa,Dana Griffin,1992,N/A,Costa Rica,San Jose,N/A,N/A,Bosque primario montano bajo muy humedo y potreros. Altitud: 2.000 m.,At 2000 m. elevation,Montane primary forest with high humidity and pastures,2000 m,N/A,C0341245F,Typed,no type status
https://fm-digital-assets.fieldmuseum.org/2307/735/C0341248F.jpg,S. Churchill 20792,S. Churchill,,1183435,4 Ago 2001,2001-08-04,2001-08-04,Hedwigiaccae Braunia escerca C. Müller,Braunia escerca,C. Müller,2001-08-04,,Bolivia,Tarija,,,"Entre Rios (carretera a Tarija). Bosque montano Tucumano-Boliviano, remetente. <20792-20809>","On the road to Tarija, montane forest Tucumano-Boliviano, collector's id. <20792-20809>",,2300 m,21°25'S 64°19'W,C004124AF,Typed,no type status
https://fm-digital-assets.fieldmuseum.org/2307/738/C0341251F.jpg,B. Spare,B. Spare,N/A,1136355,27 November 1946,1946-11-27,N/A,"Naturhistoriska Riksmuseet, Stockholm (S) Braunia cirrhofolia (Mitt.) Jaeg.",Braunia cirrhofolia,Det.: W. R. Buck,N/A,N/A,Argentina,Prov. Tucuman,N/A,N/A,"Chiligastá, Rio Cochuna, 1000 m a.s.l.",1000 m a.s.l.,"Subtropical rainforest, epiphyte",1000 m a.s.l.,N/A,C0341251F,Typed,no type status
https://fm-digital-assets.fieldmuseum.org/2307/740/C0341253F.jpg,Det. Efrain De Luna 1992,Efrain De Luna,N/A,1032380,6 April 1979,1979-04-06,N/A,Braunia cirrifilolia (Mitt.) Jaeg.,Braunia cirrifilolia,Det. Efrain De Luna,N/A,N/A,Bolivia,Depto. La Paz,Prov. Larecaja,Canyon 1 km. E. of Cachicata,Canyon 1 km. E. of Cachicata,Canyon 1 km. E. of Cachicata,"In ravine with waterfall, 3250 m.",3250 m.,N/A,C2049123F,Typed,no type status
https://fm-digital-assets.fieldmuseum.org/2307/741/C0341254F.jpg,Marko Lewis 82-303,Marko Lewis,,1091412,9 Dec 1982,1982-12-09,N/A,"Braunia plicata (Mitten) Jaeg. Det. Dana Griffin III, 1990",Braunia plicata,Dana Griffin III,1990,,Bolivia,La Paz,Larecaja,,"DEPTO. LA PAZ: PROV. LARECAJA. ‘Rio Chalusuyu’, a branch of the Rio San Cristobal. 3 km NW of Sorata. 16°44'S, 68°41'W ca. 2450 m.","At base of cliffs near river amongst a boulder pile in a deep canyon, protected area.","Arid woodland and cliff area, many cacti present. Small trees, tree cacti and shrubs in shady.",ca. 2450 m.,"16°44'S, 68°41'W ca. 2450 m.",C08841254F,Typed,no type status
https://fm-digital-assets.fieldmuseum.org/2307/742/C0341255F.jpg,"Marko Lewis, no. 79-1230",Marko Lewis,N/A,1032384,22 March 1979,1979-03-22,N/A,"Braunia plicata (Mitt.) Jaeg. Det. Efraín De Luna, 1992 Duke University Herbarium",Braunia plicata,Efraín De Luna,1992,N/A,Bolivia,La Paz,Larecaja,N/A,"DEPTO. LA PAZ, PROV. LARECAJA: Near large red out-crop 2 mi. from Sorata down Rio Consata, 15° 41' S., 68° 43' W.","DEPTO. LA PAZ, PROV. LARECAJA: Near large red out-crop 2 miles from Sorata down Rio Consata, 15 degrees 41 minutes South, 68 degrees 43 minutes West","Abundant on exposed rock face, 2600 m.",2600 m.,N/A,C0341255F,Typed,no type status
https://fm-digital-assets.fieldmuseum.org/2307/744/C0341257F.jpg,"Marko Lewis, no. 79-947",Marko Lewis,N/A,1032341,5 March 1979,1979-03-05,N/A,Braunia plicata (Mitt.) Jaeg.,Braunia plicata,Efrain De Luna,1992,N/A,Bolivia,DEPTO. LA PAZ,N/A,PROV. SAAVEDRA,"Trail between Charasani and Niho Karine, NNW of Chuma, 15' 11' S, 690 04' W.","Trail between Charasani and Niho Karine, NNW of Chuma, 15' 11' S, 690 04' W.","Banks of trail, 3200-3240 m.",3200-3240 m.,"15' 11' S, 690 04' W",C0041257F,Typed,no type status
https://fm-digital-assets.fieldmuseum.org/2307/745/C0341258F.jpg,Det. Efrain De Luna,Efrain De Luna,N/A,1032381,5 March 1979,1979-03-05,N/A,Braunia plicata (Mitt.) Jaeg.,Braunia plicata,Efrain De Luna,1979-03-05,N/A,Bolivia,La Paz,Saavedra,Charasani,"DEPTO. LA PAZ, PROV. SAAVEDRA: Trail between Charasani and Niño Karine, NW of Chuma, 15' 11' S., 69o 04' W.","DEPTO. LA PAZ, PROV. SAAVEDRA: Trail between Charasani and Niño Karine, NW of Chuma, 15' 11' S., 69° 04' W.",N/A,3200 m.,"15° 11' S., 69° 04' W.",C034123BF,Typed,no type status
https://fm-digital-assets.fieldmuseum.org/2307/750/C0341263F.jpg,"Marko Lewis, no. 79-935",Marko Lewis,N/A,1032366,5 March 1979,1979-03-05,N/A,"Braunia rupestris (Mitt.) Jaeg. Det. Efrain De Luna, Nov. 1991. Duke University Herbarium Hedwigidium integrifolium (P. Beauv.) Dix.",Hedwigidium integrifolium,Efrain De Luna,Nov 1991,Braunia rupestris,Bolivia,LA PAZ,SAAVEDERA,Charasani,"Along bank of trail, 3200 m.","Along bank of trail, 3200 m.",N/A,3200 m.,"Trail between Charasani and Nino Karine, NNW of Chuma, 15'' S., 69'' 04' W.",C0341283F,Typed,no type status
https://fm-digital-assets.fieldmuseum.org/2307/751/C0341264F.jpg,Efrain De Luna,Efrain De Luna,N/A,1032358,Nov. 1991.,1991-11-00,N/A,Braunia rupestris (Mitt.) Jaeg.,Braunia rupestris,Efrain De Luna,Nov. 1991.,N/A,Bolivia,Tarija,N/A,N/A,"DEPTO. TARJA, PROV. MENDEZ. 5 mi. NE of Iscayachi, E. slope of mountains (hike from summit of road into canyon N. of Tarija-Iscayachi Hwy.), 21° 27' S., 64° 54' W.","DEPTO. TARJA, PROV. MENDEZ. 5 mi. NE of Iscayachi, E. slope of mountains (hike from summit of road into canyon N. of Tarija-Iscayachi Hwy.), 21° 27' S., 64° 54' W.",N/A,N/A,N/A,C0041284F,Typed,no type status
https://fm-digital-assets.fieldmuseum.org/2307/752/C0341265F.jpg,N/A,N/A,N/A,1111862,s.d.,N/A,N/A,Braumia secunda (Hook.) B.S.G.,Braunia secunda,Dane Giffin,28 Jan. 1983,N/A,Peru,Depto. Ancash: Prov. Yungay,N/A,N/A,"Ca. 25 NE of Yungay, slopes below Laguna de Llangucanuco. + 3380 m.","Ca. 25 NE of Yungay, slopes below Laguna de Llangucanuco. + 3380 m.",Growing on branches.,3380 m,N/A,C02041265,Typed,no type status
https://fm-digital-assets.fieldmuseum.org/2307/753/C0341266F.jpg,E. De Luna,E. De Luna,,577,3.100-3.200 1985,1985-03-01,1985-03-30,Braunia secunda (Hook.) Br&Schimp. Det. E. De Luna,Braunia secunda,Dana Griffin III,Determined by Dana Griffin III,N/A,Venezuela,Estado Merida,N/A,N/A,"Estado Merida: Quebrada Gavidia, al sur de Mucuchies, entre la Pena La Virgen y el puente de El Porreto, entre el pueblo de Gavidia.","Venezuela, Estado Merida, Quebrada Gavidia, al sur de Mucuchies, entre la Pena La Virgen y el puente de El Porreto, entre el pueblo de Gavidia","Sobre roca + seca, a baja luz",N/A,N/A,PV-1113,Typed,no type status
https://fm-digital-assets.fieldmuseum.org/2307/755/C0341268F.jpg,Efrain De Luna,Efrain De Luna,,1032377,2 February 1979,1979-02-02,1979-02-02,Braunia subincana Broth.,Braunia subincana,Efrain De Luna,1992,,Bolivia,Tarija,,,"DEPTO. TARIJA, PROV. O'CONNOR: Casteon, at summit of mountain above and W. of Entre Rios, along road to Tarija, 21° 28' S., 64° 12' W.","On rocks in dry deciduous forest, 1750 m.",,1750 m.,,C034128BF,Typed,no type status
https://fm-digital-assets.fieldmuseum.org/2307/757/C0341270F.jpg,F. J. Hermann 25278,F. J. Hermann,N/A,1045267,"December 24, 1972",1972-12-24,N/A,"Braunia subincana Brot. Det. Errain De Luna, 1992 Duke University Herbarium",Braunia subincana,Det. Errain De Luna,1992,N/A,Bolivia,Departamento de Cochabamba,N/A,N/A,"From the Province of Chaparé, alt. ca. 9500 ft.","Province of Chapare, Department of Cochabamba, 9500 feet altitude",N/A,alt. ca. 9500 ft.,N/A,C0341270F,Typed,no type status
https://fm-digital-assets.fieldmuseum.org/2308/102/C0341698F.jpg,S.R. Gradstein & M. Lewis 7560,S.R. Gradstein,M. Lewis,220. Racocpilium intermedium Hampe,12 November 1989,1989-11-12,N/A,"BRYOPHYTA NEOTROPICA EXSICCATA Fascicule V (1990) edited by S. Rob Gradstein distributed by the Institute of Systematic Botany, Utrecht",Bryophyta,S. Rob Gradstein,12 November 1989,N/A,Bolivia,Cochapamba,Cochabamba,N/A,"BOLIVIA, Dept. Cochabamba, Prov. Chapare, 5 km S of road Cochabamba – Villa Tunari km 95, alt. 2300 m. On cliff under scrub in area of wet meadows and secondary woodlands.","Bolivia, Chapare, 5 km S of road Cochabamba - Villa Tunari km 95, alt. 2300 m. On cliff under scrub in area of wet meadows and secondary woodlands.",On cliff under scrub in area of wet meadows and secondary woodlands.,alt. 2300 m.,N/A,CO541696F,Typed,no type status
https://fm-digital-assets.fieldmuseum.org/2308/191/C0341739F.jpg,N° 1100456,Marko Lewis,83-503,N° 1100456,7 Feb 1983,1983-02-07,N/A,Racopilum tomentosum (Hedw.) Brid.,Racopilum tomentosum,Marko Lewis,7 Feb 1983,N/A,Bolivia,La Paz,Nor Yungas,Coroico,1 km S of Coroico along road between Coroico and Yolosa.,1 km S of Coroico along road between Coroico and Yolosa.,Fruit and coffee plantations. On rocks in shady fruit orchard.,1650 m.,"16°11'1'', 67°43'W",C0041720F,Typed,no type status
https://fm-digital-assets.fieldmuseum.org/2308/199/C0341763F.jpg,"Ynet Mexia, No. 5281-a",Y Mexia,N/A,5281-a,"Nov. 11, 1930",1930-11-11,N/A,Rhacopium tomentosum (Hedw.) Brid.,Rhacopium tomentosum,det. Bartram,N/A,N/A,Brazil,Minas Gerais,N/A,N/A,Fazenda de F. Lopez. Cut over woods. On rotting log.,Fazenda de F. Lopez. Cut over woods. On rotting log.,N/A,Alt. 720 m.,N/A,C0341763F,Typed,no type status
https://fm-digital-assets.fieldmuseum.org/2308/207/C0341787F.jpg,"S.R. Gradstein, H.A.C. Weber",S. R. Gradstein,H. A. C. Weber,1023912,24.IV.1976,1976-04-24,N/A,Rhacomitrium tomentosum (Hedw.) Brid.,Rhacomitrium tomentosum,W. A. Weber,N/A,N/A,Ecuador,Galápagos,N/A,N/A,"GALAPAGOS ISLANDS. Isla Floreana, Psidium guajava woodlands and pampas east of Cruz Farm, on rather dry shaded rocks.","GALAPAGOS ISLANDS. Isla Floreana, Psidium guajava woodlands and pampas east of Cruz Farm, on rather dry shaded rocks.","Psidium guajava woodlands and pampas east of Cruz Farm, on rather dry shaded rocks.",alt.: 250-350 m,N/A,C0341787E,Typed,no type status
https://fm-digital-assets.fieldmuseum.org/2308/209/C0341789F.jpg,R. & E. Hegewald,R. Hegewald,E. Hegewald,1026724,31.8.1973,1973-08-31,1973-08-31,Racopilum tomentosum (Hedw.) Brid.,Racopilum tomentosum,E. Hegewald,31.8.1973,N/A,Peru,Amazonas,N/A,N/A,Prov.Chachapoyas,In Amazonas,"Fels, Erde, Mauer, Baum, Strauch, Holz, See, Bach, Hohe",m.,N/A,CO341798F,Typed,no type status
https://fm-digital-assets.fieldmuseum.org/2308/214/C0341798F.jpg,J. & P. A. Florschutz,J. Florschutz,|P. A. Florschutz,No. 4715,d. 18.XII.1975,1975-12-18,N/A,Racopilum tomentosum (Hedw.) Brid.,Racopilum tomentosum,P. A. Florschutz|J. Florschutz,d. 18.XII.1975,N/A,Suriname,N/A,N/A,N/A,"Brownsberg, trail to Leo fall. On decaying log.",On decaying log Brownsberg trail to Leo fall.,N/A,N/A,N/A,1028580,Typed,no type status
https://fm-digital-assets.fieldmuseum.org/2308/115/C0341803F.jpg,"E. Linares, S.R. Gradstein and B.O. van Zanten 1543",E. Linares,S. R. Gradstein | B. O. van Zanten,1065598,26 Sept. 1984,1984-09-26,1984-09-26,"BRYOPHYTA  NEOTROPICA EXSICCATA Fascicle II (1986), edited by S. Rob Gradstein distributed by the Institute of Systematic Botany, Utrecht",Racopilium tomentosum,S. Rob Gradstein,26 Sept. 1984,,Colombia,Meta,N/A,Villavicencio,"COLOMBIA. Dept. Meta, Villavicencio, forest of the Bavaria brewery near rio Guaitiquia, alt. 600 m.",Colombia Meta Villavicencio forest of the Bavaria brewery near rio Guaitiquia,On log in forest.,alt. 600 m.,N/A,C034803F,Typed,no type status
https://fm-digital-assets.fieldmuseum.org/2308/218/C0341804F.jpg,N° 1100344,Marko Lewis,83-511,1100344,7 Feb 1983,1983-02-07,N/A,Racopilum tomentosum (Hedw.) Brid.,Racopilum tomentosum,N/A,N/A,N/A,Bolivia,Depto. La Paz,N/A,Prov. Nor Yungas,1 km S of Coroico along road between Coroico and Yolosa.,1 km south of Coroico on road between Coroico and Yolosa,Fruit and coffee plantations. Bark of fruit trees in orchard.,ca. 1650 m.,"16°11'S, 67°43'W",C0394198›F,Typed,no type status
https://fm-digital-assets.fieldmuseum.org/2308/219/C0341805F.jpg,Ynes Mexia,Y. Mexia,N/A,No.8190a,"Sept. 15,1936",1936-09-15,N/A,Rhacopyllum tomentosum (Sw.) Brid.,Rhacopyllum tomentosum,Bartram,N/A,N/A,Peru,Huanuco,N/A,N/A,"Departamento and Provincia Huanuco, Distrito Churubamba, Hacienda Mercedes, Poca Perga, old tree trunk in dense shade","Department and Province Huanuco, District Churubamba, Hacienda Mercedes, Poca Perga, old tree trunk in dense shade",N/A,Alt. 1950 m,N/A,C0341805F,Typed,no type status
https://fm-digital-assets.fieldmuseum.org/2308/220/C0341806F.jpg,"Ynes Mexia, No. 8165a",Ynes Mexia,N/A,8165a,"Sept. 9, 1936",1936-09-09,N/A,Rhacopilum tomentosum (Sw.) Brid.,Rhacopilum tomentosum,Bartram,N/A,N/A,Peru,Departamento and Provincia Huanuco,Distrito Churumbamba,N/A,Hacienda Exito; bank of Rio Ysabel; on rock in wood.,Hacienda Exito; bank of Rio Ysabel; on rock in wood.,N/A,Alt. 1100 m.,N/A,C0341806F,Typed,no type status
https://fm-digital-assets.fieldmuseum.org/2308/221/C0341807F.jpg,"Ynes Mexia, No. 8168a",Y Mexia,N/A,8168a,"Sept. 9, 1936",1936-09-09,N/A,Rhacopililum tomentosum (Sw.) Brid.,Rhacopililum tomentosum,Bartram,det. Bartram,N/A,Peru,Huanuco,N/A,Distrito Chubamba,Distrito Chubamba; Hacienda Exito; bank of Rio Ysabel; on rock in woods.,"Distrito Chubamba, bank of Rio Ysabel, on rock in woods",N/A,Alt. 1100 m.,N/A,1036248,Typed,no type status
https://fm-digital-assets.fieldmuseum.org/2310/761/C0341828F.jpg,"Explorations carried out for the Division of Rubber Plant Investigations, Bureau of Plant Industry, Soils and Agricultural Engineering, United States Department of Agriculture in collaboration with the Caja de Crédito Agrario of Colombia and the Instituto de Ciencias Naturales, Universidad Nacional, Colombia.",Richard Evans Schultes,Isidoro Cabrera,16563,"May 19, 1956",1956-05-19,N/A,"Leucomium lingula Spruce ex Mitt. & Callicostaella aspera (Mitt.) Jaeg. On wet, fallen log.",Leucomium lingula,H. A. Crum,"May 19, 1956",Callicostaella aspera,Colombia,Amazonas,N/A,N/A,Rio Miritiparana: Cafio Guacayas.,Rio Miritiparana: Cafio Guacayas.,"On wet, fallen log.",Altitude about 700 feet.,"Lat. 0° 30' S, Long. 70° 40' W",N/A,Typed,no type status
https://fm-digital-assets.fieldmuseum.org/2310/772/C0341834F.jpg,"Dana Griffin, III, Orlando Rangel y Guido van Reenen",Dana Griffin,Orlando Rangel | Guido van Reenen,1029476,Julio-Agosto 1977,1977-07-01,1977-08-31,Leucomium lignicola Spr. ex Mitt.,Leucomium lignicola,Dana Griffin III,N/A,N/A,Colombia,Departamento de Magdalena,N/A,N/A,Departamento de Magdalena: Parque Nacional de la Sierra Nevada de Santa Marta. Vertiencia de oriente del Rio Buriticá. Bosque nublado montano bajo. Julio-Agosto 1977.,Departamento de Magdalena Parque Nacional de la Sierra Nevada de Santa Marta Vertiencia de oriente del Rio Buriticá Bosque nublado montano bajo Julio-Agosto 1977,N/A,1600-1700 m,N/A,C38418346,Typed,no type status
https://fm-digital-assets.fieldmuseum.org/2311/202/C0341890F.jpg,S.P. Churchill et al. 15466,S. P. Churchill,et al.,1139980,6 July 1987,1987-07-06,N/A,Bryophyuta neotropicales exsiccatae Fascicle VII 330. Trachyxihyphium tenue (Mitt.) Buck (= Hookeriopsis tenue Mitt.) det. S.P. Churchill,Trachyphxiphium tenue,S. P. Churchill,6 July 1987,,Colombia,Antioquia,N/A,Mun. de la Union,"Cerro San Miguel S of San Miguel, 5°55′ N, 75°17' W, alt. 2460-2620 m.",In secondary montane forest,,alt. 2460-2620 m.,"5°55′ N, 75°17' W",C0341890F,Typed,no type status
https://fm-digital-assets.fieldmuseum.org/2310/492/C0341932F.jpg,"Dana Griffin, III, Maria Isabel Morales y Dora Emilia de Retana",Dana Griffin,Maria Isabel Morales y Dora Emilia de Retana,1025621,"Julio 3-4, 1977",1977-07-03,1977-07-04,Hypnella pilifer a (Hook. et Wils.) Jaeg.,Hypnella pilifer a,N/A,N/A,N/A,Costa Rica,Cartago,,,"CARTAGO: Reserva Forestal Tapanti, vertiente oriental del Rio Macho. Bosque muy humedo montano bajo. Alt. 1.340-1.600 m.","Costa Rica, Cartago, Reserva Forestal Tapanti, vertiente oriental del Rio Macho. Bosque muy humedo montano bajo. Alt. 1.340-1.600 m.",On trunk of tree. Alt. 1.600 m.,1.600 m.,N/A,03419327,Typed,no type status
https://fm-digital-assets.fieldmuseum.org/2310/951/C0342106F.jpg,John J. Wurdack,J. J. Wurdack,,34365,Camp 3 - 2,1953-02-11,N/A,Hypnella cymbifolia (Hpe.) Jaeg.,Hypnella cymbifolia,E. B. Bartram,February 11 1953,,Venezuela,Estado Bolivar,N/A,N/A,between Camps 3 and 2,frequent on fallen logs in forest between Camps 3 and 2,N/A,elev. 1250 - 1200 m.,,C03042108E,Typed,no type status
https://fm-digital-assets.fieldmuseum.org/2310/953/C0342107F.jpg,William R. Buck 2445,William R. Buck,Rudolf M. Schuster | Jackie M. Poole | Evandro Soares | Jose Ramos | Cosme Damo A. Mota | Lemuel Pereira Gomes participating,1125861,9-12 July 1979,1979-07-09,1979-07-12,Hookeriopsis parkeriana (Hook. & Grev.) Jaeg.,Hookeriopsis parkeriana,N/A,N/A,N/A,Brazil,Amazonas,N/A,N/A,"Slopes and summit of Serra Curcuriari, from Igarapé Araguaí of the Rio Curcuriari; 100°20', 66°50' W.","Slopes and summit of Serra Curcuriari, from Igarapé Araguaí of the Rio Curcuriari.",On branches at summit.,450 m at summit.,N/A,E00421079,Typed,no type status
https://fm-digital-assets.fieldmuseum.org/2310/974/C0342117F.jpg,Robin B. Fster 4722,Robin B. Fster,N/A,1059405,30 July 1981,1981-07-30,N/A,HYPNELLLA PILIFERA (Hook. & Wils.) Jaeg.,HYPNELLLA PILIFERA (Hook. & Wils.) Jaeg.,W. C. Steere,30 July 1981,N/A,Peru,PASCO,N/A,N/A,"DEPTO. PASCO: E slope of Cordillera Yanachaga, on Tunque- Chuchurras trail, 1900 m., 10°30'S, 75°30'W. In Weinmannia forest.","E slope of Cordillera Yanachaga, on Tunque- Chuchurras trail, 1900 m. In Weinmannia forest.",N/A,1900 m.,"10°30'S, 75°30'W",CX04217F,Typed,no type status
https://fm-digital-assets.fieldmuseum.org/2310/987/C0342123F.jpg,J.W. Fitzpatrick & D.E. Willard s.n.,J. W. Fitzpatrick, | D. E. Willard s.n.,C0342123F,4 Dec. 1981,1981-12-04,N/A,HYPNELLIA PILIFERA (Hook. & Wils.) Jaeg.,HYPNELLIA PILIFERA,W. C. Steere,4 Dec. 1981,N/A,Peru,Cuzco,N/A,N/A,"DEPTO. CUZCO: Slopes above Pillahuata, near km. #126 on Cosñiñipata Hwy., 2850 m., 13°11'S, 71°22'W. Extremely mossy elfin cloud forest near shallow ravine.","DEPTO. CUZCO: Slopes above Pillahuata, near km. #126 on Cosñiñipata Hwy., 2850 m., 13°11'S, 71°22'W. Extremely mossy elfin cloud forest near shallow ravine.",Extremely mossy elfin cloud forest near shallow ravine.,2850 m.,"13°11'S, 71°22'W",No: 1059455,Typed,no type status
https://fm-digital-assets.fieldmuseum.org/2311/048/C0342153F.jpg,S.P. Churchill et al.,S. P. Churchill,et al.,1139992,11 July 1992,1992-07-11,1992-07-11,"BRYOPHVTA NEOTROPICA EXSICCATÆ Fascicle VII (1996), edited by S. Rob Gradstein distributed by the University of Göttingen Herbarium (GOET) 312. Hypnella diversifolia (Mitt.) Jag. det. S.P. Churchill",Hypnella diversifolia,S. P. Churchill,11 July 1992,,Colombia,Antioquia,,"Mun. de Valdivia, road to Pueblo Nuevo, Ventanas","Colombia. Antioquia: Mun. de Valdivia, road to Pueblo Nuevo, Ventanas, 7°5' N, 75°25' W, alt. 1950 m. On talus, in secondary montane forest.","On talus, in secondary montane forest.",,1950 m.,"7°5' N, 75°25' W",C03942153F,Typed,no type status
https://fm-digital-assets.fieldmuseum.org/2311/060/C0342159F.jpg,E. B. Bartram,E. B. Bartram,,34056,1952-53,1952-01-01,1953-12-31,Hypnella cymbifolia (Hpe.) Jaeg. Det. E. B. Bartram,Hypnella cymbifolia,E. B. Bartram,N/A,,Venezuela,Boliviar,N/A,N/A,"Kunhhardt-Witherbee Chimanta Massif Expedition, 1952-53 No. 34056 New Botanical Garden – American Museum of Natural History Estado Bolivar, Venezuela Fruiting scantily on logs. Occasional in rain-forest between Camps 2 and 3, elev. 1200-1250 m.","Fruiting scantily on logs. Occasional in rain-forest between Camps 2 and 3, elev. 1200-1250 m.",Slope forest Tiréo-tepui.,1200-1250 m.,N/A,1026299,Typed,no type status
https://fm-digital-assets.fieldmuseum.org/2311/071/C0342164F.jpg,Robin B. Foster 4720,Robin B. Foster,N/A,1059403,30 July 1981,1981-07-30,N/A,HYPNELLLA PALLESCENS (Hook.) Jaeg.,Hypopterygium pallescens,W. C. Steere,30 July 1981,N/A,Peru,Pasco,N/A,N/A,"on Tunque-Chucurras trail, 1900 m., 10'30'S, 75'30'W. In Weimannmannia forest.","on Tunque-Chucurras trail, 1900 m.",In Weimannmannia forest.,1900 m.,"10'30'S, 75'30'W",C0342164F,Typed,no type status
https://fm-digital-assets.fieldmuseum.org/2311/073/C0342165F.jpg,John J. Wurdak,John J. Wurdak,N/A,31365,February 11 . 1953,1953-02-11,N/A,Hypnella cymbifolia (Hpe.) Jaeg.,Hypnella cymbifolia,E. B. Bartram,February 11 . 1953,N/A,Venezuela,Bolivarian,N/A,N/A,Slope forest Tireopñ-petl. elev. 1250 - 1200 m.,Slope forest Tireopñ-petl. elev. 1250 - 1200 m.,Frequent on fallen logs in forest between Camps 3 and 2.,elev. 1250 - 1200 m.,N/A,C0542165E,Typed,no type status
https://fm-digital-assets.fieldmuseum.org/2314/809/C0342515F.jpg,N/A,N/A,N/A,1084497,N/A,N/A,N/A,Weisia compacta Brid.,Weisia compacta,N/A,N/A,N/A,N/A,N/A,N/A,N/A,Rochers schisteux de la Sobretta (Lambarde),Schists at Sobretta,N/A,N/A,N/A,C02342515F,Typed,no type status
https://fm-digital-assets.fieldmuseum.org/2303/929/C0398471F.jpg,H. INOU,H. Inou,N/A,C0398471F,"Jan. 11, 1973",1973-01-11,N/A,Macromitrium japonicum Doz. et Molk.,Macromitrium japonicum,Z. Iwatsu,N/A,N/A,Japan,Iriomote Isl.,N/A,N/A,"Around Shirahama; Iriomote Isl., the Ryukyu Isls. On bark of Pinus thunbergii; elevation about 10 m.","Around Shirahama, Iriomote Island, the Ryukyu Islands, on bark of Pinus thunbergii, elevation about 10 meters",N/A,elevation about 10 m.,N/A,1021837,Typed,no type status
https://fm-digital-assets.fieldmuseum.org/2298/760/C0399126F.jpg,"E. R. Reitz, N. 2,464",E. R. Reitz,N/A,"N. 2,464",17.12.1948,1948-12-17,N/A,"Campos dos Padres, Bom Retri",Campylopus arctocarpus (Uernsch. Mitt.),E. R. Reitz,1940,N/A,Brazil,Santa Catarina,N/A,Campos dos Padres,"Campos dos Padres, Bom Retri","Campos dos Padres, Bom Retri",Rupestre Erva,Altitud 2.000 m.sm,N/A,C2399128F,Typed,no type status
https://fm-digital-assets.fieldmuseum.org/2298/823/C0399179F.jpg,Frahm,Frahm,N/A,C0591797F,22.7.1977,1977-07-22,N/A,"Campylopus arctocarpus (Hornsch.) Mitt. loc. Sao Paulo, Serra do Bocaina, Leeseite, an der Strasse: Campos da Cunha – Sao José dos Bareiros oec. epiphytisch im Podocarpus-Wald 1200 msm leg. Frahm 22.7.1977 det. Frahm",Campylopus arctocarpus,Frahm,22.7.1977,N/A,Brazil,São Paulo,N/A,N/A,"Sao Paulo, Serra do Bocaina, Leeseite, an der Strasse: Campos da Cunha – Sao José dos Bareiros","Sao Paulo, Serra do Bocaina, Leeseite, an der Strasse: Campos da Cunha – Sao José dos Bareiros",epiphytisch im Podocarpus-Wald 1200 msm,1200,N/A,1026026,Typed,no type status
https://fm-digital-assets.fieldmuseum.org/2298/847/C0399191F.jpg,F. Heitz,F. Heitz,,C0399191F,29.IV.1948,1948-04-29,N/A,Campylopus arctocarpus (Hornsch.) Mitt.,Campylopus arctocarpus,N. Heitz,29.IV.1948,,Brazil,Santa Catarina,,,"Arroio do Bau, Itajaf","Arroio do Bau, Itajaf",Habitat Altitue 200-300 m.m.,200-300 m.m.,,,Typed,no type status
https://fm-digital-assets.fieldmuseum.org/2301/652/C0679833F.jpg,Jan-Peter Frahm,Jan-Peter Frahm,N/A,1097651,s.d.,N/A,N/A,Campylopodies exsiccatae Herausgegeben von Jan-Peter Frahm,Campylopus griseus,Jan-Peter Frahm,N/A,N/A,Brazil,São Paulo,N/A,N/A,"BRASILIEN: São Paulo, Pedra Grande bei Aibaia, Campo-Vegetation im Gipfelbereich, sickerfeuchter Felshang; 1400 m.","Brazil, São Paulo, Pedra Grande near Aibaia, Hillside in summit area, moist rocks; 1400 m.","Camp-Vegetation im Gipfelbereich, sickerfeuchter Felshang",1400 m,N/A,Co87863F,Typed,no type status
https://fm-digital-assets.fieldmuseum.org/2301/660/C0679841F.jpg,Jan-Peter Frahm,Jan-Peter Frahm,N/A,1053590,9.1.1982,1982-01-09,N/A,Campylopus peruvianae Exsiccatae,Campylopus heterostichus,N/A,N/A,N/A,Peru,Amazonas,N/A,N/A,"PERU Dep. Amazonas, Straße Cajamarca - Chachapoyas km 417,5 oberhalb im Nebelwald auf übererdetem Steinblock Leimebamba, 2600 m.","PERU Dep. Amazonas, Straße Cajamarca - Chachapoyas km 417,5 oberhalb im Nebelwald auf übererdetem Steinblock Leimebamba, 2600 m.",N/A,2600 m.,N/A,C0679841F,Typed,no type status
